{"type":"FeatureCollection","features":[{"type":"Feature","id":"relation/272670","properties":{"name":"Monagas","level":4},"geometry":{"type":"Polygon","coordinates":[[[-63.30706,8.78324],[-63.29415,8.78264],[-63.29175,8.77391],[-63.2882,8.77325],[-63.28658,8.76831],[-63.27244,8.76284],[-63.2534,8.76472],[-63.24985,8.76763],[-63.23246,8.77207],[-63.23,8.77511],[-63.22657,8.77432],[-63.21981,8.77055],[-63.21887,8.76558],[-63.2121,8.7633],[-63.20835,8.76583],[-63.21274,8.76027],[-63.20906,8.75731],[-63.15781,8.77626],[-63.10161,8.68921],[-63.0975,8.69099],[-63.09638,8.6836],[-63.09031,8.68431],[-63.08597,8.67129],[-63.02732,8.69733],[-62.94801,8.5357],[-62.721,8.46678],[-62.7229,8.46022],[-62.72988,8.45357],[-62.73073,8.44984],[-62.7283,8.44413],[-62.73018,8.43969],[-62.72861,8.42717],[-62.72422,8.41804],[-62.72527,8.41122],[-62.72052,8.40383],[-62.72215,8.39984],[-62.71517,8.40001],[-62.71696,8.39605],[-62.71411,8.391],[-62.70804,8.39481],[-62.70824,8.39932],[-62.70289,8.39966],[-62.69701,8.39105],[-62.69309,8.3932],[-62.68782,8.38157],[-62.66713,8.38416],[-62.64842,8.39698],[-62.63803,8.40759],[-62.62201,8.43141],[-62.61817,8.4514],[-62.60881,8.46639],[-62.59954,8.47131],[-62.55847,8.47653],[-62.54499,8.50234],[-62.53547,8.51049],[-62.52199,8.51329],[-62.44904,8.51286],[-62.42887,8.51601],[-62.40043,8.52441],[-62.3772,8.53714],[-62.33557,8.56532],[-62.33364,8.57449],[-62.3263,8.58586],[-62.31428,8.59761],[-62.30158,8.60576],[-62.28677,8.60648],[-62.27755,8.59413],[-62.26025,8.58696],[-62.2357,8.59647],[-62.2321,8.63393],[-62.22832,8.64819],[-62.19631,8.67468],[-62.18854,8.69002],[-62.17906,8.69698],[-62.14953,8.70326],[-62.12563,8.71365],[-62.10966,8.73314],[-62.09402,8.74126],[-62.07368,8.74797],[-62.06104,8.76103],[-62.0557,8.78147],[-62.05936,8.8065],[-62.05803,8.81506],[-62.04533,8.82982],[-62.02096,8.84106],[-62.02073,8.84826],[-62.01122,8.86387],[-62.00648,8.8806],[-61.99433,8.88889],[-61.99924,8.89733],[-62.01014,8.89888],[-62.01887,8.89434],[-62.03366,8.88102],[-62.05087,8.87444],[-62.05617,8.87509],[-62.05451,8.88021],[-62.06267,8.91246],[-62.07095,8.92594],[-62.08818,8.96912],[-62.08438,8.98807],[-62.05894,9.02268],[-62.05397,9.03884],[-62.05507,9.05423],[-62.06777,9.05789],[-62.0851,9.07387],[-62.09978,9.08023],[-62.11285,9.06752],[-62.11048,9.04744],[-62.11812,9.04802],[-62.14686,9.06632],[-62.1482,9.07397],[-62.14204,9.08893],[-62.14276,9.09702],[-62.15039,9.10288],[-62.16098,9.10559],[-62.1648,9.10365],[-62.16001,9.09056],[-62.16219,9.08748],[-62.18801,9.08686],[-62.18642,9.07101],[-62.1903,9.06525],[-62.19416,9.06402],[-62.20432,9.06649],[-62.21713,9.0598],[-62.22562,9.05949],[-62.22768,9.06306],[-62.22327,9.08891],[-62.24048,9.09438],[-62.26463,9.11162],[-62.26595,9.11789],[-62.26153,9.12868],[-62.26279,9.13274],[-62.27938,9.13062],[-62.30223,9.13793],[-62.31579,9.12946],[-62.32896,9.12829],[-62.32929,9.15488],[-62.32668,9.16828],[-62.32083,9.1779],[-62.30837,9.18207],[-62.30456,9.1856],[-62.30596,9.20448],[-62.31203,9.21666],[-62.30162,9.22628],[-62.30721,9.23933],[-62.31716,9.24481],[-62.32092,9.2556],[-62.32792,9.26189],[-62.3303,9.28228],[-62.32332,9.2947],[-62.33576,9.30762],[-62.34366,9.32445],[-62.34318,9.33142],[-62.33898,9.33993],[-62.32366,9.35227],[-62.32299,9.36138],[-62.32855,9.37036],[-62.34709,9.38096],[-62.35775,9.39563],[-62.37767,9.39474],[-62.40749,9.40963],[-62.41148,9.4207],[-62.40646,9.43154],[-62.39861,9.46674],[-62.40056,9.47935],[-62.40503,9.48492],[-62.41556,9.48913],[-62.43477,9.48511],[-62.44292,9.49393],[-62.43831,9.517],[-62.44346,9.54186],[-62.43835,9.55329],[-62.42921,9.5663],[-62.41518,9.57722],[-62.3964,9.60297],[-62.36366,9.63691],[-62.35125,9.64674],[-62.34919,9.66794],[-62.35243,9.68884],[-62.32439,9.71669],[-62.31737,9.7327],[-62.30596,9.74844],[-62.30437,9.75922],[-62.29909,9.76531],[-62.2978,9.77238],[-62.30334,9.79162],[-62.33934,9.82266],[-62.35681,9.85653],[-62.35827,9.89538],[-62.35582,9.91238],[-62.34836,9.93233],[-62.34847,9.94435],[-62.35744,9.97017],[-62.3454,10.04536],[-62.35422,10.05388],[-62.36068,10.06782],[-62.37565,10.08929],[-62.39057,10.1011],[-62.40676,10.1083],[-62.43067,10.17486],[-62.4415,10.19806],[-62.45779,10.22246],[-62.4817,10.24619],[-62.51658,10.26723],[-62.55749,10.28745],[-62.59553,10.29799],[-62.62404,10.28486],[-62.63125,10.2792],[-62.63778,10.27025],[-62.64456,10.2509],[-62.64447,10.22337],[-62.63975,10.19963],[-62.62156,10.16897],[-62.61134,10.12436],[-62.61387,10.10919],[-62.62031,10.10146],[-62.63327,10.09499],[-62.66344,10.06947],[-62.69812,10.06094],[-62.72846,10.06035],[-62.73863,10.06791],[-62.74451,10.0789],[-62.75,10.08405],[-62.75828,10.08498],[-62.76996,10.08261],[-62.78051,10.07501],[-62.78742,10.0633],[-62.79034,10.05274],[-62.78689,10.03476],[-62.78884,10.034],[-62.8151,10.03413],[-62.82547,10.0367],[-62.8345,10.05185],[-62.8372,10.07089],[-62.84534,10.07719],[-62.85467,10.07569],[-62.85946,10.05741],[-62.86506,10.05194],[-62.88177,10.05202],[-62.89849,10.05684],[-62.90209,10.06335],[-62.89572,10.07336],[-62.89422,10.08116],[-62.89716,10.09178],[-62.903,10.09499],[-62.91578,10.08999],[-62.93398,10.07535],[-62.9375,10.07702],[-62.94053,10.0868],[-62.94533,10.09265],[-62.95473,10.09588],[-62.9608,10.09537],[-62.97096,10.08947],[-62.97061,10.07657],[-62.97328,10.07056],[-62.9789,10.06853],[-62.98448,10.0698],[-63.00267,10.09212],[-63.02176,10.10133],[-63.03397,10.11527],[-63.04595,10.12239],[-63.04387,10.14083],[-63.05667,10.15703],[-63.05696,10.16265],[-63.05297,10.17337],[-63.06499,10.17781],[-63.06229,10.19527],[-63.06615,10.2011],[-63.07418,10.20205],[-63.08271,10.19957],[-63.08705,10.18743],[-63.09642,10.18396],[-63.10853,10.19092],[-63.1198,10.21128],[-63.12523,10.20473],[-63.14019,10.19927],[-63.14648,10.19452],[-63.14852,10.1888],[-63.1461,10.18178],[-63.1539,10.16295],[-63.17356,10.15687],[-63.17758,10.15049],[-63.1815,10.15104],[-63.18867,10.14357],[-63.19606,10.15942],[-63.21967,10.16791],[-63.22211,10.17317],[-63.22029,10.18692],[-63.22248,10.19338],[-63.22947,10.19076],[-63.25878,10.1904],[-63.26157,10.20065],[-63.26973,10.20407],[-63.2734,10.20861],[-63.28114,10.20696],[-63.28698,10.21184],[-63.29642,10.21123],[-63.30136,10.21488],[-63.31101,10.21539],[-63.31284,10.20926],[-63.31822,10.21247],[-63.32228,10.21055],[-63.33429,10.21127],[-63.34459,10.22996],[-63.35268,10.23479],[-63.35444,10.24465],[-63.36657,10.24229],[-63.37369,10.23783],[-63.38564,10.23946],[-63.39167,10.23783],[-63.399,10.25872],[-63.40221,10.26103],[-63.40393,10.257],[-63.41158,10.25946],[-63.42209,10.25562],[-63.42567,10.25745],[-63.42164,10.27113],[-63.41863,10.27316],[-63.41999,10.28082],[-63.43462,10.28908],[-63.44744,10.28752],[-63.45614,10.29494],[-63.46183,10.2924],[-63.46525,10.29409],[-63.47022,10.29063],[-63.47009,10.29829],[-63.47415,10.30526],[-63.48475,10.30229],[-63.4887,10.29792],[-63.48788,10.29237],[-63.49086,10.29022],[-63.4969,10.29131],[-63.50145,10.28943],[-63.5094,10.29255],[-63.50972,10.29475],[-63.51255,10.29399],[-63.52943,10.28676],[-63.53754,10.2769],[-63.54817,10.27112],[-63.5492,10.26397],[-63.54374,10.25701],[-63.54168,10.24831],[-63.54468,10.24307],[-63.5579,10.2423],[-63.56113,10.24407],[-63.56625,10.22205],[-63.56869,10.21945],[-63.56777,10.21642],[-63.57875,10.2011],[-63.58732,10.19489],[-63.59326,10.1939],[-63.59645,10.20611],[-63.60577,10.21361],[-63.60589,10.21784],[-63.6276,10.21425],[-63.64178,10.22345],[-63.65899,10.21896],[-63.67665,10.20884],[-63.67935,10.21022],[-63.69879,10.20139],[-63.69883,10.19593],[-63.70365,10.19406],[-63.70455,10.19108],[-63.72843,10.18648],[-63.75762,10.17578],[-63.76363,10.17116],[-63.76863,10.17171],[-63.77067,10.16871],[-63.76943,10.165],[-63.77401,10.16317],[-63.77444,10.16055],[-63.7726,10.1442],[-63.78707,10.13702],[-63.79166,10.13583],[-63.7948,10.13765],[-63.81107,10.11953],[-63.80842,10.11452],[-63.81482,10.10393],[-63.82319,10.10562],[-63.82595,10.10935],[-63.83788,10.10574],[-63.84328,10.10764],[-63.84604,10.10585],[-63.84839,10.10887],[-63.85906,10.10539],[-63.8648,10.10696],[-63.9022,10.09274],[-63.916,10.09268],[-63.92344,10.09019],[-63.93346,10.08378],[-63.94307,10.0887],[-63.94982,10.08784],[-63.95863,10.08375],[-63.95999,10.0802],[-63.95657,10.07502],[-63.95923,10.06577],[-63.95452,10.06169],[-63.95526,10.05516],[-63.97877,10.04898],[-63.97571,10.02768],[-63.97022,10.02085],[-63.96164,10.02273],[-63.95467,10.00814],[-63.95583,10.00548],[-63.96412,10.00469],[-63.97421,9.99677],[-63.97868,9.99789],[-63.9863,9.99422],[-63.99429,9.99479],[-63.99848,9.9894],[-64.00339,9.99124],[-64.0048,9.98186],[-64.00198,9.97417],[-64.00509,9.96713],[-63.99869,9.95106],[-63.99561,9.95163],[-63.98832,9.93841],[-63.9842,9.93797],[-63.98349,9.93456],[-63.98896,9.93168],[-63.99028,9.92039],[-63.98756,9.91598],[-63.98523,9.91618],[-63.98767,9.91164],[-63.98704,9.90701],[-63.97897,9.90509],[-63.97708,9.89901],[-63.98682,9.89197],[-63.99763,9.88828],[-63.99459,9.8757],[-63.98721,9.86708],[-63.99405,9.8567],[-63.98816,9.85492],[-63.98399,9.84792],[-63.97727,9.84329],[-63.97257,9.84363],[-63.96682,9.83783],[-63.95662,9.82247],[-63.95293,9.82033],[-63.95034,9.8074],[-63.94512,9.80094],[-63.94631,9.78933],[-63.95119,9.78713],[-63.95112,9.78232],[-63.95637,9.7803],[-63.96165,9.77161],[-63.96121,9.76042],[-63.95781,9.75579],[-63.96177,9.746],[-63.9609,9.74138],[-63.95794,9.7352],[-63.95417,9.73498],[-63.95348,9.7262],[-63.95086,9.72236],[-63.95326,9.71905],[-63.9518,9.71235],[-63.94873,9.71119],[-63.94796,9.70633],[-63.94437,9.70665],[-63.94484,9.70256],[-63.94153,9.70574],[-63.93965,9.70301],[-63.9328,9.70345],[-63.93184,9.7005],[-63.92335,9.69992],[-63.92394,9.69793],[-63.91898,9.69536],[-63.92129,9.68606],[-63.91659,9.63011],[-63.89644,9.62837],[-63.89676,9.62523],[-63.8918,9.6269],[-63.86776,9.60934],[-63.86601,9.60096],[-63.86779,9.57989],[-63.86256,9.57394],[-63.8515,9.56973],[-63.85119,9.56745],[-63.849,9.56903],[-63.84803,9.56268],[-63.84277,9.55517],[-63.83323,9.5591],[-63.82739,9.55729],[-63.82655,9.54773],[-63.82249,9.54261],[-63.83114,9.54388],[-63.83153,9.53451],[-63.83799,9.53472],[-63.84839,9.5274],[-63.86423,9.54389],[-63.86631,9.53827],[-63.85982,9.52723],[-63.86229,9.5188],[-63.86931,9.523],[-63.86964,9.52927],[-63.88455,9.52614],[-63.89256,9.52749],[-63.8995,9.51989],[-63.90435,9.52154],[-63.90764,9.51953],[-63.91205,9.50562],[-63.91596,9.50233],[-63.92487,9.51201],[-63.93015,9.51325],[-63.93252,9.5097],[-63.93302,9.49928],[-63.94075,9.48859],[-63.94439,9.48813],[-63.95039,9.49649],[-63.95387,9.49691],[-63.96654,9.49141],[-63.96307,9.47403],[-63.97338,9.47535],[-63.97974,9.47938],[-63.98359,9.47742],[-63.98587,9.47056],[-63.98411,9.45777],[-63.98744,9.45812],[-63.99376,9.4652],[-63.9983,9.46511],[-63.99526,9.45491],[-64.01229,9.44855],[-64.01165,9.44025],[-64.00821,9.43878],[-64.00202,9.42771],[-64.01186,9.41883],[-64.0185,9.40401],[-64.00792,9.38627],[-64.00759,9.36755],[-64.00227,9.36068],[-63.99972,9.36151],[-63.99949,9.35874],[-63.98885,9.35375],[-63.99158,9.35167],[-63.98993,9.34877],[-63.98197,9.34349],[-63.9789,9.33858],[-63.97174,9.33769],[-63.96695,9.33333],[-63.96419,9.32175],[-63.96116,9.31992],[-63.96246,9.31185],[-63.95495,9.2983],[-63.94428,9.29449],[-63.93883,9.28681],[-63.93946,9.28132],[-63.93504,9.28098],[-63.92757,9.27343],[-63.92228,9.26324],[-63.91946,9.2625],[-63.91728,9.25195],[-63.91161,9.24126],[-63.91513,9.22367],[-63.91548,9.20073],[-63.91189,9.19686],[-63.90611,9.19592],[-63.90219,9.20045],[-63.89071,9.20183],[-63.89043,9.20547],[-63.8862,9.20798],[-63.87277,9.20927],[-63.86831,9.21508],[-63.86119,9.2153],[-63.83777,9.22851],[-63.82749,9.22965],[-63.81993,9.2205],[-63.80664,9.21766],[-63.79781,9.22448],[-63.79184,9.22342],[-63.77504,9.22855],[-63.77073,9.22858],[-63.76478,9.22231],[-63.75746,9.22447],[-63.75078,9.21857],[-63.7423,9.20503],[-63.74297,9.2001],[-63.73392,9.19642],[-63.72296,9.20045],[-63.72124,9.19841],[-63.71603,9.19895],[-63.70923,9.18854],[-63.69509,9.18378],[-63.69686,9.17733],[-63.68804,9.17108],[-63.6887,9.16791],[-63.68584,9.16725],[-63.68547,9.16335],[-63.67959,9.16811],[-63.67632,9.1651],[-63.6771,9.16074],[-63.68076,9.15762],[-63.67508,9.16075],[-63.67435,9.15767],[-63.67037,9.16129],[-63.66909,9.15482],[-63.6665,9.15844],[-63.6599,9.1605],[-63.65401,9.15722],[-63.65242,9.15361],[-63.65179,9.15934],[-63.64687,9.15679],[-63.64154,9.15746],[-63.63589,9.14898],[-63.63371,9.15186],[-63.63096,9.15097],[-63.62488,9.15449],[-63.60809,9.14472],[-63.60662,9.14017],[-63.60851,9.13419],[-63.60304,9.13382],[-63.60101,9.12198],[-63.60334,9.12013],[-63.60626,9.12255],[-63.61004,9.11607],[-63.60728,9.11505],[-63.60765,9.11034],[-63.60462,9.10952],[-63.60564,9.10683],[-63.60202,9.10524],[-63.60225,9.10204],[-63.59851,9.10106],[-63.60026,9.09793],[-63.59699,9.09756],[-63.59672,9.10087],[-63.59268,9.10399],[-63.58809,9.09973],[-63.58879,9.10504],[-63.58238,9.10421],[-63.57978,9.10751],[-63.56722,9.10437],[-63.56576,9.10201],[-63.56989,9.09673],[-63.56641,9.0928],[-63.56392,9.09194],[-63.55945,9.09488],[-63.55605,9.08838],[-63.54872,9.08853],[-63.54678,9.08555],[-63.54425,9.08776],[-63.54537,9.09285],[-63.54108,9.09233],[-63.53317,9.08237],[-63.53405,9.0768],[-63.53107,9.07881],[-63.52613,9.07468],[-63.52249,9.07626],[-63.52735,9.06871],[-63.52071,9.0669],[-63.52052,9.07056],[-63.51649,9.0702],[-63.51785,9.07524],[-63.51382,9.06986],[-63.51033,9.07268],[-63.50946,9.07045],[-63.51301,9.06506],[-63.50225,9.04879],[-63.49053,9.05639],[-63.49376,9.0603],[-63.48495,9.05798],[-63.48204,9.04802],[-63.48538,9.04707],[-63.48275,9.04444],[-63.48812,9.04397],[-63.49068,9.03422],[-63.48431,9.03589],[-63.47638,9.03251],[-63.47503,9.01778],[-63.4721,9.01703],[-63.46861,9.02441],[-63.46584,9.01644],[-63.4586,9.01226],[-63.45969,9.01798],[-63.45606,9.01968],[-63.45613,9.02387],[-63.45305,9.02617],[-63.4502,9.02313],[-63.45023,9.01361],[-63.44345,9.00461],[-63.439,9.00464],[-63.43337,9.01374],[-63.43052,9.01408],[-63.42708,9.01148],[-63.42834,9.00527],[-63.42604,9.00255],[-63.4211,9.00262],[-63.41558,8.99771],[-63.40887,8.99792],[-63.4073,8.99375],[-63.40095,8.99301],[-63.39853,8.98904],[-63.396,8.98995],[-63.39403,8.98541],[-63.39244,8.99029],[-63.38779,8.98887],[-63.38523,8.9836],[-63.38913,8.97584],[-63.3852,8.97666],[-63.38504,8.97314],[-63.38097,8.97436],[-63.38031,8.972],[-63.38244,8.97189],[-63.38119,8.96624],[-63.38356,8.96409],[-63.37977,8.96569],[-63.38006,8.96376],[-63.37148,8.95639],[-63.36947,8.95151],[-63.37143,8.94991],[-63.36518,8.94915],[-63.36704,8.94729],[-63.36466,8.94683],[-63.35987,8.90095],[-63.30706,8.78324]]]}}]}