{"type":"FeatureCollection","features":[{"type":"Feature","id":"relation/11089535","properties":{"name":"Municipio Piar","level":6,"population":"46610"},"geometry":{"type":"Polygon","coordinates":[[[-63.52298,9.89405],[-63.51505,9.89066],[-63.51486,9.88674],[-63.50681,9.88084],[-63.50887,9.87838],[-63.50653,9.8722],[-63.50957,9.86793],[-63.50836,9.86105],[-63.501,9.85366],[-63.49419,9.8527],[-63.49228,9.83958],[-63.49447,9.83744],[-63.49355,9.83126],[-63.49758,9.82024],[-63.49504,9.81299],[-63.49569,9.80604],[-63.48647,9.81113],[-63.47325,9.80315],[-63.46929,9.80376],[-63.46192,9.79516],[-63.45274,9.79628],[-63.44857,9.79099],[-63.44149,9.79201],[-63.44026,9.78811],[-63.43255,9.78566],[-63.4318,9.78717],[-63.42945,9.78369],[-63.42341,9.78562],[-63.41978,9.78047],[-63.41341,9.78516],[-63.41005,9.78319],[-63.40509,9.78504],[-63.40024,9.78204],[-63.39533,9.78439],[-63.3933,9.78247],[-63.39122,9.78544],[-63.38123,9.78724],[-63.38192,9.7911],[-63.37719,9.78939],[-63.3689,9.79321],[-63.36662,9.79113],[-63.36375,9.79442],[-63.35148,9.79041],[-63.34157,9.79597],[-63.32185,9.7889],[-63.32075,9.78633],[-63.31514,9.78731],[-63.31197,9.78413],[-63.30727,9.78442],[-63.30612,9.78847],[-63.30058,9.78847],[-63.29995,9.79178],[-63.30505,9.7986],[-63.31318,9.80026],[-63.31358,9.81691],[-63.30871,9.81339],[-63.30543,9.82286],[-63.31357,9.82778],[-63.31631,9.83499],[-63.32885,9.84101],[-63.33184,9.85732],[-63.3271,9.85958],[-63.31572,9.85785],[-63.29284,9.85018],[-63.27506,9.85199],[-63.28131,9.85905],[-63.27978,9.86497],[-63.27524,9.86551],[-63.27163,9.85944],[-63.26493,9.8614],[-63.26536,9.86447],[-63.26095,9.86432],[-63.25733,9.86079],[-63.24642,9.86236],[-63.22648,9.85979],[-63.22287,9.86347],[-63.22182,9.86931],[-63.21742,9.87042],[-63.21311,9.87802],[-63.20283,9.88124],[-63.19739,9.88521],[-63.19185,9.89393],[-63.1847,9.89773],[-63.1957,9.90112],[-63.19647,9.89881],[-63.20063,9.90034],[-63.21375,9.89687],[-63.2223,9.90925],[-63.22425,9.90731],[-63.23088,9.91326],[-63.23721,9.91207],[-63.24504,9.91501],[-63.25802,9.92491],[-63.26366,9.92531],[-63.26801,9.93175],[-63.27553,9.93633],[-63.27832,9.93439],[-63.27846,9.93615],[-63.28797,9.93916],[-63.29128,9.93924],[-63.29167,9.93706],[-63.29611,9.93943],[-63.29695,9.94249],[-63.29228,9.94907],[-63.29652,9.96085],[-63.29368,9.96672],[-63.28639,9.97148],[-63.28711,9.97887],[-63.29324,9.97804],[-63.29802,9.9807],[-63.29632,9.98498],[-63.29968,9.98586],[-63.29532,9.99414],[-63.30333,10.01035],[-63.29886,10.0195],[-63.30192,10.02624],[-63.31319,10.03232],[-63.3152,10.03605],[-63.32187,10.03484],[-63.32926,10.03678],[-63.32827,10.03984],[-63.33399,10.04216],[-63.33336,10.05337],[-63.32761,10.06004],[-63.3277,10.06802],[-63.32273,10.0711],[-63.32367,10.07422],[-63.33456,10.07862],[-63.33862,10.08813],[-63.34394,10.09091],[-63.35394,10.09092],[-63.38264,10.0849],[-63.38997,10.09982],[-63.39508,10.10034],[-63.39935,10.10657],[-63.40441,10.10781],[-63.40695,10.10545],[-63.43127,10.10456],[-63.43399,10.10278],[-63.4367,10.10597],[-63.43613,10.10994],[-63.44116,10.11206],[-63.4538,10.10512],[-63.45237,10.11226],[-63.44818,10.11758],[-63.45351,10.13783],[-63.46032,10.14085],[-63.46428,10.13841],[-63.47671,10.1413],[-63.49343,10.13375],[-63.5018,10.12163],[-63.50891,10.12242],[-63.51123,10.12846],[-63.51693,10.12756],[-63.52057,10.13046],[-63.52325,10.128],[-63.53622,10.12621],[-63.53831,10.12249],[-63.54464,10.11894],[-63.54982,10.1195],[-63.5582,10.11286],[-63.56215,10.11995],[-63.56707,10.12168],[-63.56461,10.12513],[-63.56784,10.13029],[-63.57322,10.12627],[-63.5799,10.11223],[-63.61794,10.10305],[-63.61897,10.09033],[-63.63076,10.07196],[-63.6282,10.06696],[-63.6213,10.06619],[-63.61724,10.06212],[-63.61608,10.05107],[-63.61217,10.04682],[-63.6051,10.0466],[-63.59292,10.05296],[-63.58996,10.04941],[-63.58746,10.03832],[-63.59211,10.02246],[-63.5854,10.01991],[-63.57971,10.00353],[-63.58521,9.99643],[-63.57854,9.99268],[-63.57377,9.98096],[-63.57575,9.97563],[-63.57201,9.97226],[-63.56856,9.96341],[-63.56317,9.95881],[-63.56409,9.95027],[-63.56772,9.9481],[-63.57744,9.92819],[-63.57158,9.92559],[-63.56868,9.91855],[-63.55808,9.90597],[-63.54562,9.8997],[-63.54533,9.89763],[-63.5416,9.8982],[-63.5411,9.89333],[-63.53103,9.89755],[-63.53029,9.89523],[-63.52298,9.89405]]]}},{"type":"Feature","id":"relation/11089536","properties":{"name":"Municipio Punceres","level":6,"population":"27954"},"geometry":{"type":"Polygon","coordinates":[[[-63.1847,9.89773],[-63.17819,9.89942],[-63.17492,9.89622],[-63.16716,9.89837],[-63.15821,9.89737],[-63.1507,9.90226],[-63.14681,9.89935],[-63.14569,9.90252],[-63.14485,9.90038],[-63.13295,9.90491],[-63.13172,9.90116],[-63.12431,9.89542],[-63.12198,9.89861],[-63.11609,9.89394],[-63.11105,9.89594],[-63.10438,9.89423],[-63.1036,9.89141],[-63.10007,9.89172],[-63.09778,9.88832],[-63.08924,9.88954],[-63.0898,9.88518],[-63.08732,9.88659],[-63.08308,9.88371],[-63.07919,9.88579],[-63.07757,9.88404],[-63.07224,9.88765],[-63.06415,9.88732],[-63.061,9.89305],[-63.05388,9.89618],[-63.05282,9.90154],[-63.04798,9.90364],[-63.05012,9.90716],[-63.04745,9.91493],[-62.94888,10.04032],[-62.94414,10.04222],[-62.94072,10.03541],[-62.941,10.02916],[-62.9377,10.0318],[-62.93445,10.0421],[-62.93049,10.04634],[-62.92972,10.05507],[-62.94181,10.08908],[-62.9463,10.09326],[-62.95473,10.09588],[-62.9679,10.09269],[-62.97159,10.08773],[-62.97166,10.07275],[-62.97481,10.06943],[-62.97989,10.06852],[-62.98623,10.07114],[-63.00267,10.09212],[-63.01143,10.09574],[-63.01804,10.0415],[-63.06095,10.0346],[-63.06533,10.03979],[-63.07117,10.03706],[-63.08146,10.04087],[-63.08866,10.03754],[-63.0925,10.03801],[-63.09281,10.04077],[-63.09834,10.03981],[-63.09883,10.03409],[-63.10575,10.02956],[-63.10816,10.02267],[-63.11382,10.02032],[-63.11495,10.0222],[-63.12127,10.01721],[-63.12733,10.01757],[-63.1294,10.01062],[-63.13433,10.0094],[-63.13742,10.01526],[-63.1443,10.01352],[-63.14649,10.01648],[-63.1456,10.02038],[-63.14968,10.01945],[-63.15336,10.02175],[-63.15601,10.03781],[-63.15418,10.0389],[-63.15413,10.0463],[-63.1698,10.07093],[-63.17643,10.0749],[-63.1819,10.08779],[-63.19143,10.09046],[-63.19233,10.09412],[-63.20287,10.10007],[-63.20948,10.09633],[-63.21826,10.10338],[-63.22433,10.10503],[-63.22808,10.11235],[-63.23758,10.11994],[-63.24218,10.12058],[-63.24606,10.11705],[-63.24164,10.10754],[-63.24306,10.10035],[-63.24972,10.09393],[-63.25642,10.09269],[-63.25693,10.08641],[-63.26438,10.08349],[-63.27024,10.07742],[-63.27388,10.07586],[-63.28334,10.07744],[-63.28573,10.07399],[-63.29601,10.07559],[-63.2965,10.07229],[-63.30103,10.07278],[-63.3052,10.06599],[-63.31285,10.07258],[-63.32601,10.06965],[-63.32761,10.06004],[-63.33336,10.05337],[-63.33399,10.04216],[-63.32827,10.03984],[-63.32926,10.03678],[-63.32187,10.03484],[-63.3152,10.03605],[-63.31319,10.03232],[-63.30192,10.02624],[-63.29886,10.0195],[-63.30333,10.01035],[-63.29532,9.99414],[-63.29968,9.98586],[-63.29632,9.98498],[-63.29802,9.9807],[-63.29324,9.97804],[-63.28711,9.97887],[-63.28639,9.97148],[-63.29368,9.96672],[-63.29652,9.96085],[-63.29228,9.94907],[-63.29695,9.94249],[-63.29611,9.93943],[-63.29167,9.93706],[-63.29128,9.93924],[-63.28797,9.93916],[-63.27846,9.93615],[-63.27832,9.93439],[-63.27553,9.93633],[-63.26801,9.93175],[-63.26366,9.92531],[-63.25802,9.92491],[-63.24504,9.91501],[-63.23721,9.91207],[-63.23088,9.91326],[-63.22425,9.90731],[-63.2223,9.90925],[-63.21375,9.89687],[-63.20063,9.90034],[-63.19647,9.89881],[-63.1957,9.90112],[-63.1847,9.89773]]]}},{"type":"Feature","id":"relation/11089537","properties":{"name":"Municipio Bol\u00edvar","level":6,"population":"38648"},"geometry":{"type":"Polygon","coordinates":[[[-63.05848,10.03521],[-63.01804,10.0415],[-63.01143,10.09574],[-63.02309,10.10235],[-63.03397,10.11527],[-63.04595,10.12239],[-63.04366,10.14],[-63.05667,10.15703],[-63.05696,10.16265],[-63.05297,10.17337],[-63.06499,10.17781],[-63.0623,10.19434],[-63.06463,10.20011],[-63.07143,10.20214],[-63.08271,10.19957],[-63.08705,10.18743],[-63.09642,10.18396],[-63.10853,10.19092],[-63.1198,10.21128],[-63.12523,10.20473],[-63.14019,10.19927],[-63.14648,10.19452],[-63.14852,10.1888],[-63.1461,10.18178],[-63.1539,10.16295],[-63.17356,10.15687],[-63.17758,10.15049],[-63.1815,10.15104],[-63.18812,10.14362],[-63.19606,10.15942],[-63.21967,10.16791],[-63.21683,10.15926],[-63.22282,10.1536],[-63.22246,10.1418],[-63.2293,10.12852],[-63.23758,10.11994],[-63.22808,10.11235],[-63.22433,10.10503],[-63.21826,10.10338],[-63.20948,10.09633],[-63.20287,10.10007],[-63.19233,10.09412],[-63.19143,10.09046],[-63.1819,10.08779],[-63.17643,10.0749],[-63.1698,10.07093],[-63.15413,10.0463],[-63.15418,10.0389],[-63.15601,10.03781],[-63.1534,10.02183],[-63.14968,10.01945],[-63.1456,10.02038],[-63.14537,10.01431],[-63.1382,10.01548],[-63.13455,10.00945],[-63.12981,10.01026],[-63.12733,10.01757],[-63.12127,10.01721],[-63.11495,10.0222],[-63.11382,10.02032],[-63.10816,10.02267],[-63.10575,10.02956],[-63.09883,10.03409],[-63.09937,10.03894],[-63.09428,10.04086],[-63.09173,10.03762],[-63.08157,10.04088],[-63.07117,10.03706],[-63.06533,10.03979],[-63.06191,10.03517],[-63.05848,10.03521]]]}},{"type":"Feature","id":"relation/11089538","properties":{"name":"Municipio Caripe","level":6,"population":"33738"},"geometry":{"type":"Polygon","coordinates":[[[-63.61794,10.10305],[-63.5799,10.11223],[-63.57322,10.12627],[-63.56784,10.13029],[-63.56461,10.12513],[-63.56707,10.12168],[-63.56215,10.11995],[-63.5582,10.11286],[-63.54982,10.1195],[-63.54464,10.11894],[-63.53831,10.12249],[-63.53622,10.12621],[-63.52325,10.128],[-63.52057,10.13046],[-63.51693,10.12756],[-63.51141,10.12858],[-63.50944,10.12277],[-63.50197,10.12158],[-63.49343,10.13375],[-63.48028,10.14102],[-63.46428,10.13841],[-63.46032,10.14085],[-63.45351,10.13783],[-63.44921,10.12453],[-63.45072,10.12386],[-63.44872,10.11492],[-63.45237,10.11226],[-63.4538,10.10512],[-63.44116,10.11206],[-63.43613,10.10994],[-63.4367,10.10597],[-63.43399,10.10278],[-63.43127,10.10456],[-63.40695,10.10545],[-63.40441,10.10781],[-63.39935,10.10657],[-63.39551,10.10059],[-63.38944,10.09919],[-63.38264,10.0849],[-63.35394,10.09092],[-63.34361,10.09083],[-63.33862,10.08813],[-63.33456,10.07862],[-63.32367,10.07422],[-63.32273,10.0711],[-63.31285,10.07258],[-63.3052,10.06599],[-63.30103,10.07278],[-63.2965,10.07229],[-63.29601,10.07559],[-63.28573,10.07399],[-63.28334,10.07744],[-63.27388,10.07586],[-63.27024,10.07742],[-63.26438,10.08349],[-63.25693,10.08641],[-63.25642,10.09269],[-63.24972,10.09393],[-63.24306,10.10035],[-63.24164,10.10754],[-63.24606,10.11705],[-63.24218,10.12058],[-63.23758,10.11994],[-63.2293,10.12852],[-63.22246,10.1418],[-63.22282,10.1536],[-63.21683,10.15926],[-63.22211,10.17317],[-63.22044,10.18823],[-63.22248,10.19338],[-63.22947,10.19076],[-63.25878,10.1904],[-63.26157,10.20065],[-63.26973,10.20407],[-63.2734,10.20861],[-63.28114,10.20696],[-63.28698,10.21184],[-63.29642,10.21123],[-63.30136,10.21488],[-63.31101,10.21539],[-63.31284,10.20926],[-63.31822,10.21247],[-63.32228,10.21055],[-63.33429,10.21127],[-63.34459,10.22996],[-63.35268,10.23479],[-63.35444,10.24465],[-63.36657,10.24229],[-63.37369,10.23783],[-63.38564,10.23946],[-63.39167,10.23783],[-63.399,10.25872],[-63.40221,10.26103],[-63.40393,10.257],[-63.41158,10.25946],[-63.42209,10.25562],[-63.42567,10.25745],[-63.42164,10.27113],[-63.41863,10.27316],[-63.41999,10.28082],[-63.43462,10.28908],[-63.44744,10.28752],[-63.45614,10.29494],[-63.46183,10.2924],[-63.46525,10.29409],[-63.47022,10.29063],[-63.47009,10.29829],[-63.47415,10.30526],[-63.48475,10.30229],[-63.4887,10.29792],[-63.48788,10.29237],[-63.49086,10.29022],[-63.4969,10.29131],[-63.50145,10.28943],[-63.5094,10.29255],[-63.50972,10.29475],[-63.51255,10.29399],[-63.52943,10.28676],[-63.53754,10.2769],[-63.54817,10.27112],[-63.5492,10.26397],[-63.54374,10.25701],[-63.54168,10.24831],[-63.54468,10.24307],[-63.5579,10.2423],[-63.56113,10.24407],[-63.56625,10.22205],[-63.56869,10.21945],[-63.56777,10.21642],[-63.57668,10.20641],[-63.5768,10.20332],[-63.61205,10.17706],[-63.6152,10.17567],[-63.61938,10.17896],[-63.6235,10.17787],[-63.63611,10.16779],[-63.6389,10.15116],[-63.63451,10.14284],[-63.62375,10.13925],[-63.6223,10.13362],[-63.61557,10.13556],[-63.60612,10.13299],[-63.60748,10.12974],[-63.6162,10.12569],[-63.61775,10.12119],[-63.62183,10.1191],[-63.62314,10.1131],[-63.61856,10.10814],[-63.61794,10.10305]]]}},{"type":"Feature","id":"relation/11089539","properties":{"name":"Municipio Acosta","level":6,"population":"18218"},"geometry":{"type":"Polygon","coordinates":[[[-63.61794,10.10305],[-63.61856,10.10814],[-63.62314,10.1131],[-63.62183,10.1191],[-63.61775,10.12119],[-63.6162,10.12569],[-63.60748,10.12974],[-63.60612,10.13299],[-63.61557,10.13556],[-63.6223,10.13362],[-63.62375,10.13925],[-63.63451,10.14284],[-63.6389,10.15116],[-63.63611,10.16779],[-63.6235,10.17787],[-63.61938,10.17896],[-63.6152,10.17567],[-63.61205,10.17706],[-63.59245,10.19131],[-63.59235,10.19349],[-63.59645,10.20611],[-63.60577,10.21361],[-63.60589,10.21784],[-63.6276,10.21425],[-63.64178,10.22345],[-63.65899,10.21896],[-63.67665,10.20884],[-63.67935,10.21022],[-63.69879,10.20139],[-63.69883,10.19593],[-63.70365,10.19406],[-63.70455,10.19108],[-63.72843,10.18648],[-63.75762,10.17578],[-63.76363,10.17116],[-63.76863,10.17171],[-63.77067,10.16871],[-63.76943,10.165],[-63.77401,10.16317],[-63.77444,10.16055],[-63.7726,10.1442],[-63.78707,10.13702],[-63.79166,10.13583],[-63.7948,10.13765],[-63.81107,10.11953],[-63.80842,10.11452],[-63.81482,10.10393],[-63.82319,10.10562],[-63.82595,10.10935],[-63.83788,10.10574],[-63.84328,10.10764],[-63.84604,10.10585],[-63.84839,10.10887],[-63.85906,10.10539],[-63.86995,10.10612],[-63.9022,10.09274],[-63.916,10.09268],[-63.92344,10.09019],[-63.93346,10.08378],[-63.92312,10.08069],[-63.91877,10.07311],[-63.91293,10.07233],[-63.90978,10.06716],[-63.90888,10.05292],[-63.9046,10.05083],[-63.89435,10.05386],[-63.89136,10.04788],[-63.89592,10.04219],[-63.89727,10.03284],[-63.90023,10.02872],[-63.87849,10.02844],[-63.8701,10.0336],[-63.85579,10.03734],[-63.85173,10.04191],[-63.84298,10.04582],[-63.83491,10.04132],[-63.82977,10.04156],[-63.82741,10.03241],[-63.81868,10.02686],[-63.81349,10.02834],[-63.80992,10.02173],[-63.8019,10.01604],[-63.79218,10.02135],[-63.79175,10.02411],[-63.77302,10.03362],[-63.77273,10.03698],[-63.7483,10.04126],[-63.73544,10.04788],[-63.72992,10.04758],[-63.72523,10.04407],[-63.72339,10.04667],[-63.72035,10.04397],[-63.72473,10.03924],[-63.72146,10.04054],[-63.71671,10.03767],[-63.71441,10.03049],[-63.70898,10.03023],[-63.70944,10.02775],[-63.69222,10.03329],[-63.69122,10.03097],[-63.68286,10.02865],[-63.67137,10.03713],[-63.66409,10.03645],[-63.64734,10.04793],[-63.62923,10.06803],[-63.63076,10.07196],[-63.61897,10.09033],[-63.61794,10.10305]]]}},{"type":"Feature","id":"relation/11089540","properties":{"name":"Municipio Cede\u00f1o","level":6,"population":"34463"},"geometry":{"type":"Polygon","coordinates":[[[-63.80164,9.53923],[-63.79358,9.541],[-63.78684,9.55785],[-63.7702,9.55686],[-63.77974,9.5803],[-63.75808,9.60311],[-63.76591,9.61843],[-63.76116,9.62045],[-63.76437,9.63748],[-63.76071,9.63813],[-63.76046,9.64347],[-63.75708,9.64341],[-63.75725,9.70063],[-63.75366,9.72742],[-63.72517,9.71743],[-63.71104,9.7296],[-63.70339,9.73026],[-63.69078,9.73761],[-63.68709,9.74569],[-63.67371,9.7402],[-63.65705,9.75091],[-63.65045,9.74312],[-63.64763,9.75064],[-63.63206,9.7398],[-63.62816,9.72609],[-63.61185,9.72784],[-63.61297,9.72561],[-63.59708,9.72253],[-63.58886,9.7218],[-63.58786,9.72471],[-63.57285,9.72385],[-63.57231,9.7205],[-63.56769,9.72219],[-63.56082,9.70472],[-63.55185,9.70358],[-63.54971,9.68103],[-63.54321,9.67514],[-63.54041,9.66604],[-63.53487,9.66431],[-63.5313,9.65744],[-63.52362,9.65245],[-63.51996,9.63597],[-63.51756,9.63512],[-63.5111,9.64001],[-63.49647,9.63769],[-63.49514,9.64134],[-63.49292,9.63857],[-63.48707,9.64001],[-63.48216,9.63772],[-63.47962,9.64375],[-63.47486,9.64564],[-63.47561,9.64944],[-63.47248,9.65103],[-63.47382,9.65276],[-63.47103,9.65295],[-63.46958,9.65723],[-63.46902,9.697],[-63.4651,9.70206],[-63.46685,9.71615],[-63.46974,9.71629],[-63.46785,9.71727],[-63.46899,9.72166],[-63.47127,9.72075],[-63.47193,9.72488],[-63.47406,9.72355],[-63.47423,9.72678],[-63.4773,9.72695],[-63.47407,9.7403],[-63.47688,9.74558],[-63.483,9.74672],[-63.48829,9.75367],[-63.48499,9.75913],[-63.48777,9.76175],[-63.48375,9.77489],[-63.48788,9.77328],[-63.49123,9.77802],[-63.4977,9.78085],[-63.4946,9.78429],[-63.49581,9.78967],[-63.49374,9.79457],[-63.49758,9.82024],[-63.49355,9.83126],[-63.49447,9.83744],[-63.49228,9.83958],[-63.49419,9.8527],[-63.50273,9.85484],[-63.50989,9.86361],[-63.50653,9.87208],[-63.50887,9.87832],[-63.50679,9.88077],[-63.51486,9.88674],[-63.51505,9.89066],[-63.53029,9.89523],[-63.53103,9.89755],[-63.5411,9.89333],[-63.5416,9.8982],[-63.54533,9.89763],[-63.54562,9.8997],[-63.55808,9.90597],[-63.56868,9.91855],[-63.57158,9.92559],[-63.57744,9.92819],[-63.56772,9.9481],[-63.56409,9.95027],[-63.56317,9.95881],[-63.56856,9.96341],[-63.57201,9.97226],[-63.57575,9.97563],[-63.57377,9.98096],[-63.57854,9.99268],[-63.58521,9.99643],[-63.57971,10.00353],[-63.5854,10.01991],[-63.59211,10.02246],[-63.58746,10.03832],[-63.59177,10.05288],[-63.6051,10.0466],[-63.61217,10.04682],[-63.61608,10.05107],[-63.61724,10.06212],[-63.6213,10.06619],[-63.62453,10.06511],[-63.62923,10.06803],[-63.64734,10.04793],[-63.66409,10.03645],[-63.67125,10.03716],[-63.67735,10.03434],[-63.68262,10.0287],[-63.69122,10.03097],[-63.69222,10.03329],[-63.70944,10.02775],[-63.70898,10.03023],[-63.71441,10.03049],[-63.71671,10.03767],[-63.72146,10.04054],[-63.72473,10.03924],[-63.72035,10.04397],[-63.72339,10.04667],[-63.72523,10.04407],[-63.72992,10.04758],[-63.73544,10.04788],[-63.7483,10.04126],[-63.77273,10.03698],[-63.77302,10.03362],[-63.79175,10.02411],[-63.79218,10.02135],[-63.8019,10.01604],[-63.80992,10.02173],[-63.81349,10.02834],[-63.81868,10.02686],[-63.82741,10.03241],[-63.82977,10.04156],[-63.83491,10.04132],[-63.84298,10.04582],[-63.85173,10.04191],[-63.85579,10.03734],[-63.8701,10.0336],[-63.87849,10.02844],[-63.90023,10.02872],[-63.89727,10.03284],[-63.89592,10.04219],[-63.89136,10.04788],[-63.89435,10.05386],[-63.9046,10.05083],[-63.90888,10.05292],[-63.90978,10.06716],[-63.91293,10.07233],[-63.91877,10.07311],[-63.9203,10.07822],[-63.92621,10.08232],[-63.93566,10.08416],[-63.94307,10.0887],[-63.94982,10.08784],[-63.95863,10.08375],[-63.95999,10.0802],[-63.95657,10.07502],[-63.95923,10.06577],[-63.95452,10.06169],[-63.95526,10.05516],[-63.97627,10.05041],[-63.97928,10.04617],[-63.97633,10.0389],[-63.97571,10.02768],[-63.97022,10.02085],[-63.96164,10.02273],[-63.95473,10.01051],[-63.95546,10.00599],[-63.96412,10.00469],[-63.97421,9.99677],[-63.97868,9.99789],[-63.9863,9.99422],[-63.99429,9.99479],[-63.99694,9.99003],[-64.00339,9.99124],[-64.00451,9.98879],[-64.00198,9.97417],[-64.00495,9.96966],[-64.00383,9.96114],[-63.99869,9.95106],[-63.99429,9.95032],[-63.98832,9.93841],[-63.9842,9.93797],[-63.98349,9.93456],[-63.98896,9.93168],[-63.99028,9.92039],[-63.98756,9.91598],[-63.98523,9.91618],[-63.98767,9.91164],[-63.98704,9.90701],[-63.97897,9.90509],[-63.97708,9.89901],[-63.98682,9.89197],[-63.99763,9.88828],[-63.99459,9.8757],[-63.98721,9.86708],[-63.99405,9.8567],[-63.98816,9.85492],[-63.98399,9.84792],[-63.97727,9.84329],[-63.97257,9.84363],[-63.96682,9.83783],[-63.95662,9.82247],[-63.95293,9.82033],[-63.95034,9.8074],[-63.94512,9.80094],[-63.94631,9.78933],[-63.95119,9.78713],[-63.95112,9.78232],[-63.95637,9.7803],[-63.96165,9.77161],[-63.96121,9.76042],[-63.95781,9.75554],[-63.96177,9.74578],[-63.95863,9.73608],[-63.95413,9.73488],[-63.95348,9.7262],[-63.95086,9.72236],[-63.95326,9.71905],[-63.9518,9.71235],[-63.94873,9.71119],[-63.94796,9.70633],[-63.94437,9.70665],[-63.94484,9.70256],[-63.94153,9.70574],[-63.93965,9.70301],[-63.9328,9.70345],[-63.93184,9.7005],[-63.92335,9.69992],[-63.92394,9.69793],[-63.91898,9.69536],[-63.92129,9.68606],[-63.91659,9.63011],[-63.89644,9.62837],[-63.89676,9.62523],[-63.8918,9.6269],[-63.87617,9.61635],[-63.87287,9.61135],[-63.86759,9.60915],[-63.86601,9.60096],[-63.86782,9.57999],[-63.86256,9.57394],[-63.8515,9.56973],[-63.85119,9.56745],[-63.849,9.56903],[-63.84803,9.56268],[-63.84277,9.55517],[-63.83323,9.5591],[-63.82754,9.55741],[-63.82472,9.54439],[-63.81214,9.53611],[-63.80443,9.53603],[-63.80107,9.53729],[-63.80164,9.53923]]]}},{"type":"Feature","id":"relation/11089541","properties":{"name":"Municipio Ezequiel Zamora","level":6,"population":"62751"},"geometry":{"type":"Polygon","coordinates":[[[-63.80164,9.53923],[-63.78517,9.52672],[-63.7728,9.5323],[-63.76259,9.52086],[-63.75124,9.51797],[-63.74465,9.51061],[-63.72725,9.52259],[-63.72265,9.51343],[-63.71767,9.51348],[-63.71126,9.51833],[-63.70322,9.51741],[-63.69663,9.5126],[-63.68669,9.51104],[-63.67378,9.50515],[-63.66827,9.49708],[-63.66558,9.49676],[-63.661,9.49926],[-63.66048,9.5038],[-63.67318,9.52628],[-63.64016,9.57237],[-63.64634,9.57381],[-63.64336,9.58116],[-63.64429,9.5933],[-63.63306,9.59565],[-63.63512,9.60513],[-63.632,9.61019],[-63.64388,9.62092],[-63.63575,9.63373],[-63.62717,9.63744],[-63.62576,9.63508],[-63.62303,9.63543],[-63.62261,9.63254],[-63.61731,9.63266],[-63.61385,9.62933],[-63.60377,9.63306],[-63.59633,9.62652],[-63.5882,9.63086],[-63.58051,9.62854],[-63.58024,9.63107],[-63.56902,9.63112],[-63.56912,9.63321],[-63.5656,9.63235],[-63.55978,9.63716],[-63.5585,9.63611],[-63.55682,9.64005],[-63.54757,9.6335],[-63.54882,9.63079],[-63.54248,9.6312],[-63.54235,9.63415],[-63.53764,9.6344],[-63.53524,9.63101],[-63.5296,9.63626],[-63.5284,9.63375],[-63.52312,9.63713],[-63.51996,9.63597],[-63.52357,9.65235],[-63.5313,9.65744],[-63.53487,9.66431],[-63.54041,9.66604],[-63.54321,9.67514],[-63.54971,9.68103],[-63.55185,9.70358],[-63.56082,9.70472],[-63.56769,9.72219],[-63.57231,9.7205],[-63.57285,9.72385],[-63.58786,9.72471],[-63.58886,9.7218],[-63.59708,9.72253],[-63.61297,9.72561],[-63.61185,9.72784],[-63.62816,9.72609],[-63.63206,9.7398],[-63.64763,9.75064],[-63.65045,9.74312],[-63.65705,9.75091],[-63.67371,9.7402],[-63.68709,9.74569],[-63.69078,9.73761],[-63.70339,9.73026],[-63.71104,9.7296],[-63.72517,9.71743],[-63.75366,9.72742],[-63.75725,9.70063],[-63.75708,9.64341],[-63.76046,9.64347],[-63.76071,9.63813],[-63.76437,9.63748],[-63.76116,9.62045],[-63.76591,9.61843],[-63.75808,9.60311],[-63.77974,9.5803],[-63.7702,9.55686],[-63.78684,9.55785],[-63.79358,9.541],[-63.80164,9.53923]]]}},{"type":"Feature","id":"relation/11089542","properties":{"name":"Municipio Santa B\u00e1rbara","level":6,"population":"9809"},"geometry":{"type":"Polygon","coordinates":[[[-63.64388,9.62092],[-63.632,9.61019],[-63.63512,9.60513],[-63.63306,9.59565],[-63.64429,9.5933],[-63.64336,9.58116],[-63.64634,9.57381],[-63.64016,9.57237],[-63.67324,9.52576],[-63.6607,9.50453],[-63.661,9.49926],[-63.65197,9.49487],[-63.62618,9.50168],[-63.60399,9.50229],[-63.58586,9.49838],[-63.57212,9.50488],[-63.56634,9.51613],[-63.55929,9.51707],[-63.55413,9.52099],[-63.54656,9.52029],[-63.54139,9.52361],[-63.52513,9.51324],[-63.51709,9.50486],[-63.50366,9.50017],[-63.49525,9.50269],[-63.47467,9.49114],[-63.46589,9.49576],[-63.46965,9.52525],[-63.45555,9.52543],[-63.45345,9.52863],[-63.44835,9.52847],[-63.4391,9.53466],[-63.43201,9.53406],[-63.4294,9.53787],[-63.42661,9.53509],[-63.41348,9.54349],[-63.40913,9.64414],[-63.42118,9.64981],[-63.4251,9.64663],[-63.42829,9.64848],[-63.43247,9.64681],[-63.43254,9.64439],[-63.43953,9.65439],[-63.44254,9.65324],[-63.44246,9.65627],[-63.44904,9.655],[-63.44949,9.65692],[-63.45167,9.65385],[-63.4559,9.65223],[-63.4573,9.65418],[-63.4594,9.65124],[-63.46473,9.6513],[-63.46632,9.65482],[-63.46742,9.65212],[-63.47374,9.65287],[-63.47243,9.65115],[-63.47561,9.64944],[-63.47486,9.64564],[-63.4775,9.6459],[-63.48385,9.63716],[-63.48422,9.63943],[-63.48933,9.64007],[-63.49078,9.63804],[-63.49509,9.64134],[-63.49657,9.63767],[-63.5111,9.64001],[-63.51756,9.63512],[-63.52293,9.63716],[-63.5284,9.63375],[-63.52947,9.63629],[-63.5352,9.63102],[-63.53764,9.6344],[-63.54235,9.63415],[-63.54248,9.6312],[-63.5486,9.63074],[-63.54757,9.6335],[-63.55821,9.63998],[-63.5585,9.63611],[-63.55978,9.63716],[-63.5656,9.63235],[-63.56912,9.63321],[-63.56902,9.63112],[-63.58024,9.63107],[-63.58051,9.62854],[-63.5882,9.63086],[-63.59633,9.62652],[-63.60377,9.63306],[-63.61385,9.62933],[-63.61731,9.63266],[-63.62261,9.63254],[-63.62303,9.63543],[-63.62812,9.63744],[-63.63575,9.63373],[-63.64388,9.62092]]]}},{"type":"Feature","id":"relation/11089543","properties":{"name":"Municipio Aguasay","level":6,"population":"11856"},"geometry":{"type":"Polygon","coordinates":[[[-63.661,9.49926],[-63.66807,9.49696],[-63.67378,9.50515],[-63.68669,9.51104],[-63.69663,9.5126],[-63.70524,9.51788],[-63.71126,9.51833],[-63.71767,9.51348],[-63.72265,9.51343],[-63.72725,9.52259],[-63.74465,9.51061],[-63.75124,9.51797],[-63.76259,9.52086],[-63.77324,9.5325],[-63.78517,9.52672],[-63.79733,9.53673],[-63.81171,9.53595],[-63.81627,9.53993],[-63.82788,9.54391],[-63.83241,9.54191],[-63.83153,9.53451],[-63.83799,9.53472],[-63.84979,9.5276],[-63.85448,9.53583],[-63.86348,9.54412],[-63.86645,9.53904],[-63.86001,9.52855],[-63.86003,9.52168],[-63.86229,9.5188],[-63.86931,9.523],[-63.86964,9.52927],[-63.88455,9.52614],[-63.89256,9.52749],[-63.8995,9.51989],[-63.90435,9.52154],[-63.90764,9.51953],[-63.91205,9.50562],[-63.91596,9.50233],[-63.92487,9.51201],[-63.93015,9.51325],[-63.93252,9.5097],[-63.93302,9.49928],[-63.94075,9.48859],[-63.94439,9.48813],[-63.95039,9.49649],[-63.95387,9.49691],[-63.96654,9.49141],[-63.96307,9.47403],[-63.97338,9.47535],[-63.97974,9.47938],[-63.98359,9.47742],[-63.98587,9.47056],[-63.98411,9.45777],[-63.98744,9.45812],[-63.99376,9.4652],[-63.9983,9.46511],[-63.99526,9.45491],[-64.01229,9.44855],[-64.01165,9.44025],[-64.00821,9.43878],[-64.00202,9.42771],[-64.01186,9.41883],[-64.0185,9.40401],[-64.00792,9.38627],[-64.00765,9.36769],[-64.00227,9.36068],[-63.99972,9.36151],[-63.99949,9.35874],[-63.98885,9.35375],[-63.99158,9.35167],[-63.98993,9.34877],[-63.98197,9.34349],[-63.9789,9.33858],[-63.97174,9.33769],[-63.96695,9.33333],[-63.96419,9.32175],[-63.96116,9.31992],[-63.96246,9.31185],[-63.95495,9.2983],[-63.94428,9.29449],[-63.93883,9.28681],[-63.93946,9.28132],[-63.93504,9.28098],[-63.92757,9.27343],[-63.92228,9.26324],[-63.91946,9.2625],[-63.91728,9.25195],[-63.91161,9.24126],[-63.91513,9.22367],[-63.91548,9.20073],[-63.90976,9.19571],[-63.90611,9.19592],[-63.90219,9.20045],[-63.89071,9.20183],[-63.89043,9.20547],[-63.8862,9.20798],[-63.87277,9.20927],[-63.86831,9.21508],[-63.86119,9.2153],[-63.83777,9.22851],[-63.82749,9.22965],[-63.81993,9.2205],[-63.80664,9.21766],[-63.79781,9.22448],[-63.79184,9.22342],[-63.77504,9.22855],[-63.77073,9.22858],[-63.76478,9.22231],[-63.75746,9.22447],[-63.75078,9.21857],[-63.7423,9.20503],[-63.74297,9.2001],[-63.73392,9.19642],[-63.72296,9.20045],[-63.72124,9.19841],[-63.71603,9.19895],[-63.70923,9.18854],[-63.69509,9.18378],[-63.69686,9.17733],[-63.68804,9.17108],[-63.6887,9.16791],[-63.68584,9.16725],[-63.68547,9.16335],[-63.67959,9.16811],[-63.67632,9.1651],[-63.6771,9.16074],[-63.68076,9.15762],[-63.67508,9.16075],[-63.67435,9.15767],[-63.67037,9.16129],[-63.66909,9.15482],[-63.6665,9.15844],[-63.6599,9.1605],[-63.65401,9.15722],[-63.65285,9.15361],[-63.65193,9.15933],[-63.64687,9.15679],[-63.64154,9.15746],[-63.6358,9.14895],[-63.63371,9.15186],[-63.63096,9.15097],[-63.62513,9.1545],[-63.621,9.15083],[-63.61449,9.14961],[-63.60736,9.14367],[-63.60851,9.13419],[-63.60224,9.1321],[-63.60165,9.12843],[-63.60369,9.1288],[-63.60103,9.12183],[-63.60334,9.12013],[-63.60626,9.12255],[-63.61006,9.11626],[-63.60728,9.11505],[-63.60765,9.11034],[-63.60462,9.10952],[-63.60564,9.10683],[-63.60202,9.10524],[-63.60225,9.10204],[-63.59851,9.10106],[-63.60065,9.09817],[-63.59699,9.09756],[-63.59672,9.10087],[-63.59268,9.10399],[-63.58809,9.09973],[-63.58879,9.10504],[-63.58238,9.10421],[-63.57946,9.10755],[-63.56658,9.10405],[-63.56933,9.09508],[-63.56421,9.09189],[-63.55945,9.09488],[-63.55594,9.08833],[-63.54913,9.08865],[-63.54644,9.08556],[-63.5442,9.08805],[-63.54537,9.09285],[-63.54086,9.09222],[-63.53317,9.08237],[-63.53405,9.0768],[-63.53107,9.07881],[-63.52613,9.07468],[-63.52239,9.07611],[-63.52735,9.06871],[-63.52071,9.0669],[-63.52052,9.07056],[-63.51649,9.0702],[-63.51785,9.07524],[-63.51382,9.06986],[-63.51268,9.0726],[-63.50997,9.07237],[-63.51301,9.06506],[-63.50225,9.04879],[-63.49053,9.05639],[-63.49376,9.0603],[-63.48485,9.0579],[-63.48204,9.04802],[-63.48538,9.04707],[-63.48275,9.04444],[-63.48812,9.04397],[-63.49068,9.03422],[-63.48431,9.03589],[-63.47638,9.03251],[-63.4752,9.0179],[-63.4721,9.01703],[-63.46861,9.02441],[-63.46584,9.01644],[-63.45882,9.01219],[-63.45956,9.01824],[-63.45606,9.01968],[-63.45385,9.02606],[-63.45105,9.02541],[-63.45023,9.01361],[-63.44162,9.00399],[-63.43831,9.00528],[-63.43327,9.01383],[-63.4287,9.01327],[-63.42664,9.00854],[-63.42832,9.00515],[-63.42604,9.00255],[-63.4211,9.00262],[-63.41558,8.99771],[-63.40887,8.99792],[-63.4073,8.99375],[-63.40095,8.99301],[-63.39853,8.98904],[-63.396,8.98995],[-63.39403,8.98541],[-63.39235,8.99033],[-63.38587,8.98684],[-63.38622,8.98009],[-63.38916,8.97591],[-63.3852,8.97666],[-63.38477,8.973],[-63.38075,8.97417],[-63.383,8.96854],[-63.38127,8.96592],[-63.38364,8.96424],[-63.37985,8.96573],[-63.38006,8.96376],[-63.37508,8.96109],[-63.36952,8.95181],[-63.37125,8.94973],[-63.36538,8.9495],[-63.36642,8.94668],[-63.36275,8.95083],[-63.35818,8.94782],[-63.35369,8.94906],[-63.35292,8.94317],[-63.34662,8.94886],[-63.34536,8.94261],[-63.33884,8.94331],[-63.33801,8.94092],[-63.33545,8.9427],[-63.33458,8.94014],[-63.33124,8.94539],[-63.32704,8.94504],[-63.32879,8.9468],[-63.32701,8.94784],[-63.34233,8.96524],[-63.35545,9.00408],[-63.35924,9.02283],[-63.34496,9.13987],[-63.35021,9.15307],[-63.34697,9.16239],[-63.3573,9.19834],[-63.35595,9.20212],[-63.34171,9.21107],[-63.34053,9.21468],[-63.3581,9.22039],[-63.34962,9.22864],[-63.34468,9.22774],[-63.33508,9.23602],[-63.32245,9.23259],[-63.31821,9.23355],[-63.31541,9.2385],[-63.32071,9.23758],[-63.32229,9.24333],[-63.32614,9.24352],[-63.3269,9.24862],[-63.33101,9.24725],[-63.32943,9.25006],[-63.33122,9.25063],[-63.33089,9.25498],[-63.3375,9.24986],[-63.33992,9.25299],[-63.3418,9.24645],[-63.34833,9.24649],[-63.35153,9.25044],[-63.35152,9.24731],[-63.35664,9.24826],[-63.3616,9.25079],[-63.36264,9.25551],[-63.36672,9.24965],[-63.37136,9.2508],[-63.3733,9.24562],[-63.37768,9.24875],[-63.37627,9.2472],[-63.38311,9.24218],[-63.38618,9.24581],[-63.39071,9.24492],[-63.39047,9.2482],[-63.39918,9.2454],[-63.40004,9.25743],[-63.40416,9.25936],[-63.40073,9.26348],[-63.40754,9.26566],[-63.40672,9.27161],[-63.41049,9.2762],[-63.40814,9.287],[-63.40987,9.29593],[-63.42003,9.29713],[-63.42733,9.30452],[-63.43537,9.30615],[-63.43767,9.32017],[-63.44618,9.31995],[-63.44639,9.32247],[-63.45601,9.32819],[-63.45474,9.33814],[-63.45891,9.34283],[-63.45807,9.34622],[-63.46164,9.3474],[-63.46274,9.36152],[-63.44425,9.36925],[-63.44992,9.37496],[-63.44631,9.39319],[-63.45417,9.39717],[-63.45693,9.42488],[-63.4595,9.42858],[-63.45763,9.43627],[-63.45901,9.44682],[-63.47315,9.4919],[-63.47927,9.49245],[-63.49525,9.50269],[-63.50366,9.50017],[-63.51709,9.50486],[-63.52513,9.51324],[-63.54139,9.52361],[-63.54656,9.52029],[-63.55413,9.52099],[-63.55929,9.51707],[-63.56634,9.51613],[-63.57212,9.50488],[-63.58586,9.49838],[-63.60399,9.50229],[-63.62618,9.50168],[-63.65045,9.49454],[-63.661,9.49926]]]}},{"type":"Feature","id":"relation/11089544","properties":{"name":"Municipio Matur\u00edn","level":6,"population":"542259"},"geometry":{"type":"Polygon","coordinates":[[[-62.40373,9.44805],[-62.39856,9.46723],[-62.40239,9.4825],[-62.41556,9.48913],[-62.43322,9.4846],[-62.44292,9.49393],[-62.43831,9.517],[-62.44326,9.53355],[-62.44311,9.54328],[-62.42921,9.5663],[-62.41719,9.57498],[-62.3964,9.60297],[-62.36366,9.63691],[-62.35125,9.64674],[-62.34919,9.66794],[-62.35243,9.68884],[-62.32439,9.71669],[-62.31737,9.7327],[-62.30596,9.74844],[-62.30437,9.75922],[-62.29909,9.76531],[-62.29875,9.77973],[-62.3063,9.79517],[-62.34145,9.82528],[-62.35621,9.85386],[-62.35874,9.87234],[-62.35827,9.89538],[-62.35582,9.91238],[-62.34836,9.93233],[-62.34847,9.94435],[-62.35443,9.95011],[-62.36079,9.95068],[-62.36097,9.96246],[-62.36474,9.96605],[-62.37051,9.96692],[-62.36306,9.97609],[-62.3683,10.00255],[-62.37448,10.00755],[-62.38079,10.00777],[-62.39417,10.02039],[-62.40031,10.02165],[-62.40318,10.0339],[-62.41522,10.05193],[-62.43613,10.06018],[-62.44464,10.05887],[-62.44989,10.05485],[-62.45285,10.05979],[-62.45352,10.07197],[-62.45942,10.08567],[-62.47401,10.13993],[-62.4979,10.18785],[-62.51238,10.20309],[-62.52678,10.21416],[-62.55634,10.22683],[-62.59481,10.23829],[-62.60941,10.23993],[-62.61955,10.23936],[-62.62891,10.23293],[-62.63099,10.22272],[-62.62779,10.19666],[-62.61919,10.16909],[-62.61806,10.15057],[-62.61134,10.12436],[-62.61164,10.11502],[-62.62031,10.10146],[-62.63327,10.09499],[-62.65456,10.07556],[-62.66632,10.06791],[-62.70314,10.06009],[-62.72545,10.05988],[-62.73863,10.06791],[-62.74786,10.08283],[-62.75468,10.08515],[-62.76687,10.08359],[-62.77785,10.07767],[-62.78742,10.0633],[-62.79043,10.04982],[-62.78689,10.03476],[-62.8151,10.03413],[-62.82367,10.03558],[-62.82984,10.04188],[-62.83521,10.05392],[-62.8368,10.06988],[-62.84186,10.07581],[-62.84941,10.07763],[-62.85467,10.07569],[-62.85946,10.05741],[-62.86398,10.05238],[-62.88641,10.05283],[-62.90179,10.05984],[-62.90181,10.06415],[-62.89415,10.07835],[-62.89764,10.09239],[-62.90564,10.09492],[-62.91578,10.08999],[-62.93168,10.07609],[-62.93564,10.07571],[-62.92974,10.05311],[-62.93049,10.04634],[-62.93445,10.0421],[-62.93943,10.02937],[-62.94145,10.03024],[-62.94273,10.04087],[-62.94491,10.04239],[-62.94888,10.04032],[-63.04745,9.91493],[-63.05012,9.90716],[-63.04798,9.90364],[-63.05282,9.90154],[-63.05388,9.89618],[-63.061,9.89305],[-63.06422,9.88728],[-63.07224,9.88765],[-63.07757,9.88404],[-63.07919,9.88579],[-63.08308,9.88371],[-63.08732,9.88659],[-63.0898,9.88518],[-63.08924,9.88954],[-63.09778,9.88832],[-63.10007,9.89172],[-63.1036,9.89141],[-63.10438,9.89423],[-63.11105,9.89594],[-63.11609,9.89394],[-63.12198,9.89861],[-63.12431,9.89542],[-63.13172,9.90116],[-63.13315,9.9049],[-63.14485,9.90038],[-63.14569,9.90252],[-63.14681,9.89935],[-63.1507,9.90226],[-63.15821,9.89737],[-63.16716,9.89837],[-63.17492,9.89622],[-63.17819,9.89942],[-63.18585,9.89763],[-63.19185,9.89393],[-63.20273,9.88131],[-63.21311,9.87802],[-63.21742,9.87042],[-63.22182,9.86931],[-63.22287,9.86347],[-63.22648,9.85979],[-63.24642,9.86236],[-63.25733,9.86079],[-63.26095,9.86432],[-63.26536,9.86447],[-63.26493,9.8614],[-63.27163,9.85944],[-63.27524,9.86551],[-63.27978,9.86497],[-63.28131,9.85905],[-63.27506,9.85199],[-63.29284,9.85018],[-63.32715,9.85956],[-63.33184,9.85732],[-63.32885,9.84101],[-63.31631,9.83499],[-63.31357,9.82778],[-63.30674,9.82523],[-63.3047,9.82062],[-63.30871,9.81339],[-63.31358,9.81691],[-63.31318,9.80026],[-63.30505,9.7986],[-63.29991,9.79157],[-63.30015,9.78881],[-63.30603,9.78854],[-63.30903,9.78376],[-63.31514,9.78731],[-63.32075,9.78633],[-63.32185,9.7889],[-63.34157,9.79597],[-63.35148,9.79041],[-63.36375,9.79442],[-63.36662,9.79113],[-63.3689,9.79321],[-63.37719,9.78939],[-63.38192,9.7911],[-63.38123,9.78724],[-63.39122,9.78544],[-63.3933,9.78247],[-63.39533,9.78439],[-63.40024,9.78204],[-63.40509,9.78504],[-63.41005,9.78319],[-63.41341,9.78516],[-63.41989,9.78048],[-63.42341,9.78562],[-63.42945,9.78369],[-63.4318,9.78717],[-63.43255,9.78566],[-63.44026,9.78811],[-63.44149,9.79201],[-63.44857,9.79099],[-63.45274,9.79628],[-63.46192,9.79516],[-63.46929,9.80376],[-63.47325,9.80315],[-63.48647,9.81113],[-63.49641,9.80485],[-63.49374,9.79457],[-63.49581,9.78967],[-63.4946,9.78429],[-63.4977,9.78085],[-63.49123,9.77802],[-63.48788,9.77328],[-63.48375,9.77489],[-63.48777,9.76175],[-63.48499,9.75913],[-63.48829,9.75367],[-63.483,9.74672],[-63.47688,9.74558],[-63.47407,9.7403],[-63.47724,9.72677],[-63.47423,9.72678],[-63.47406,9.72355],[-63.47193,9.72488],[-63.46786,9.71736],[-63.46968,9.71604],[-63.46685,9.71615],[-63.4651,9.70206],[-63.46902,9.697],[-63.46895,9.66143],[-63.47103,9.65295],[-63.46731,9.65216],[-63.46632,9.65482],[-63.46473,9.6513],[-63.45926,9.65125],[-63.45969,9.65286],[-63.45418,9.65259],[-63.44949,9.65692],[-63.44904,9.655],[-63.44246,9.65627],[-63.44254,9.65324],[-63.43953,9.65439],[-63.43262,9.64441],[-63.43247,9.64681],[-63.42829,9.64848],[-63.4251,9.64663],[-63.42125,9.64982],[-63.40913,9.64414],[-63.41348,9.54349],[-63.42661,9.53509],[-63.4294,9.53787],[-63.43201,9.53406],[-63.4391,9.53466],[-63.44835,9.52847],[-63.45345,9.52863],[-63.45555,9.52543],[-63.46965,9.52525],[-63.46589,9.49576],[-63.47315,9.4919],[-63.45901,9.44682],[-63.45763,9.43627],[-63.4595,9.42858],[-63.45693,9.42488],[-63.45417,9.39717],[-63.44631,9.39319],[-63.44962,9.37307],[-63.44425,9.36925],[-63.46274,9.36152],[-63.46164,9.3474],[-63.45807,9.34622],[-63.45891,9.34283],[-63.45474,9.33814],[-63.45604,9.32824],[-63.44639,9.32247],[-63.44618,9.31995],[-63.43767,9.32017],[-63.43537,9.30615],[-63.42733,9.30452],[-63.42003,9.29713],[-63.40987,9.29593],[-63.40814,9.287],[-63.41049,9.2762],[-63.40672,9.27161],[-63.40754,9.26566],[-63.40073,9.26348],[-63.40416,9.25936],[-63.40004,9.25743],[-63.39918,9.2454],[-63.39047,9.2482],[-63.39071,9.24492],[-63.38618,9.24581],[-63.38311,9.24218],[-63.37627,9.2472],[-63.37768,9.24875],[-63.3733,9.24562],[-63.37136,9.2508],[-63.36672,9.24965],[-63.36264,9.25551],[-63.3616,9.25079],[-63.35664,9.24826],[-63.35152,9.24731],[-63.35153,9.25044],[-63.34833,9.24649],[-63.3418,9.24645],[-63.33992,9.25299],[-63.3375,9.24986],[-63.33089,9.25498],[-63.33122,9.25063],[-63.32943,9.25006],[-63.33101,9.24725],[-63.3269,9.24862],[-63.32614,9.24352],[-63.32229,9.24333],[-63.32071,9.23758],[-63.31541,9.2385],[-63.31821,9.23355],[-63.32245,9.23259],[-63.33508,9.23602],[-63.34468,9.22774],[-63.34962,9.22864],[-63.3581,9.22039],[-63.34053,9.21468],[-63.34171,9.21107],[-63.35595,9.20212],[-63.3573,9.19834],[-63.34697,9.16239],[-63.35021,9.15307],[-63.34496,9.13987],[-63.35924,9.02283],[-63.35545,9.00408],[-63.34233,8.96524],[-63.34027,8.9607],[-63.32786,8.94934],[-63.32699,8.94517],[-63.33124,8.94539],[-63.33492,8.94005],[-63.33545,8.9427],[-63.33801,8.94092],[-63.33884,8.94331],[-63.34536,8.94261],[-63.34662,8.94886],[-63.35309,8.94318],[-63.35352,8.94895],[-63.35598,8.94748],[-63.36345,8.95036],[-63.36518,8.94726],[-63.35987,8.90095],[-63.30706,8.78324],[-63.29415,8.78264],[-63.29175,8.77391],[-63.2882,8.77325],[-63.28658,8.76831],[-63.27244,8.76284],[-63.2534,8.76472],[-63.24985,8.76763],[-63.23246,8.77207],[-63.23,8.77511],[-63.22657,8.77432],[-63.21981,8.77055],[-63.21887,8.76558],[-63.2121,8.7633],[-63.20835,8.76583],[-63.21274,8.76027],[-63.20906,8.75731],[-63.15781,8.77626],[-63.10161,8.68921],[-63.0975,8.69099],[-63.09628,8.68356],[-63.08617,8.68741],[-63.08135,8.68595],[-63.06379,8.68895],[-63.05934,8.69381],[-63.0498,8.6982],[-63.0416,8.71702],[-63.03653,8.72176],[-63.0328,8.73704],[-63.03042,8.73819],[-63.03152,8.74016],[-63.02558,8.75069],[-63.00918,8.75074],[-62.9917,8.74284],[-62.9875,8.74451],[-62.97733,8.74302],[-62.96976,8.74455],[-62.9608,8.75131],[-62.95781,8.7494],[-62.95546,8.75535],[-62.95312,8.75514],[-62.94828,8.76324],[-62.94511,8.76455],[-62.94591,8.76811],[-62.94144,8.7681],[-62.92957,8.78566],[-62.92249,8.79034],[-62.91767,8.79719],[-62.91546,8.7965],[-62.91075,8.8033],[-62.9124,8.80453],[-62.89363,8.81389],[-62.89519,8.81629],[-62.89132,8.81994],[-62.8892,8.81877],[-62.88767,8.8228],[-62.87865,8.83002],[-62.87913,8.83314],[-62.87468,8.83639],[-62.87528,8.83932],[-62.87004,8.84261],[-62.86989,8.8479],[-62.86489,8.85165],[-62.865,8.85395],[-62.86207,8.85388],[-62.85633,8.86242],[-62.84738,8.86687],[-62.84197,8.87701],[-62.83538,8.88126],[-62.83295,8.88769],[-62.81947,8.89561],[-62.81712,8.90583],[-62.80839,8.91688],[-62.80974,8.91999],[-62.80679,8.92253],[-62.80713,8.92753],[-62.80487,8.92788],[-62.80682,8.93075],[-62.80392,8.9337],[-62.80469,8.93757],[-62.79996,8.94156],[-62.80117,8.94458],[-62.79716,8.95123],[-62.79795,8.96137],[-62.79526,8.97097],[-62.793,8.97128],[-62.78807,8.98712],[-62.7811,8.99057],[-62.77712,8.99694],[-62.77882,8.99787],[-62.77464,9.00187],[-62.77646,9.00207],[-62.77327,9.013],[-62.77503,9.02089],[-62.77272,9.0233],[-62.77562,9.02734],[-62.77177,9.0343],[-62.77427,9.03776],[-62.77146,9.04083],[-62.77479,9.0433],[-62.7777,9.05116],[-62.7746,9.05846],[-62.77728,9.06211],[-62.77567,9.07232],[-62.78131,9.07971],[-62.78334,9.07856],[-62.78747,9.08138],[-62.78655,9.08348],[-62.78958,9.08785],[-62.79156,9.08729],[-62.79037,9.09465],[-62.79318,9.09785],[-62.7923,9.10112],[-62.79629,9.10271],[-62.79634,9.10649],[-62.79971,9.10797],[-62.79917,9.11331],[-62.80361,9.11647],[-62.80142,9.11844],[-62.80173,9.12397],[-62.80577,9.13073],[-62.80421,9.13489],[-62.80669,9.13677],[-62.80426,9.14189],[-62.79774,9.14552],[-62.79881,9.14882],[-62.79547,9.15043],[-62.79255,9.1571],[-62.79392,9.15896],[-62.79067,9.16344],[-62.79336,9.16521],[-62.78972,9.16753],[-62.79205,9.17233],[-62.78746,9.17177],[-62.78696,9.17966],[-62.79066,9.18344],[-62.78692,9.18299],[-62.78627,9.1865],[-62.79578,9.19266],[-62.79595,9.19518],[-62.78292,9.21326],[-62.77948,9.21355],[-62.77942,9.21959],[-62.78153,9.22171],[-62.77406,9.22319],[-62.77199,9.22995],[-62.76889,9.23159],[-62.76763,9.2395],[-62.75239,9.24563],[-62.74513,9.24552],[-62.74375,9.24848],[-62.73832,9.24719],[-62.73398,9.24935],[-62.72952,9.24484],[-62.73138,9.24273],[-62.72893,9.23876],[-62.72544,9.23803],[-62.72301,9.24219],[-62.71769,9.23457],[-62.70926,9.24325],[-62.70652,9.24347],[-62.70425,9.23996],[-62.70098,9.24513],[-62.69841,9.24459],[-62.69747,9.2414],[-62.6944,9.24571],[-62.68799,9.24723],[-62.688,9.24138],[-62.68401,9.24291],[-62.68234,9.23809],[-62.67803,9.23994],[-62.67898,9.2361],[-62.67466,9.2409],[-62.67483,9.23537],[-62.67188,9.23512],[-62.67003,9.23885],[-62.66293,9.23526],[-62.6673,9.23337],[-62.66297,9.22804],[-62.66467,9.22659],[-62.66367,9.22131],[-62.66079,9.21957],[-62.66251,9.21631],[-62.65685,9.21779],[-62.65111,9.21433],[-62.64983,9.21595],[-62.65072,9.21233],[-62.64529,9.21298],[-62.64351,9.20689],[-62.63772,9.2079],[-62.63309,9.20283],[-62.62338,9.19997],[-62.62484,9.19776],[-62.62111,9.1965],[-62.62202,9.19235],[-62.61615,9.19465],[-62.61568,9.19695],[-62.61219,9.19448],[-62.61349,9.19909],[-62.60972,9.19814],[-62.60781,9.20205],[-62.59937,9.19934],[-62.59688,9.19593],[-62.59413,9.19968],[-62.59114,9.1983],[-62.58838,9.20241],[-62.58948,9.20529],[-62.58534,9.20397],[-62.58216,9.20664],[-62.57364,9.20027],[-62.56815,9.20304],[-62.56798,9.20632],[-62.571,9.20824],[-62.56852,9.20813],[-62.5663,9.21269],[-62.56197,9.21216],[-62.56202,9.215],[-62.55745,9.20959],[-62.55514,9.21335],[-62.54908,9.20891],[-62.54682,9.21138],[-62.54363,9.21045],[-62.54316,9.21286],[-62.53944,9.21346],[-62.54285,9.21896],[-62.54679,9.21973],[-62.54807,9.22654],[-62.54459,9.23244],[-62.54462,9.23744],[-62.54869,9.23888],[-62.55181,9.24449],[-62.54798,9.2543],[-62.53862,9.25618],[-62.53844,9.26519],[-62.54131,9.26974],[-62.53876,9.27571],[-62.5283,9.274],[-62.52566,9.2709],[-62.52056,9.27379],[-62.51399,9.26516],[-62.50884,9.26436],[-62.51009,9.27668],[-62.50339,9.27876],[-62.5013,9.28211],[-62.50637,9.28632],[-62.50399,9.29232],[-62.50873,9.30737],[-62.5076,9.31354],[-62.50015,9.31927],[-62.4997,9.32712],[-62.49077,9.32966],[-62.48137,9.33902],[-62.47279,9.34143],[-62.45997,9.35372],[-62.4595,9.35677],[-62.46416,9.36316],[-62.47304,9.36679],[-62.47696,9.37621],[-62.48013,9.37832],[-62.48236,9.39024],[-62.47702,9.39329],[-62.4722,9.39082],[-62.4669,9.39166],[-62.474,9.39988],[-62.47453,9.40523],[-62.46994,9.40695],[-62.46562,9.41554],[-62.4598,9.41846],[-62.44678,9.41994],[-62.44121,9.4261],[-62.43455,9.42838],[-62.43407,9.43772],[-62.43031,9.44426],[-62.41157,9.44473],[-62.40373,9.44805]]]}},{"type":"Feature","id":"relation/11089545","properties":{"name":"Municipio Uracoa","level":6,"population":"9625"},"geometry":{"type":"Polygon","coordinates":[[[-62.39126,9.03444],[-62.39091,9.0293],[-62.38846,9.0316],[-62.38744,9.0301],[-62.397,9.02054],[-62.39739,9.01549],[-62.40448,9.01309],[-62.40732,9.00491],[-62.41255,9.00661],[-62.41387,9.00206],[-62.41972,8.99782],[-62.4291,8.99913],[-62.43466,9.00397],[-62.43956,9.00457],[-62.44297,9.00068],[-62.446,9.00076],[-62.45147,8.99367],[-62.45708,8.99277],[-62.4633,8.98758],[-62.47135,8.98644],[-62.47107,8.98463],[-62.47776,8.99005],[-62.48136,8.98886],[-62.48513,8.99083],[-62.49373,8.98754],[-62.49586,8.98992],[-62.49814,8.98671],[-62.50357,8.98822],[-62.50877,8.98606],[-62.51029,8.982],[-62.5196,8.97988],[-62.52003,8.97633],[-62.52441,8.97486],[-62.52632,8.97747],[-62.53459,8.97547],[-62.54113,8.97666],[-62.55053,8.96982],[-62.55449,8.96974],[-62.56045,8.9659],[-62.56229,8.95731],[-62.57184,8.94931],[-62.57603,8.93949],[-62.5751,8.9313],[-62.58206,8.92202],[-62.59584,8.91878],[-62.6073,8.90733],[-62.61736,8.90328],[-62.64046,8.90074],[-62.65492,8.88454],[-62.66177,8.88183],[-62.62992,8.82322],[-62.64128,8.79476],[-62.67871,8.67773],[-62.65655,8.67206],[-62.63907,8.67366],[-62.61256,8.69546],[-62.59844,8.69931],[-62.59327,8.69795],[-62.5895,8.70244],[-62.57953,8.70435],[-62.57362,8.71091],[-62.56936,8.7112],[-62.56573,8.71533],[-62.55884,8.71765],[-62.55964,8.72199],[-62.54741,8.73319],[-62.52982,8.73799],[-62.52949,8.74072],[-62.51827,8.7447],[-62.51466,8.75081],[-62.50866,8.75055],[-62.50871,8.75288],[-62.49963,8.76123],[-62.49806,8.76651],[-62.49189,8.76827],[-62.49337,8.76993],[-62.49051,8.77292],[-62.40533,8.77203],[-62.27002,8.84355],[-62.02063,8.84848],[-62.01122,8.86387],[-62.00648,8.8806],[-61.99433,8.88889],[-61.99488,8.89109],[-62.00031,8.8979],[-62.0115,8.89854],[-62.03366,8.88102],[-62.05087,8.87444],[-62.05617,8.87509],[-62.05451,8.88021],[-62.06267,8.91246],[-62.07095,8.92594],[-62.08818,8.96912],[-62.08438,8.98807],[-62.05894,9.02268],[-62.05397,9.03884],[-62.05465,9.05256],[-62.056,9.05582],[-62.06848,9.05834],[-62.0851,9.07387],[-62.09978,9.08023],[-62.11074,9.0708],[-62.1137,9.06227],[-62.1102,9.04796],[-62.11572,9.04691],[-62.14686,9.06632],[-62.1482,9.07397],[-62.14204,9.08893],[-62.14276,9.09702],[-62.15039,9.10288],[-62.16223,9.10553],[-62.16476,9.1029],[-62.16066,9.08892],[-62.16588,9.08641],[-62.1874,9.08736],[-62.18881,9.08447],[-62.18642,9.07101],[-62.1903,9.06525],[-62.19416,9.06402],[-62.20432,9.06649],[-62.21713,9.0598],[-62.22639,9.05971],[-62.2276,9.06388],[-62.22327,9.08891],[-62.24048,9.09438],[-62.26463,9.11162],[-62.26595,9.11789],[-62.26153,9.12868],[-62.26226,9.13237],[-62.27938,9.13062],[-62.30223,9.13793],[-62.31427,9.13006],[-62.32659,9.12715],[-62.33098,9.11538],[-62.32551,9.11128],[-62.32365,9.09659],[-62.33089,9.09138],[-62.33261,9.08399],[-62.34178,9.07964],[-62.34709,9.08552],[-62.35278,9.08087],[-62.35235,9.07803],[-62.34713,9.07666],[-62.34766,9.06887],[-62.35473,9.06661],[-62.3581,9.06155],[-62.35865,9.05477],[-62.35536,9.05093],[-62.34737,9.05203],[-62.34468,9.04488],[-62.34597,9.04086],[-62.3557,9.04162],[-62.37897,9.03746],[-62.38658,9.03269],[-62.39126,9.03444]]]}},{"type":"Feature","id":"relation/11089546","properties":{"name":"Municipio Libertador","level":6,"population":"45274"},"geometry":{"type":"Polygon","coordinates":[[[-62.39126,9.03444],[-62.38658,9.03269],[-62.37897,9.03746],[-62.3557,9.04162],[-62.34702,9.04028],[-62.3449,9.0426],[-62.34766,9.05233],[-62.35502,9.05087],[-62.35754,9.05269],[-62.3581,9.06155],[-62.35473,9.06661],[-62.34779,9.06843],[-62.34698,9.07615],[-62.35264,9.07829],[-62.35165,9.08303],[-62.34623,9.08557],[-62.34265,9.07992],[-62.33761,9.08054],[-62.33237,9.08427],[-62.33062,9.09171],[-62.32373,9.09632],[-62.32551,9.11128],[-62.331,9.11559],[-62.32639,9.12497],[-62.33004,9.13194],[-62.32919,9.15588],[-62.32295,9.17572],[-62.30456,9.1856],[-62.30596,9.20448],[-62.31203,9.21666],[-62.30327,9.22287],[-62.3016,9.22789],[-62.30721,9.23933],[-62.31716,9.24481],[-62.32092,9.2556],[-62.32792,9.26189],[-62.3303,9.28228],[-62.32332,9.2947],[-62.33576,9.30762],[-62.3434,9.32284],[-62.34366,9.32939],[-62.34018,9.33817],[-62.32308,9.35344],[-62.32256,9.3599],[-62.32548,9.36695],[-62.34709,9.38096],[-62.35775,9.39563],[-62.37767,9.39474],[-62.40749,9.40963],[-62.41148,9.4207],[-62.40646,9.43154],[-62.40373,9.44805],[-62.41157,9.44473],[-62.43031,9.44426],[-62.43407,9.43772],[-62.43455,9.42838],[-62.44121,9.4261],[-62.44678,9.41994],[-62.4598,9.41846],[-62.46562,9.41554],[-62.46994,9.40695],[-62.47453,9.40523],[-62.474,9.39988],[-62.46696,9.39154],[-62.4722,9.39082],[-62.47702,9.39329],[-62.48243,9.39012],[-62.48013,9.37832],[-62.47696,9.37621],[-62.47476,9.3688],[-62.46416,9.36316],[-62.4595,9.35677],[-62.45993,9.35389],[-62.47279,9.34143],[-62.48137,9.33902],[-62.49077,9.32966],[-62.4997,9.32712],[-62.50015,9.31927],[-62.5076,9.31354],[-62.50873,9.30737],[-62.50399,9.29232],[-62.50637,9.28632],[-62.5013,9.28211],[-62.50339,9.27876],[-62.51009,9.27668],[-62.50873,9.2645],[-62.51399,9.26516],[-62.52056,9.27379],[-62.52566,9.2709],[-62.5283,9.274],[-62.5384,9.27597],[-62.54087,9.27163],[-62.53862,9.25618],[-62.54798,9.2543],[-62.55181,9.24449],[-62.54869,9.23888],[-62.54462,9.23744],[-62.54459,9.23244],[-62.54807,9.22654],[-62.54679,9.21973],[-62.54285,9.21896],[-62.53944,9.21346],[-62.54316,9.21286],[-62.54363,9.21045],[-62.54682,9.21138],[-62.54908,9.20891],[-62.55514,9.21335],[-62.55745,9.20959],[-62.56202,9.215],[-62.56197,9.21216],[-62.5663,9.21269],[-62.56852,9.20813],[-62.571,9.20824],[-62.56798,9.20632],[-62.56815,9.20304],[-62.57364,9.20027],[-62.58216,9.20664],[-62.58534,9.20397],[-62.58948,9.20529],[-62.58838,9.20241],[-62.59114,9.1983],[-62.59413,9.19968],[-62.59688,9.19593],[-62.59937,9.19934],[-62.60781,9.20205],[-62.60972,9.19814],[-62.61349,9.19909],[-62.61219,9.19448],[-62.61568,9.19695],[-62.61615,9.19465],[-62.62202,9.19235],[-62.62111,9.1965],[-62.62484,9.19776],[-62.62338,9.19997],[-62.63309,9.20283],[-62.63772,9.2079],[-62.64351,9.20689],[-62.64529,9.21298],[-62.65072,9.21233],[-62.64983,9.21595],[-62.65111,9.21433],[-62.65685,9.21779],[-62.66251,9.21631],[-62.66079,9.21957],[-62.66367,9.22131],[-62.66467,9.22659],[-62.66297,9.22804],[-62.6673,9.23337],[-62.66293,9.23526],[-62.67003,9.23885],[-62.67188,9.23512],[-62.67483,9.23537],[-62.67466,9.2409],[-62.67898,9.2361],[-62.67803,9.23994],[-62.68234,9.23809],[-62.68401,9.24291],[-62.688,9.24138],[-62.68799,9.24723],[-62.6944,9.24571],[-62.69747,9.2414],[-62.69841,9.24459],[-62.70098,9.24513],[-62.70425,9.23996],[-62.70652,9.24347],[-62.70926,9.24325],[-62.71769,9.23457],[-62.72301,9.24219],[-62.72544,9.23803],[-62.72893,9.23876],[-62.73138,9.24273],[-62.72952,9.24484],[-62.73398,9.24935],[-62.73832,9.24719],[-62.74375,9.24848],[-62.74513,9.24552],[-62.75239,9.24563],[-62.76763,9.2395],[-62.76889,9.23159],[-62.77199,9.22995],[-62.77406,9.22319],[-62.78153,9.22171],[-62.77942,9.21959],[-62.77948,9.21355],[-62.78292,9.21326],[-62.79595,9.19518],[-62.79578,9.19266],[-62.78627,9.1865],[-62.78692,9.18299],[-62.79066,9.18344],[-62.78696,9.17966],[-62.78746,9.17177],[-62.79205,9.17233],[-62.78972,9.16753],[-62.79336,9.16521],[-62.79067,9.16344],[-62.79392,9.15896],[-62.79255,9.1571],[-62.79547,9.15043],[-62.79881,9.14882],[-62.79774,9.14552],[-62.80426,9.14189],[-62.80669,9.13677],[-62.80421,9.13489],[-62.80577,9.13073],[-62.80173,9.12397],[-62.80142,9.11844],[-62.80361,9.11647],[-62.79917,9.11331],[-62.79971,9.10797],[-62.79634,9.10649],[-62.79629,9.10271],[-62.7923,9.10112],[-62.79318,9.09785],[-62.79037,9.09465],[-62.79156,9.08729],[-62.78958,9.08785],[-62.78655,9.08348],[-62.78747,9.08138],[-62.78334,9.07856],[-62.78131,9.07971],[-62.77567,9.07232],[-62.77728,9.06211],[-62.7746,9.05846],[-62.7777,9.05116],[-62.77479,9.0433],[-62.77146,9.04083],[-62.77427,9.03776],[-62.77177,9.0343],[-62.77562,9.02734],[-62.77272,9.0233],[-62.77503,9.02089],[-62.77327,9.013],[-62.77646,9.00207],[-62.77464,9.00187],[-62.77882,8.99787],[-62.77712,8.99694],[-62.7811,8.99057],[-62.78807,8.98712],[-62.793,8.97128],[-62.79526,8.97097],[-62.79795,8.96137],[-62.79716,8.95123],[-62.80117,8.94458],[-62.79996,8.94156],[-62.80469,8.93757],[-62.80392,8.9337],[-62.80682,8.93075],[-62.80487,8.92788],[-62.80713,8.92753],[-62.80679,8.92253],[-62.80974,8.91999],[-62.80839,8.91688],[-62.81712,8.90583],[-62.81947,8.89561],[-62.83295,8.88769],[-62.83538,8.88126],[-62.84197,8.87701],[-62.84738,8.86687],[-62.85633,8.86242],[-62.86207,8.85388],[-62.865,8.85395],[-62.86489,8.85165],[-62.86989,8.8479],[-62.87004,8.84261],[-62.87528,8.83932],[-62.87468,8.83639],[-62.87913,8.83314],[-62.87865,8.83002],[-62.88767,8.8228],[-62.8892,8.81877],[-62.89132,8.81994],[-62.89519,8.81629],[-62.89363,8.81389],[-62.9124,8.80453],[-62.91075,8.8033],[-62.91546,8.7965],[-62.91767,8.79719],[-62.92249,8.79034],[-62.92957,8.78566],[-62.94144,8.7681],[-62.94591,8.76811],[-62.94511,8.76455],[-62.94828,8.76324],[-62.95312,8.75514],[-62.95546,8.75535],[-62.95781,8.7494],[-62.9608,8.75131],[-62.96976,8.74455],[-62.97733,8.74302],[-62.9875,8.74451],[-62.9917,8.74284],[-63.00918,8.75074],[-63.02563,8.75066],[-63.03152,8.74016],[-63.03042,8.73819],[-63.0328,8.73704],[-63.03653,8.72176],[-63.0416,8.71702],[-63.0498,8.6982],[-63.05934,8.69381],[-63.06379,8.68895],[-63.08135,8.68595],[-63.08617,8.68741],[-63.0898,8.68512],[-63.08597,8.67129],[-63.02732,8.69733],[-62.94801,8.5357],[-62.721,8.46678],[-62.71423,8.46903],[-62.69835,8.47774],[-62.7146,8.52278],[-62.71541,8.64348],[-62.71243,8.64531],[-62.71033,8.65288],[-62.69024,8.66144],[-62.6811,8.6725],[-62.68133,8.67708],[-62.67871,8.67773],[-62.64128,8.79476],[-62.62992,8.82322],[-62.66177,8.88183],[-62.65492,8.88454],[-62.64046,8.90074],[-62.61736,8.90328],[-62.6073,8.90733],[-62.59584,8.91878],[-62.58206,8.92202],[-62.5751,8.9313],[-62.57603,8.93949],[-62.57184,8.94931],[-62.56229,8.95731],[-62.56045,8.9659],[-62.55449,8.96974],[-62.55053,8.96982],[-62.54113,8.97666],[-62.53459,8.97547],[-62.52632,8.97747],[-62.52441,8.97486],[-62.52003,8.97633],[-62.5196,8.97988],[-62.51029,8.982],[-62.50877,8.98606],[-62.50357,8.98822],[-62.49814,8.98671],[-62.49586,8.98992],[-62.49373,8.98754],[-62.48513,8.99083],[-62.48136,8.98886],[-62.47776,8.99005],[-62.47107,8.98463],[-62.47135,8.98644],[-62.4633,8.98758],[-62.45708,8.99277],[-62.45147,8.99367],[-62.446,9.00076],[-62.44297,9.00068],[-62.43956,9.00457],[-62.43466,9.00397],[-62.4291,8.99913],[-62.41972,8.99782],[-62.41387,9.00206],[-62.41255,9.00661],[-62.40732,9.00491],[-62.40448,9.01309],[-62.39739,9.01549],[-62.397,9.02054],[-62.38744,9.0301],[-62.38846,9.0316],[-62.39091,9.0293],[-62.39126,9.03444]]]}},{"type":"Feature","id":"relation/11089547","properties":{"name":"Municipio Sotillo","level":6,"population":"24238"},"geometry":{"type":"Polygon","coordinates":[[[-62.11957,8.72179],[-62.10743,8.7346],[-62.07537,8.74701],[-62.06288,8.75798],[-62.05606,8.7764],[-62.05936,8.8065],[-62.05803,8.81506],[-62.04533,8.82982],[-62.02096,8.84106],[-62.02063,8.84848],[-62.27002,8.84355],[-62.40533,8.77203],[-62.49051,8.77292],[-62.49337,8.76993],[-62.49189,8.76827],[-62.49806,8.76651],[-62.49963,8.76123],[-62.50871,8.75288],[-62.50866,8.75055],[-62.51466,8.75081],[-62.51827,8.7447],[-62.52949,8.74072],[-62.52982,8.73799],[-62.54741,8.73319],[-62.55964,8.72199],[-62.55884,8.71765],[-62.56573,8.71533],[-62.56936,8.7112],[-62.57362,8.71091],[-62.57953,8.70435],[-62.5895,8.70244],[-62.59327,8.69795],[-62.59844,8.69931],[-62.61256,8.69546],[-62.63907,8.67366],[-62.65655,8.67206],[-62.68106,8.67744],[-62.6811,8.6725],[-62.68811,8.66339],[-62.71033,8.65288],[-62.71243,8.64531],[-62.71541,8.64348],[-62.7146,8.52278],[-62.69835,8.47774],[-62.721,8.46678],[-62.72311,8.45987],[-62.73066,8.45125],[-62.7283,8.44413],[-62.73018,8.43969],[-62.72861,8.42717],[-62.72422,8.41804],[-62.72527,8.41122],[-62.72052,8.40383],[-62.72209,8.39969],[-62.71517,8.40001],[-62.71696,8.39605],[-62.71411,8.391],[-62.70804,8.39481],[-62.70824,8.39932],[-62.70289,8.39966],[-62.69701,8.39105],[-62.69309,8.3932],[-62.68782,8.38157],[-62.66713,8.38416],[-62.64842,8.39698],[-62.63443,8.41243],[-62.62201,8.43141],[-62.61945,8.4475],[-62.6116,8.46384],[-62.59954,8.47131],[-62.55847,8.47653],[-62.54499,8.50234],[-62.53547,8.51049],[-62.52199,8.51329],[-62.44904,8.51286],[-62.42887,8.51601],[-62.40043,8.52441],[-62.3772,8.53714],[-62.33557,8.56532],[-62.33364,8.57449],[-62.3263,8.58586],[-62.31428,8.59761],[-62.30158,8.60576],[-62.28677,8.60648],[-62.27755,8.59413],[-62.26025,8.58696],[-62.2357,8.59647],[-62.23124,8.63949],[-62.22532,8.65218],[-62.20013,8.67085],[-62.19094,8.68714],[-62.18189,8.69549],[-62.14953,8.70326],[-62.12563,8.71365],[-62.11957,8.72179]]]}}]}