{"type":"FeatureCollection","features":[{"type":"Feature","id":"node/333673827","properties":{"name":"Matur\u00edn","place":"city","population":"521955"},"geometry":{"type":"Point","coordinates":[-63.18889,9.74228]}},{"type":"Feature","id":"node/1517424173","properties":{"name":"Los Barrancos de Fajardo","place":"town"},"geometry":{"type":"Point","coordinates":[-62.6837,8.39673]}},{"type":"Feature","id":"node/2037560087","properties":{"name":"El Aceital","place":"town"},"geometry":{"type":"Point","coordinates":[-63.03297,8.71575]}},{"type":"Feature","id":"node/2078243010","properties":{"name":"Barrancas del Orinoco","place":"city"},"geometry":{"type":"Point","coordinates":[-62.19904,8.70147]}},{"type":"Feature","id":"node/2133103626","properties":{"name":"Caripe","place":"town"},"geometry":{"type":"Point","coordinates":[-63.50057,10.17321]}},{"type":"Feature","id":"node/2133811134","properties":{"name":"Guanaguana","place":"town"},"geometry":{"type":"Point","coordinates":[-63.61073,10.07793]}},{"type":"Feature","id":"node/2133811427","properties":{"name":"Aragua de Matur\u00edn","place":"town"},"geometry":{"type":"Point","coordinates":[-63.488,9.9685]}},{"type":"Feature","id":"node/2172650557","properties":{"name":"El Tejero","place":"town"},"geometry":{"type":"Point","coordinates":[-63.67008,9.63644]}},{"type":"Feature","id":"node/2172650558","properties":{"name":"Punta de Mata","place":"city","population":"70000"},"geometry":{"type":"Point","coordinates":[-63.61102,9.68659]}},{"type":"Feature","id":"node/2175316954","properties":{"name":"Aguasay","place":"town","population":"15000"},"geometry":{"type":"Point","coordinates":[-63.73094,9.4277]}},{"type":"Feature","id":"node/2175316955","properties":{"name":"Caicara de Matur\u00edn","place":"town","population":"20000"},"geometry":{"type":"Point","coordinates":[-63.61252,9.81711]}},{"type":"Feature","id":"node/2175316956","properties":{"name":"Caripito","place":"city"},"geometry":{"type":"Point","coordinates":[-63.10344,10.11239]}},{"type":"Feature","id":"node/2175316957","properties":{"name":"San Antonio de Capayacuar","place":"town"},"geometry":{"type":"Point","coordinates":[-63.72688,10.1209]}},{"type":"Feature","id":"node/2232232584","properties":{"name":"La Toscana","place":"town"},"geometry":{"type":"Point","coordinates":[-63.32907,9.8035]}},{"type":"Feature","id":"node/2240749345","properties":{"name":"Quiriquire","place":"town"},"geometry":{"type":"Point","coordinates":[-63.21986,9.97817]}},{"type":"Feature","id":"node/2240749348","properties":{"name":"Santa B\u00e1rbara","place":"town","population":"7694"},"geometry":{"type":"Point","coordinates":[-63.61041,9.60753]}},{"type":"Feature","id":"node/2240749354","properties":{"name":"Temblador","place":"city","population":"37850"},"geometry":{"type":"Point","coordinates":[-62.64,9.00762]}},{"type":"Feature","id":"node/2240749359","properties":{"name":"Uracoa","place":"town","population":"8137"},"geometry":{"type":"Point","coordinates":[-62.35127,8.99469]}},{"type":"Feature","id":"node/2293161456","properties":{"name":"El Furrial","place":"town"},"geometry":{"type":"Point","coordinates":[-63.44403,9.68613]}},{"type":"Feature","id":"node/2370930248","properties":{"name":"La Pica","place":"town"},"geometry":{"type":"Point","coordinates":[-63.07053,9.794]}},{"type":"Feature","id":"node/2403019720","properties":{"name":"Aparicio","place":"town"},"geometry":{"type":"Point","coordinates":[-63.56854,10.01009]}},{"type":"Feature","id":"node/2403019721","properties":{"name":"Cachipo","place":"town"},"geometry":{"type":"Point","coordinates":[-63.14576,9.91704]}},{"type":"Feature","id":"node/2403019723","properties":{"name":"Chaguaramal","place":"town"},"geometry":{"type":"Point","coordinates":[-63.38641,9.8394]}},{"type":"Feature","id":"node/2403019724","properties":{"name":"Chaparral","place":"village"},"geometry":{"type":"Point","coordinates":[-63.42216,9.87423]}},{"type":"Feature","id":"node/2403019725","properties":{"name":"Costo Abajo","place":"village"},"geometry":{"type":"Point","coordinates":[-63.25775,9.79903]}},{"type":"Feature","id":"node/2403019727","properties":{"name":"Zamuro Afuera","place":"village"},"geometry":{"type":"Point","coordinates":[-63.16018,9.88501]}},{"type":"Feature","id":"node/2403019728","properties":{"name":"Guayabal","place":"village"},"geometry":{"type":"Point","coordinates":[-63.29984,9.80114]}},{"type":"Feature","id":"node/2403019729","properties":{"name":"Taguaya","place":"town"},"geometry":{"type":"Point","coordinates":[-63.45848,9.94072]}},{"type":"Feature","id":"node/2403019730","properties":{"name":"El Tropical","place":"town"},"geometry":{"type":"Point","coordinates":[-63.1657,9.9365]}},{"type":"Feature","id":"node/2403693572","properties":{"name":"El Corozo","place":"town"},"geometry":{"type":"Point","coordinates":[-63.37155,9.69163]}},{"type":"Feature","id":"node/2403693573","properties":{"name":"Jusep\u00edn","place":"town"},"geometry":{"type":"Point","coordinates":[-63.46442,9.75699]}},{"type":"Feature","id":"node/2427190937","properties":{"name":"Amarilis","place":"village"},"geometry":{"type":"Point","coordinates":[-63.35112,9.6441]}},{"type":"Feature","id":"node/2778696010","properties":{"name":"La Guanota","place":"town"},"geometry":{"type":"Point","coordinates":[-63.52452,10.21305]}},{"type":"Feature","id":"node/3032259406","properties":{"name":"Yabinoko","place":"village","population":"300"},"geometry":{"type":"Point","coordinates":[-62.46478,9.58843]}},{"type":"Feature","id":"node/4313778740","properties":{"name":"La Meseta","place":"village"},"geometry":{"type":"Point","coordinates":[-63.64482,9.7505]}},{"type":"Feature","id":"node/4313778741","properties":{"name":"Viento Fresco","place":"town"},"geometry":{"type":"Point","coordinates":[-63.67526,9.76935]}},{"type":"Feature","id":"node/4314428322","properties":{"name":"Cantarrana","place":"village"},"geometry":{"type":"Point","coordinates":[-63.13995,10.19569]}},{"type":"Feature","id":"node/4582440736","properties":{"name":"Altamira","place":"village"},"geometry":{"type":"Point","coordinates":[-63.79783,9.30935]}},{"type":"Feature","id":"node/4679032845","properties":{"name":"San Juan de Azagua","place":"village"},"geometry":{"type":"Point","coordinates":[-63.14829,10.01319]}},{"type":"Feature","id":"node/4679032874","properties":{"name":"R\u00edo Bonito","place":"village"},"geometry":{"type":"Point","coordinates":[-63.1265,10.02167]}},{"type":"Feature","id":"node/4679038323","properties":{"name":"San Francisco","place":"town"},"geometry":{"type":"Point","coordinates":[-63.69217,10.13459]}},{"type":"Feature","id":"node/4679045561","properties":{"name":"Potrerito","place":"town"},"geometry":{"type":"Point","coordinates":[-63.49669,9.70404]}},{"type":"Feature","id":"node/4679052635","properties":{"name":"Caicarita","place":"village"},"geometry":{"type":"Point","coordinates":[-63.59194,9.73857]}},{"type":"Feature","id":"node/4679066541","properties":{"name":"La Candelaria","place":"town"},"geometry":{"type":"Point","coordinates":[-63.40808,9.68396]}},{"type":"Feature","id":"node/4682616815","properties":{"name":"Orocual","place":"village"},"geometry":{"type":"Point","coordinates":[-63.2677,9.83905]}},{"type":"Feature","id":"node/4683732831","properties":{"name":"Campo Miraflores","place":"town"},"geometry":{"type":"Point","coordinates":[-63.17981,9.96112]}},{"type":"Feature","id":"node/4683765035","properties":{"name":"La Bruja","place":"village"},"geometry":{"type":"Point","coordinates":[-63.27675,9.96106]}},{"type":"Feature","id":"node/4683816539","properties":{"name":"La Curva","place":"village"},"geometry":{"type":"Point","coordinates":[-63.16475,9.97407]}},{"type":"Feature","id":"node/4684716719","properties":{"name":"Ca\u00f1o Los Becerros","place":"village"},"geometry":{"type":"Point","coordinates":[-63.41939,9.91301]}},{"type":"Feature","id":"node/4684726009","properties":{"name":"23 de Enero","place":"village"},"geometry":{"type":"Point","coordinates":[-63.15307,9.9959]}},{"type":"Feature","id":"node/4684726736","properties":{"name":"El Danto","place":"village"},"geometry":{"type":"Point","coordinates":[-63.16066,10.04648]}},{"type":"Feature","id":"node/4684736046","properties":{"name":"Los P\u00e9rez","place":"village"},"geometry":{"type":"Point","coordinates":[-63.54597,10.02472]}},{"type":"Feature","id":"node/4684738226","properties":{"name":"Quebrada Seca","place":"village"},"geometry":{"type":"Point","coordinates":[-63.61233,9.99607]}},{"type":"Feature","id":"node/4684740122","properties":{"name":"San F\u00e9lix de Caicara","place":"town"},"geometry":{"type":"Point","coordinates":[-63.65384,9.95644]}},{"type":"Feature","id":"node/4684746897","properties":{"name":"Areo","place":"town"},"geometry":{"type":"Point","coordinates":[-63.79551,9.74694]}},{"type":"Feature","id":"node/4686134138","properties":{"name":"La Reforma","place":"village"},"geometry":{"type":"Point","coordinates":[-63.1292,10.00094]}},{"type":"Feature","id":"node/4686135419","properties":{"name":"Bejucales","place":"village"},"geometry":{"type":"Point","coordinates":[-63.50468,9.75983]}},{"type":"Feature","id":"node/4686142129","properties":{"name":"Boca de R\u00edo Chiquito","place":"village"},"geometry":{"type":"Point","coordinates":[-63.55375,10.07241]}},{"type":"Feature","id":"node/4686142947","properties":{"name":"Teres\u00e9n","place":"town"},"geometry":{"type":"Point","coordinates":[-63.46438,10.19323]}},{"type":"Feature","id":"node/4686143007","properties":{"name":"Culantrillar","place":"village"},"geometry":{"type":"Point","coordinates":[-63.50139,10.2382]}},{"type":"Feature","id":"node/4686143059","properties":{"name":"Triste","place":"village"},"geometry":{"type":"Point","coordinates":[-63.70906,10.15095]}},{"type":"Feature","id":"node/5176480584","properties":{"name":"La Morrocoya","place":"town"},"geometry":{"type":"Point","coordinates":[-62.85168,9.51623]}},{"type":"Feature","id":"node/5244571853","properties":{"name":"Los Pozos","place":"village"},"geometry":{"type":"Point","coordinates":[-63.811,9.84487]}},{"type":"Feature","id":"node/5244572280","properties":{"name":"La Laguna","place":"village"},"geometry":{"type":"Point","coordinates":[-63.9438,9.97191]}},{"type":"Feature","id":"node/5244583414","properties":{"name":"El Manguito","place":"village"},"geometry":{"type":"Point","coordinates":[-63.7646,10.10516]}},{"type":"Feature","id":"node/5244608974","properties":{"name":"Rucio Viejo","place":"village"},"geometry":{"type":"Point","coordinates":[-63.39336,9.73437]}},{"type":"Feature","id":"node/5244634576","properties":{"name":"Mor\u00f3n","place":"town"},"geometry":{"type":"Point","coordinates":[-63.52911,9.61313]}},{"type":"Feature","id":"node/5244634605","properties":{"name":"Musip\u00e1n","place":"village"},"geometry":{"type":"Point","coordinates":[-63.53648,9.64309]}},{"type":"Feature","id":"node/5244666809","properties":{"name":"El Blanquero","place":"village"},"geometry":{"type":"Point","coordinates":[-63.01316,9.37709]}},{"type":"Feature","id":"node/5244666970","properties":{"name":"Uverito","place":"village"},"geometry":{"type":"Point","coordinates":[-62.63058,8.67263]}},{"type":"Feature","id":"node/5244681965","properties":{"name":"Oritupano","place":"village"},"geometry":{"type":"Point","coordinates":[-63.44705,9.05245]}},{"type":"Feature","id":"node/5245685388","properties":{"name":"Campo Morichal","place":"village"},"geometry":{"type":"Point","coordinates":[-63.0744,8.84342]}},{"type":"Feature","id":"node/5246506504","properties":{"name":"La Dominga","place":"village","population":"500"},"geometry":{"type":"Point","coordinates":[-63.65147,9.70635]}},{"type":"Feature","id":"node/5250402081","properties":{"name":"Aribi","place":"village"},"geometry":{"type":"Point","coordinates":[-63.66843,9.22436]}},{"type":"Feature","id":"node/5250514398","properties":{"name":"Periquito","place":"town"},"geometry":{"type":"Point","coordinates":[-63.87286,9.25965]}},{"type":"Feature","id":"node/5250514474","properties":{"name":"El Caro","place":"village"},"geometry":{"type":"Point","coordinates":[-63.90754,9.28833]}},{"type":"Feature","id":"node/5250514590","properties":{"name":"Tonoro","place":"village"},"geometry":{"type":"Point","coordinates":[-63.82612,9.53607]}},{"type":"Feature","id":"node/5251967723","properties":{"name":"Carisito","place":"village"},"geometry":{"type":"Point","coordinates":[-63.9185,9.3718]}},{"type":"Feature","id":"node/5256829720","properties":{"name":"San Antonio de Tabasca","place":"town"},"geometry":{"type":"Point","coordinates":[-62.38145,9.04211]}},{"type":"Feature","id":"node/5256829822","properties":{"name":"Boca de Uracoa","place":"village"},"geometry":{"type":"Point","coordinates":[-62.32991,9.12557]}},{"type":"Feature","id":"node/5256829832","properties":{"name":"Corozal","place":"village"},"geometry":{"type":"Point","coordinates":[-62.37329,9.13104]}},{"type":"Feature","id":"node/5256829862","properties":{"name":"El Mango","place":"village"},"geometry":{"type":"Point","coordinates":[-62.21578,8.96525]}},{"type":"Feature","id":"node/5256845717","properties":{"name":"Sarabia","place":"village"},"geometry":{"type":"Point","coordinates":[-62.20016,8.95658]}},{"type":"Feature","id":"node/5256845744","properties":{"name":"Agua Dulce","place":"village"},"geometry":{"type":"Point","coordinates":[-62.16838,8.9405]}},{"type":"Feature","id":"node/5256845785","properties":{"name":"El Purgual","place":"village"},"geometry":{"type":"Point","coordinates":[-62.15641,8.93348]}},{"type":"Feature","id":"node/5256845847","properties":{"name":"Bajo Grande","place":"village"},"geometry":{"type":"Point","coordinates":[-62.13674,8.93149]}},{"type":"Feature","id":"node/5256845945","properties":{"name":"El Para\u00edso de Guara","place":"village"},"geometry":{"type":"Point","coordinates":[-62.07321,8.92639]}},{"type":"Feature","id":"node/5256845977","properties":{"name":"Guarita","place":"town"},"geometry":{"type":"Point","coordinates":[-62.07046,8.89202]}},{"type":"Feature","id":"node/5256846021","properties":{"name":"Boca de Guara","place":"village"},"geometry":{"type":"Point","coordinates":[-62.06025,8.8815]}},{"type":"Feature","id":"node/5256853405","properties":{"name":"Paloma de Chamberi","place":"village"},"geometry":{"type":"Point","coordinates":[-62.09472,8.97225]}},{"type":"Feature","id":"node/5257378636","properties":{"name":"Chaguaramo de Paloma","place":"village"},"geometry":{"type":"Point","coordinates":[-62.08011,9.00065]}},{"type":"Feature","id":"node/5257378648","properties":{"name":"Mata de Venado","place":"village"},"geometry":{"type":"Point","coordinates":[-62.61597,8.98193]}},{"type":"Feature","id":"node/5257378675","properties":{"name":"Las Alhuacas","place":"town"},"geometry":{"type":"Point","coordinates":[-62.47706,9.10284]}},{"type":"Feature","id":"node/5269967232","properties":{"name":"Mata Negra","place":"village"},"geometry":{"type":"Point","coordinates":[-62.745,8.98758]}},{"type":"Feature","id":"node/5401532906","properties":{"name":"El Salto","place":"village"},"geometry":{"type":"Point","coordinates":[-63.13016,8.92688]}},{"type":"Feature","id":"node/5430008878","properties":{"name":"Boquer\u00f3n de Amana","place":"town"},"geometry":{"type":"Point","coordinates":[-63.2638,9.61218]}},{"type":"Feature","id":"node/5430013581","properties":{"name":"Chaguaramas","place":"town"},"geometry":{"type":"Point","coordinates":[-62.77641,8.66646]}},{"type":"Feature","id":"node/5432235626","properties":{"name":"Mos\u00fa","place":"village"},"geometry":{"type":"Point","coordinates":[-63.04763,10.06768]}},{"type":"Feature","id":"node/5434309971","properties":{"name":"Mantecal","place":"village"},"geometry":{"type":"Point","coordinates":[-62.79014,8.96483]}},{"type":"Feature","id":"node/5434310140","properties":{"name":"El Pel\u00f3n","place":"village"},"geometry":{"type":"Point","coordinates":[-62.81862,8.89165]}},{"type":"Feature","id":"node/5434310152","properties":{"name":"San Jos\u00e9 de Yabo","place":"village"},"geometry":{"type":"Point","coordinates":[-62.90214,8.8226]}},{"type":"Feature","id":"node/5434310194","properties":{"name":"La Madera","place":"village"},"geometry":{"type":"Point","coordinates":[-63.09054,9.1285]}},{"type":"Feature","id":"node/5434310195","properties":{"name":"La Centella","place":"village"},"geometry":{"type":"Point","coordinates":[-63.07889,9.14293]}},{"type":"Feature","id":"node/5434310196","properties":{"name":"La Centellita","place":"village"},"geometry":{"type":"Point","coordinates":[-63.05218,9.2058]}},{"type":"Feature","id":"node/5434310197","properties":{"name":"Santa B\u00e1rbara de Sotillo","place":"village"},"geometry":{"type":"Point","coordinates":[-62.93147,9.26715]}},{"type":"Feature","id":"node/5434310198","properties":{"name":"El Silencio","place":"village"},"geometry":{"type":"Point","coordinates":[-62.83047,9.16691]}},{"type":"Feature","id":"node/5434310199","properties":{"name":"Morichal Largo","place":"village"},"geometry":{"type":"Point","coordinates":[-62.79293,9.15069]}},{"type":"Feature","id":"node/5434310201","properties":{"name":"El Canuto","place":"village"},"geometry":{"type":"Point","coordinates":[-63.0725,9.39414]}},{"type":"Feature","id":"node/5434310435","properties":{"name":"El Corozito","place":"village"},"geometry":{"type":"Point","coordinates":[-63.11842,9.40513]}},{"type":"Feature","id":"node/5434310436","properties":{"name":"Amana del Tamarindo","place":"town"},"geometry":{"type":"Point","coordinates":[-63.12342,9.64479]}},{"type":"Feature","id":"node/5434310439","properties":{"name":"El Rinc\u00f3n de Monagas","place":"village"},"geometry":{"type":"Point","coordinates":[-63.07085,9.6884]}},{"type":"Feature","id":"node/5434310441","properties":{"name":"El Sam\u00e1n","place":"village"},"geometry":{"type":"Point","coordinates":[-63.05757,9.73625]}},{"type":"Feature","id":"node/5434310442","properties":{"name":"Altamira","place":"village"},"geometry":{"type":"Point","coordinates":[-63.03442,9.73094]}},{"type":"Feature","id":"node/5434310444","properties":{"name":"Zamuro Adentro","place":"village"},"geometry":{"type":"Point","coordinates":[-63.12929,9.8778]}},{"type":"Feature","id":"node/5434310445","properties":{"name":"Puente Punceres","place":"town"},"geometry":{"type":"Point","coordinates":[-63.15308,9.90819]}},{"type":"Feature","id":"node/5436074206","properties":{"name":"Las Bestias","place":"village"},"geometry":{"type":"Point","coordinates":[-63.01845,9.61927]}},{"type":"Feature","id":"node/5437490403","properties":{"name":"Ca\u00f1o del Medio","place":"village"},"geometry":{"type":"Point","coordinates":[-62.80006,9.52233]}},{"type":"Feature","id":"node/5437490412","properties":{"name":"El Respiro","place":"village"},"geometry":{"type":"Point","coordinates":[-62.79624,9.4563]}},{"type":"Feature","id":"node/5437494003","properties":{"name":"Caratal de Buja","place":"village"},"geometry":{"type":"Point","coordinates":[-62.88774,9.48477]}},{"type":"Feature","id":"node/5437494025","properties":{"name":"Monte Oscuro","place":"village"},"geometry":{"type":"Point","coordinates":[-62.82959,9.1431]}},{"type":"Feature","id":"node/5437494042","properties":{"name":"La Uni\u00f3n","place":"village"},"geometry":{"type":"Point","coordinates":[-62.85692,9.13166]}},{"type":"Feature","id":"node/5437494059","properties":{"name":"Villa Nueva","place":"village"},"geometry":{"type":"Point","coordinates":[-62.8922,9.10887]}},{"type":"Feature","id":"node/5437494071","properties":{"name":"El Chispero","place":"village"},"geometry":{"type":"Point","coordinates":[-62.84441,9.21285]}},{"type":"Feature","id":"node/5437494080","properties":{"name":"San Pablo","place":"village"},"geometry":{"type":"Point","coordinates":[-63.1004,10.06878]}},{"type":"Feature","id":"node/5437494081","properties":{"name":"El Terminal","place":"village"},"geometry":{"type":"Point","coordinates":[-63.09937,10.04667]}},{"type":"Feature","id":"node/5437494082","properties":{"name":"Kil\u00f3metro 9","place":"village"},"geometry":{"type":"Point","coordinates":[-63.10414,10.03852]}},{"type":"Feature","id":"node/5437494083","properties":{"name":"Buena Vista","place":"village"},"geometry":{"type":"Point","coordinates":[-63.30479,9.97332]}},{"type":"Feature","id":"node/5437494084","properties":{"name":"El Pinto","place":"village"},"geometry":{"type":"Point","coordinates":[-63.32484,9.97951]}},{"type":"Feature","id":"node/5437494091","properties":{"name":"Alto del Salobre","place":"village"},"geometry":{"type":"Point","coordinates":[-63.33988,9.98178]}},{"type":"Feature","id":"node/5437494092","properties":{"name":"Mesa de Punceres","place":"village"},"geometry":{"type":"Point","coordinates":[-63.38203,9.97404]}},{"type":"Feature","id":"node/5437494376","properties":{"name":"Morichal","place":"village"},"geometry":{"type":"Point","coordinates":[-63.38108,9.8567]}},{"type":"Feature","id":"node/5437494396","properties":{"name":"Los Mangos de Orocual","place":"village"},"geometry":{"type":"Point","coordinates":[-63.3552,9.86573]}},{"type":"Feature","id":"node/5437494397","properties":{"name":"Las Minas de Orocual","place":"village"},"geometry":{"type":"Point","coordinates":[-63.37633,9.8693]}},{"type":"Feature","id":"node/5437494401","properties":{"name":"Las Canoas","place":"village"},"geometry":{"type":"Point","coordinates":[-63.39764,9.97094]}},{"type":"Feature","id":"node/5437494402","properties":{"name":"Las Ch\u00e1caras","place":"village"},"geometry":{"type":"Point","coordinates":[-63.39028,9.95285]}},{"type":"Feature","id":"node/5437494404","properties":{"name":"El Banco de Acosta","place":"village"},"geometry":{"type":"Point","coordinates":[-63.43009,9.8999]}},{"type":"Feature","id":"node/5437494405","properties":{"name":"El Manguito","place":"village"},"geometry":{"type":"Point","coordinates":[-63.43566,9.88369]}},{"type":"Feature","id":"node/5437494406","properties":{"name":"La Soledad","place":"village"},"geometry":{"type":"Point","coordinates":[-63.42781,9.88847]}},{"type":"Feature","id":"node/5437494407","properties":{"name":"Quebrada del Cura","place":"village"},"geometry":{"type":"Point","coordinates":[-63.40537,9.8546]}},{"type":"Feature","id":"node/5437494409","properties":{"name":"Alto de Castro","place":"village"},"geometry":{"type":"Point","coordinates":[-63.36402,9.81124]}},{"type":"Feature","id":"node/5437494410","properties":{"name":"Barrancas","place":"village"},"geometry":{"type":"Point","coordinates":[-63.35906,9.78462]}},{"type":"Feature","id":"node/5437494411","properties":{"name":"Sabaneta","place":"village"},"geometry":{"type":"Point","coordinates":[-63.35196,9.75078]}},{"type":"Feature","id":"node/5437494480","properties":{"name":"El Caituco","place":"village"},"geometry":{"type":"Point","coordinates":[-63.48543,9.8379]}},{"type":"Feature","id":"node/5437494481","properties":{"name":"Manresa","place":"village"},"geometry":{"type":"Point","coordinates":[-63.50824,9.9137]}},{"type":"Feature","id":"node/5437494482","properties":{"name":"La Orejana","place":"village"},"geometry":{"type":"Point","coordinates":[-63.4493,9.87521]}},{"type":"Feature","id":"node/5437494497","properties":{"name":"Guayuta","place":"village"},"geometry":{"type":"Point","coordinates":[-63.43857,9.91436]}},{"type":"Feature","id":"node/5437494551","properties":{"name":"El Sesenta","place":"village"},"geometry":{"type":"Point","coordinates":[-63.22398,9.94611]}},{"type":"Feature","id":"node/5437494552","properties":{"name":"Sabana Larga","place":"village"},"geometry":{"type":"Point","coordinates":[-63.249,9.93386]}},{"type":"Feature","id":"node/5437494595","properties":{"name":"Los Ba\u00f1os","place":"village"},"geometry":{"type":"Point","coordinates":[-63.26917,9.97317]}},{"type":"Feature","id":"node/5437494762","properties":{"name":"La Cruz Blanca","place":"village"},"geometry":{"type":"Point","coordinates":[-63.25031,9.96915]}},{"type":"Feature","id":"node/5437494763","properties":{"name":"La Cruz Negra","place":"village"},"geometry":{"type":"Point","coordinates":[-63.24447,9.9838]}},{"type":"Feature","id":"node/5437571257","properties":{"name":"El Bagre","place":"village"},"geometry":{"type":"Point","coordinates":[-63.10321,9.92149]}},{"type":"Feature","id":"node/5462016685","properties":{"name":"Tropez\u00f3n","place":"village"},"geometry":{"type":"Point","coordinates":[-63.76644,10.16271]}},{"type":"Feature","id":"node/5462016686","properties":{"name":"R\u00edo Cocollar","place":"village"},"geometry":{"type":"Point","coordinates":[-63.74421,10.15945]}},{"type":"Feature","id":"node/5462016687","properties":{"name":"Campo Alegre","place":"village"},"geometry":{"type":"Point","coordinates":[-63.71718,10.16463]}},{"type":"Feature","id":"node/5462016688","properties":{"name":"Miraflores","place":"village"},"geometry":{"type":"Point","coordinates":[-63.7052,10.16923]}},{"type":"Feature","id":"node/5462016689","properties":{"name":"El Banqueado","place":"village"},"geometry":{"type":"Point","coordinates":[-63.68581,10.15274]}},{"type":"Feature","id":"node/5462016691","properties":{"name":"Cachimbo","place":"village"},"geometry":{"type":"Point","coordinates":[-63.67636,10.09446]}},{"type":"Feature","id":"node/5462016692","properties":{"name":"San Francisco","place":"village"},"geometry":{"type":"Point","coordinates":[-63.63866,10.09651]}},{"type":"Feature","id":"node/5462016693","properties":{"name":"Jobo Macho","place":"village"},"geometry":{"type":"Point","coordinates":[-63.63036,10.08195]}},{"type":"Feature","id":"node/5462016694","properties":{"name":"Pueblo Viejo","place":"village"},"geometry":{"type":"Point","coordinates":[-63.60508,10.05267]}},{"type":"Feature","id":"node/5462016697","properties":{"name":"Campo Alegre","place":"village"},"geometry":{"type":"Point","coordinates":[-63.5432,10.08049]}},{"type":"Feature","id":"node/5462016699","properties":{"name":"Manapire","place":"village"},"geometry":{"type":"Point","coordinates":[-63.5538,10.04445]}},{"type":"Feature","id":"node/5462016700","properties":{"name":"Crucero de Aparicio","place":"village"},"geometry":{"type":"Point","coordinates":[-63.54498,10.01018]}},{"type":"Feature","id":"node/5462016701","properties":{"name":"La Campana","place":"village"},"geometry":{"type":"Point","coordinates":[-63.63808,10.11818]}},{"type":"Feature","id":"node/5462016702","properties":{"name":"Hierbabuena","place":"village"},"geometry":{"type":"Point","coordinates":[-63.62549,10.12348]}},{"type":"Feature","id":"node/5462016703","properties":{"name":"Corral Viejo","place":"village"},"geometry":{"type":"Point","coordinates":[-63.60206,10.1358]}},{"type":"Feature","id":"node/5462016704","properties":{"name":"Periquito","place":"village"},"geometry":{"type":"Point","coordinates":[-63.59605,10.14528]}},{"type":"Feature","id":"node/5462016705","properties":{"name":"Las Vegas","place":"village"},"geometry":{"type":"Point","coordinates":[-63.58013,10.15107]}},{"type":"Feature","id":"node/5462016706","properties":{"name":"El Guamo","place":"village"},"geometry":{"type":"Point","coordinates":[-63.56262,10.14744]}},{"type":"Feature","id":"node/5462016707","properties":{"name":"Los Dos Alambres","place":"village"},"geometry":{"type":"Point","coordinates":[-63.54901,10.1498]}},{"type":"Feature","id":"node/5462016708","properties":{"name":"El Gu\u00e1charo","place":"village"},"geometry":{"type":"Point","coordinates":[-63.5361,10.15075]}},{"type":"Feature","id":"node/5462016750","properties":{"name":"Boquer\u00f3n","place":"village"},"geometry":{"type":"Point","coordinates":[-63.53974,10.21392]}},{"type":"Feature","id":"node/5462016751","properties":{"name":"Altamira","place":"village"},"geometry":{"type":"Point","coordinates":[-63.512,10.23278]}},{"type":"Feature","id":"node/5462016752","properties":{"name":"Sabana de Piedra","place":"town"},"geometry":{"type":"Point","coordinates":[-63.55453,10.22083]}},{"type":"Feature","id":"node/5462016753","properties":{"name":"Tierra Blanca","place":"village"},"geometry":{"type":"Point","coordinates":[-63.55315,10.23719]}},{"type":"Feature","id":"node/5464789463","properties":{"name":"La Pica","place":"village"},"geometry":{"type":"Point","coordinates":[-63.7698,10.15476]}},{"type":"Feature","id":"node/5464789951","properties":{"name":"Tacarigua","place":"village"},"geometry":{"type":"Point","coordinates":[-63.53226,10.25888]}},{"type":"Feature","id":"node/5464789957","properties":{"name":"La Laguna","place":"village"},"geometry":{"type":"Point","coordinates":[-63.54237,10.18477]}},{"type":"Feature","id":"node/5464789966","properties":{"name":"El Palmar","place":"village"},"geometry":{"type":"Point","coordinates":[-63.60931,10.1584]}},{"type":"Feature","id":"node/5464789991","properties":{"name":"Pardilar Abajo","place":"village"},"geometry":{"type":"Point","coordinates":[-63.64866,10.05776]}},{"type":"Feature","id":"node/5464790008","properties":{"name":"La Tigra","place":"village"},"geometry":{"type":"Point","coordinates":[-63.71667,10.07854]}},{"type":"Feature","id":"node/5464790013","properties":{"name":"Laguna de Ipure","place":"village"},"geometry":{"type":"Point","coordinates":[-63.75656,10.12164]}},{"type":"Feature","id":"node/5464790015","properties":{"name":"Sabana de Ipure","place":"village"},"geometry":{"type":"Point","coordinates":[-63.75413,10.10779]}},{"type":"Feature","id":"node/5464790016","properties":{"name":"La Chaguarama","place":"village"},"geometry":{"type":"Point","coordinates":[-63.76066,10.09217]}},{"type":"Feature","id":"node/5464790017","properties":{"name":"Los Caballos","place":"village"},"geometry":{"type":"Point","coordinates":[-63.74566,10.09746]}},{"type":"Feature","id":"node/5464790018","properties":{"name":"Monte Oscuro","place":"village"},"geometry":{"type":"Point","coordinates":[-63.73155,10.09348]}},{"type":"Feature","id":"node/5464790019","properties":{"name":"La Loma de la V\u00edrgen","place":"village"},"geometry":{"type":"Point","coordinates":[-63.71978,10.08814]}},{"type":"Feature","id":"node/5464790321","properties":{"name":"Como Tirar","place":"village"},"geometry":{"type":"Point","coordinates":[-63.74926,10.07139]}},{"type":"Feature","id":"node/5464790322","properties":{"name":"La Ceiba","place":"village"},"geometry":{"type":"Point","coordinates":[-63.75735,10.06125]}},{"type":"Feature","id":"node/5464790323","properties":{"name":"El Arbolito","place":"village"},"geometry":{"type":"Point","coordinates":[-63.76857,10.05259]}},{"type":"Feature","id":"node/5464790324","properties":{"name":"Buena Vista","place":"village"},"geometry":{"type":"Point","coordinates":[-63.78977,10.04416]}},{"type":"Feature","id":"node/5464790325","properties":{"name":"Las Pi\u00f1as","place":"village"},"geometry":{"type":"Point","coordinates":[-63.7695,10.09314]}},{"type":"Feature","id":"node/5464790326","properties":{"name":"Rosa Cruz","place":"village"},"geometry":{"type":"Point","coordinates":[-63.7749,10.1027]}},{"type":"Feature","id":"node/5464790327","properties":{"name":"El Manguito","place":"village"},"geometry":{"type":"Point","coordinates":[-63.78631,10.08383]}},{"type":"Feature","id":"node/5464790328","properties":{"name":"Quiriquire de Capayacuar","place":"village"},"geometry":{"type":"Point","coordinates":[-63.79713,10.09694]}},{"type":"Feature","id":"node/5464790335","properties":{"name":"Los Mangos","place":"village"},"geometry":{"type":"Point","coordinates":[-63.79414,10.02615]}},{"type":"Feature","id":"node/5464790337","properties":{"name":"Los Horconcitos","place":"village"},"geometry":{"type":"Point","coordinates":[-63.81122,10.01379]}},{"type":"Feature","id":"node/5464790344","properties":{"name":"Buenos Aires","place":"village"},"geometry":{"type":"Point","coordinates":[-63.86147,10.01539]}},{"type":"Feature","id":"node/5464790345","properties":{"name":"Alto Amundarar","place":"village"},"geometry":{"type":"Point","coordinates":[-63.87373,10.01777]}},{"type":"Feature","id":"node/5464790346","properties":{"name":"Los Gonz\u00e1lez","place":"village"},"geometry":{"type":"Point","coordinates":[-63.88309,10.0171]}},{"type":"Feature","id":"node/5487172455","properties":{"name":"Juasjuillar","place":"village"},"geometry":{"type":"Point","coordinates":[-63.44962,10.26472]}},{"type":"Feature","id":"node/5487172466","properties":{"name":"Las Cinco Cruces","place":"village"},"geometry":{"type":"Point","coordinates":[-63.46647,10.25117]}},{"type":"Feature","id":"node/5487172470","properties":{"name":"Monagal","place":"village"},"geometry":{"type":"Point","coordinates":[-63.48355,10.25088]}},{"type":"Feature","id":"node/5487172471","properties":{"name":"Colorado","place":"village"},"geometry":{"type":"Point","coordinates":[-63.48157,10.24122]}},{"type":"Feature","id":"node/5487172472","properties":{"name":"El P\u00e1ramo","place":"village"},"geometry":{"type":"Point","coordinates":[-63.4901,10.22519]}},{"type":"Feature","id":"node/5487172489","properties":{"name":"Pueblo Nuevo","place":"village"},"geometry":{"type":"Point","coordinates":[-63.46086,10.11454]}},{"type":"Feature","id":"node/5487172490","properties":{"name":"Campo Florido","place":"village"},"geometry":{"type":"Point","coordinates":[-63.47631,10.10857]}},{"type":"Feature","id":"node/5487172491","properties":{"name":"Campo Alegre","place":"village"},"geometry":{"type":"Point","coordinates":[-63.49975,10.09766]}},{"type":"Feature","id":"node/5487172497","properties":{"name":"Piedra de Moler","place":"village"},"geometry":{"type":"Point","coordinates":[-63.42297,10.18128]}},{"type":"Feature","id":"node/5487172498","properties":{"name":"Yorocual","place":"village"},"geometry":{"type":"Point","coordinates":[-63.41813,10.16523]}},{"type":"Feature","id":"node/5487172501","properties":{"name":"Quebrada Grande","place":"village"},"geometry":{"type":"Point","coordinates":[-63.43621,10.2115]}},{"type":"Feature","id":"node/5487172502","properties":{"name":"Sabana del Aguacate","place":"village"},"geometry":{"type":"Point","coordinates":[-63.41207,10.20285]}},{"type":"Feature","id":"node/5487172504","properties":{"name":"Buenos Aires","place":"village"},"geometry":{"type":"Point","coordinates":[-63.36412,10.19929]}},{"type":"Feature","id":"node/5487173825","properties":{"name":"La Masparra","place":"village"},"geometry":{"type":"Point","coordinates":[-63.11663,10.14916]}},{"type":"Feature","id":"node/5487173826","properties":{"name":"Brisas del Play\u00f3n","place":"village"},"geometry":{"type":"Point","coordinates":[-63.10747,10.14041]}},{"type":"Feature","id":"node/5487173846","properties":{"name":"Los Caracoles","place":"village"},"geometry":{"type":"Point","coordinates":[-63.38825,10.05599]}},{"type":"Feature","id":"node/5487173861","properties":{"name":"Valle Solo","place":"village"},"geometry":{"type":"Point","coordinates":[-63.16901,10.12136]}},{"type":"Feature","id":"node/5487173862","properties":{"name":"Querepe","place":"village"},"geometry":{"type":"Point","coordinates":[-63.15764,10.03589]}},{"type":"Feature","id":"node/5587134207","properties":{"name":"Guarapiche","place":"village"},"geometry":{"type":"Point","coordinates":[-63.67422,9.99188]}},{"type":"Feature","id":"node/5587134210","properties":{"name":"La Llanera","place":"village"},"geometry":{"type":"Point","coordinates":[-63.62989,9.97598]}},{"type":"Feature","id":"node/5587134211","properties":{"name":"Pueblo Nuevo","place":"village"},"geometry":{"type":"Point","coordinates":[-63.63834,9.96812]}},{"type":"Feature","id":"node/5587135342","properties":{"name":"Los Cardones","place":"village"},"geometry":{"type":"Point","coordinates":[-63.64353,9.91717]}},{"type":"Feature","id":"node/5587135343","properties":{"name":"Los Arroyos","place":"village"},"geometry":{"type":"Point","coordinates":[-63.61595,9.92996]}},{"type":"Feature","id":"node/5587135354","properties":{"name":"Portachuelo","place":"village"},"geometry":{"type":"Point","coordinates":[-63.53977,10.0043]}},{"type":"Feature","id":"node/5587135360","properties":{"name":"La Laguna","place":"village"},"geometry":{"type":"Point","coordinates":[-63.51003,9.85388]}},{"type":"Feature","id":"node/5587135368","properties":{"name":"La Quebrada","place":"village"},"geometry":{"type":"Point","coordinates":[-63.55959,9.85584]}},{"type":"Feature","id":"node/5587135371","properties":{"name":"Bajo Grande","place":"village"},"geometry":{"type":"Point","coordinates":[-63.58745,9.83169]}},{"type":"Feature","id":"node/5587135374","properties":{"name":"Merecure","place":"village"},"geometry":{"type":"Point","coordinates":[-63.54691,9.7715]}},{"type":"Feature","id":"node/5587135377","properties":{"name":"Medina","place":"village"},"geometry":{"type":"Point","coordinates":[-63.53413,9.7314]}},{"type":"Feature","id":"node/5587135561","properties":{"name":"Punta Gorda","place":"village"},"geometry":{"type":"Point","coordinates":[-63.71856,9.66079]}},{"type":"Feature","id":"node/5587135563","properties":{"name":"Tarragona","place":"village"},"geometry":{"type":"Point","coordinates":[-63.90174,9.67803]}},{"type":"Feature","id":"node/5587135573","properties":{"name":"San Ram\u00f3n","place":"village"},"geometry":{"type":"Point","coordinates":[-63.81135,9.66352]}},{"type":"Feature","id":"node/5587135591","properties":{"name":"San Juan","place":"village"},"geometry":{"type":"Point","coordinates":[-63.85644,9.88788]}},{"type":"Feature","id":"node/5587135594","properties":{"name":"Alto de San Juan","place":"village"},"geometry":{"type":"Point","coordinates":[-63.89656,9.90969]}},{"type":"Feature","id":"node/5587135596","properties":{"name":"Loma del Viento","place":"village"},"geometry":{"type":"Point","coordinates":[-63.92756,9.92143]}},{"type":"Feature","id":"node/5590270986","properties":{"name":"La Paloma","place":"village"},"geometry":{"type":"Point","coordinates":[-63.27439,9.77749]}},{"type":"Feature","id":"node/5590270988","properties":{"name":"Las Piedras","place":"village"},"geometry":{"type":"Point","coordinates":[-63.42015,9.65384]}},{"type":"Feature","id":"node/5590273054","properties":{"name":"Los Riecitos","place":"village"},"geometry":{"type":"Point","coordinates":[-63.00912,9.76356]}},{"type":"Feature","id":"node/5590273062","properties":{"name":"La Locaci\u00f3n","place":"village"},"geometry":{"type":"Point","coordinates":[-63.01165,9.81395]}},{"type":"Feature","id":"node/5590273209","properties":{"name":"Asentamiento La Espezanda","place":"village"},"geometry":{"type":"Point","coordinates":[-62.98277,9.8224]}},{"type":"Feature","id":"node/5590273212","properties":{"name":"Quebrada Honda","place":"village"},"geometry":{"type":"Point","coordinates":[-63.00912,9.84847]}},{"type":"Feature","id":"node/5590273213","properties":{"name":"Vuelta Larga","place":"village"},"geometry":{"type":"Point","coordinates":[-63.02908,9.83439]}},{"type":"Feature","id":"node/5590273219","properties":{"name":"La Otra Sabana","place":"village"},"geometry":{"type":"Point","coordinates":[-63.10441,9.93825]}},{"type":"Feature","id":"node/5590273225","properties":{"name":"El Tigual","place":"village"},"geometry":{"type":"Point","coordinates":[-63.21738,9.89145]}},{"type":"Feature","id":"node/5590273226","properties":{"name":"Agua Clara","place":"village"},"geometry":{"type":"Point","coordinates":[-63.19684,9.86044]}},{"type":"Feature","id":"node/5590273231","properties":{"name":"La Esperanza de Orocual","place":"village"},"geometry":{"type":"Point","coordinates":[-63.30661,9.88154]}},{"type":"Feature","id":"node/5590273234","properties":{"name":"El Breal","place":"village"},"geometry":{"type":"Point","coordinates":[-63.32312,9.84744]}},{"type":"Feature","id":"node/5590274143","properties":{"name":"La Mesa de Antonio","place":"village"},"geometry":{"type":"Point","coordinates":[-63.41377,9.9933]}},{"type":"Feature","id":"node/5590305753","properties":{"name":"Los Ca\u00f1itos","place":"village"},"geometry":{"type":"Point","coordinates":[-62.98275,9.65988]}},{"type":"Feature","id":"node/5590305849","properties":{"name":"El Merey de Amana","place":"village"},"geometry":{"type":"Point","coordinates":[-62.99131,9.64797]}},{"type":"Feature","id":"node/5599371608","properties":{"name":"Curiepe","place":"village"},"geometry":{"type":"Point","coordinates":[-63.30947,9.5007]}},{"type":"Feature","id":"node/5599371609","properties":{"name":"Paso Real de San Antonio","place":"village"},"geometry":{"type":"Point","coordinates":[-63.20782,9.43741]}},{"type":"Feature","id":"node/5599371833","properties":{"name":"El Aceite","place":"village"},"geometry":{"type":"Point","coordinates":[-63.37693,9.4104]}},{"type":"Feature","id":"node/5599371864","properties":{"name":"El Zamuro","place":"village"},"geometry":{"type":"Point","coordinates":[-63.09998,9.62153]}},{"type":"Feature","id":"node/5599371871","properties":{"name":"Maripito","place":"village"},"geometry":{"type":"Point","coordinates":[-63.13825,9.60949]}},{"type":"Feature","id":"node/5599371875","properties":{"name":"Costa de La Iglesia","place":"village"},"geometry":{"type":"Point","coordinates":[-63.12663,9.58757]}},{"type":"Feature","id":"node/5599371878","properties":{"name":"El Chucuto","place":"village"},"geometry":{"type":"Point","coordinates":[-63.14424,9.58338]}},{"type":"Feature","id":"node/5599371896","properties":{"name":"San Antonio","place":"village"},"geometry":{"type":"Point","coordinates":[-63.02565,9.39148]}},{"type":"Feature","id":"node/5599449125","properties":{"name":"El Pedrero","place":"village"},"geometry":{"type":"Point","coordinates":[-63.71985,9.52307]}},{"type":"Feature","id":"node/5599449150","properties":{"name":"Pi\u00f1al de Currucay","place":"village"},"geometry":{"type":"Point","coordinates":[-63.81409,9.41854]}},{"type":"Feature","id":"node/5599449168","properties":{"name":"La Florida","place":"village"},"geometry":{"type":"Point","coordinates":[-63.68962,9.42865]}},{"type":"Feature","id":"node/5599449439","properties":{"name":"La Pulvia","place":"village"},"geometry":{"type":"Point","coordinates":[-63.63659,9.42248]}},{"type":"Feature","id":"node/5599449930","properties":{"name":"La Cot\u00faa","place":"village"},"geometry":{"type":"Point","coordinates":[-63.58452,9.3712]}},{"type":"Feature","id":"node/5606758825","properties":{"name":"Tabanal","place":"village"},"geometry":{"type":"Point","coordinates":[-63.60938,9.27652]}},{"type":"Feature","id":"node/5606758841","properties":{"name":"El Arenal","place":"village"},"geometry":{"type":"Point","coordinates":[-63.70919,9.27065]}},{"type":"Feature","id":"node/5606758845","properties":{"name":"La Mata del Medio","place":"village"},"geometry":{"type":"Point","coordinates":[-63.89859,9.215]}},{"type":"Feature","id":"node/5606758846","properties":{"name":"Carpintero","place":"village"},"geometry":{"type":"Point","coordinates":[-63.8501,9.27319]}},{"type":"Feature","id":"node/5606758847","properties":{"name":"Los Palos Blancos","place":"village"},"geometry":{"type":"Point","coordinates":[-63.89741,9.29314]}},{"type":"Feature","id":"node/5608353206","properties":{"name":"Lepagera","place":"village"},"geometry":{"type":"Point","coordinates":[-63.50609,9.15139]}},{"type":"Feature","id":"node/5608377566","properties":{"name":"Las Gaviotas","place":"village"},"geometry":{"type":"Point","coordinates":[-63.36107,9.14896]}},{"type":"Feature","id":"node/5608377571","properties":{"name":"Barlovento","place":"village"},"geometry":{"type":"Point","coordinates":[-63.20803,9.02217]}},{"type":"Feature","id":"node/5608377573","properties":{"name":"Joaqu\u00edn","place":"town"},"geometry":{"type":"Point","coordinates":[-63.26685,8.9779]}},{"type":"Feature","id":"node/5608377574","properties":{"name":"Caratal del Tigre","place":"village"},"geometry":{"type":"Point","coordinates":[-63.27451,9.03738]}},{"type":"Feature","id":"node/5608377578","properties":{"name":"Carapal","place":"village"},"geometry":{"type":"Point","coordinates":[-63.20717,9.09895]}},{"type":"Feature","id":"node/5608377701","properties":{"name":"Carrizalito","place":"village"},"geometry":{"type":"Point","coordinates":[-63.12421,9.2857]}},{"type":"Feature","id":"node/5608377856","properties":{"name":"El Paso de Arib\u00ed","place":"village"},"geometry":{"type":"Point","coordinates":[-63.17016,9.28293]}},{"type":"Feature","id":"node/5608377861","properties":{"name":"El Pueblito","place":"town"},"geometry":{"type":"Point","coordinates":[-63.25413,9.21651]}},{"type":"Feature","id":"node/5608377887","properties":{"name":"La Sarrapia","place":"village"},"geometry":{"type":"Point","coordinates":[-63.36313,9.23004]}},{"type":"Feature","id":"node/5608377891","properties":{"name":"San Jos\u00e9 de \u00d1ato","place":"village"},"geometry":{"type":"Point","coordinates":[-63.47124,9.21504]}},{"type":"Feature","id":"node/5608377921","properties":{"name":"Las Casitas","place":"village"},"geometry":{"type":"Point","coordinates":[-63.30427,9.31596]}},{"type":"Feature","id":"node/5608377923","properties":{"name":"Pericoco","place":"village"},"geometry":{"type":"Point","coordinates":[-63.39712,9.29236]}},{"type":"Feature","id":"node/5608377997","properties":{"name":"La Culebra","place":"village"},"geometry":{"type":"Point","coordinates":[-63.44668,9.30405]}},{"type":"Feature","id":"node/5609716847","properties":{"name":"Monte Oscuro (El Corozo)","place":"village"},"geometry":{"type":"Point","coordinates":[-62.60358,9.11595]}},{"type":"Feature","id":"node/5609716912","properties":{"name":"Santa B\u00e1rbara del Sur","place":"village"},"geometry":{"type":"Point","coordinates":[-62.92072,9.25292]}},{"type":"Feature","id":"node/5609823608","properties":{"name":"Agua Clarita","place":"village"},"geometry":{"type":"Point","coordinates":[-62.82625,8.90697]}},{"type":"Feature","id":"node/5609823612","properties":{"name":"El Aceite","place":"village"},"geometry":{"type":"Point","coordinates":[-62.84491,8.88516]}},{"type":"Feature","id":"node/5609823626","properties":{"name":"Punta de Piedras","place":"village"},"geometry":{"type":"Point","coordinates":[-62.51691,8.53175]}},{"type":"Feature","id":"node/5609823631","properties":{"name":"San Jos\u00e9 de Coloradito","place":"town"},"geometry":{"type":"Point","coordinates":[-62.65017,8.4942]}},{"type":"Feature","id":"node/5609910796","properties":{"name":"Las Piedritas","place":"village"},"geometry":{"type":"Point","coordinates":[-63.36996,8.96257]}},{"type":"Feature","id":"node/5609910859","properties":{"name":"La Venturosa","place":"village"},"geometry":{"type":"Point","coordinates":[-63.11139,8.91855]}},{"type":"Feature","id":"node/5694871629","properties":{"name":"Los Pozos","place":"town"},"geometry":{"type":"Point","coordinates":[-62.72626,8.451]}},{"type":"Feature","id":"node/8147770553","properties":{"name":"Baradero","place":"village"},"geometry":{"type":"Point","coordinates":[-62.46235,8.5513]}},{"type":"Feature","id":"node/8657435433","properties":{"name":"San Jos\u00e9 de Buja","place":"town"},"geometry":{"type":"Point","coordinates":[-62.7024,9.54826]}},{"type":"Feature","id":"node/9310757527","properties":{"place":"village"},"geometry":{"type":"Point","coordinates":[-62.6508,9.74236]}},{"type":"Feature","id":"node/9722433940","properties":{"name":"Poza de Azufre","place":"village"},"geometry":{"type":"Point","coordinates":[-63.09863,10.18101]}},{"type":"Feature","id":"node/9722433941","properties":{"name":"La Pega","place":"village"},"geometry":{"type":"Point","coordinates":[-63.08799,10.15154]}},{"type":"Feature","id":"node/9780238954","properties":{"name":"Los Barrancos","place":"village"},"geometry":{"type":"Point","coordinates":[-62.46842,8.80166]}},{"type":"Feature","id":"node/9892312791","properties":{"name":"Las Parcelas","place":"town"},"geometry":{"type":"Point","coordinates":[-63.13371,10.14007]}},{"type":"Feature","id":"node/10565410493","properties":{"name":"Azagua","place":"village"},"geometry":{"type":"Point","coordinates":[-63.11116,10.02963]}},{"type":"Feature","id":"node/11154585416","properties":{"place":"village"},"geometry":{"type":"Point","coordinates":[-62.16254,8.70656]}},{"type":"Feature","id":"node/11154585417","properties":{"place":"village"},"geometry":{"type":"Point","coordinates":[-62.1716,8.71287]}},{"type":"Feature","id":"node/12288713668","properties":{"place":"village"},"geometry":{"type":"Point","coordinates":[-62.17864,8.7022]}},{"type":"Feature","id":"node/13943553840","properties":{"name":"El Pajal","place":"village"},"geometry":{"type":"Point","coordinates":[-62.32286,9.25543]}}]}