{"type":"FeatureCollection","features":[{"type":"Feature","id":"relation/272743","properties":{"name":"Yaracuy","level":4},"geometry":{"type":"Polygon","coordinates":[[[-68.49125,9.90109],[-68.48899,9.90588],[-68.48581,9.90593],[-68.48712,9.9094],[-68.48439,9.91116],[-68.48189,9.90974],[-68.48269,9.91196],[-68.48006,9.91475],[-68.46981,9.91567],[-68.45442,9.92732],[-68.44961,9.92591],[-68.44688,9.92961],[-68.44254,9.92962],[-68.44247,9.93289],[-68.44005,9.93269],[-68.4392,9.93512],[-68.43121,9.93967],[-68.42965,9.93849],[-68.4188,9.95071],[-68.4193,9.95346],[-68.41689,9.95231],[-68.41545,9.95438],[-68.41381,9.95199],[-68.4046,9.95893],[-68.4037,9.96176],[-68.40589,9.96105],[-68.40597,9.96355],[-68.40398,9.96764],[-68.39381,9.96522],[-68.39188,9.97071],[-68.38712,9.97152],[-68.38472,9.97568],[-68.3827,9.97529],[-68.38128,9.98052],[-68.3762,9.9817],[-68.37724,9.98322],[-68.36862,9.98956],[-68.38152,9.99961],[-68.38689,10.01219],[-68.38574,10.01489],[-68.38908,10.01609],[-68.38665,10.02372],[-68.38782,10.0266],[-68.38454,10.0281],[-68.38674,10.03222],[-68.38336,10.03675],[-68.38279,10.04249],[-68.37847,10.04339],[-68.37759,10.04865],[-68.38166,10.0499],[-68.38356,10.05552],[-68.38472,10.0536],[-68.39077,10.05795],[-68.39171,10.06177],[-68.39977,10.05997],[-68.40059,10.06438],[-68.40346,10.0645],[-68.40175,10.06709],[-68.40444,10.07084],[-68.40187,10.07574],[-68.40653,10.07832],[-68.40801,10.08359],[-68.4051,10.08944],[-68.40087,10.09189],[-68.40201,10.10102],[-68.39902,10.10159],[-68.39755,10.12294],[-68.41357,10.13918],[-68.41443,10.15261],[-68.42521,10.16209],[-68.42865,10.17843],[-68.4094,10.19881],[-68.41039,10.20286],[-68.40732,10.20586],[-68.40713,10.20985],[-68.41099,10.21456],[-68.40988,10.21806],[-68.37995,10.22483],[-68.37037,10.23463],[-68.36384,10.24647],[-68.36186,10.25759],[-68.3548,10.26306],[-68.35976,10.26731],[-68.36222,10.2758],[-68.36979,10.2814],[-68.37319,10.29619],[-68.37301,10.30719],[-68.38018,10.3128],[-68.38825,10.3287],[-68.39071,10.32947],[-68.3894,10.33189],[-68.39206,10.33389],[-68.38827,10.33873],[-68.38966,10.34136],[-68.39299,10.34122],[-68.39391,10.3443],[-68.39132,10.34708],[-68.39846,10.35828],[-68.39833,10.37895],[-68.40157,10.38581],[-68.39713,10.39329],[-68.39607,10.40275],[-68.40043,10.40898],[-68.40164,10.42386],[-68.39919,10.43275],[-68.40149,10.43961],[-68.39722,10.44496],[-68.3977,10.44977],[-68.39488,10.45491],[-68.40308,10.46349],[-68.40465,10.46937],[-68.40226,10.47779],[-68.3941,10.48234],[-68.39461,10.48536],[-68.4023,10.48673],[-68.40229,10.49051],[-68.39801,10.49492],[-68.39127,10.49685],[-68.38811,10.5013],[-68.38279,10.52946],[-68.37597,10.53291],[-68.37315,10.53946],[-68.36539,10.54326],[-68.35861,10.55022],[-68.35259,10.55189],[-68.33252,10.54952],[-68.31219,10.53818],[-68.30358,10.541],[-68.29449,10.54788],[-68.27793,10.55352],[-68.25651,10.57084],[-68.25564,10.57363],[-68.25857,10.57541],[-68.25714,10.57754],[-68.25185,10.57766],[-68.24524,10.58182],[-68.24578,10.58351],[-68.38396,10.60773],[-68.37673,10.61192],[-68.38112,10.61685],[-68.39256,10.6175],[-68.40977,10.61309],[-68.41302,10.60043],[-68.47339,10.61349],[-68.47587,10.60352],[-68.48621,10.60061],[-68.50354,10.6145],[-68.50832,10.60878],[-68.51339,10.61327],[-68.51755,10.61198],[-68.51622,10.60974],[-68.52024,10.60396],[-68.52295,10.60498],[-68.52687,10.59543],[-68.53128,10.60006],[-68.5383,10.59716],[-68.5432,10.59896],[-68.54903,10.59591],[-68.55298,10.60123],[-68.5548,10.59997],[-68.55392,10.60163],[-68.56115,10.60249],[-68.55919,10.60335],[-68.56086,10.6061],[-68.56465,10.60558],[-68.56605,10.60133],[-68.57186,10.59736],[-68.57362,10.60147],[-68.5783,10.59935],[-68.57927,10.60313],[-68.58039,10.60106],[-68.58245,10.60244],[-68.5835,10.6006],[-68.58091,10.60036],[-68.58415,10.59686],[-68.59219,10.60589],[-68.60177,10.60125],[-68.60781,10.60592],[-68.61854,10.60844],[-68.6216,10.61226],[-68.62085,10.6146],[-68.62292,10.61494],[-68.62313,10.61947],[-68.61774,10.61876],[-68.61755,10.62146],[-68.6212,10.68206],[-68.61755,10.68808],[-68.61299,10.68851],[-68.61299,10.69726],[-68.60996,10.70342],[-68.61131,10.70694],[-68.61641,10.7094],[-68.61632,10.71342],[-68.61956,10.71372],[-68.62189,10.72022],[-68.61856,10.72611],[-68.61587,10.72545],[-68.61877,10.77392],[-68.62625,10.77073],[-68.64069,10.75731],[-68.65551,10.73302],[-68.67358,10.72218],[-68.67653,10.72317],[-68.67697,10.73085],[-68.67873,10.73128],[-68.69022,10.73059],[-68.69441,10.72403],[-68.69862,10.72752],[-68.7141,10.72975],[-68.7229,10.7262],[-68.72947,10.73018],[-68.73795,10.72459],[-68.74612,10.72277],[-68.75876,10.72445],[-68.76712,10.7282],[-68.78212,10.72851],[-68.77923,10.72074],[-68.77327,10.71755],[-68.78116,10.71195],[-68.79907,10.70705],[-68.79539,10.70022],[-68.79299,10.70069],[-68.79306,10.69257],[-68.79682,10.69123],[-68.80237,10.69519],[-68.81074,10.69347],[-68.81545,10.68377],[-68.82199,10.68156],[-68.82272,10.67578],[-68.82807,10.67048],[-68.8326,10.65981],[-68.83666,10.65955],[-68.84266,10.65115],[-68.85347,10.65045],[-68.85488,10.65222],[-68.87579,10.64976],[-68.87916,10.63757],[-68.8826,10.63384],[-68.8778,10.62811],[-68.87509,10.61443],[-68.88245,10.60835],[-68.88316,10.59612],[-68.89027,10.59053],[-68.89757,10.57748],[-68.9226,10.55456],[-68.93144,10.55768],[-68.9427,10.54735],[-68.94632,10.54714],[-68.94954,10.54805],[-68.95538,10.55865],[-68.96555,10.5592],[-68.97272,10.55192],[-68.97984,10.55587],[-68.9806,10.55236],[-68.98644,10.556],[-68.99257,10.55462],[-68.9966,10.54728],[-69.00152,10.54463],[-68.99787,10.53619],[-68.99909,10.53127],[-69.00398,10.53244],[-69.00955,10.5279],[-69.0265,10.5255],[-69.04232,10.51954],[-69.03965,10.50522],[-69.0549,10.48002],[-69.05333,10.47639],[-69.05885,10.47079],[-69.05911,10.46303],[-69.05537,10.46062],[-69.05423,10.456],[-69.05817,10.45132],[-69.06296,10.45071],[-69.0632,10.43784],[-69.07271,10.42408],[-69.07853,10.41953],[-69.07983,10.40854],[-69.07705,10.40484],[-69.07479,10.40721],[-69.06933,10.40528],[-69.06288,10.40672],[-69.05926,10.40197],[-69.05313,10.40071],[-69.04693,10.41458],[-69.03942,10.41982],[-69.03084,10.40828],[-69.03098,10.40394],[-69.03443,10.40125],[-69.03412,10.39637],[-69.04023,10.38584],[-69.03026,10.38244],[-69.02864,10.37438],[-69.03088,10.36367],[-69.02704,10.35667],[-69.02906,10.346],[-69.0268,10.34197],[-69.02934,10.33152],[-69.02655,10.32999],[-69.02651,10.31562],[-69.03033,10.29862],[-69.01673,10.28709],[-69.02164,10.27273],[-69.02143,10.26463],[-69.02577,10.25853],[-69.02561,10.24679],[-69.03106,10.23942],[-69.03414,10.24054],[-69.04111,10.2349],[-69.07369,10.23682],[-69.07895,10.23418],[-69.092,10.23513],[-69.09545,10.23284],[-69.09499,10.22052],[-69.0989,10.20749],[-69.10556,10.20002],[-69.11063,10.19777],[-69.11474,10.18881],[-69.11089,10.18261],[-69.11699,10.16915],[-69.11398,10.15911],[-69.11996,10.15381],[-69.1189,10.14324],[-69.13066,10.14132],[-69.14265,10.13071],[-69.15415,10.13519],[-69.16151,10.13196],[-69.16767,10.1452],[-69.17415,10.14169],[-69.17914,10.1444],[-69.18711,10.14182],[-69.19263,10.13687],[-69.2037,10.13741],[-69.20519,10.1271],[-69.22262,10.11663],[-69.22114,10.10983],[-69.21608,10.10474],[-69.2155,10.09324],[-69.21289,10.09052],[-69.21675,10.0889],[-69.21598,10.08468],[-69.21268,10.08331],[-69.21064,10.08778],[-69.20796,10.08738],[-69.1991,10.05366],[-69.19211,10.04032],[-69.18614,10.03614],[-69.17107,10.04128],[-69.1676,10.03593],[-69.16066,10.03809],[-69.15874,10.02911],[-69.15351,10.0245],[-69.15373,10.01655],[-69.15159,10.01314],[-69.15442,10.00519],[-69.15035,10.00268],[-69.14846,9.99752],[-69.15173,9.98728],[-69.14972,9.97766],[-69.15508,9.96009],[-69.15365,9.95631],[-69.15812,9.95233],[-69.1586,9.94089],[-69.14674,9.92687],[-69.14449,9.91198],[-69.12974,9.89774],[-69.13064,9.89448],[-69.12495,9.88494],[-69.10235,9.86996],[-69.08772,9.8702],[-69.06771,9.90524],[-69.08508,9.91585],[-69.071,9.94401],[-69.07175,9.95057],[-69.07722,9.95326],[-69.07725,9.95941],[-69.06534,9.9637],[-69.05268,9.97771],[-69.05047,9.97479],[-69.04745,9.97632],[-69.04199,9.97254],[-69.03716,9.97686],[-69.04005,9.98335],[-69.03345,9.98734],[-69.03371,9.99136],[-69.02524,9.98944],[-69.02549,9.99451],[-69.02975,9.99485],[-69.0296,9.99949],[-69.02919,10.00157],[-69.02553,10.00119],[-69.02398,10.00828],[-69.01977,10.00745],[-69.02097,10.01767],[-69.00609,10.01462],[-68.99748,10.01548],[-68.98262,10.00824],[-68.96975,10.012],[-68.96176,10.00082],[-68.9617,9.99357],[-68.95961,9.99198],[-68.96159,9.98347],[-68.95956,9.97992],[-68.96149,9.97991],[-68.96184,9.97501],[-68.95879,9.97433],[-68.9616,9.9701],[-68.95569,9.96304],[-68.95837,9.95261],[-68.95812,9.94937],[-68.95596,9.9492],[-68.96052,9.94736],[-68.95749,9.94124],[-68.95593,9.9426],[-68.95641,9.94063],[-68.95443,9.94047],[-68.95321,9.93398],[-68.96073,9.92303],[-68.95634,9.91942],[-68.95664,9.91324],[-68.95134,9.91032],[-68.94845,9.91159],[-68.94669,9.9084],[-68.94964,9.90448],[-68.94857,9.89591],[-68.95086,9.89622],[-68.95347,9.89144],[-68.95772,9.89237],[-68.95675,9.88576],[-68.96123,9.88394],[-68.96733,9.87069],[-68.97137,9.86936],[-68.97003,9.86492],[-68.97421,9.8631],[-68.97468,9.86057],[-68.97226,9.85934],[-68.96972,9.84998],[-68.94674,9.84189],[-68.94004,9.84173],[-68.93511,9.83672],[-68.92744,9.83837],[-68.92591,9.83607],[-68.90494,9.83487],[-68.89158,9.83762],[-68.89127,9.84167],[-68.88732,9.84591],[-68.88234,9.84231],[-68.86653,9.8433],[-68.85973,9.83419],[-68.8545,9.83531],[-68.85421,9.83884],[-68.84401,9.8385],[-68.84262,9.84422],[-68.83234,9.84394],[-68.82625,9.84838],[-68.82466,9.8464],[-68.80886,9.84405],[-68.8066,9.84564],[-68.80372,9.84349],[-68.79687,9.85438],[-68.78329,9.86239],[-68.77855,9.86229],[-68.76936,9.8718],[-68.75998,9.86971],[-68.75543,9.86572],[-68.74667,9.87157],[-68.73849,9.87101],[-68.72039,9.882],[-68.71762,9.89018],[-68.72062,9.89974],[-68.71837,9.91174],[-68.71157,9.91852],[-68.71609,9.92679],[-68.71212,9.93618],[-68.70023,9.94212],[-68.68436,9.9453],[-68.6821,9.95222],[-68.66639,9.96536],[-68.65873,9.94525],[-68.64552,9.94163],[-68.62482,9.94924],[-68.61604,9.96056],[-68.61077,9.95654],[-68.61112,9.94524],[-68.60575,9.93888],[-68.60395,9.93154],[-68.59233,9.93219],[-68.57837,9.93744],[-68.57684,9.93456],[-68.56942,9.93515],[-68.55721,9.92985],[-68.55406,9.93272],[-68.54557,9.93109],[-68.53365,9.93788],[-68.53036,9.93405],[-68.5286,9.93515],[-68.52625,9.92829],[-68.53166,9.91663],[-68.53688,9.91255],[-68.53586,9.906],[-68.53968,9.90158],[-68.53782,9.89337],[-68.54201,9.88876],[-68.53799,9.88814],[-68.53343,9.89122],[-68.53093,9.88985],[-68.52933,9.89288],[-68.531,9.89398],[-68.52615,9.89688],[-68.52215,9.89091],[-68.52239,9.88703],[-68.51914,9.88758],[-68.49125,9.90109]]]}}]}