{"type":"FeatureCollection","features":[{"type":"Feature","id":"relation/11126507","properties":{"name":"Municipio Nirgua","level":6,"population":"58932"},"geometry":{"type":"Polygon","coordinates":[[[-68.69168,10.18777],[-68.69574,10.18681],[-68.70393,10.17178],[-68.69816,10.16695],[-68.70157,10.16302],[-68.70198,10.15604],[-68.70471,10.1556],[-68.70396,10.15277],[-68.71115,10.14849],[-68.72748,10.16076],[-68.72939,10.15499],[-68.73207,10.15364],[-68.72893,10.13641],[-68.73935,10.12972],[-68.73706,10.12634],[-68.72703,10.12614],[-68.72755,10.11968],[-68.73319,10.10772],[-68.73923,10.11381],[-68.74436,10.10917],[-68.74781,10.11133],[-68.75265,10.10982],[-68.75809,10.10643],[-68.76171,10.10025],[-68.76952,10.09902],[-68.7736,10.09571],[-68.77978,10.09833],[-68.7918,10.09206],[-68.79287,10.08692],[-68.80022,10.08172],[-68.81309,10.0752],[-68.82902,10.07448],[-68.83206,10.07015],[-68.83834,10.0672],[-68.85085,10.06961],[-68.8541,10.07628],[-68.86981,10.08239],[-68.87819,10.09092],[-68.89436,10.09156],[-68.90803,10.08238],[-68.91665,10.08413],[-68.92558,10.07644],[-68.94572,10.07337],[-68.95022,10.0691],[-68.9614,10.06725],[-68.96567,10.06323],[-68.9679,10.05353],[-68.9632,10.05203],[-68.96176,10.0478],[-68.9662,10.03008],[-68.96315,10.01142],[-68.96447,10.00458],[-68.95961,9.99198],[-68.96159,9.98347],[-68.95956,9.97992],[-68.96149,9.97991],[-68.96184,9.97501],[-68.95879,9.97433],[-68.96162,9.97025],[-68.96045,9.96652],[-68.95571,9.96365],[-68.95837,9.95261],[-68.95812,9.94937],[-68.95596,9.9492],[-68.96052,9.94736],[-68.95749,9.94124],[-68.95593,9.9426],[-68.95641,9.94063],[-68.95443,9.94047],[-68.95321,9.93398],[-68.96073,9.92303],[-68.95634,9.91942],[-68.95664,9.91324],[-68.95134,9.91032],[-68.94845,9.91159],[-68.94668,9.90854],[-68.94964,9.90448],[-68.94857,9.89591],[-68.95086,9.89622],[-68.95347,9.89144],[-68.95766,9.89245],[-68.95675,9.88576],[-68.96123,9.88394],[-68.96733,9.87069],[-68.97137,9.86936],[-68.97003,9.86492],[-68.97437,9.8629],[-68.96972,9.84998],[-68.94674,9.84189],[-68.94004,9.84173],[-68.93511,9.83672],[-68.92744,9.83837],[-68.92591,9.83607],[-68.90494,9.83487],[-68.89158,9.83762],[-68.89127,9.84167],[-68.88732,9.84591],[-68.88234,9.84231],[-68.86653,9.8433],[-68.85973,9.83419],[-68.8545,9.83531],[-68.85421,9.83884],[-68.84401,9.8385],[-68.84262,9.84422],[-68.83234,9.84394],[-68.82625,9.84838],[-68.82466,9.8464],[-68.80886,9.84405],[-68.8066,9.84564],[-68.80372,9.84349],[-68.79687,9.85438],[-68.78329,9.86239],[-68.77855,9.86229],[-68.76936,9.8718],[-68.75998,9.86971],[-68.75543,9.86572],[-68.74667,9.87157],[-68.73849,9.87101],[-68.72039,9.882],[-68.71762,9.89018],[-68.72062,9.89974],[-68.71837,9.91174],[-68.71157,9.91852],[-68.71609,9.92679],[-68.71212,9.93618],[-68.70023,9.94212],[-68.68436,9.9453],[-68.6821,9.95222],[-68.66639,9.96536],[-68.65873,9.94525],[-68.64552,9.94163],[-68.62482,9.94924],[-68.61604,9.96056],[-68.61077,9.95654],[-68.61112,9.94524],[-68.60575,9.93888],[-68.60395,9.93154],[-68.59233,9.93219],[-68.57837,9.93744],[-68.57684,9.93456],[-68.56942,9.93515],[-68.55742,9.92988],[-68.55393,9.93273],[-68.54723,9.93065],[-68.53519,9.93532],[-68.53365,9.93788],[-68.53036,9.93405],[-68.52846,9.935],[-68.52625,9.92829],[-68.53166,9.91663],[-68.53688,9.91255],[-68.53586,9.906],[-68.53968,9.90158],[-68.53782,9.89337],[-68.54215,9.88891],[-68.5393,9.88778],[-68.53343,9.89122],[-68.53093,9.88985],[-68.52933,9.89288],[-68.531,9.89398],[-68.52615,9.89688],[-68.52215,9.89091],[-68.52239,9.88703],[-68.51914,9.88758],[-68.49139,9.90085],[-68.48909,9.90579],[-68.48581,9.90593],[-68.48712,9.9094],[-68.48439,9.91116],[-68.48189,9.90974],[-68.48269,9.91196],[-68.48006,9.91475],[-68.46981,9.91567],[-68.45442,9.92732],[-68.4497,9.92588],[-68.44688,9.92961],[-68.44254,9.92962],[-68.44222,9.93318],[-68.42642,9.941],[-68.42414,9.94675],[-68.41875,9.95079],[-68.4193,9.95346],[-68.41689,9.95231],[-68.41545,9.95438],[-68.41393,9.95196],[-68.40786,9.95551],[-68.40452,9.95906],[-68.40375,9.96192],[-68.4058,9.96098],[-68.40597,9.96355],[-68.40398,9.96764],[-68.39381,9.96522],[-68.39188,9.97071],[-68.38712,9.97152],[-68.38472,9.97568],[-68.3827,9.97529],[-68.38128,9.98052],[-68.37628,9.98165],[-68.37715,9.98331],[-68.37004,9.98738],[-68.369,9.99029],[-68.37184,9.99021],[-68.37306,9.99363],[-68.38152,9.99961],[-68.38689,10.01219],[-68.38574,10.01489],[-68.38908,10.01609],[-68.38665,10.02372],[-68.38782,10.0266],[-68.38454,10.0281],[-68.38674,10.03222],[-68.38336,10.03675],[-68.38279,10.04249],[-68.37847,10.04339],[-68.37757,10.0486],[-68.38166,10.0499],[-68.38356,10.05552],[-68.38472,10.0536],[-68.39077,10.05795],[-68.39171,10.06177],[-68.39977,10.05997],[-68.40059,10.06438],[-68.40346,10.0645],[-68.40175,10.06709],[-68.40444,10.07084],[-68.40187,10.07574],[-68.40653,10.07832],[-68.40801,10.08359],[-68.4051,10.08944],[-68.40087,10.09189],[-68.40201,10.10102],[-68.39902,10.10159],[-68.39755,10.12294],[-68.41357,10.13918],[-68.41443,10.15261],[-68.42521,10.16209],[-68.42865,10.17843],[-68.4094,10.19881],[-68.41039,10.20286],[-68.40732,10.20586],[-68.40713,10.20985],[-68.41099,10.21456],[-68.40988,10.21806],[-68.37995,10.22483],[-68.37037,10.23463],[-68.36384,10.24647],[-68.36186,10.25759],[-68.3548,10.26306],[-68.35976,10.26731],[-68.36222,10.2758],[-68.36979,10.2814],[-68.37319,10.29619],[-68.37301,10.30719],[-68.38018,10.3128],[-68.38825,10.3287],[-68.39071,10.32947],[-68.3894,10.33189],[-68.39206,10.33389],[-68.38827,10.33873],[-68.38966,10.34136],[-68.39299,10.34122],[-68.39391,10.3443],[-68.39132,10.34708],[-68.39749,10.35476],[-68.3998,10.36727],[-68.40925,10.36473],[-68.41088,10.36217],[-68.41742,10.36391],[-68.4374,10.36189],[-68.44088,10.35813],[-68.44767,10.35655],[-68.44854,10.34298],[-68.46488,10.33908],[-68.47137,10.34348],[-68.47749,10.33825],[-68.48287,10.33708],[-68.48854,10.32867],[-68.494,10.33027],[-68.50013,10.32324],[-68.50291,10.32306],[-68.50707,10.31363],[-68.49343,10.29745],[-68.50039,10.27909],[-68.49308,10.26428],[-68.49304,10.24325],[-68.48731,10.23605],[-68.4851,10.22685],[-68.495,10.22759],[-68.50916,10.22292],[-68.50909,10.21727],[-68.51288,10.21644],[-68.5304,10.22068],[-68.53889,10.2127],[-68.54396,10.21417],[-68.55414,10.20681],[-68.57121,10.20734],[-68.59332,10.20075],[-68.60197,10.20341],[-68.60623,10.20153],[-68.61327,10.20565],[-68.61911,10.20594],[-68.62566,10.22642],[-68.6313,10.23017],[-68.64097,10.2264],[-68.64521,10.22938],[-68.65245,10.2291],[-68.65487,10.22033],[-68.68666,10.21846],[-68.6721,10.20799],[-68.6754,10.19584],[-68.684,10.19405],[-68.68847,10.18778],[-68.69168,10.18777]]]}},{"type":"Feature","id":"relation/11126508","properties":{"name":"Municipio Veroes","level":6,"population":"27840"},"geometry":{"type":"Polygon","coordinates":[[[-68.62782,10.55574],[-68.6318,10.55417],[-68.63534,10.53868],[-68.6407,10.53769],[-68.60464,10.47081],[-68.63914,10.43059],[-68.64684,10.41681],[-68.62871,10.41294],[-68.63,10.40407],[-68.63521,10.3981],[-68.63331,10.3905],[-68.63613,10.38837],[-68.63377,10.38428],[-68.63039,10.38369],[-68.63358,10.3825],[-68.63076,10.37915],[-68.63413,10.37783],[-68.63108,10.37584],[-68.6333,10.37259],[-68.63074,10.37112],[-68.63308,10.37045],[-68.62684,10.36463],[-68.6308,10.35707],[-68.62843,10.35463],[-68.62883,10.35014],[-68.63259,10.34795],[-68.62774,10.34257],[-68.62887,10.33859],[-68.627,10.33846],[-68.63105,10.33874],[-68.63126,10.33151],[-68.63514,10.33167],[-68.63932,10.31154],[-68.6378,10.30839],[-68.64258,10.29906],[-68.62386,10.28561],[-68.62112,10.27357],[-68.62906,10.26178],[-68.62782,10.24894],[-68.63104,10.24417],[-68.63305,10.23061],[-68.62566,10.22642],[-68.61911,10.20594],[-68.61327,10.20565],[-68.60623,10.20153],[-68.60197,10.20341],[-68.59332,10.20075],[-68.57121,10.20734],[-68.55414,10.20681],[-68.54396,10.21417],[-68.53889,10.2127],[-68.5304,10.22068],[-68.51288,10.21644],[-68.50909,10.21727],[-68.50916,10.22292],[-68.495,10.22759],[-68.4851,10.22685],[-68.48731,10.23605],[-68.49304,10.24325],[-68.49308,10.26428],[-68.50039,10.27909],[-68.49343,10.29745],[-68.50707,10.31363],[-68.50291,10.32306],[-68.50013,10.32324],[-68.49558,10.3293],[-68.48854,10.32867],[-68.48287,10.33708],[-68.47749,10.33825],[-68.47278,10.34282],[-68.46915,10.34369],[-68.46488,10.33908],[-68.44854,10.34298],[-68.44767,10.35655],[-68.44088,10.35813],[-68.4374,10.36189],[-68.41742,10.36391],[-68.41088,10.36217],[-68.40925,10.36473],[-68.39891,10.36809],[-68.39833,10.37895],[-68.40157,10.38581],[-68.39713,10.39329],[-68.39607,10.40275],[-68.40043,10.40898],[-68.40164,10.42386],[-68.39919,10.43275],[-68.40149,10.43961],[-68.39722,10.44496],[-68.3977,10.44977],[-68.39488,10.45491],[-68.40308,10.46349],[-68.40465,10.46937],[-68.40226,10.47779],[-68.39473,10.48059],[-68.39461,10.48536],[-68.4023,10.48673],[-68.40229,10.49051],[-68.39801,10.49492],[-68.39127,10.49685],[-68.38811,10.5013],[-68.38279,10.52946],[-68.37597,10.53291],[-68.37305,10.53955],[-68.35361,10.55179],[-68.33139,10.54921],[-68.31492,10.53823],[-68.3057,10.5401],[-68.29994,10.54523],[-68.27423,10.55599],[-68.26536,10.56215],[-68.26123,10.56894],[-68.25645,10.57091],[-68.25564,10.57363],[-68.25857,10.57541],[-68.25714,10.57754],[-68.25185,10.57766],[-68.24524,10.58182],[-68.24578,10.58351],[-68.38396,10.60773],[-68.37673,10.61192],[-68.38112,10.61685],[-68.39256,10.6175],[-68.40977,10.61309],[-68.41302,10.60043],[-68.47339,10.61349],[-68.47587,10.60352],[-68.48621,10.60061],[-68.50354,10.6145],[-68.50832,10.60878],[-68.51108,10.61271],[-68.51742,10.6121],[-68.51622,10.60974],[-68.52024,10.60396],[-68.52295,10.60498],[-68.52687,10.59543],[-68.53128,10.60006],[-68.5383,10.59716],[-68.5432,10.59896],[-68.54903,10.59591],[-68.55298,10.60123],[-68.5548,10.59997],[-68.55392,10.60163],[-68.56115,10.60249],[-68.55919,10.60335],[-68.56086,10.6061],[-68.56465,10.60558],[-68.56605,10.60133],[-68.57186,10.59736],[-68.57375,10.60152],[-68.57838,10.59938],[-68.5794,10.60318],[-68.58039,10.60106],[-68.5832,10.60192],[-68.58088,10.60046],[-68.58415,10.59686],[-68.58927,10.60149],[-68.58782,10.60292],[-68.59322,10.60596],[-68.59554,10.60267],[-68.62086,10.59881],[-68.62696,10.58949],[-68.62067,10.58162],[-68.62619,10.57212],[-68.62473,10.56729],[-68.62632,10.56742],[-68.62782,10.55574]]]}},{"type":"Feature","id":"relation/11126509","properties":{"name":"Municipio San Felipe","level":6,"population":"100759"},"geometry":{"type":"Polygon","coordinates":[[[-68.62782,10.55574],[-68.62632,10.56742],[-68.62473,10.56729],[-68.62619,10.57212],[-68.62067,10.58162],[-68.62679,10.59004],[-68.62086,10.59881],[-68.60271,10.60217],[-68.60781,10.60592],[-68.63166,10.59737],[-68.64911,10.60038],[-68.65595,10.59473],[-68.66449,10.59188],[-68.66726,10.59155],[-68.66796,10.59498],[-68.67423,10.59471],[-68.68586,10.58703],[-68.68722,10.58409],[-68.68207,10.5796],[-68.68197,10.57215],[-68.6768,10.56933],[-68.67706,10.56374],[-68.68228,10.55867],[-68.68197,10.55614],[-68.67232,10.55148],[-68.67338,10.54633],[-68.67675,10.54484],[-68.68076,10.54639],[-68.68049,10.5436],[-68.68417,10.54188],[-68.68236,10.53676],[-68.68402,10.53317],[-68.69596,10.52696],[-68.6942,10.52386],[-68.69686,10.52068],[-68.69498,10.51415],[-68.69616,10.50624],[-68.70502,10.48921],[-68.70671,10.47704],[-68.70292,10.47624],[-68.70279,10.45855],[-68.71407,10.45167],[-68.72455,10.4516],[-68.73347,10.45446],[-68.73655,10.45008],[-68.7401,10.45199],[-68.74942,10.44826],[-68.75523,10.4408],[-68.75178,10.43009],[-68.75436,10.42303],[-68.75983,10.41994],[-68.76794,10.42248],[-68.78347,10.40866],[-68.79823,10.40499],[-68.79969,10.39194],[-68.80493,10.38665],[-68.80453,10.3816],[-68.79073,10.36716],[-68.78199,10.36656],[-68.77487,10.37119],[-68.7717,10.36857],[-68.76909,10.36066],[-68.76307,10.35809],[-68.76175,10.35437],[-68.75633,10.35441],[-68.75475,10.34937],[-68.74965,10.34639],[-68.73836,10.32867],[-68.72829,10.3207],[-68.72434,10.32194],[-68.7227,10.31975],[-68.72121,10.32394],[-68.7169,10.32432],[-68.69849,10.31252],[-68.69953,10.30821],[-68.6963,10.30778],[-68.69253,10.30086],[-68.68893,10.30099],[-68.67958,10.29516],[-68.67842,10.28314],[-68.67195,10.27234],[-68.67629,10.25568],[-68.67643,10.24381],[-68.67377,10.24309],[-68.66856,10.2327],[-68.65345,10.22696],[-68.65245,10.2291],[-68.64521,10.22938],[-68.64071,10.22642],[-68.63305,10.23061],[-68.63104,10.24417],[-68.62782,10.24894],[-68.62906,10.26178],[-68.62112,10.27357],[-68.62386,10.28561],[-68.64258,10.29906],[-68.6378,10.30839],[-68.63932,10.31154],[-68.63514,10.33167],[-68.63126,10.33151],[-68.63105,10.33874],[-68.627,10.33846],[-68.62887,10.33859],[-68.62774,10.34257],[-68.63259,10.34795],[-68.62883,10.35014],[-68.62843,10.35463],[-68.6308,10.35707],[-68.62686,10.36479],[-68.63308,10.37045],[-68.63074,10.37112],[-68.6333,10.37259],[-68.63108,10.37584],[-68.63413,10.37783],[-68.63076,10.37915],[-68.63358,10.3825],[-68.63039,10.38369],[-68.63377,10.38428],[-68.63613,10.38837],[-68.63331,10.3905],[-68.63521,10.3981],[-68.63,10.40407],[-68.62862,10.41255],[-68.63015,10.41447],[-68.64684,10.41681],[-68.63914,10.43059],[-68.60464,10.47081],[-68.6407,10.53769],[-68.63534,10.53868],[-68.6318,10.55417],[-68.62782,10.55574]]]}},{"type":"Feature","id":"relation/11126510","properties":{"name":"Municipio Bruzual","level":6,"population":"69732"},"geometry":{"type":"Polygon","coordinates":[[[-68.77981,10.1795],[-68.78188,10.18219],[-68.78683,10.17962],[-68.79521,10.18458],[-68.7973,10.18254],[-68.80164,10.18387],[-68.80557,10.18791],[-68.81537,10.18858],[-68.82393,10.19704],[-68.83421,10.19999],[-68.84025,10.20954],[-68.84491,10.21239],[-68.85268,10.21295],[-68.86032,10.22307],[-68.87182,10.22814],[-68.88236,10.2436],[-68.88729,10.24297],[-68.89269,10.24681],[-68.90111,10.24863],[-68.90223,10.25804],[-68.91231,10.2571],[-68.91623,10.28081],[-68.92546,10.28398],[-68.94568,10.27671],[-68.96024,10.2751],[-68.96298,10.26637],[-68.96774,10.26572],[-68.96613,10.26033],[-68.97254,10.24972],[-68.97307,10.2408],[-68.97663,10.2361],[-68.98459,10.23957],[-68.98641,10.2442],[-68.99184,10.24627],[-68.99677,10.23993],[-68.99549,10.23237],[-68.99308,10.22815],[-68.99035,10.2279],[-68.98686,10.21732],[-68.97884,10.2188],[-68.97605,10.21295],[-68.97072,10.21042],[-68.97097,10.20196],[-68.96494,10.19397],[-68.9788,10.18075],[-68.96037,10.16066],[-68.95683,10.1463],[-68.95352,10.14155],[-68.95377,10.13135],[-68.9311,10.12166],[-68.91999,10.12262],[-68.9117,10.11465],[-68.90487,10.11368],[-68.90025,10.11026],[-68.90144,10.08808],[-68.89497,10.09152],[-68.87819,10.09092],[-68.86981,10.08239],[-68.8541,10.07628],[-68.85004,10.06927],[-68.83834,10.0672],[-68.83206,10.07015],[-68.82902,10.07448],[-68.81282,10.07528],[-68.79287,10.08692],[-68.7918,10.09206],[-68.78442,10.09632],[-68.77846,10.09857],[-68.7736,10.09571],[-68.76952,10.09902],[-68.76171,10.10025],[-68.75809,10.10643],[-68.75265,10.10982],[-68.74781,10.11133],[-68.74436,10.10917],[-68.73923,10.11381],[-68.73319,10.10772],[-68.73155,10.10945],[-68.72703,10.12614],[-68.73706,10.12634],[-68.73935,10.12972],[-68.72893,10.13641],[-68.73207,10.15364],[-68.72865,10.15881],[-68.77505,10.17389],[-68.77981,10.1795]]]}},{"type":"Feature","id":"relation/11126511","properties":{"name":"Municipio Pe\u00f1a","level":6,"population":"101620"},"geometry":{"type":"Polygon","coordinates":[[[-69.09499,10.22052],[-69.09961,10.2059],[-69.11355,10.19318],[-69.11474,10.18857],[-69.11089,10.18261],[-69.11699,10.16915],[-69.11398,10.15911],[-69.11996,10.15381],[-69.1189,10.14324],[-69.13066,10.14132],[-69.14265,10.13071],[-69.15415,10.13519],[-69.16151,10.13196],[-69.16767,10.1452],[-69.17415,10.14169],[-69.17914,10.1444],[-69.18711,10.14182],[-69.19263,10.13687],[-69.2037,10.13741],[-69.20519,10.1271],[-69.22263,10.11673],[-69.22114,10.10983],[-69.21608,10.10474],[-69.2155,10.09324],[-69.21289,10.09052],[-69.21675,10.0889],[-69.21598,10.08468],[-69.21268,10.08331],[-69.21064,10.08778],[-69.20796,10.08738],[-69.1991,10.05366],[-69.19211,10.04032],[-69.18614,10.03614],[-69.17107,10.04128],[-69.1676,10.03593],[-69.16066,10.03809],[-69.15874,10.02911],[-69.15351,10.0245],[-69.15373,10.01655],[-69.15159,10.01314],[-69.15442,10.00519],[-69.15035,10.00268],[-69.14846,9.99752],[-69.15173,9.98728],[-69.14972,9.97766],[-69.15508,9.96009],[-69.15365,9.95631],[-69.15812,9.95233],[-69.1586,9.94089],[-69.14674,9.92687],[-69.14449,9.91198],[-69.12974,9.89774],[-69.13064,9.89448],[-69.12495,9.88494],[-69.10235,9.86996],[-69.08772,9.8702],[-69.06771,9.90524],[-69.08508,9.91585],[-69.071,9.94401],[-69.07175,9.95057],[-69.07722,9.95326],[-69.07725,9.95941],[-69.06534,9.9637],[-69.05268,9.97771],[-69.05047,9.97479],[-69.04745,9.97632],[-69.04199,9.97254],[-69.03716,9.97686],[-69.04005,9.98335],[-69.03345,9.98734],[-69.03371,9.99136],[-69.02527,9.98938],[-69.02549,9.99451],[-69.02975,9.99485],[-69.02919,10.00157],[-69.02553,10.00119],[-69.02398,10.00828],[-69.01977,10.00745],[-69.02579,10.02988],[-69.0205,10.04809],[-69.02748,10.07513],[-69.03576,10.079],[-69.03437,10.0838],[-69.03649,10.09388],[-69.04531,10.10332],[-69.04792,10.10319],[-69.05592,10.11126],[-69.06701,10.11277],[-69.06894,10.11985],[-69.06551,10.13269],[-69.07085,10.13378],[-69.07126,10.14391],[-69.08045,10.15209],[-69.07927,10.16193],[-69.07613,10.16161],[-69.06118,10.17236],[-69.0586,10.18081],[-69.05835,10.19868],[-69.05239,10.2038],[-69.05262,10.21114],[-69.05597,10.21625],[-69.04796,10.2213],[-69.04111,10.2349],[-69.07369,10.23682],[-69.07895,10.23418],[-69.092,10.23513],[-69.09545,10.23284],[-69.09499,10.22052]]]}},{"type":"Feature","id":"relation/11126512","properties":{"name":"Municipio Independencia","level":6,"population":"57811"},"geometry":{"type":"Polygon","coordinates":[[[-68.78628,10.34092],[-68.77544,10.33356],[-68.76561,10.32197],[-68.75835,10.32157],[-68.76082,10.31996],[-68.75854,10.31763],[-68.76496,10.31325],[-68.76572,10.30872],[-68.76222,10.3059],[-68.76541,10.29897],[-68.76301,10.29488],[-68.74893,10.28355],[-68.74411,10.28267],[-68.73592,10.27127],[-68.72173,10.26952],[-68.72201,10.2606],[-68.71727,10.2648],[-68.70613,10.2586],[-68.69956,10.25905],[-68.6955,10.26176],[-68.69568,10.26501],[-68.69163,10.26922],[-68.68781,10.26855],[-68.68574,10.27189],[-68.68775,10.27498],[-68.68602,10.27494],[-68.68672,10.28138],[-68.68484,10.28225],[-68.68743,10.2867],[-68.68488,10.28755],[-68.68421,10.29324],[-68.68211,10.29227],[-68.67958,10.29516],[-68.68893,10.30099],[-68.69253,10.30086],[-68.6963,10.30778],[-68.69953,10.30821],[-68.69849,10.31252],[-68.7169,10.32432],[-68.72121,10.32394],[-68.7227,10.31975],[-68.72434,10.32194],[-68.72733,10.32043],[-68.73781,10.32816],[-68.74965,10.34639],[-68.75475,10.34937],[-68.75626,10.35434],[-68.76175,10.35437],[-68.76307,10.35809],[-68.76909,10.36066],[-68.77121,10.36785],[-68.77487,10.37119],[-68.78093,10.36686],[-68.78719,10.36673],[-68.79237,10.35516],[-68.79304,10.3501],[-68.78628,10.34092]]]}},{"type":"Feature","id":"relation/11126513","properties":{"name":"Municipio Cocorote","level":6,"population":"41481"},"geometry":{"type":"Polygon","coordinates":[[[-68.82621,10.33896],[-68.82566,10.33207],[-68.80867,10.28753],[-68.80118,10.28512],[-68.76535,10.258],[-68.71023,10.23765],[-68.68666,10.21846],[-68.65487,10.22033],[-68.65303,10.22695],[-68.66856,10.2327],[-68.67377,10.24309],[-68.67643,10.24381],[-68.67629,10.25568],[-68.67195,10.27234],[-68.67842,10.28314],[-68.67958,10.29516],[-68.68211,10.29227],[-68.68421,10.29324],[-68.68488,10.28755],[-68.68745,10.28663],[-68.68485,10.28243],[-68.68695,10.28],[-68.68605,10.27484],[-68.68775,10.27504],[-68.68577,10.27177],[-68.68897,10.26756],[-68.68933,10.26938],[-68.69225,10.26863],[-68.69568,10.26501],[-68.69566,10.26162],[-68.70613,10.2586],[-68.71727,10.2648],[-68.72201,10.2606],[-68.72173,10.26952],[-68.73592,10.27127],[-68.74411,10.28267],[-68.74893,10.28355],[-68.76306,10.29495],[-68.76543,10.29947],[-68.76222,10.3059],[-68.76572,10.30872],[-68.76496,10.31325],[-68.75854,10.31763],[-68.76082,10.31996],[-68.75835,10.32157],[-68.76561,10.32197],[-68.77544,10.33356],[-68.78553,10.3392],[-68.79306,10.35029],[-68.78719,10.36673],[-68.79073,10.36716],[-68.8048,10.382],[-68.81259,10.37697],[-68.82104,10.36435],[-68.82763,10.36348],[-68.82621,10.33896]]]}},{"type":"Feature","id":"relation/11126514","properties":{"name":"Municipio Sucre","level":6,"population":"18988"},"geometry":{"type":"Polygon","coordinates":[[[-68.81341,10.22699],[-68.81657,10.22369],[-68.8125,10.21081],[-68.80522,10.20279],[-68.79756,10.19871],[-68.79565,10.19468],[-68.79115,10.1943],[-68.77505,10.17389],[-68.72973,10.15905],[-68.72748,10.16076],[-68.71115,10.14849],[-68.70396,10.15277],[-68.70391,10.15653],[-68.70198,10.15604],[-68.70157,10.16302],[-68.69816,10.16695],[-68.70393,10.17178],[-68.69574,10.18681],[-68.69168,10.18777],[-68.7091,10.19502],[-68.7635,10.22983],[-68.77929,10.2324],[-68.7836,10.23831],[-68.79392,10.24187],[-68.79313,10.24423],[-68.80094,10.24723],[-68.80376,10.25414],[-68.80118,10.28512],[-68.80867,10.28753],[-68.80987,10.2904],[-68.82566,10.33207],[-68.82763,10.36348],[-68.8331,10.36391],[-68.83702,10.36048],[-68.84525,10.3613],[-68.86361,10.35348],[-68.872,10.34666],[-68.88826,10.32623],[-68.87896,10.29711],[-68.86744,10.28701],[-68.86513,10.2809],[-68.85759,10.28227],[-68.82521,10.24328],[-68.82295,10.24527],[-68.81341,10.22699]]]}},{"type":"Feature","id":"relation/11126515","properties":{"name":"Municipio La Trinidad","level":6,"population":"17200"},"geometry":{"type":"Polygon","coordinates":[[[-68.68666,10.21846],[-68.71023,10.23765],[-68.76535,10.258],[-68.80118,10.28512],[-68.80376,10.25414],[-68.80229,10.24941],[-68.79752,10.24463],[-68.79313,10.24423],[-68.79392,10.24187],[-68.7836,10.23831],[-68.77929,10.2324],[-68.7635,10.22983],[-68.70462,10.19241],[-68.69035,10.18723],[-68.68488,10.19082],[-68.684,10.19405],[-68.6754,10.19584],[-68.6721,10.20799],[-68.68666,10.21846]]]}},{"type":"Feature","id":"relation/11126516","properties":{"name":"Municipio Ar\u00edstides Bastidas","level":6,"population":"20485"},"geometry":{"type":"Polygon","coordinates":[[[-68.81341,10.22699],[-68.82295,10.24527],[-68.82521,10.24328],[-68.85759,10.28227],[-68.86513,10.2809],[-68.86744,10.28701],[-68.87561,10.2927],[-68.88044,10.2996],[-68.87996,10.30417],[-68.88293,10.30622],[-68.8865,10.32373],[-68.88826,10.32623],[-68.89077,10.32437],[-68.89456,10.31763],[-68.90034,10.31479],[-68.89939,10.30784],[-68.90392,10.29638],[-68.90731,10.28943],[-68.91169,10.28807],[-68.91623,10.28081],[-68.91231,10.2571],[-68.90223,10.25804],[-68.90121,10.24872],[-68.88729,10.24297],[-68.88236,10.2436],[-68.87182,10.22814],[-68.86032,10.22307],[-68.85268,10.21295],[-68.84479,10.21234],[-68.83961,10.209],[-68.83421,10.19999],[-68.82393,10.19704],[-68.81537,10.18858],[-68.80539,10.18785],[-68.79771,10.18256],[-68.79521,10.18458],[-68.78683,10.17962],[-68.78188,10.18219],[-68.79115,10.1943],[-68.79565,10.19468],[-68.79756,10.19871],[-68.80522,10.20279],[-68.8125,10.21081],[-68.81657,10.22369],[-68.81341,10.22699]]]}},{"type":"Feature","id":"relation/11126517","properties":{"name":"Municipio P\u00e1ez","level":6,"population":"19673"},"geometry":{"type":"Polygon","coordinates":[[[-69.03508,10.15556],[-69.03501,10.14934],[-69.04569,10.14384],[-69.04784,10.14296],[-69.04929,10.14743],[-69.06517,10.14088],[-69.06557,10.13009],[-69.06894,10.11985],[-69.06726,10.11324],[-69.06178,10.11061],[-69.05592,10.11126],[-69.03651,10.09393],[-69.03437,10.0838],[-69.03617,10.07974],[-69.0336,10.07659],[-69.02971,10.07722],[-69.02748,10.07513],[-69.0205,10.04809],[-69.02579,10.02997],[-69.02118,10.01781],[-69.00609,10.01462],[-68.99748,10.01548],[-68.98262,10.00824],[-68.96975,10.012],[-68.9645,10.00544],[-68.96315,10.01142],[-68.9662,10.03032],[-68.9618,10.04866],[-68.96328,10.0521],[-68.96782,10.05332],[-68.9684,10.05752],[-68.96239,10.06676],[-68.95344,10.07007],[-68.95022,10.0691],[-68.94656,10.07304],[-68.94867,10.08398],[-68.95911,10.09358],[-68.9753,10.09511],[-68.97906,10.09302],[-68.98348,10.09838],[-68.98629,10.10933],[-69.0031,10.11898],[-69.00499,10.12622],[-68.98305,10.13507],[-68.99231,10.13719],[-68.99493,10.14071],[-69.00174,10.14276],[-69.01054,10.15144],[-69.0238,10.15176],[-69.03508,10.15556]]]}},{"type":"Feature","id":"relation/11126518","properties":{"name":"Municipio Urachiche","level":6,"population":"21966"},"geometry":{"type":"Polygon","coordinates":[[[-68.90236,10.1109],[-68.90487,10.11368],[-68.9117,10.11465],[-68.91999,10.12262],[-68.9311,10.12166],[-68.95377,10.13135],[-68.95352,10.14155],[-68.95683,10.1463],[-68.96037,10.16066],[-68.9788,10.18075],[-68.96494,10.19397],[-68.97097,10.20196],[-68.97072,10.21042],[-68.97605,10.21295],[-68.97884,10.2188],[-68.98686,10.21732],[-68.99035,10.2279],[-68.99308,10.22815],[-68.99549,10.23237],[-68.99677,10.23993],[-68.99184,10.24627],[-68.98641,10.2442],[-68.98459,10.23957],[-68.97663,10.2361],[-68.97307,10.2408],[-68.97254,10.24972],[-68.96604,10.26065],[-68.96774,10.26572],[-68.96298,10.26637],[-68.96024,10.2751],[-68.96139,10.29256],[-68.95842,10.29298],[-68.95728,10.3032],[-68.96852,10.3121],[-68.97265,10.31157],[-68.97948,10.32143],[-68.98468,10.32287],[-68.98709,10.32726],[-68.99088,10.32868],[-68.99167,10.3253],[-68.99457,10.3257],[-68.99264,10.32052],[-68.99996,10.31952],[-68.99482,10.31671],[-68.99949,10.31499],[-69.00423,10.30482],[-69.00902,10.30345],[-69.01921,10.29076],[-69.01686,10.28292],[-69.01976,10.28026],[-69.02145,10.26457],[-69.02577,10.25853],[-69.02561,10.24679],[-69.03106,10.23942],[-69.03414,10.24054],[-69.04111,10.2349],[-69.04796,10.2213],[-69.05597,10.21625],[-69.05262,10.21114],[-69.05239,10.2038],[-69.05835,10.19868],[-69.0586,10.18081],[-69.06118,10.17236],[-69.07613,10.16161],[-69.07927,10.16193],[-69.08004,10.14983],[-69.07772,10.14767],[-69.07548,10.14866],[-69.07126,10.14391],[-69.07085,10.13378],[-69.06633,10.13286],[-69.06517,10.14088],[-69.04929,10.14743],[-69.04784,10.14296],[-69.04569,10.14384],[-69.03501,10.14934],[-69.03508,10.15556],[-69.0238,10.15176],[-69.01042,10.15139],[-69.00174,10.14276],[-68.99493,10.14071],[-68.99231,10.13719],[-68.98305,10.13507],[-69.00499,10.12622],[-69.00281,10.11857],[-68.98629,10.10933],[-68.98348,10.09838],[-68.97906,10.09302],[-68.9753,10.09511],[-68.9566,10.09273],[-68.94867,10.08398],[-68.94656,10.07304],[-68.92558,10.07644],[-68.91665,10.08413],[-68.90803,10.08238],[-68.90251,10.0867],[-68.90054,10.0906],[-68.90008,10.10912],[-68.90236,10.1109]]]}},{"type":"Feature","id":"relation/11126519","properties":{"name":"Municipio Bol\u00edvar","level":6,"population":"31185"},"geometry":{"type":"Polygon","coordinates":[[[-68.83644,10.58178],[-68.84094,10.58908],[-68.84786,10.59396],[-68.85105,10.58827],[-68.86112,10.59154],[-68.8725,10.58618],[-68.88834,10.59141],[-68.89757,10.57748],[-68.9226,10.55456],[-68.93144,10.55768],[-68.9427,10.54735],[-68.94632,10.54714],[-68.94954,10.54805],[-68.95538,10.55865],[-68.96555,10.5592],[-68.97272,10.55192],[-68.97984,10.55587],[-68.9806,10.55236],[-68.98644,10.556],[-68.99257,10.55462],[-68.9966,10.54728],[-69.00152,10.54463],[-68.99787,10.53619],[-68.99909,10.53127],[-69.00398,10.53244],[-69.00955,10.5279],[-69.0265,10.5255],[-69.04232,10.51954],[-69.03965,10.50522],[-69.0549,10.48002],[-69.05333,10.47639],[-69.05885,10.47079],[-69.05911,10.46303],[-69.05537,10.46062],[-69.05423,10.456],[-69.05817,10.45132],[-69.06296,10.45071],[-69.0632,10.43784],[-69.07271,10.42408],[-69.07853,10.41953],[-69.07983,10.40854],[-69.07705,10.40484],[-69.07479,10.40721],[-69.06933,10.40528],[-69.06288,10.40672],[-69.05926,10.40197],[-69.05313,10.40071],[-69.04693,10.41458],[-69.03942,10.41982],[-69.03084,10.40828],[-69.03098,10.40394],[-69.03443,10.40125],[-69.03412,10.39637],[-69.04023,10.38584],[-69.03294,10.38469],[-69.02929,10.37972],[-69.03088,10.36367],[-69.02704,10.35667],[-69.02906,10.346],[-69.0268,10.34197],[-69.02934,10.33152],[-69.02655,10.32999],[-69.02651,10.31562],[-69.03033,10.29862],[-69.02724,10.2945],[-69.0183,10.29132],[-69.00902,10.30345],[-69.00423,10.30482],[-68.99949,10.31499],[-68.99482,10.31671],[-68.99986,10.31982],[-68.99264,10.32052],[-68.99457,10.3257],[-68.99167,10.3253],[-68.99025,10.32877],[-68.98468,10.32287],[-68.97948,10.32143],[-68.97265,10.31157],[-68.96852,10.3121],[-68.95728,10.3032],[-68.95842,10.29298],[-68.96139,10.29256],[-68.96024,10.2751],[-68.94568,10.27671],[-68.92546,10.28398],[-68.91623,10.28081],[-68.91169,10.28807],[-68.90731,10.28943],[-68.90392,10.29638],[-68.89939,10.30784],[-68.89949,10.31613],[-68.89456,10.31763],[-68.872,10.34666],[-68.86361,10.35348],[-68.84525,10.3613],[-68.84081,10.35967],[-68.8331,10.36391],[-68.82995,10.36252],[-68.82104,10.36435],[-68.81259,10.37697],[-68.8048,10.382],[-68.80493,10.38665],[-68.79969,10.39194],[-68.79947,10.40394],[-68.78347,10.40866],[-68.76794,10.42248],[-68.75983,10.41994],[-68.75436,10.42303],[-68.75178,10.43009],[-68.75523,10.4408],[-68.74942,10.44826],[-68.7401,10.45199],[-68.73655,10.45008],[-68.73347,10.45446],[-68.71544,10.45161],[-68.72017,10.47333],[-68.72321,10.47407],[-68.72391,10.47848],[-68.72274,10.48841],[-68.71837,10.4918],[-68.71415,10.50032],[-68.71348,10.5055],[-68.7163,10.51133],[-68.71458,10.51326],[-68.71955,10.52704],[-68.72722,10.53219],[-68.72547,10.53646],[-68.72919,10.53535],[-68.72732,10.53951],[-68.72985,10.54179],[-68.72847,10.54491],[-68.73229,10.54672],[-68.73329,10.55014],[-68.7303,10.55518],[-68.73087,10.55887],[-68.73449,10.56132],[-68.7295,10.5655],[-68.73381,10.56925],[-68.73194,10.57049],[-68.7329,10.57364],[-68.73034,10.57324],[-68.73027,10.57684],[-68.72603,10.58019],[-68.74019,10.57638],[-68.74325,10.57227],[-68.75114,10.57472],[-68.75485,10.57209],[-68.75764,10.57433],[-68.75832,10.57011],[-68.77994,10.57343],[-68.7827,10.57615],[-68.78537,10.57326],[-68.78704,10.57627],[-68.79511,10.57145],[-68.79437,10.56877],[-68.79922,10.56947],[-68.8022,10.56634],[-68.80948,10.56597],[-68.81379,10.56105],[-68.82199,10.56397],[-68.82683,10.56253],[-68.83147,10.55556],[-68.82914,10.55336],[-68.83425,10.54846],[-68.83753,10.55016],[-68.83545,10.55481],[-68.84143,10.55999],[-68.84178,10.56498],[-68.84642,10.57216],[-68.84371,10.5719],[-68.8435,10.57383],[-68.84874,10.57674],[-68.83933,10.578],[-68.83644,10.58178]]]}},{"type":"Feature","id":"relation/11126520","properties":{"name":"Municipio Manuel Monge","level":6,"population":"13180"},"geometry":{"type":"Polygon","coordinates":[[[-68.68637,10.58652],[-68.67423,10.59471],[-68.66796,10.59498],[-68.66726,10.59155],[-68.66449,10.59188],[-68.65595,10.59473],[-68.64911,10.60038],[-68.63166,10.59737],[-68.62644,10.60037],[-68.61696,10.60135],[-68.61066,10.60628],[-68.61908,10.60877],[-68.62085,10.6146],[-68.62292,10.61494],[-68.62312,10.61957],[-68.61774,10.61876],[-68.61755,10.62146],[-68.6212,10.68206],[-68.61889,10.68348],[-68.62078,10.68512],[-68.61299,10.68851],[-68.61299,10.69726],[-68.60996,10.70316],[-68.61131,10.70694],[-68.61641,10.7094],[-68.61632,10.71342],[-68.61956,10.71372],[-68.62189,10.72022],[-68.61856,10.72611],[-68.61587,10.72545],[-68.61848,10.77393],[-68.62625,10.77073],[-68.64069,10.75731],[-68.65551,10.73302],[-68.67358,10.72218],[-68.67653,10.72317],[-68.67697,10.73085],[-68.67873,10.73128],[-68.69022,10.73059],[-68.69441,10.72403],[-68.69862,10.72752],[-68.7141,10.72975],[-68.7229,10.7262],[-68.72947,10.73018],[-68.73795,10.72459],[-68.74612,10.72277],[-68.75876,10.72445],[-68.76712,10.7282],[-68.78212,10.72851],[-68.77923,10.72074],[-68.77327,10.71755],[-68.78116,10.71195],[-68.79907,10.70705],[-68.79539,10.70022],[-68.79299,10.70069],[-68.79306,10.69257],[-68.79682,10.69123],[-68.80237,10.69519],[-68.81074,10.69347],[-68.81545,10.68377],[-68.82199,10.68156],[-68.82272,10.67578],[-68.82807,10.67048],[-68.8326,10.65981],[-68.83666,10.65955],[-68.84266,10.65115],[-68.85347,10.65045],[-68.85488,10.65222],[-68.87579,10.64976],[-68.87916,10.63757],[-68.8826,10.63384],[-68.8778,10.62811],[-68.87509,10.61443],[-68.88245,10.60835],[-68.88149,10.59974],[-68.88834,10.59141],[-68.8725,10.58618],[-68.86112,10.59154],[-68.85105,10.58827],[-68.84786,10.59396],[-68.84094,10.58908],[-68.83719,10.5804],[-68.84438,10.57617],[-68.84874,10.57674],[-68.8435,10.57383],[-68.84371,10.5719],[-68.84642,10.57216],[-68.84178,10.56498],[-68.84143,10.55999],[-68.83545,10.55481],[-68.83753,10.55016],[-68.83425,10.54846],[-68.82914,10.55336],[-68.83147,10.55556],[-68.82683,10.56253],[-68.82199,10.56397],[-68.81379,10.56105],[-68.80948,10.56597],[-68.8022,10.56634],[-68.79922,10.56947],[-68.79437,10.56877],[-68.79511,10.57145],[-68.78704,10.57627],[-68.78537,10.57326],[-68.7827,10.57615],[-68.77994,10.57343],[-68.75832,10.57011],[-68.75764,10.57433],[-68.75485,10.57209],[-68.75114,10.57472],[-68.74325,10.57227],[-68.74019,10.57638],[-68.72603,10.58019],[-68.73027,10.57684],[-68.73034,10.57324],[-68.7329,10.57364],[-68.73194,10.57049],[-68.73381,10.56925],[-68.7295,10.5655],[-68.73449,10.56132],[-68.73087,10.55887],[-68.7303,10.55518],[-68.73329,10.55014],[-68.73229,10.54672],[-68.72847,10.54491],[-68.72985,10.54179],[-68.72732,10.53951],[-68.72919,10.53535],[-68.72547,10.53646],[-68.72722,10.53219],[-68.71955,10.52704],[-68.71458,10.51326],[-68.7163,10.51133],[-68.71348,10.5055],[-68.71415,10.50032],[-68.71837,10.4918],[-68.72274,10.48841],[-68.72391,10.47848],[-68.72321,10.47407],[-68.72017,10.47333],[-68.71544,10.45161],[-68.70279,10.45855],[-68.70292,10.47624],[-68.70671,10.47704],[-68.70502,10.48921],[-68.69616,10.50624],[-68.69498,10.51415],[-68.69686,10.52068],[-68.6942,10.52386],[-68.69596,10.52696],[-68.68402,10.53317],[-68.68236,10.53676],[-68.68417,10.54188],[-68.68049,10.5436],[-68.68076,10.54639],[-68.67675,10.54484],[-68.67333,10.54646],[-68.67266,10.55257],[-68.67968,10.55339],[-68.68197,10.55614],[-68.68228,10.55867],[-68.67706,10.56374],[-68.67681,10.5694],[-68.68197,10.57215],[-68.68207,10.5796],[-68.68722,10.58409],[-68.68637,10.58652]]]}}]}