{"type":"FeatureCollection","features":[{"type":"Feature","id":"node/333536412","properties":{"name":"Urachiche","place":"city"},"geometry":{"type":"Point","coordinates":[-69.00539,10.15877]}},{"type":"Feature","id":"node/1141478459","properties":{"name":"Salom","place":"town"},"geometry":{"type":"Point","coordinates":[-68.48655,10.17702]}},{"type":"Feature","id":"node/1499443093","properties":{"name":"La Raya","place":"village"},"geometry":{"type":"Point","coordinates":[-68.40314,10.44489]}},{"type":"Feature","id":"node/1606724307","properties":{"name":"Yumare","place":"town","population":"30000"},"geometry":{"type":"Point","coordinates":[-68.67386,10.59749]}},{"type":"Feature","id":"node/1828993494","properties":{"name":"La Laguna","place":"village"},"geometry":{"type":"Point","coordinates":[-68.51611,10.1546]}},{"type":"Feature","id":"node/1861608609","properties":{"name":"Sabana de Parra","place":"town"},"geometry":{"type":"Point","coordinates":[-69.03565,10.12131]}},{"type":"Feature","id":"node/1958695036","properties":{"name":"La Grillera","place":"town"},"geometry":{"type":"Point","coordinates":[-68.88644,10.23461]}},{"type":"Feature","id":"node/2882128507","properties":{"name":"Aroa","place":"city","population":"33000"},"geometry":{"type":"Point","coordinates":[-68.89783,10.44219]}},{"type":"Feature","id":"node/3239051261","properties":{"name":"Guama","place":"town"},"geometry":{"type":"Point","coordinates":[-68.81932,10.26834]}},{"type":"Feature","id":"node/3247399214","properties":{"name":"Temerla","place":"village"},"geometry":{"type":"Point","coordinates":[-68.43134,10.26217]}},{"type":"Feature","id":"node/3266500861","properties":{"name":"San Pablo","place":"town"},"geometry":{"type":"Point","coordinates":[-68.84433,10.24896]}},{"type":"Feature","id":"node/3630168530","properties":{"name":"San Felipe","place":"city","population":"112085"},"geometry":{"type":"Point","coordinates":[-68.7417,10.33948]}},{"type":"Feature","id":"node/3630168531","properties":{"name":"Yaritagua","place":"city","population":"104756"},"geometry":{"type":"Point","coordinates":[-69.12113,10.08058]}},{"type":"Feature","id":"node/5366584591","properties":{"name":"Chivacoa","place":"city","population":"84305"},"geometry":{"type":"Point","coordinates":[-68.8941,10.16021]}},{"type":"Feature","id":"node/4720340353","properties":{"name":"Boraure","place":"town"},"geometry":{"type":"Point","coordinates":[-68.76965,10.24819]}},{"type":"Feature","id":"node/4433004302","properties":{"name":"Nirgua","place":"city","population":"77438"},"geometry":{"type":"Point","coordinates":[-68.56489,10.15248]}},{"type":"Feature","id":"node/5366925222","properties":{"name":"Cocorote","place":"city"},"geometry":{"type":"Point","coordinates":[-68.78309,10.31948]}},{"type":"Feature","id":"node/5367172496","properties":{"name":"El Farriar","place":"town"},"geometry":{"type":"Point","coordinates":[-68.55868,10.47018]}},{"type":"Feature","id":"node/4720340354","properties":{"name":"La Morita","place":"town"},"geometry":{"type":"Point","coordinates":[-68.74637,10.29678]}},{"type":"Feature","id":"node/5331209064","properties":{"name":"Pueblo Nuevo","place":"town"},"geometry":{"type":"Point","coordinates":[-68.55227,10.5928]}},{"type":"Feature","id":"node/5334037571","properties":{"name":"Agua Negra","place":"town"},"geometry":{"type":"Point","coordinates":[-69.16076,10.05852]}},{"type":"Feature","id":"node/5334037849","properties":{"name":"Las Velas","place":"town"},"geometry":{"type":"Point","coordinates":[-69.13754,9.97748]}},{"type":"Feature","id":"node/5334037858","properties":{"name":"Barrio Nuevo","place":"town"},"geometry":{"type":"Point","coordinates":[-69.13327,9.9462]}},{"type":"Feature","id":"node/5334037872","properties":{"name":"La Perdomera","place":"village"},"geometry":{"type":"Point","coordinates":[-69.12965,9.91942]}},{"type":"Feature","id":"node/5334038021","properties":{"name":"Cujisal","place":"village"},"geometry":{"type":"Point","coordinates":[-69.21189,10.10943]}},{"type":"Feature","id":"node/5334862384","properties":{"name":"Buenos Aires","place":"village"},"geometry":{"type":"Point","coordinates":[-69.01521,10.21304]}},{"type":"Feature","id":"node/5334871328","properties":{"name":"R\u00edo Arriba","place":"village"},"geometry":{"type":"Point","coordinates":[-69.03009,10.20755]}},{"type":"Feature","id":"node/5335041744","properties":{"name":"El Treinta","place":"village"},"geometry":{"type":"Point","coordinates":[-69.02867,10.41277]}},{"type":"Feature","id":"node/5335041745","properties":{"name":"Bajo Guacamaya","place":"village"},"geometry":{"type":"Point","coordinates":[-69.0012,10.41603]}},{"type":"Feature","id":"node/5365892360","properties":{"name":"Cambural","place":"town"},"geometry":{"type":"Point","coordinates":[-69.16719,10.10363]}},{"type":"Feature","id":"node/5366377754","properties":{"name":"Buena Vista","place":"village"},"geometry":{"type":"Point","coordinates":[-69.08549,10.0261]}},{"type":"Feature","id":"node/5366377837","properties":{"name":"Agua Viva","place":"village"},"geometry":{"type":"Point","coordinates":[-69.07495,9.97876]}},{"type":"Feature","id":"node/5366428580","properties":{"name":"El Diamante","place":"town"},"geometry":{"type":"Point","coordinates":[-68.98212,10.08881]}},{"type":"Feature","id":"node/5366434235","properties":{"name":"La Piedra","place":"town"},"geometry":{"type":"Point","coordinates":[-69.06869,10.09407]}},{"type":"Feature","id":"node/5366434270","properties":{"name":"El Salto","place":"village"},"geometry":{"type":"Point","coordinates":[-69.08891,10.09994]}},{"type":"Feature","id":"node/5366434483","properties":{"name":"El Play\u00f3n","place":"village"},"geometry":{"type":"Point","coordinates":[-69.09315,10.13832]}},{"type":"Feature","id":"node/5366434518","properties":{"name":"Guaremal del Medio","place":"village"},"geometry":{"type":"Point","coordinates":[-69.09135,10.168]}},{"type":"Feature","id":"node/5366451078","properties":{"name":"Platanales","place":"village"},"geometry":{"type":"Point","coordinates":[-69.04041,10.08386]}},{"type":"Feature","id":"node/5366451099","properties":{"name":"La Blanquera","place":"town"},"geometry":{"type":"Point","coordinates":[-69.03184,10.09362]}},{"type":"Feature","id":"node/5366482056","properties":{"name":"Aguaruca","place":"town"},"geometry":{"type":"Point","coordinates":[-68.96712,10.12397]}},{"type":"Feature","id":"node/5366482060","properties":{"name":"El Picure","place":"town"},"geometry":{"type":"Point","coordinates":[-68.96599,10.10906]}},{"type":"Feature","id":"node/5366582966","properties":{"name":"Camunare Rojo","place":"town"},"geometry":{"type":"Point","coordinates":[-68.97881,10.16443]}},{"type":"Feature","id":"node/5366582999","properties":{"name":"La Virgen","place":"town"},"geometry":{"type":"Point","coordinates":[-68.96156,10.17652]}},{"type":"Feature","id":"node/5366584553","properties":{"name":"El Copey","place":"town"},"geometry":{"type":"Point","coordinates":[-68.95258,10.19101]}},{"type":"Feature","id":"node/5366584578","properties":{"name":"Cocuaima","place":"town"},"geometry":{"type":"Point","coordinates":[-68.95719,10.20243]}},{"type":"Feature","id":"node/5366584588","properties":{"name":"San Ram\u00f3n","place":"town"},"geometry":{"type":"Point","coordinates":[-68.9409,10.20896]}},{"type":"Feature","id":"node/5366584589","properties":{"name":"Alto del R\u00edo","place":"town"},"geometry":{"type":"Point","coordinates":[-68.93881,10.21681]}},{"type":"Feature","id":"node/5366584590","properties":{"name":"Palo Verde","place":"town"},"geometry":{"type":"Point","coordinates":[-68.91612,10.18163]}},{"type":"Feature","id":"node/5366584592","properties":{"name":"Campo El\u00edas","place":"town"},"geometry":{"type":"Point","coordinates":[-68.9272,10.22582]}},{"type":"Feature","id":"node/5366584595","properties":{"name":"Sabana Larga","place":"town"},"geometry":{"type":"Point","coordinates":[-68.88341,10.19375]}},{"type":"Feature","id":"node/5366584596","properties":{"name":"Teteiba (El Pe\u00f1\u00f3n)","place":"town"},"geometry":{"type":"Point","coordinates":[-68.90237,10.21261]}},{"type":"Feature","id":"node/5366584620","properties":{"name":"Poapoa","place":"town"},"geometry":{"type":"Point","coordinates":[-68.9043,10.23341]}},{"type":"Feature","id":"node/5366584640","properties":{"name":"Palo Grande","place":"town"},"geometry":{"type":"Point","coordinates":[-68.8928,10.24054]}},{"type":"Feature","id":"node/5366584641","properties":{"name":"La Bartola","place":"town"},"geometry":{"type":"Point","coordinates":[-68.87898,10.21323]}},{"type":"Feature","id":"node/5366656032","properties":{"name":"Central Matilde","place":"village"},"geometry":{"type":"Point","coordinates":[-68.88125,10.14403]}},{"type":"Feature","id":"node/5366687845","properties":{"name":"Guararute","place":"town"},"geometry":{"type":"Point","coordinates":[-68.86565,10.24617]}},{"type":"Feature","id":"node/5366687886","properties":{"name":"Tartagal","place":"town"},"geometry":{"type":"Point","coordinates":[-68.82547,10.20582]}},{"type":"Feature","id":"node/5366688035","properties":{"name":"El Card\u00f3n","place":"village"},"geometry":{"type":"Point","coordinates":[-68.81674,10.23061]}},{"type":"Feature","id":"node/5366688038","properties":{"name":"Campo Nuevo","place":"town"},"geometry":{"type":"Point","coordinates":[-68.80116,10.21642]}},{"type":"Feature","id":"node/5366688054","properties":{"name":"Faltriquera","place":"town"},"geometry":{"type":"Point","coordinates":[-68.79644,10.19902]}},{"type":"Feature","id":"node/5366688119","properties":{"name":"Cumaripa","place":"town"},"geometry":{"type":"Point","coordinates":[-68.83333,10.15645]}},{"type":"Feature","id":"node/5366753156","properties":{"name":"Palito Blanco","place":"town"},"geometry":{"type":"Point","coordinates":[-68.79299,10.25153]}},{"type":"Feature","id":"node/5366753218","properties":{"name":"Quigua","place":"town"},"geometry":{"type":"Point","coordinates":[-68.86101,10.29172]}},{"type":"Feature","id":"node/5366753726","properties":{"name":"San Pedro","place":"village"},"geometry":{"type":"Point","coordinates":[-68.86224,10.27403]}},{"type":"Feature","id":"node/5366905415","properties":{"name":"Caicara","place":"village"},"geometry":{"type":"Point","coordinates":[-68.84345,10.29273]}},{"type":"Feature","id":"node/5366905417","properties":{"name":"Obonte","place":"village"},"geometry":{"type":"Point","coordinates":[-68.79163,10.26523]}},{"type":"Feature","id":"node/5366906957","properties":{"name":"La Esperanza","place":"town"},"geometry":{"type":"Point","coordinates":[-68.76099,10.29026]}},{"type":"Feature","id":"node/5366925221","properties":{"name":"Jaime","place":"town"},"geometry":{"type":"Point","coordinates":[-68.80269,10.30377]}},{"type":"Feature","id":"node/5366935171","properties":{"name":"Guaratibana","place":"village"},"geometry":{"type":"Point","coordinates":[-68.70507,10.22545]}},{"type":"Feature","id":"node/5366935172","properties":{"name":"Las Flores","place":"village"},"geometry":{"type":"Point","coordinates":[-68.74077,10.26771]}},{"type":"Feature","id":"node/5366935173","properties":{"name":"Los Cogollos","place":"village"},"geometry":{"type":"Point","coordinates":[-68.69437,10.15199]}},{"type":"Feature","id":"node/5366935174","properties":{"name":"Panchito","place":"village"},"geometry":{"type":"Point","coordinates":[-68.69727,10.18158]}},{"type":"Feature","id":"node/5366968016","properties":{"name":"El Ca\u00f1averal","place":"town"},"geometry":{"type":"Point","coordinates":[-68.73799,10.30824]}},{"type":"Feature","id":"node/5366968017","properties":{"name":"La Negrita","place":"village"},"geometry":{"type":"Point","coordinates":[-68.71897,10.30767]}},{"type":"Feature","id":"node/5366968020","properties":{"name":"La Marroquina","place":"town"},"geometry":{"type":"Point","coordinates":[-68.6856,10.32013]}},{"type":"Feature","id":"node/5366969321","properties":{"name":"San Jos\u00e9","place":"town"},"geometry":{"type":"Point","coordinates":[-68.66538,10.33318]}},{"type":"Feature","id":"node/5366981848","properties":{"name":"San Javier","place":"town"},"geometry":{"type":"Point","coordinates":[-68.66627,10.37191]}},{"type":"Feature","id":"node/5366981849","properties":{"name":"Mar\u00edn","place":"city"},"geometry":{"type":"Point","coordinates":[-68.69246,10.3853]}},{"type":"Feature","id":"node/5366981852","properties":{"name":"El Pe\u00f1\u00f3n","place":"village"},"geometry":{"type":"Point","coordinates":[-68.64333,10.39396]}},{"type":"Feature","id":"node/5367076203","properties":{"name":"Guayabito","place":"village"},"geometry":{"type":"Point","coordinates":[-68.65516,10.49738]}},{"type":"Feature","id":"node/5367076204","properties":{"name":"Kil\u00f3metro 20","place":"village"},"geometry":{"type":"Point","coordinates":[-68.64053,10.53976]}},{"type":"Feature","id":"node/5367076205","properties":{"name":"Crucito","place":"town"},"geometry":{"type":"Point","coordinates":[-68.63802,10.55945]}},{"type":"Feature","id":"node/5367076206","properties":{"name":"Tesorero","place":"village"},"geometry":{"type":"Point","coordinates":[-68.63761,10.5971]}},{"type":"Feature","id":"node/5367076209","properties":{"name":"Yaguapano","place":"village"},"geometry":{"type":"Point","coordinates":[-68.71235,10.58511]}},{"type":"Feature","id":"node/5367076210","properties":{"name":"Kil\u00f3metro 41","place":"village"},"geometry":{"type":"Point","coordinates":[-68.72557,10.57456]}},{"type":"Feature","id":"node/5367076211","properties":{"name":"Carabobo","place":"town"},"geometry":{"type":"Point","coordinates":[-68.73799,10.55931]}},{"type":"Feature","id":"node/5367076728","properties":{"name":"Los Uveros","place":"town"},"geometry":{"type":"Point","coordinates":[-68.78062,10.54912]}},{"type":"Feature","id":"node/5367076740","properties":{"name":"La Vaca","place":"village"},"geometry":{"type":"Point","coordinates":[-68.79107,10.5347]}},{"type":"Feature","id":"node/5367076750","properties":{"name":"Barlovento","place":"village"},"geometry":{"type":"Point","coordinates":[-68.78986,10.51952]}},{"type":"Feature","id":"node/5367076751","properties":{"name":"Boquer\u00f3n","place":"village"},"geometry":{"type":"Point","coordinates":[-68.82684,10.56442]}},{"type":"Feature","id":"node/5367076752","properties":{"name":"Socremo","place":"town"},"geometry":{"type":"Point","coordinates":[-68.80262,10.6232]}},{"type":"Feature","id":"node/5367076753","properties":{"name":"El Hacha","place":"village"},"geometry":{"type":"Point","coordinates":[-68.86141,10.51162]}},{"type":"Feature","id":"node/5367076761","properties":{"name":"Quebrada Seca","place":"village"},"geometry":{"type":"Point","coordinates":[-68.86717,10.54959]}},{"type":"Feature","id":"node/5367076824","properties":{"name":"Lacero","place":"town"},"geometry":{"type":"Point","coordinates":[-68.6924,10.62881]}},{"type":"Feature","id":"node/5367076825","properties":{"name":"Poblado Ocho","place":"town"},"geometry":{"type":"Point","coordinates":[-68.64755,10.62868]}},{"type":"Feature","id":"node/5367076860","properties":{"name":"Poblado Siete","place":"town"},"geometry":{"type":"Point","coordinates":[-68.72739,10.64765]}},{"type":"Feature","id":"node/5367076973","properties":{"name":"Santa Ana","place":"village"},"geometry":{"type":"Point","coordinates":[-68.89534,10.52066]}},{"type":"Feature","id":"node/5367076982","properties":{"name":"El Dos y Medio","place":"village"},"geometry":{"type":"Point","coordinates":[-68.87966,10.50747]}},{"type":"Feature","id":"node/5367076983","properties":{"name":"La Luz","place":"town"},"geometry":{"type":"Point","coordinates":[-68.88386,10.47189]}},{"type":"Feature","id":"node/5367077001","properties":{"name":"San Jos\u00e9","place":"village"},"geometry":{"type":"Point","coordinates":[-68.93492,10.46964]}},{"type":"Feature","id":"node/5367077002","properties":{"name":"Atascadero","place":"village"},"geometry":{"type":"Point","coordinates":[-68.9755,10.44781]}},{"type":"Feature","id":"node/5367077003","properties":{"name":"Cayures","place":"village"},"geometry":{"type":"Point","coordinates":[-68.991,10.42583]}},{"type":"Feature","id":"node/5367077004","properties":{"name":"Sol y Sombra","place":"village"},"geometry":{"type":"Point","coordinates":[-69.01108,10.40696]}},{"type":"Feature","id":"node/5367172447","properties":{"name":"Char\u00edpano","place":"village"},"geometry":{"type":"Point","coordinates":[-68.55645,10.57311]}},{"type":"Feature","id":"node/5367172498","properties":{"name":"El Chino","place":"village"},"geometry":{"type":"Point","coordinates":[-68.5772,10.45178]}},{"type":"Feature","id":"node/5367172499","properties":{"name":"Pica del Chino","place":"town"},"geometry":{"type":"Point","coordinates":[-68.58105,10.43664]}},{"type":"Feature","id":"node/5367172500","properties":{"name":"Tar\u00eda","place":"village"},"geometry":{"type":"Point","coordinates":[-68.56736,10.42641]}},{"type":"Feature","id":"node/5367172508","properties":{"name":"Palmarejo","place":"village"},"geometry":{"type":"Point","coordinates":[-68.5284,10.48839]}},{"type":"Feature","id":"node/5367172517","properties":{"name":"Agua Negra","place":"village"},"geometry":{"type":"Point","coordinates":[-68.5097,10.50413]}},{"type":"Feature","id":"node/5367173421","properties":{"name":"Carbonero","place":"village"},"geometry":{"type":"Point","coordinates":[-68.59283,10.43246]}},{"type":"Feature","id":"node/5367173422","properties":{"name":"Vista Alegre","place":"village"},"geometry":{"type":"Point","coordinates":[-68.60481,10.41562]}},{"type":"Feature","id":"node/5367173425","properties":{"name":"Los Ca\u00f1izos","place":"village"},"geometry":{"type":"Point","coordinates":[-68.61667,10.43372]}},{"type":"Feature","id":"node/5368732541","properties":{"name":"El Caliche","place":"town"},"geometry":{"type":"Point","coordinates":[-68.78869,10.13004]}},{"type":"Feature","id":"node/5368732542","properties":{"name":"Cerro Pel\u00f3n","place":"village"},"geometry":{"type":"Point","coordinates":[-68.66136,10.1649]}},{"type":"Feature","id":"node/5368732543","properties":{"name":"Guerrero","place":"village"},"geometry":{"type":"Point","coordinates":[-68.63855,10.17937]}},{"type":"Feature","id":"node/5368733374","properties":{"name":"El Picacho","place":"village"},"geometry":{"type":"Point","coordinates":[-68.60524,10.14899]}},{"type":"Feature","id":"node/5368733538","properties":{"name":"Cubiro","place":"village"},"geometry":{"type":"Point","coordinates":[-68.61864,10.13527]}},{"type":"Feature","id":"node/5368733595","properties":{"name":"San Vicente","place":"village"},"geometry":{"type":"Point","coordinates":[-68.61504,10.12443]}},{"type":"Feature","id":"node/5368782965","properties":{"name":"Madera","place":"village"},"geometry":{"type":"Point","coordinates":[-68.51726,10.11771]}},{"type":"Feature","id":"node/5368782966","properties":{"name":"La Herrera","place":"village"},"geometry":{"type":"Point","coordinates":[-68.53385,10.13244]}},{"type":"Feature","id":"node/5368782968","properties":{"name":"La Nasa","place":"village"},"geometry":{"type":"Point","coordinates":[-68.46861,10.18402]}},{"type":"Feature","id":"node/5368782969","properties":{"name":"Vallecito","place":"village"},"geometry":{"type":"Point","coordinates":[-68.44415,10.21973]}},{"type":"Feature","id":"node/5368782970","properties":{"name":"Las Vegas","place":"village"},"geometry":{"type":"Point","coordinates":[-68.44165,10.24105]}},{"type":"Feature","id":"node/5368783018","properties":{"name":"Corumbo","place":"village"},"geometry":{"type":"Point","coordinates":[-68.49985,10.11758]}},{"type":"Feature","id":"node/5368785771","properties":{"name":"Guayabal","place":"village"},"geometry":{"type":"Point","coordinates":[-68.43381,10.14726]}},{"type":"Feature","id":"node/5368785772","properties":{"name":"La Araguata","place":"village"},"geometry":{"type":"Point","coordinates":[-68.44426,10.16065]}},{"type":"Feature","id":"node/5368785786","properties":{"name":"Los Potreros","place":"village"},"geometry":{"type":"Point","coordinates":[-68.46983,10.12954]}},{"type":"Feature","id":"node/5368785787","properties":{"name":"Quiriquire","place":"village"},"geometry":{"type":"Point","coordinates":[-68.4536,10.10852]}},{"type":"Feature","id":"node/5368785789","properties":{"name":"Talla Arriba (Los Manires)","place":"village"},"geometry":{"type":"Point","coordinates":[-68.46994,10.16422]}},{"type":"Feature","id":"node/5370468853","properties":{"name":"La Llanada","place":"village"},"geometry":{"type":"Point","coordinates":[-68.40587,10.48554]}},{"type":"Feature","id":"node/5370468866","properties":{"name":"La Hoya","place":"village"},"geometry":{"type":"Point","coordinates":[-68.41838,10.51456]}},{"type":"Feature","id":"node/5370468867","properties":{"name":"Bella Vista","place":"village"},"geometry":{"type":"Point","coordinates":[-68.42766,10.43842]}},{"type":"Feature","id":"node/5370468868","properties":{"name":"Maporita","place":"village"},"geometry":{"type":"Point","coordinates":[-68.44504,10.43764]}},{"type":"Feature","id":"node/5370468869","properties":{"name":"El Guayabo","place":"town"},"geometry":{"type":"Point","coordinates":[-68.47552,10.43298]}},{"type":"Feature","id":"node/5370468870","properties":{"name":"El Ci\u00e9nego","place":"village"},"geometry":{"type":"Point","coordinates":[-68.49948,10.4305]}},{"type":"Feature","id":"node/5370468871","properties":{"name":"Guabina","place":"village"},"geometry":{"type":"Point","coordinates":[-68.52315,10.42083]}},{"type":"Feature","id":"node/5370468914","properties":{"name":"El Tulip\u00e1n","place":"village"},"geometry":{"type":"Point","coordinates":[-68.51405,10.42598]}},{"type":"Feature","id":"node/5370468915","properties":{"name":"El Torito","place":"village"},"geometry":{"type":"Point","coordinates":[-68.54422,10.42084]}},{"type":"Feature","id":"node/5370468916","properties":{"name":"Las Pe\u00f1as","place":"village"},"geometry":{"type":"Point","coordinates":[-68.55361,10.37349]}},{"type":"Feature","id":"node/5504205905","properties":{"name":"Agua Fr\u00eda","place":"village"},"geometry":{"type":"Point","coordinates":[-68.91877,10.32464]}},{"type":"Feature","id":"node/5504205906","properties":{"name":"La Vega","place":"village"},"geometry":{"type":"Point","coordinates":[-68.85939,10.23917]}},{"type":"Feature","id":"node/5504205907","properties":{"name":"Los Colorados","place":"town"},"geometry":{"type":"Point","coordinates":[-68.8731,10.22441]}},{"type":"Feature","id":"node/5504205908","properties":{"name":"Tibana","place":"town"},"geometry":{"type":"Point","coordinates":[-68.86308,10.23113]}},{"type":"Feature","id":"node/5504205909","properties":{"name":"Iboa","place":"village"},"geometry":{"type":"Point","coordinates":[-68.85706,10.26336]}},{"type":"Feature","id":"node/5504206047","properties":{"name":"La Gotera","place":"town"},"geometry":{"type":"Point","coordinates":[-68.87984,10.25475]}},{"type":"Feature","id":"node/5504206048","properties":{"name":"Sabana Larga","place":"village"},"geometry":{"type":"Point","coordinates":[-68.86816,10.27065]}},{"type":"Feature","id":"node/5504206049","properties":{"name":"La Mata","place":"village"},"geometry":{"type":"Point","coordinates":[-68.87427,10.26598]}},{"type":"Feature","id":"node/5504206050","properties":{"name":"La Sabana","place":"village"},"geometry":{"type":"Point","coordinates":[-68.89431,10.29231]}},{"type":"Feature","id":"node/5504207732","properties":{"name":"La Cumbre","place":"village"},"geometry":{"type":"Point","coordinates":[-68.91125,10.27497]}},{"type":"Feature","id":"node/5504207733","properties":{"name":"La Puente","place":"village"},"geometry":{"type":"Point","coordinates":[-68.93519,10.25557]}},{"type":"Feature","id":"node/5504207734","properties":{"name":"La Laguna","place":"village"},"geometry":{"type":"Point","coordinates":[-68.94215,10.24609]}},{"type":"Feature","id":"node/5504207735","properties":{"name":"Bucaral de Chivacoa","place":"village"},"geometry":{"type":"Point","coordinates":[-68.92417,10.29246]}},{"type":"Feature","id":"node/5504208573","properties":{"name":"La Burra","place":"town"},"geometry":{"type":"Point","coordinates":[-68.83764,10.28397]}},{"type":"Feature","id":"node/5504208574","properties":{"name":"El Rosario","place":"village"},"geometry":{"type":"Point","coordinates":[-68.87702,10.31969]}},{"type":"Feature","id":"node/5504208578","properties":{"name":"El Naranjal","place":"village"},"geometry":{"type":"Point","coordinates":[-68.8367,10.32321]}},{"type":"Feature","id":"node/5504208582","properties":{"name":"Los Cruceros","place":"village"},"geometry":{"type":"Point","coordinates":[-68.82371,10.3453]}},{"type":"Feature","id":"node/5504208585","properties":{"name":"La Horqueta","place":"village"},"geometry":{"type":"Point","coordinates":[-68.87648,10.37879]}},{"type":"Feature","id":"node/5504209469","properties":{"name":"El Refugio","place":"village"},"geometry":{"type":"Point","coordinates":[-68.85733,10.39758]}},{"type":"Feature","id":"node/5504270193","properties":{"name":"Ojo de Agua","place":"village"},"geometry":{"type":"Point","coordinates":[-68.85566,10.40625]}},{"type":"Feature","id":"node/5504270195","properties":{"name":"Cumaragua de Aroa","place":"village"},"geometry":{"type":"Point","coordinates":[-68.83512,10.44131]}},{"type":"Feature","id":"node/5504270197","properties":{"name":"Kil\u00f3metro 7","place":"village"},"geometry":{"type":"Point","coordinates":[-68.91821,10.49703]}},{"type":"Feature","id":"node/5504270556","properties":{"name":"Cupa","place":"village"},"geometry":{"type":"Point","coordinates":[-68.95398,10.48753]}},{"type":"Feature","id":"node/5504270841","properties":{"name":"Sabana de M\u00e9ndez","place":"village"},"geometry":{"type":"Point","coordinates":[-69.02882,10.16215]}},{"type":"Feature","id":"node/5504270845","properties":{"name":"Quebrada Grande","place":"village"},"geometry":{"type":"Point","coordinates":[-69.07802,10.19048]}},{"type":"Feature","id":"node/5504270847","properties":{"name":"Los Morros","place":"village"},"geometry":{"type":"Point","coordinates":[-69.05055,10.21229]}},{"type":"Feature","id":"node/5504273187","properties":{"name":"El Copey","place":"village"},"geometry":{"type":"Point","coordinates":[-69.01182,10.2834]}},{"type":"Feature","id":"node/5504273188","properties":{"name":"Miraflores","place":"village"},"geometry":{"type":"Point","coordinates":[-69.0122,10.27069]}},{"type":"Feature","id":"node/5504273189","properties":{"name":"Majagual","place":"village"},"geometry":{"type":"Point","coordinates":[-69.01282,10.26472]}},{"type":"Feature","id":"node/5504273190","properties":{"name":"Maimire","place":"village"},"geometry":{"type":"Point","coordinates":[-69.01377,10.25729]}},{"type":"Feature","id":"node/5504273191","properties":{"name":"Palo de Agua","place":"village"},"geometry":{"type":"Point","coordinates":[-69.01784,10.24929]}},{"type":"Feature","id":"node/5504273193","properties":{"name":"El Junco","place":"village"},"geometry":{"type":"Point","coordinates":[-68.99184,10.20257]}},{"type":"Feature","id":"node/5504274151","properties":{"name":"Bucarito","place":"village"},"geometry":{"type":"Point","coordinates":[-68.98459,10.29655]}},{"type":"Feature","id":"node/5505262005","properties":{"name":"Carapita","place":"village"},"geometry":{"type":"Point","coordinates":[-68.93266,10.50853]}},{"type":"Feature","id":"node/5505262012","properties":{"name":"Parag\u00fcito del Oeste","place":"village"},"geometry":{"type":"Point","coordinates":[-68.98217,10.355]}},{"type":"Feature","id":"node/5505262749","properties":{"name":"Purupural","place":"village"},"geometry":{"type":"Point","coordinates":[-68.9408,10.39184]}},{"type":"Feature","id":"node/5505262750","properties":{"name":"Tierra Fr\u00eda","place":"village"},"geometry":{"type":"Point","coordinates":[-68.94475,10.36271]}},{"type":"Feature","id":"node/5505262751","properties":{"name":"Las Parchitas","place":"village"},"geometry":{"type":"Point","coordinates":[-68.95668,10.34409]}},{"type":"Feature","id":"node/5505263554","properties":{"name":"La Pitalaya","place":"village"},"geometry":{"type":"Point","coordinates":[-68.93859,10.37979]}},{"type":"Feature","id":"node/5505263725","properties":{"name":"Lagunita","place":"village"},"geometry":{"type":"Point","coordinates":[-68.90952,10.39384]}},{"type":"Feature","id":"node/5505263726","properties":{"name":"Santa Rosa Norte","place":"village"},"geometry":{"type":"Point","coordinates":[-68.8967,10.37323]}},{"type":"Feature","id":"node/5505263727","properties":{"name":"Quebrada Honda","place":"village"},"geometry":{"type":"Point","coordinates":[-68.90501,10.34475]}},{"type":"Feature","id":"node/5505263831","properties":{"name":"Altamira Sur","place":"village"},"geometry":{"type":"Point","coordinates":[-68.89185,10.38709]}},{"type":"Feature","id":"node/5505263832","properties":{"name":"Guarataro","place":"town"},"geometry":{"type":"Point","coordinates":[-68.60062,10.3482]}},{"type":"Feature","id":"node/5505263835","properties":{"name":"La Fragua","place":"village"},"geometry":{"type":"Point","coordinates":[-68.55443,10.39424]}},{"type":"Feature","id":"node/5505263836","properties":{"name":"Macagua","place":"village"},"geometry":{"type":"Point","coordinates":[-68.68753,10.41487]}},{"type":"Feature","id":"node/5505263837","properties":{"name":"Palo Quemado","place":"village"},"geometry":{"type":"Point","coordinates":[-68.61112,10.47415]}},{"type":"Feature","id":"node/5505263838","properties":{"name":"Guarapo","place":"village"},"geometry":{"type":"Point","coordinates":[-68.63558,10.45599]}},{"type":"Feature","id":"node/5505263839","properties":{"name":"Guarapito","place":"village"},"geometry":{"type":"Point","coordinates":[-68.64498,10.45135]}},{"type":"Feature","id":"node/5505263840","properties":{"name":"Cube","place":"village"},"geometry":{"type":"Point","coordinates":[-68.64943,10.51909]}},{"type":"Feature","id":"node/5505263880","properties":{"name":"Kil\u00f3metro 58","place":"village"},"geometry":{"type":"Point","coordinates":[-68.84124,10.523]}},{"type":"Feature","id":"node/5505263881","properties":{"name":"Los Lirios","place":"village"},"geometry":{"type":"Point","coordinates":[-68.83462,10.57854]}},{"type":"Feature","id":"node/5505263883","properties":{"name":"Yumarito","place":"village"},"geometry":{"type":"Point","coordinates":[-68.68527,10.61073]}},{"type":"Feature","id":"node/5801214956","properties":{"name":"Las Pe\u00f1as de Cabr\u00eda","place":"village"},"geometry":{"type":"Point","coordinates":[-68.46421,10.40979]}},{"type":"Feature","id":"node/5801214994","properties":{"name":"R\u00edo Chiquito","place":"village"},"geometry":{"type":"Point","coordinates":[-68.41746,10.424]}},{"type":"Feature","id":"node/5816397609","properties":{"name":"Las Parchas","place":"village"},"geometry":{"type":"Point","coordinates":[-68.41027,10.12115]}},{"type":"Feature","id":"node/5816397865","properties":{"name":"Las Palmas","place":"village"},"geometry":{"type":"Point","coordinates":[-68.41954,10.09284]}},{"type":"Feature","id":"node/5816398162","properties":{"name":"El Palmar","place":"village"},"geometry":{"type":"Point","coordinates":[-68.47939,10.04686]}},{"type":"Feature","id":"node/5816399036","properties":{"name":"Palmarito","place":"village"},"geometry":{"type":"Point","coordinates":[-68.49698,10.06443]}},{"type":"Feature","id":"node/5816399165","properties":{"name":"Santa Rosa","place":"village"},"geometry":{"type":"Point","coordinates":[-68.43071,10.27475]}},{"type":"Feature","id":"node/5816399234","properties":{"name":"Las Margaritas","place":"village"},"geometry":{"type":"Point","coordinates":[-68.46859,10.17001]}},{"type":"Feature","id":"node/5816399235","properties":{"name":"Talla Abajo","place":"village"},"geometry":{"type":"Point","coordinates":[-68.49618,10.14015]}},{"type":"Feature","id":"node/5816399505","properties":{"name":"Purupuro","place":"village"},"geometry":{"type":"Point","coordinates":[-68.47853,10.10873]}},{"type":"Feature","id":"node/5820707024","properties":{"name":"Los Ca\u00f1itos","place":"village"},"geometry":{"type":"Point","coordinates":[-68.52652,9.93799]}},{"type":"Feature","id":"node/5820707025","properties":{"name":"Chorrer\u00f3n Arriba","place":"village"},"geometry":{"type":"Point","coordinates":[-68.48675,9.96298]}},{"type":"Feature","id":"node/5820707026","properties":{"name":"El Vapor","place":"village"},"geometry":{"type":"Point","coordinates":[-68.50728,9.95912]}},{"type":"Feature","id":"node/5820707035","properties":{"name":"Cumbre de Vera","place":"village"},"geometry":{"type":"Point","coordinates":[-68.46046,9.97387]}},{"type":"Feature","id":"node/5853659596","properties":{"name":"Orubal","place":"village"},"geometry":{"type":"Point","coordinates":[-68.63487,9.96934]}},{"type":"Feature","id":"node/5853661808","properties":{"name":"El Brasil","place":"village"},"geometry":{"type":"Point","coordinates":[-68.71736,9.93601]}},{"type":"Feature","id":"node/5853661809","properties":{"name":"Las Glorias","place":"village"},"geometry":{"type":"Point","coordinates":[-68.72037,9.92308]}},{"type":"Feature","id":"node/5853661811","properties":{"name":"La Josefina","place":"village"},"geometry":{"type":"Point","coordinates":[-68.7294,9.95463]}},{"type":"Feature","id":"node/5853661813","properties":{"name":"Santa Ana","place":"village"},"geometry":{"type":"Point","coordinates":[-68.71099,9.94745]}},{"type":"Feature","id":"node/5853662452","properties":{"name":"Refilete","place":"village"},"geometry":{"type":"Point","coordinates":[-68.63878,9.95209]}},{"type":"Feature","id":"node/5853662463","properties":{"name":"Nuevo Mundo","place":"village"},"geometry":{"type":"Point","coordinates":[-68.64871,9.98316]}},{"type":"Feature","id":"node/5853662730","properties":{"name":"Santo Domingo","place":"village"},"geometry":{"type":"Point","coordinates":[-68.66961,9.9921]}},{"type":"Feature","id":"node/5853665016","properties":{"name":"El Palmar","place":"village"},"geometry":{"type":"Point","coordinates":[-68.59872,10.06778]}},{"type":"Feature","id":"node/5853665057","properties":{"name":"Bucaral","place":"village"},"geometry":{"type":"Point","coordinates":[-68.60432,10.04505]}},{"type":"Feature","id":"node/5853665058","properties":{"name":"San Jer\u00f3nimo","place":"village"},"geometry":{"type":"Point","coordinates":[-68.61276,10.05906]}},{"type":"Feature","id":"node/5853665059","properties":{"name":"Cinco Lomas","place":"village"},"geometry":{"type":"Point","coordinates":[-68.59673,10.04662]}},{"type":"Feature","id":"node/5853665170","properties":{"name":"La Miel","place":"village"},"geometry":{"type":"Point","coordinates":[-68.58969,10.02631]}},{"type":"Feature","id":"node/5853665171","properties":{"name":"Guayabal","place":"village"},"geometry":{"type":"Point","coordinates":[-68.57925,10.03484]}},{"type":"Feature","id":"node/5853665172","properties":{"name":"Los Bacos","place":"village"},"geometry":{"type":"Point","coordinates":[-68.59164,10.0127]}},{"type":"Feature","id":"node/5853665173","properties":{"name":"Los Baquitos","place":"village"},"geometry":{"type":"Point","coordinates":[-68.58581,10.00627]}},{"type":"Feature","id":"node/5853665309","properties":{"name":"Santa Rosa","place":"village"},"geometry":{"type":"Point","coordinates":[-68.52048,10.02642]}},{"type":"Feature","id":"node/5853665310","properties":{"name":"Tejer\u00edas","place":"village"},"geometry":{"type":"Point","coordinates":[-68.53293,10.0142]}},{"type":"Feature","id":"node/5853665403","properties":{"name":"La Florida","place":"village"},"geometry":{"type":"Point","coordinates":[-68.54254,10.03465]}},{"type":"Feature","id":"node/5853669012","properties":{"name":"El Fr\u00edo","place":"village"},"geometry":{"type":"Point","coordinates":[-68.55902,9.99471]}},{"type":"Feature","id":"node/5853847405","properties":{"name":"Jiraquito","place":"village"},"geometry":{"type":"Point","coordinates":[-68.53024,10.10341]}},{"type":"Feature","id":"node/5854026889","properties":{"name":"Los Horcones","place":"town"},"geometry":{"type":"Point","coordinates":[-68.83849,10.16603]}},{"type":"Feature","id":"node/5854026906","properties":{"name":"Santa Catalina","place":"village"},"geometry":{"type":"Point","coordinates":[-68.89725,10.12745]}},{"type":"Feature","id":"node/5854026907","properties":{"name":"Buchicanure","place":"village"},"geometry":{"type":"Point","coordinates":[-68.88497,10.13174]}},{"type":"Feature","id":"node/5854036757","properties":{"name":"Sarare","place":"village"},"geometry":{"type":"Point","coordinates":[-68.81177,10.10404]}},{"type":"Feature","id":"node/5854042553","properties":{"name":"Cogollal","place":"village"},"geometry":{"type":"Point","coordinates":[-68.76523,10.00637]}},{"type":"Feature","id":"node/5854042555","properties":{"name":"Campo Amor","place":"village"},"geometry":{"type":"Point","coordinates":[-68.77073,10.02981]}},{"type":"Feature","id":"node/5854043093","properties":{"name":"Agua Linda","place":"village"},"geometry":{"type":"Point","coordinates":[-68.69659,9.97521]}},{"type":"Feature","id":"node/5854043326","properties":{"name":"Miraflores","place":"village"},"geometry":{"type":"Point","coordinates":[-68.73695,9.96452]}},{"type":"Feature","id":"node/5854043978","properties":{"name":"Quebracha","place":"village"},"geometry":{"type":"Point","coordinates":[-68.7602,9.95126]}},{"type":"Feature","id":"node/5854043979","properties":{"name":"El Reino","place":"village"},"geometry":{"type":"Point","coordinates":[-68.77691,9.942]}},{"type":"Feature","id":"node/5854045170","properties":{"name":"Buena Vista","place":"village"},"geometry":{"type":"Point","coordinates":[-68.80925,9.94922]}},{"type":"Feature","id":"node/5854045182","properties":{"name":"Las Vegas","place":"village"},"geometry":{"type":"Point","coordinates":[-68.86539,10.02734]}},{"type":"Feature","id":"node/5854045610","properties":{"name":"Charay","place":"village"},"geometry":{"type":"Point","coordinates":[-68.87881,10.0127]}},{"type":"Feature","id":"node/5854045611","properties":{"name":"Nuare","place":"village"},"geometry":{"type":"Point","coordinates":[-68.94629,10.01652]}},{"type":"Feature","id":"node/5854045612","properties":{"name":"El Chorro","place":"village"},"geometry":{"type":"Point","coordinates":[-68.9237,10.01195]}},{"type":"Feature","id":"node/5854134452","properties":{"name":"Los Morritos","place":"village"},"geometry":{"type":"Point","coordinates":[-68.63432,10.13726]}},{"type":"Feature","id":"node/5854134565","properties":{"name":"Los Bailadores","place":"village"},"geometry":{"type":"Point","coordinates":[-68.5962,10.14287]}},{"type":"Feature","id":"node/5854134741","properties":{"name":"Garcigonz\u00e1lez","place":"village"},"geometry":{"type":"Point","coordinates":[-68.64834,10.12537]}},{"type":"Feature","id":"node/5854135210","properties":{"name":"San Antonio","place":"village"},"geometry":{"type":"Point","coordinates":[-68.62857,10.12196]}},{"type":"Feature","id":"node/5854136968","properties":{"name":"Paracaje","place":"village"},"geometry":{"type":"Point","coordinates":[-68.65923,10.09952]}},{"type":"Feature","id":"node/5854136969","properties":{"name":"Paracajito","place":"village"},"geometry":{"type":"Point","coordinates":[-68.62257,10.09179]}},{"type":"Feature","id":"node/5854136970","properties":{"name":"Buenos Aires","place":"village"},"geometry":{"type":"Point","coordinates":[-68.64939,10.08836]}},{"type":"Feature","id":"node/5854136971","properties":{"name":"El Rodeo","place":"village"},"geometry":{"type":"Point","coordinates":[-68.66393,10.08792]}},{"type":"Feature","id":"node/5854136972","properties":{"name":"Mejico","place":"village"},"geometry":{"type":"Point","coordinates":[-68.66931,10.08253]}},{"type":"Feature","id":"node/5854136974","properties":{"name":"San Mateo","place":"village"},"geometry":{"type":"Point","coordinates":[-68.70087,10.08349]}},{"type":"Feature","id":"node/5854136975","properties":{"name":"Santa Luc\u00eda","place":"village"},"geometry":{"type":"Point","coordinates":[-68.68096,10.09627]}},{"type":"Feature","id":"node/5854137012","properties":{"name":"B\u00e1quira","place":"village"},"geometry":{"type":"Point","coordinates":[-68.72783,10.16269]}},{"type":"Feature","id":"node/5854137013","properties":{"name":"Las Mulitas","place":"village"},"geometry":{"type":"Point","coordinates":[-68.73752,10.15831]}},{"type":"Feature","id":"node/5854262696","properties":{"name":"Tamanavare","place":"village"},"geometry":{"type":"Point","coordinates":[-68.72045,10.28133]}},{"type":"Feature","id":"node/5854262697","properties":{"name":"Tacarte","place":"town"},"geometry":{"type":"Point","coordinates":[-68.72941,10.25533]}},{"type":"Feature","id":"node/5854262731","properties":{"name":"Durute","place":"village"},"geometry":{"type":"Point","coordinates":[-68.75806,10.20623]}},{"type":"Feature","id":"node/5854262733","properties":{"name":"La Pe\u00f1ita","place":"village"},"geometry":{"type":"Point","coordinates":[-68.7165,10.24356]}},{"type":"Feature","id":"node/5854262734","properties":{"name":"Santa Mar\u00eda","place":"town"},"geometry":{"type":"Point","coordinates":[-68.70692,10.24074]}},{"type":"Feature","id":"node/5854262820","properties":{"name":"Las Delicias","place":"village"},"geometry":{"type":"Point","coordinates":[-68.76666,10.16699]}},{"type":"Feature","id":"node/5856738700","properties":{"name":"Cocorotico","place":"village"},"geometry":{"type":"Point","coordinates":[-68.979,10.18226]}},{"type":"Feature","id":"node/5856739127","properties":{"name":"Las Quisandas","place":"village"},"geometry":{"type":"Point","coordinates":[-68.93382,10.20436]}},{"type":"Feature","id":"node/5856739130","properties":{"name":"El Ceibal","place":"town"},"geometry":{"type":"Point","coordinates":[-68.9221,10.15565]}},{"type":"Feature","id":"node/5856739289","properties":{"name":"Aguaruca Arriba","place":"village"},"geometry":{"type":"Point","coordinates":[-68.97997,10.13082]}},{"type":"Feature","id":"node/5856739523","properties":{"name":"Pueblo Nuevo","place":"village"},"geometry":{"type":"Point","coordinates":[-69.0768,10.08883]}},{"type":"Feature","id":"node/5856739524","properties":{"name":"Santa B\u00e1rbara","place":"village"},"geometry":{"type":"Point","coordinates":[-69.01302,10.09359]}},{"type":"Feature","id":"node/5856740548","properties":{"name":"Padilla","place":"town"},"geometry":{"type":"Point","coordinates":[-69.01042,10.02771]}},{"type":"Feature","id":"node/5864483439","properties":{"name":"El Poz\u00f3n","place":"village"},"geometry":{"type":"Point","coordinates":[-68.68401,10.4243]}},{"type":"Feature","id":"node/5864483502","properties":{"name":"El Corozo","place":"village"},"geometry":{"type":"Point","coordinates":[-68.7083,10.36809]}},{"type":"Feature","id":"node/5864483541","properties":{"name":"Charaguao","place":"village"},"geometry":{"type":"Point","coordinates":[-68.69162,10.31021]}},{"type":"Feature","id":"node/5864483561","properties":{"name":"Mampostal","place":"village"},"geometry":{"type":"Point","coordinates":[-68.71029,10.30051]}},{"type":"Feature","id":"node/5864483564","properties":{"name":"La Cumaca","place":"village"},"geometry":{"type":"Point","coordinates":[-68.7298,10.30073]}},{"type":"Feature","id":"node/5864483565","properties":{"name":"La Ermita","place":"village"},"geometry":{"type":"Point","coordinates":[-68.75213,10.28802]}},{"type":"Feature","id":"node/5864483573","properties":{"name":"El Paj\u00f3n","place":"village"},"geometry":{"type":"Point","coordinates":[-68.81205,10.222]}},{"type":"Feature","id":"node/5864483577","properties":{"name":"Agua Blanca","place":"town"},"geometry":{"type":"Point","coordinates":[-68.76702,10.25588]}},{"type":"Feature","id":"node/5864483578","properties":{"name":"Buena Vista","place":"town"},"geometry":{"type":"Point","coordinates":[-68.78137,10.24512]}},{"type":"Feature","id":"node/5864483579","properties":{"name":"Los Chucos","place":"village"},"geometry":{"type":"Point","coordinates":[-68.80715,10.25126]}},{"type":"Feature","id":"node/5864483580","properties":{"name":"Guarabao","place":"town"},"geometry":{"type":"Point","coordinates":[-68.80756,10.24022]}},{"type":"Feature","id":"node/5864483581","properties":{"name":"San Luis","place":"village"},"geometry":{"type":"Point","coordinates":[-68.83091,10.21272]}},{"type":"Feature","id":"node/5864483582","properties":{"name":"Camunare Sur","place":"village"},"geometry":{"type":"Point","coordinates":[-68.82671,10.23244]}},{"type":"Feature","id":"node/5864483583","properties":{"name":"San Rafael","place":"village"},"geometry":{"type":"Point","coordinates":[-68.84101,10.22706]}},{"type":"Feature","id":"node/5864483585","properties":{"name":"Camunare Norte","place":"village"},"geometry":{"type":"Point","coordinates":[-68.83022,10.24278]}},{"type":"Feature","id":"node/5864483587","properties":{"name":"Campo Solo","place":"town"},"geometry":{"type":"Point","coordinates":[-68.88741,10.26041]}},{"type":"Feature","id":"node/5871981610","properties":{"name":"Fari\u00f1o","place":"village"},"geometry":{"type":"Point","coordinates":[-68.9431,10.46303]}},{"type":"Feature","id":"node/5871982882","properties":{"name":"Chivacure","place":"village"},"geometry":{"type":"Point","coordinates":[-68.80585,10.56112]}},{"type":"Feature","id":"node/5871982884","properties":{"name":"La Virgen","place":"village"},"geometry":{"type":"Point","coordinates":[-68.7815,10.57762]}},{"type":"Feature","id":"node/5871983917","properties":{"name":"San Amaya","place":"village"},"geometry":{"type":"Point","coordinates":[-68.811,10.58731]}},{"type":"Feature","id":"node/5871983919","properties":{"name":"Poblado 13 Sur","place":"village"},"geometry":{"type":"Point","coordinates":[-68.7589,10.60217]}},{"type":"Feature","id":"node/5871983920","properties":{"name":"Poblado 5 Norte","place":"village"},"geometry":{"type":"Point","coordinates":[-68.72056,10.61948]}},{"type":"Feature","id":"node/5871983929","properties":{"name":"El Lirial","place":"village"},"geometry":{"type":"Point","coordinates":[-68.62526,10.67037]}},{"type":"Feature","id":"node/5871983930","properties":{"name":"Poblado 14","place":"village"},"geometry":{"type":"Point","coordinates":[-68.62355,10.64294]}},{"type":"Feature","id":"node/5872180996","properties":{"name":"La Soledad","place":"village"},"geometry":{"type":"Point","coordinates":[-68.96322,10.22188]}},{"type":"Feature","id":"node/5872183357","properties":{"name":"El Rodeo","place":"village"},"geometry":{"type":"Point","coordinates":[-68.97805,10.21066]}},{"type":"Feature","id":"node/5872183358","properties":{"name":"Santa Luc\u00eda","place":"village"},"geometry":{"type":"Point","coordinates":[-68.98944,10.21858]}},{"type":"Feature","id":"node/5872183973","properties":{"name":"El Cobre","place":"village"},"geometry":{"type":"Point","coordinates":[-68.80714,10.54269]}},{"type":"Feature","id":"node/5872184847","properties":{"name":"Cerro Azul","place":"village"},"geometry":{"type":"Point","coordinates":[-68.74941,10.52446]}},{"type":"Feature","id":"node/5872185206","properties":{"name":"Santa Rosa","place":"village"},"geometry":{"type":"Point","coordinates":[-68.73822,10.54129]}},{"type":"Feature","id":"node/5872185208","properties":{"name":"Guarataro","place":"village"},"geometry":{"type":"Point","coordinates":[-68.72403,10.54407]}},{"type":"Feature","id":"node/5872274073","properties":{"name":"Manuelito","place":"town"},"geometry":{"type":"Point","coordinates":[-68.73618,10.69234]}},{"type":"Feature","id":"node/5904006562","properties":{"name":"Torbell\u00e1n","place":"village"},"geometry":{"type":"Point","coordinates":[-69.12235,10.12178]}},{"type":"Feature","id":"node/5904006565","properties":{"name":"Paso de Agua","place":"village"},"geometry":{"type":"Point","coordinates":[-69.12481,10.13799]}},{"type":"Feature","id":"node/5904006608","properties":{"name":"Caseteja","place":"village"},"geometry":{"type":"Point","coordinates":[-69.20729,10.09429]}},{"type":"Feature","id":"node/5904006766","properties":{"name":"La Ensenada","place":"town"},"geometry":{"type":"Point","coordinates":[-69.18739,10.09802]}},{"type":"Feature","id":"node/5904006767","properties":{"name":"Tacarig\u00fcita","place":"village"},"geometry":{"type":"Point","coordinates":[-69.19389,10.12334]}},{"type":"Feature","id":"node/5904007002","properties":{"name":"La Maporita","place":"village"},"geometry":{"type":"Point","coordinates":[-69.16245,10.11705]}},{"type":"Feature","id":"node/5904007004","properties":{"name":"El Jag\u00fcey","place":"village"},"geometry":{"type":"Point","coordinates":[-69.17327,10.1199]}},{"type":"Feature","id":"node/5904007005","properties":{"name":"Cuesta Blanca","place":"village"},"geometry":{"type":"Point","coordinates":[-69.18177,10.12966]}},{"type":"Feature","id":"node/5916603442","properties":{"name":"La Lucha","place":"town"},"geometry":{"type":"Point","coordinates":[-69.11326,10.05105]}},{"type":"Feature","id":"node/5916603463","properties":{"name":"Los Tubos","place":"village"},"geometry":{"type":"Point","coordinates":[-69.09349,9.88152]}},{"type":"Feature","id":"node/5916603464","properties":{"name":"Carpitas Oeste","place":"village"},"geometry":{"type":"Point","coordinates":[-69.1194,9.89342]}},{"type":"Feature","id":"node/5916603469","properties":{"name":"El Palmar","place":"town"},"geometry":{"type":"Point","coordinates":[-69.12164,9.90631]}},{"type":"Feature","id":"node/5916603472","properties":{"name":"El Potrerito","place":"village"},"geometry":{"type":"Point","coordinates":[-69.13233,9.95964]}},{"type":"Feature","id":"node/5916603473","properties":{"name":"Arenales","place":"town"},"geometry":{"type":"Point","coordinates":[-69.13628,10.00784]}},{"type":"Feature","id":"node/5916603586","properties":{"name":"El Poz\u00f3n","place":"village"},"geometry":{"type":"Point","coordinates":[-69.18159,10.05956]}},{"type":"Feature","id":"node/5916603597","properties":{"name":"El Peg\u00f3n","place":"village"},"geometry":{"type":"Point","coordinates":[-69.18642,10.05505]}},{"type":"Feature","id":"node/5916603599","properties":{"name":"Mamoncito","place":"village"},"geometry":{"type":"Point","coordinates":[-69.19522,10.06034]}},{"type":"Feature","id":"node/10801687044","properties":{"name":"Obontico","place":"village"},"geometry":{"type":"Point","coordinates":[-68.79516,10.25846]}},{"type":"Feature","id":"node/10822172484","properties":{"name":"Kil\u00f3metro 28","place":"village"},"geometry":{"type":"Point","coordinates":[-68.65648,10.59335]}},{"type":"Feature","id":"node/10822172660","properties":{"name":"Yaguapano Adentro","place":"village"},"geometry":{"type":"Point","coordinates":[-68.71079,10.57087]}},{"type":"Feature","id":"node/10822172684","properties":{"name":"Trompillal Sur","place":"village"},"geometry":{"type":"Point","coordinates":[-68.67526,10.54584]}},{"type":"Feature","id":"node/10824940810","properties":{"name":"Poblado 13 Norte","place":"village"},"geometry":{"type":"Point","coordinates":[-68.76094,10.6329]}},{"type":"Feature","id":"node/10824940855","properties":{"name":"Poblado 11 Sur","place":"village"},"geometry":{"type":"Point","coordinates":[-68.74884,10.59823]}},{"type":"Feature","id":"node/10824940872","properties":{"name":"Poblado 9 Sur","place":"village"},"geometry":{"type":"Point","coordinates":[-68.73914,10.60135]}},{"type":"Feature","id":"node/10824941101","properties":{"name":"Agua Viva","place":"village"},"geometry":{"type":"Point","coordinates":[-68.66238,10.63418]}},{"type":"Feature","id":"node/10824958804","properties":{"name":"Cararapita","place":"village"},"geometry":{"type":"Point","coordinates":[-68.83747,10.64729]}},{"type":"Feature","id":"node/10824975549","properties":{"name":"Barrio Nuevo","place":"village"},"geometry":{"type":"Point","coordinates":[-68.85254,10.60775]}},{"type":"Feature","id":"node/10828313906","properties":{"name":"Barlovento Arriba","place":"village"},"geometry":{"type":"Point","coordinates":[-68.79955,10.49916]}},{"type":"Feature","id":"node/10829639163","properties":{"name":"El Abrigo","place":"village"},"geometry":{"type":"Point","coordinates":[-68.84778,10.44987]}},{"type":"Feature","id":"node/10831850364","properties":{"name":"Las Mercedes","place":"village"},"geometry":{"type":"Point","coordinates":[-68.88659,10.37852]}},{"type":"Feature","id":"node/10831876062","properties":{"name":"Santa Rosa Sur","place":"village"},"geometry":{"type":"Point","coordinates":[-68.90153,10.35665]}},{"type":"Feature","id":"node/10831876108","properties":{"name":"Carampampana","place":"village"},"geometry":{"type":"Point","coordinates":[-68.90646,10.42429]}},{"type":"Feature","id":"node/10831876335","properties":{"name":"Loma de Parchitas","place":"village"},"geometry":{"type":"Point","coordinates":[-68.93551,10.33883]}},{"type":"Feature","id":"node/10831942121","properties":{"name":"Altamira Norte","place":"village"},"geometry":{"type":"Point","coordinates":[-68.88644,10.40091]}},{"type":"Feature","id":"node/10832008682","properties":{"name":"Mijagual","place":"village"},"geometry":{"type":"Point","coordinates":[-68.83327,10.40743]}},{"type":"Feature","id":"node/10832021716","properties":{"name":"Las Minas de Aroa","place":"village"},"geometry":{"type":"Point","coordinates":[-68.86449,10.42143]}},{"type":"Feature","id":"node/10878519458","properties":{"name":"Costa del Yaracuy III","place":"village"},"geometry":{"type":"Point","coordinates":[-68.31428,10.53916]}},{"type":"Feature","id":"node/10878526570","properties":{"name":"La Yaguara","place":"village"},"geometry":{"type":"Point","coordinates":[-68.63457,10.41832]}},{"type":"Feature","id":"node/10910184013","properties":{"name":"La Yuca","place":"village"},"geometry":{"type":"Point","coordinates":[-68.51826,10.3847]}},{"type":"Feature","id":"node/10912040975","properties":{"name":"Titiaral II","place":"village"},"geometry":{"type":"Point","coordinates":[-68.63455,10.31539]}},{"type":"Feature","id":"node/10912040976","properties":{"name":"Titiaral I","place":"village"},"geometry":{"type":"Point","coordinates":[-68.62721,10.32008]}},{"type":"Feature","id":"node/10914293957","properties":{"name":"Carpitas Este","place":"village"},"geometry":{"type":"Point","coordinates":[-69.10624,9.89065]}},{"type":"Feature","id":"node/10924263400","properties":{"name":"Guaremal Arriba","place":"village"},"geometry":{"type":"Point","coordinates":[-69.08345,10.17581]}}]}