{"type":"FeatureCollection","features":[{"type":"Feature","id":"relation/272661","properties":{"name":"Portuguesa","level":4},"geometry":{"type":"Polygon","coordinates":[[[-68.96474,9.69914],[-68.96589,9.7076],[-68.96416,9.70967],[-68.97112,9.7132],[-68.96956,9.71663],[-68.97313,9.72042],[-68.97748,9.71685],[-68.98183,9.7212],[-68.98764,9.71992],[-68.98535,9.72452],[-68.98796,9.72675],[-68.98763,9.73104],[-68.98155,9.73598],[-68.98371,9.73867],[-68.98332,9.74486],[-68.98013,9.74997],[-68.98344,9.75847],[-68.98679,9.76064],[-68.98319,9.76639],[-68.97896,9.76423],[-68.97657,9.76569],[-68.978,9.77387],[-68.98108,9.77157],[-68.9866,9.77264],[-68.99364,9.76735],[-68.99393,9.75852],[-68.99908,9.75525],[-69.001,9.74917],[-69.00591,9.75232],[-69.00927,9.75047],[-69.01528,9.75401],[-69.01995,9.75275],[-69.02338,9.75555],[-69.03178,9.7501],[-69.03723,9.74249],[-69.04826,9.74481],[-69.04768,9.74022],[-69.0521,9.7358],[-69.0523,9.72903],[-69.05757,9.72616],[-69.06089,9.72192],[-69.0588,9.7182],[-69.06662,9.71135],[-69.07869,9.713],[-69.08473,9.70973],[-69.0886,9.71139],[-69.09476,9.70786],[-69.09719,9.70098],[-69.10043,9.69958],[-69.1251,9.69207],[-69.13536,9.696],[-69.14684,9.68994],[-69.15221,9.68346],[-69.15854,9.68183],[-69.16498,9.68322],[-69.17463,9.67937],[-69.17572,9.68123],[-69.17831,9.67751],[-69.1862,9.67756],[-69.18854,9.67507],[-69.23303,9.68407],[-69.24669,9.69144],[-69.24552,9.69546],[-69.25282,9.71109],[-69.26077,9.71121],[-69.26365,9.71577],[-69.26885,9.71264],[-69.2759,9.71998],[-69.27513,9.72339],[-69.27115,9.72556],[-69.27172,9.73178],[-69.2738,9.73251],[-69.27109,9.73545],[-69.27363,9.74298],[-69.28048,9.74573],[-69.28,9.75085],[-69.27606,9.7528],[-69.27358,9.75826],[-69.26373,9.75933],[-69.26315,9.7625],[-69.25955,9.7631],[-69.26191,9.76414],[-69.26037,9.77041],[-69.26367,9.78023],[-69.27131,9.78553],[-69.27534,9.79176],[-69.27399,9.79555],[-69.27688,9.80413],[-69.27671,9.80878],[-69.27255,9.81177],[-69.27387,9.81731],[-69.26663,9.82275],[-69.26711,9.82751],[-69.27459,9.83457],[-69.27898,9.84337],[-69.28482,9.84245],[-69.28434,9.8347],[-69.2919,9.82976],[-69.29422,9.82198],[-69.29346,9.81471],[-69.30451,9.80562],[-69.30445,9.79948],[-69.30816,9.79619],[-69.31189,9.78305],[-69.31498,9.78382],[-69.32073,9.77487],[-69.32604,9.7768],[-69.32867,9.77458],[-69.33274,9.77739],[-69.33428,9.76438],[-69.34505,9.75709],[-69.34811,9.75239],[-69.34996,9.74729],[-69.34731,9.73996],[-69.34418,9.73858],[-69.34515,9.73297],[-69.34236,9.72602],[-69.3502,9.71373],[-69.34939,9.70754],[-69.35253,9.7053],[-69.35292,9.6984],[-69.37107,9.69317],[-69.37334,9.68377],[-69.36688,9.67713],[-69.36488,9.67092],[-69.37324,9.64658],[-69.37285,9.63662],[-69.37599,9.6362],[-69.37976,9.6311],[-69.38334,9.6315],[-69.39125,9.62507],[-69.39384,9.62551],[-69.39616,9.62216],[-69.40473,9.62116],[-69.40398,9.61728],[-69.40771,9.61194],[-69.40728,9.60647],[-69.41059,9.59815],[-69.41572,9.59734],[-69.43066,9.60217],[-69.43707,9.59593],[-69.44144,9.58352],[-69.43885,9.57961],[-69.44037,9.56307],[-69.4384,9.56171],[-69.44104,9.56072],[-69.44362,9.54927],[-69.45109,9.54748],[-69.45326,9.54962],[-69.46172,9.54609],[-69.46764,9.54656],[-69.46867,9.54895],[-69.47571,9.54741],[-69.47806,9.5437],[-69.48148,9.54613],[-69.49158,9.54439],[-69.5005,9.55293],[-69.50763,9.54554],[-69.50611,9.54255],[-69.51139,9.54443],[-69.51252,9.54097],[-69.51562,9.54169],[-69.51873,9.5385],[-69.52019,9.54126],[-69.52604,9.54003],[-69.52827,9.53595],[-69.53548,9.5382],[-69.53952,9.53368],[-69.55315,9.53725],[-69.55583,9.53482],[-69.5606,9.53489],[-69.56261,9.52634],[-69.57209,9.52164],[-69.57431,9.52526],[-69.57808,9.52455],[-69.57892,9.52813],[-69.58452,9.52736],[-69.58485,9.5299],[-69.59605,9.53139],[-69.60061,9.53424],[-69.60257,9.5466],[-69.60646,9.54788],[-69.61101,9.55409],[-69.60931,9.5614],[-69.61241,9.56534],[-69.62553,9.5579],[-69.61879,9.53594],[-69.62627,9.51021],[-69.62294,9.49967],[-69.61852,9.49412],[-69.6205,9.48676],[-69.61822,9.47965],[-69.62367,9.47591],[-69.61989,9.46051],[-69.62418,9.45948],[-69.62688,9.45444],[-69.62845,9.44904],[-69.62571,9.44101],[-69.63649,9.43367],[-69.6448,9.41231],[-69.65367,9.40325],[-69.65438,9.39996],[-69.65162,9.39749],[-69.65458,9.3963],[-69.65026,9.39452],[-69.65212,9.39463],[-69.65309,9.38907],[-69.65452,9.39109],[-69.66205,9.38905],[-69.68038,9.40197],[-69.68593,9.40201],[-69.69261,9.407],[-69.70452,9.40404],[-69.7195,9.40768],[-69.72787,9.41699],[-69.73051,9.41602],[-69.73786,9.41945],[-69.72972,9.42489],[-69.73047,9.43554],[-69.74454,9.43961],[-69.75438,9.43709],[-69.75222,9.43253],[-69.7555,9.42643],[-69.76995,9.42548],[-69.77493,9.42203],[-69.77748,9.42463],[-69.77814,9.4209],[-69.78255,9.42338],[-69.78591,9.42164],[-69.78834,9.4177],[-69.78758,9.40933],[-69.79361,9.40622],[-69.79847,9.4085],[-69.81224,9.40781],[-69.81638,9.41101],[-69.81995,9.40611],[-69.82148,9.40763],[-69.82958,9.40586],[-69.83641,9.40247],[-69.84633,9.40699],[-69.8568,9.40462],[-69.8607,9.41159],[-69.86709,9.41663],[-69.86933,9.40969],[-69.87305,9.40929],[-69.87613,9.41329],[-69.88267,9.40889],[-69.88439,9.41071],[-69.88823,9.4082],[-69.89656,9.40829],[-69.90125,9.41318],[-69.90135,9.41817],[-69.89485,9.42515],[-69.89558,9.43749],[-69.89352,9.44465],[-69.88192,9.46211],[-69.87842,9.46297],[-69.87061,9.47183],[-69.86604,9.47213],[-69.86545,9.4766],[-69.85974,9.48122],[-69.85525,9.48112],[-69.84295,9.5016],[-69.82849,9.50376],[-69.83102,9.51652],[-69.82781,9.51798],[-69.82712,9.52257],[-69.8323,9.52549],[-69.83507,9.52385],[-69.83556,9.53148],[-69.8387,9.53542],[-69.83414,9.53994],[-69.83359,9.54761],[-69.83057,9.54703],[-69.82702,9.55059],[-69.83301,9.56088],[-69.82904,9.56684],[-69.83332,9.56585],[-69.84132,9.56935],[-69.8495,9.5673],[-69.85492,9.56098],[-69.86513,9.5549],[-69.86633,9.54732],[-69.87076,9.54512],[-69.88194,9.54659],[-69.89826,9.55358],[-69.89812,9.55021],[-69.90315,9.54693],[-69.90795,9.55089],[-69.9143,9.5474],[-69.91933,9.54873],[-69.92752,9.54635],[-69.95121,9.55493],[-69.9595,9.54723],[-69.97512,9.53855],[-69.99462,9.5068],[-69.99909,9.50735],[-70.00754,9.49956],[-70.01142,9.48295],[-70.01094,9.47481],[-70.00463,9.47091],[-70.00831,9.46843],[-70.0052,9.45737],[-70.00782,9.45101],[-70.00754,9.44381],[-70.01903,9.43309],[-70.0222,9.42638],[-70.03398,9.41675],[-70.03821,9.40941],[-70.03858,9.38162],[-70.04425,9.37047],[-70.05349,9.36184],[-70.05898,9.36164],[-70.06472,9.35776],[-70.08377,9.33638],[-70.09069,9.33622],[-70.10427,9.31675],[-70.10445,9.31143],[-70.11332,9.30353],[-70.11287,9.29548],[-70.08834,9.28065],[-70.07554,9.2845],[-70.06565,9.28123],[-70.06272,9.26498],[-70.06941,9.25226],[-70.06769,9.25006],[-70.07127,9.24407],[-70.08082,9.23956],[-70.08377,9.23213],[-70.09642,9.22388],[-70.09771,9.22018],[-70.09436,9.21055],[-70.08824,9.20737],[-70.08029,9.20755],[-70.07259,9.20156],[-70.07017,9.1866],[-70.06323,9.17805],[-70.06441,9.17339],[-70.06038,9.16882],[-70.06116,9.16511],[-70.0546,9.16095],[-70.05576,9.15822],[-70.05116,9.15273],[-70.05615,9.14432],[-70.05388,9.13922],[-70.06381,9.13473],[-70.06605,9.13565],[-70.06476,9.12782],[-70.07435,9.11848],[-70.08476,9.11786],[-70.09443,9.09995],[-70.09392,9.09452],[-70.10614,9.08898],[-70.10828,9.08503],[-70.14361,9.08211],[-70.16182,9.07485],[-70.16568,9.06859],[-70.18428,9.06105],[-70.18734,9.0552],[-70.18364,9.05451],[-70.18287,9.04703],[-70.1863,9.01697],[-70.17684,8.99394],[-70.16328,8.9808],[-70.15086,8.97408],[-70.1391,8.97603],[-70.12818,8.97154],[-70.12372,8.96488],[-70.11333,8.96206],[-70.10704,8.9574],[-70.09303,8.95573],[-70.05338,8.92925],[-70.04232,8.89408],[-70.03409,8.8897],[-70.02976,8.8699],[-70.01093,8.84413],[-70.00009,8.84184],[-69.99201,8.83531],[-69.98679,8.82608],[-69.97392,8.83062],[-69.962,8.82106],[-69.9553,8.82247],[-69.94934,8.81724],[-69.94491,8.81685],[-69.94198,8.81241],[-69.94341,8.80991],[-69.93594,8.80887],[-69.93241,8.80274],[-69.9229,8.80278],[-69.9251,8.79673],[-69.9325,8.79512],[-69.93246,8.78987],[-69.92817,8.78791],[-69.92285,8.78998],[-69.91186,8.78539],[-69.90077,8.7724],[-69.89214,8.774],[-69.89122,8.78641],[-69.88608,8.78798],[-69.88254,8.77983],[-69.88799,8.7669],[-69.88471,8.76577],[-69.87989,8.77135],[-69.87305,8.77239],[-69.87073,8.76896],[-69.87311,8.76172],[-69.87056,8.75844],[-69.8638,8.75775],[-69.85795,8.76118],[-69.85304,8.75376],[-69.84654,8.75502],[-69.83536,8.75186],[-69.83029,8.7458],[-69.82369,8.74357],[-69.805,8.74968],[-69.79367,8.74077],[-69.78154,8.74203],[-69.77039,8.7398],[-69.76228,8.74667],[-69.76008,8.74334],[-69.76355,8.73489],[-69.7616,8.73107],[-69.74932,8.73599],[-69.74417,8.73566],[-69.74023,8.73253],[-69.73835,8.72583],[-69.73181,8.72026],[-69.72718,8.72047],[-69.72288,8.72442],[-69.71884,8.72362],[-69.7165,8.71207],[-69.71163,8.71253],[-69.70776,8.7171],[-69.68907,8.7077],[-69.686,8.70864],[-69.68222,8.71579],[-69.67336,8.71927],[-69.67046,8.71814],[-69.66554,8.70834],[-69.65969,8.70682],[-69.65786,8.71275],[-69.66349,8.71685],[-69.66452,8.72223],[-69.6583,8.72257],[-69.65347,8.71364],[-69.65067,8.71326],[-69.64952,8.7239],[-69.63584,8.73446],[-69.63286,8.73339],[-69.6313,8.72826],[-69.61763,8.73376],[-69.60719,8.72923],[-69.60237,8.73176],[-69.57785,8.72807],[-69.57221,8.72033],[-69.55823,8.71477],[-69.56045,8.70853],[-69.56004,8.69473],[-69.55382,8.69857],[-69.5472,8.69108],[-69.5388,8.69461],[-69.53481,8.69349],[-69.52899,8.70303],[-69.52702,8.69494],[-69.53539,8.68964],[-69.53012,8.68164],[-69.52636,8.6822],[-69.5261,8.69015],[-69.51489,8.68964],[-69.51242,8.68238],[-69.50655,8.68933],[-69.50243,8.68919],[-69.50863,8.68132],[-69.50593,8.67872],[-69.5011,8.68091],[-69.49973,8.64885],[-69.45382,8.65347],[-69.45444,8.65944],[-69.44976,8.65782],[-69.44768,8.65042],[-69.44141,8.65633],[-69.43386,8.65012],[-69.4294,8.65487],[-69.43087,8.65638],[-69.42913,8.66112],[-69.43249,8.66564],[-69.43014,8.6672],[-69.42259,8.66512],[-69.42188,8.67775],[-69.41847,8.67656],[-69.41848,8.66952],[-69.41312,8.66859],[-69.40924,8.66377],[-69.40609,8.66486],[-69.40446,8.66275],[-69.3978,8.66809],[-69.37016,8.66366],[-69.36934,8.65505],[-69.36531,8.65433],[-69.36535,8.65183],[-69.36037,8.65354],[-69.36049,8.64966],[-69.35695,8.64617],[-69.3492,8.64363],[-69.34488,8.63654],[-69.33933,8.63528],[-69.34027,8.62897],[-69.33439,8.62822],[-69.33107,8.63207],[-69.32238,8.63449],[-69.32171,8.62955],[-69.31982,8.62932],[-69.31677,8.63373],[-69.31175,8.6326],[-69.3107,8.63447],[-69.30959,8.63109],[-69.30554,8.63415],[-69.29878,8.61509],[-69.29516,8.61375],[-69.29778,8.60524],[-69.29663,8.60417],[-69.29074,8.61094],[-69.2855,8.60575],[-69.28041,8.60662],[-69.27567,8.59913],[-69.27121,8.59865],[-69.26634,8.58944],[-69.26064,8.58842],[-69.25996,8.58342],[-69.25404,8.58894],[-69.24854,8.57462],[-69.24489,8.57394],[-69.23976,8.56411],[-69.23534,8.56273],[-69.24145,8.5592],[-69.23745,8.5591],[-69.23276,8.55482],[-69.22881,8.55907],[-69.2247,8.55563],[-69.21602,8.55712],[-69.21534,8.55277],[-69.21197,8.55002],[-69.21501,8.54521],[-69.21557,8.53545],[-69.21016,8.53055],[-69.20116,8.53256],[-69.19731,8.52369],[-69.19358,8.52262],[-69.19233,8.51722],[-69.18922,8.51868],[-69.18449,8.51597],[-69.18266,8.51126],[-69.18598,8.50967],[-69.18242,8.50082],[-69.18891,8.49786],[-69.18745,8.49331],[-69.19088,8.47151],[-69.18001,8.46571],[-69.17536,8.46938],[-69.17635,8.45915],[-69.16998,8.45187],[-69.16562,8.452],[-69.16029,8.44379],[-69.15741,8.4461],[-69.14836,8.44309],[-69.14436,8.44726],[-69.13255,8.44733],[-69.13009,8.44401],[-69.13167,8.44044],[-69.12758,8.44098],[-69.12881,8.43768],[-69.12194,8.43567],[-69.12237,8.42918],[-69.11948,8.42841],[-69.11924,8.4234],[-69.11576,8.42273],[-69.11588,8.41994],[-69.11297,8.41804],[-69.11599,8.41199],[-69.1216,8.41422],[-69.14044,8.40537],[-69.14004,8.40131],[-69.13394,8.40483],[-69.13439,8.39604],[-69.13728,8.38825],[-69.14367,8.38274],[-69.13885,8.37959],[-69.14039,8.37123],[-69.1442,8.36982],[-69.14492,8.36642],[-69.13899,8.35267],[-69.13297,8.3513],[-69.13202,8.34735],[-69.12591,8.3463],[-69.12711,8.34089],[-69.11531,8.33556],[-69.10906,8.336],[-69.10372,8.33144],[-69.10421,8.3289],[-69.09941,8.32622],[-69.10218,8.31974],[-69.09879,8.31849],[-69.09603,8.31207],[-69.09301,8.31308],[-69.09492,8.30772],[-69.09136,8.30076],[-69.09658,8.2993],[-69.09808,8.29522],[-69.1026,8.29548],[-69.10205,8.29131],[-69.09831,8.28986],[-69.09024,8.29404],[-69.08707,8.29094],[-69.08445,8.29991],[-69.07822,8.29652],[-69.07198,8.29852],[-69.0693,8.29576],[-69.07083,8.29026],[-69.06253,8.28671],[-69.05518,8.28932],[-69.05498,8.28341],[-69.05118,8.28584],[-69.04742,8.28278],[-69.04632,8.28621],[-69.04453,8.28585],[-69.04161,8.28034],[-69.03383,8.27676],[-69.03319,8.27393],[-69.03691,8.27412],[-69.03744,8.27223],[-69.02714,8.2692],[-69.02131,8.26419],[-69.01541,8.26741],[-69.01372,8.2644],[-69.00988,8.26877],[-69.00416,8.26766],[-68.99827,8.26149],[-69.00297,8.26004],[-69.0032,8.25468],[-68.99725,8.24958],[-68.99562,8.25175],[-68.99389,8.25049],[-68.99026,8.24525],[-68.9923,8.24403],[-68.99066,8.24192],[-68.98437,8.23902],[-68.98075,8.24077],[-68.98239,8.23712],[-68.9797,8.23509],[-68.97503,8.2358],[-68.97365,8.23399],[-68.96967,8.2379],[-68.96599,8.22977],[-68.96679,8.22595],[-68.96378,8.22278],[-68.96484,8.21616],[-68.9593,8.2118],[-68.96171,8.21029],[-68.95887,8.19842],[-68.95971,8.19212],[-68.9534,8.18368],[-68.94685,8.18493],[-68.94568,8.17811],[-68.93904,8.17944],[-68.9377,8.17542],[-68.92895,8.17383],[-68.92415,8.16251],[-68.91838,8.16143],[-68.91857,8.15242],[-68.9093,8.154],[-68.90654,8.15221],[-68.90651,8.14747],[-68.90249,8.14801],[-68.9057,8.15131],[-68.90433,8.15401],[-68.89932,8.15074],[-68.8931,8.15178],[-68.89129,8.14784],[-68.89529,8.14376],[-68.89154,8.14233],[-68.89347,8.13985],[-68.8922,8.1364],[-68.88493,8.13561],[-68.88804,8.12964],[-68.88308,8.12755],[-68.88587,8.12409],[-68.88184,8.11924],[-68.88231,8.11525],[-68.87572,8.11277],[-68.87285,8.11586],[-68.8701,8.11495],[-68.86805,8.11283],[-68.87285,8.10297],[-68.86852,8.10863],[-68.8675,8.1053],[-68.86172,8.10476],[-68.86455,8.10221],[-68.85622,8.09304],[-68.85192,8.09372],[-68.85059,8.09151],[-68.84456,8.09786],[-68.83957,8.09445],[-68.83336,8.10628],[-68.81941,8.14972],[-68.82428,8.15129],[-68.81989,8.16503],[-68.82199,8.16572],[-68.82549,8.16246],[-68.82863,8.17087],[-68.82421,8.17519],[-68.82994,8.19011],[-68.83984,8.18604],[-68.84338,8.20697],[-68.82573,8.20889],[-68.81413,8.2149],[-68.81321,8.21956],[-68.8092,8.22078],[-68.8086,8.23003],[-68.79554,8.23224],[-68.7967,8.23454],[-68.7834,8.24142],[-68.78752,8.27838],[-68.79046,8.27891],[-68.78732,8.28776],[-68.78297,8.28966],[-68.77757,8.30412],[-68.78198,8.31162],[-68.78711,8.31217],[-68.78822,8.31435],[-68.78695,8.31703],[-68.78173,8.31478],[-68.779,8.32197],[-68.78217,8.32195],[-68.78257,8.32719],[-68.75895,8.33341],[-68.75448,8.34205],[-68.74871,8.33942],[-68.74856,8.33571],[-68.74149,8.34276],[-68.73403,8.34294],[-68.71885,8.35722],[-68.71778,8.355],[-68.69899,8.37466],[-68.70087,8.37612],[-68.69933,8.37797],[-68.69721,8.37637],[-68.69004,8.38181],[-68.69191,8.38334],[-68.672,8.4025],[-68.634,8.42516],[-68.60318,8.44876],[-68.60227,8.46696],[-68.60004,8.47019],[-68.55852,8.51325],[-68.54622,8.51758],[-68.5272,8.54634],[-68.52873,8.5481],[-68.52374,8.5709],[-68.51292,8.57104],[-68.51184,8.56704],[-68.50937,8.56631],[-68.50388,8.5869],[-68.50698,8.5984],[-68.5128,8.60444],[-68.52924,8.60142],[-68.53053,8.59872],[-68.53416,8.59839],[-68.54845,8.60766],[-68.54804,8.61345],[-68.56074,8.61899],[-68.56717,8.61428],[-68.57313,8.61412],[-68.58143,8.62333],[-68.58337,8.62896],[-68.57884,8.63329],[-68.58444,8.63771],[-68.59398,8.63659],[-68.59589,8.63493],[-68.59395,8.63016],[-68.59927,8.62686],[-68.60925,8.62733],[-68.62183,8.63519],[-68.62504,8.63443],[-68.63225,8.63787],[-68.64284,8.63404],[-68.65189,8.64377],[-68.63405,8.65023],[-68.63878,8.66639],[-68.64802,8.66932],[-68.64687,8.69054],[-68.64804,8.6946],[-68.65127,8.6924],[-68.65354,8.69772],[-68.64856,8.7],[-68.64908,8.70481],[-68.65473,8.71169],[-68.66546,8.71113],[-68.67631,8.70704],[-68.68188,8.69983],[-68.69855,8.69896],[-68.70149,8.70164],[-68.70049,8.70416],[-68.70653,8.70964],[-68.71563,8.71044],[-68.71539,8.71769],[-68.72207,8.71771],[-68.72037,8.7216],[-68.71544,8.72218],[-68.71685,8.72639],[-68.72771,8.7237],[-68.72464,8.73009],[-68.73055,8.73027],[-68.73151,8.7356],[-68.73596,8.73841],[-68.7331,8.74613],[-68.73034,8.74728],[-68.72642,8.74459],[-68.72801,8.73889],[-68.72107,8.73736],[-68.71803,8.73773],[-68.71173,8.74476],[-68.70399,8.74213],[-68.69729,8.74289],[-68.68898,8.74967],[-68.69016,8.75592],[-68.68739,8.76314],[-68.67474,8.76564],[-68.67264,8.7687],[-68.66852,8.76465],[-68.66353,8.76966],[-68.66018,8.76862],[-68.65966,8.77089],[-68.65464,8.77233],[-68.65652,8.77553],[-68.65455,8.77766],[-68.64948,8.77714],[-68.64823,8.77494],[-68.64144,8.77851],[-68.63962,8.78738],[-68.64222,8.78836],[-68.64168,8.79266],[-68.63474,8.79498],[-68.6309,8.79924],[-68.62934,8.79683],[-68.63044,8.80088],[-68.62609,8.80326],[-68.62473,8.80085],[-68.6191,8.80406],[-68.60582,8.79782],[-68.60386,8.80153],[-68.60122,8.79807],[-68.60186,8.80261],[-68.59971,8.80128],[-68.59899,8.80324],[-68.59597,8.79837],[-68.59353,8.80115],[-68.59048,8.79868],[-68.58416,8.79944],[-68.58289,8.81785],[-68.57066,8.82142],[-68.57255,8.84543],[-68.58057,8.84591],[-68.58243,8.8504],[-68.58044,8.85295],[-68.58339,8.85505],[-68.58377,8.86125],[-68.5871,8.86055],[-68.59,8.8647],[-68.60357,8.87238],[-68.60142,8.88019],[-68.60576,8.88554],[-68.61018,8.88446],[-68.61533,8.89427],[-68.62363,8.89882],[-68.62142,8.9104],[-68.62736,8.91428],[-68.6254,8.91723],[-68.62631,8.92224],[-68.62263,8.92486],[-68.63126,8.93719],[-68.62945,8.94293],[-68.63098,8.9478],[-68.64028,8.95298],[-68.64561,8.95268],[-68.64942,8.96044],[-68.6577,8.9632],[-68.65437,8.97242],[-68.65873,8.97551],[-68.65787,8.98523],[-68.6611,8.98502],[-68.65109,8.99348],[-68.66816,9.01394],[-68.66546,9.01607],[-68.66751,9.01931],[-68.65661,9.0266],[-68.65903,9.02954],[-68.64868,9.03655],[-68.64448,9.03003],[-68.63682,9.03597],[-68.65329,9.06028],[-68.64102,9.06602],[-68.64773,9.07462],[-68.64325,9.07804],[-68.65018,9.08816],[-68.65586,9.08366],[-68.65983,9.09133],[-68.66352,9.08903],[-68.66899,9.09892],[-68.65315,9.10922],[-68.64834,9.1033],[-68.64322,9.10829],[-68.63958,9.1057],[-68.63646,9.11032],[-68.63677,9.11542],[-68.63538,9.11664],[-68.63242,9.11295],[-68.63102,9.11463],[-68.62845,9.12325],[-68.63101,9.12682],[-68.62515,9.12859],[-68.62767,9.13584],[-68.62459,9.1414],[-68.62011,9.14587],[-68.61671,9.14245],[-68.61133,9.14243],[-68.60971,9.13935],[-68.58895,9.17406],[-68.59569,9.17427],[-68.59842,9.1791],[-68.5968,9.17754],[-68.59376,9.18049],[-68.60292,9.18463],[-68.60642,9.19075],[-68.61278,9.19398],[-68.61477,9.20621],[-68.62114,9.20844],[-68.62171,9.21749],[-68.62769,9.21974],[-68.6317,9.21749],[-68.63298,9.22438],[-68.63432,9.22142],[-68.63863,9.22371],[-68.64176,9.22187],[-68.63966,9.21957],[-68.64224,9.22005],[-68.64592,9.22126],[-68.64927,9.22958],[-68.65152,9.23047],[-68.65457,9.22778],[-68.65798,9.23229],[-68.66782,9.22761],[-68.66813,9.23171],[-68.67273,9.22945],[-68.67774,9.23582],[-68.68083,9.23354],[-68.6794,9.23886],[-68.68353,9.24311],[-68.68684,9.2431],[-68.68643,9.23895],[-68.69412,9.24121],[-68.69325,9.24419],[-68.69568,9.24722],[-68.69344,9.24862],[-68.69941,9.24845],[-68.70913,9.25315],[-68.71341,9.24936],[-68.71672,9.25314],[-68.7263,9.25642],[-68.72799,9.26355],[-68.72978,9.26221],[-68.73136,9.2644],[-68.73444,9.26067],[-68.74387,9.26526],[-68.76624,9.28918],[-68.7807,9.31849],[-68.82669,9.34231],[-68.85748,9.36954],[-68.86048,9.37756],[-68.86926,9.38565],[-68.87556,9.39666],[-68.8859,9.40231],[-68.89255,9.41646],[-68.89014,9.42156],[-68.89496,9.43059],[-68.88697,9.45879],[-68.89958,9.49234],[-68.89721,9.49217],[-68.89407,9.50381],[-68.89808,9.50947],[-68.89213,9.51164],[-68.89461,9.51483],[-68.8926,9.51725],[-68.89813,9.5207],[-68.90168,9.53069],[-68.90856,9.53664],[-68.90575,9.54439],[-68.90463,9.56092],[-68.90201,9.56389],[-68.90849,9.56711],[-68.91037,9.57282],[-68.90473,9.57475],[-68.90506,9.57636],[-68.91081,9.58145],[-68.91139,9.58946],[-68.91486,9.59044],[-68.91324,9.59495],[-68.91569,9.59579],[-68.91464,9.59921],[-68.91833,9.61086],[-68.92034,9.60939],[-68.92212,9.6132],[-68.92126,9.61677],[-68.92387,9.61926],[-68.92577,9.61774],[-68.92561,9.6212],[-68.92797,9.6204],[-68.92683,9.62404],[-68.93037,9.62202],[-68.93403,9.62462],[-68.93043,9.62473],[-68.93248,9.62863],[-68.93654,9.62654],[-68.93694,9.62885],[-68.93366,9.63108],[-68.93823,9.63081],[-68.9364,9.63454],[-68.9401,9.63725],[-68.9419,9.64262],[-68.94592,9.64411],[-68.943,9.64682],[-68.94762,9.64987],[-68.95023,9.65939],[-68.95944,9.66652],[-68.96571,9.67564],[-68.96236,9.68581],[-68.96738,9.6889],[-68.96149,9.69328],[-68.96474,9.69914]]]}}]}