{"type":"FeatureCollection","features":[{"type":"Feature","id":"relation/9775353","properties":{"name":"Municipio Jos\u00e9 Vicente de Unda","level":6,"population":"25189"},"geometry":{"type":"Polygon","coordinates":[[[-69.87842,9.46297],[-69.87061,9.47183],[-69.86604,9.47213],[-69.86545,9.4766],[-69.85974,9.48122],[-69.85525,9.48112],[-69.84295,9.5016],[-69.82849,9.50376],[-69.83102,9.51652],[-69.82781,9.51798],[-69.82712,9.52257],[-69.8323,9.52549],[-69.83507,9.52385],[-69.83556,9.53148],[-69.8387,9.53542],[-69.83414,9.53994],[-69.83359,9.54761],[-69.83057,9.54703],[-69.82702,9.55059],[-69.83301,9.56088],[-69.82904,9.56684],[-69.83332,9.56585],[-69.84132,9.56935],[-69.8495,9.5673],[-69.85492,9.56098],[-69.86513,9.5549],[-69.86633,9.54732],[-69.87076,9.54512],[-69.88194,9.54659],[-69.89826,9.55358],[-69.89812,9.55021],[-69.90315,9.54693],[-69.90795,9.55089],[-69.9143,9.5474],[-69.91933,9.54873],[-69.92752,9.54635],[-69.95072,9.55517],[-69.9595,9.54723],[-69.97512,9.53855],[-69.99462,9.5068],[-69.99909,9.50735],[-70.00754,9.49956],[-70.01104,9.49107],[-70.01116,9.47601],[-70.00463,9.47091],[-70.00834,9.46798],[-70.0052,9.45737],[-70.00782,9.45101],[-70.00754,9.44381],[-70.01677,9.43421],[-70.01296,9.43384],[-70.00446,9.42451],[-69.99584,9.42369],[-69.99293,9.42208],[-69.9935,9.41921],[-69.9856,9.41663],[-69.98537,9.41341],[-69.97332,9.40073],[-69.9709,9.38783],[-69.96327,9.38042],[-69.9548,9.37965],[-69.94639,9.37431],[-69.93835,9.35811],[-69.93378,9.35777],[-69.92875,9.36893],[-69.93207,9.3732],[-69.93158,9.37868],[-69.92175,9.38957],[-69.9191,9.40946],[-69.90153,9.41516],[-69.89982,9.42103],[-69.89485,9.42515],[-69.89558,9.43749],[-69.89338,9.44494],[-69.88192,9.46211],[-69.87842,9.46297]]]}},{"type":"Feature","id":"relation/9798056","properties":{"name":"Municipio Sucre","level":6,"population":"46731"},"geometry":{"type":"Polygon","coordinates":[[[-70.08186,9.23673],[-70.08698,9.22906],[-70.09657,9.22372],[-70.09739,9.21691],[-70.09436,9.21055],[-70.08824,9.20737],[-70.08029,9.20755],[-70.07259,9.20156],[-70.06919,9.18365],[-70.06622,9.1835],[-70.0633,9.17807],[-70.05646,9.1812],[-70.05172,9.17527],[-70.04803,9.17815],[-70.04681,9.1748],[-70.04306,9.17623],[-70.03844,9.17318],[-70.03241,9.17751],[-70.0323,9.18017],[-70.03564,9.18259],[-70.02574,9.18039],[-70.02365,9.18308],[-70.02018,9.17861],[-70.01737,9.17856],[-70.01814,9.17305],[-70.01429,9.16745],[-69.99339,9.17583],[-70.00117,9.18349],[-69.99511,9.19551],[-69.99282,9.19561],[-69.9924,9.20064],[-69.99795,9.20917],[-69.98348,9.2083],[-69.97747,9.20586],[-69.97414,9.20101],[-69.96706,9.19903],[-69.96128,9.20696],[-69.95452,9.20734],[-69.94974,9.18863],[-69.9393,9.18239],[-69.92347,9.18526],[-69.92285,9.18712],[-69.91819,9.18433],[-69.91385,9.18789],[-69.91241,9.18389],[-69.90976,9.18607],[-69.90602,9.18247],[-69.90233,9.18415],[-69.89472,9.16809],[-69.89342,9.17844],[-69.89529,9.18238],[-69.89262,9.18546],[-69.89111,9.18373],[-69.88433,9.18543],[-69.88427,9.19315],[-69.88124,9.19708],[-69.8762,9.19707],[-69.8768,9.1999],[-69.87236,9.20573],[-69.87111,9.21318],[-69.87403,9.21547],[-69.87376,9.21905],[-69.867,9.22038],[-69.86579,9.22429],[-69.86976,9.23846],[-69.86965,9.24901],[-69.87657,9.24887],[-69.88244,9.25851],[-69.88832,9.26078],[-69.89216,9.2753],[-69.89699,9.27897],[-69.90061,9.29186],[-69.89546,9.29909],[-69.90091,9.2957],[-69.90505,9.29928],[-69.90666,9.29753],[-69.90626,9.30001],[-69.9101,9.30188],[-69.91708,9.32583],[-69.92041,9.32636],[-69.92164,9.33117],[-69.9268,9.33399],[-69.93242,9.33413],[-69.93277,9.33697],[-69.93842,9.34085],[-69.94026,9.3501],[-69.93378,9.35777],[-69.93835,9.35811],[-69.94639,9.37431],[-69.9548,9.37965],[-69.96327,9.38042],[-69.9709,9.38783],[-69.97332,9.40073],[-69.98537,9.41341],[-69.9856,9.41663],[-69.9935,9.41921],[-69.99293,9.42208],[-69.99584,9.42369],[-70.00446,9.42451],[-70.01296,9.43384],[-70.01677,9.43421],[-70.02763,9.42086],[-70.03398,9.41675],[-70.03821,9.40941],[-70.03858,9.38162],[-70.04425,9.37047],[-70.05349,9.36184],[-70.05898,9.36164],[-70.06472,9.35776],[-70.08377,9.33638],[-70.09069,9.33622],[-70.10427,9.31675],[-70.10445,9.31143],[-70.11332,9.30353],[-70.11287,9.29548],[-70.08834,9.28065],[-70.07554,9.2845],[-70.06565,9.28123],[-70.06272,9.26498],[-70.06941,9.25226],[-70.06764,9.25016],[-70.07109,9.24422],[-70.07614,9.24331],[-70.08186,9.23673]]]}},{"type":"Feature","id":"relation/9820943","properties":{"name":"Municipio San Genaro de Bocono\u00edto","level":6,"population":"28635"},"geometry":{"type":"Polygon","coordinates":[[[-69.90854,8.99318],[-69.99339,9.17583],[-70.0148,9.16753],[-70.01814,9.17305],[-70.01737,9.17856],[-70.02018,9.17861],[-70.02365,9.18308],[-70.02574,9.18039],[-70.03564,9.18259],[-70.0323,9.18017],[-70.03241,9.17751],[-70.03818,9.17505],[-70.03806,9.17319],[-70.04306,9.17623],[-70.04681,9.1748],[-70.04803,9.17815],[-70.05172,9.17527],[-70.05646,9.1812],[-70.06323,9.17805],[-70.06441,9.17339],[-70.06038,9.16882],[-70.06116,9.16511],[-70.0546,9.16095],[-70.05576,9.15822],[-70.05116,9.15273],[-70.05615,9.14432],[-70.05388,9.13922],[-70.06381,9.13473],[-70.06605,9.13565],[-70.06476,9.12782],[-70.07435,9.11848],[-70.08476,9.11786],[-70.09443,9.09995],[-70.09407,9.09437],[-70.10614,9.08898],[-70.10858,9.08487],[-70.14901,9.08015],[-70.16238,9.07455],[-70.16568,9.06859],[-70.18644,9.05859],[-70.18727,9.05482],[-70.18364,9.05451],[-70.18287,9.04703],[-70.18626,9.01655],[-70.17642,8.99337],[-70.16328,8.9808],[-70.15247,8.97463],[-70.13974,8.97624],[-70.12818,8.97154],[-70.12372,8.96488],[-70.11333,8.96206],[-70.10704,8.9574],[-70.09303,8.95573],[-70.05338,8.92925],[-70.04232,8.89408],[-70.03409,8.8897],[-70.02976,8.8699],[-70.01093,8.84413],[-70.00009,8.84184],[-69.99201,8.83531],[-69.98679,8.82608],[-69.97392,8.83062],[-69.962,8.82106],[-69.9553,8.82247],[-69.94934,8.81724],[-69.94491,8.81685],[-69.94198,8.81241],[-69.94341,8.80991],[-69.93594,8.80887],[-69.93241,8.80274],[-69.9229,8.80278],[-69.9251,8.79673],[-69.9325,8.79512],[-69.93246,8.78987],[-69.92817,8.78791],[-69.92285,8.78998],[-69.91186,8.78539],[-69.90077,8.7724],[-69.89214,8.774],[-69.89122,8.78641],[-69.88608,8.78798],[-69.88254,8.77983],[-69.88799,8.7669],[-69.88471,8.76577],[-69.87989,8.77135],[-69.87305,8.77239],[-69.87073,8.76896],[-69.87311,8.76172],[-69.87056,8.75844],[-69.8638,8.75775],[-69.85795,8.76118],[-69.85304,8.75376],[-69.84654,8.75502],[-69.83536,8.75186],[-69.83029,8.7458],[-69.82369,8.74357],[-69.805,8.74968],[-69.79367,8.74077],[-69.78154,8.74203],[-69.77039,8.7398],[-69.76176,8.74652],[-69.76008,8.74334],[-69.76355,8.73489],[-69.76213,8.73136],[-69.74932,8.73599],[-69.74331,8.73534],[-69.73835,8.72583],[-69.73181,8.72026],[-69.72718,8.72047],[-69.72288,8.72442],[-69.71884,8.72362],[-69.7165,8.71207],[-69.71163,8.71253],[-69.70776,8.7171],[-69.68759,8.70773],[-69.68222,8.71579],[-69.67275,8.71925],[-69.66554,8.70834],[-69.66021,8.70667],[-69.65786,8.71275],[-69.66349,8.71685],[-69.66452,8.72223],[-69.6583,8.72257],[-69.65347,8.71364],[-69.65067,8.71326],[-69.64952,8.7239],[-69.63514,8.73452],[-69.6313,8.72826],[-69.61763,8.73376],[-69.60719,8.72923],[-69.60237,8.73176],[-69.57785,8.72807],[-69.56812,8.71806],[-69.57192,8.72706],[-69.5673,8.73201],[-69.57296,8.74006],[-69.57928,8.73764],[-69.58024,8.73409],[-69.59065,8.73339],[-69.59621,8.73974],[-69.60216,8.7378],[-69.61204,8.74314],[-69.6198,8.7412],[-69.62029,8.74896],[-69.62751,8.74955],[-69.63347,8.75605],[-69.63033,8.76532],[-69.63938,8.76709],[-69.64234,8.77458],[-69.63656,8.77747],[-69.6368,8.78393],[-69.6438,8.78383],[-69.6429,8.77841],[-69.64491,8.77671],[-69.6569,8.79132],[-69.65344,8.79283],[-69.64715,8.79023],[-69.64921,8.79673],[-69.64077,8.80194],[-69.63859,8.80862],[-69.64419,8.8119],[-69.64367,8.81781],[-69.64812,8.81929],[-69.65032,8.82786],[-69.65697,8.83638],[-69.66697,8.83917],[-69.66995,8.8429],[-69.67864,8.84318],[-69.6769,8.84659],[-69.67996,8.85074],[-69.67832,8.85861],[-69.68145,8.86015],[-69.68387,8.85567],[-69.6866,8.85548],[-69.68582,8.86306],[-69.69538,8.86841],[-69.68905,8.87282],[-69.69426,8.87949],[-69.69503,8.87276],[-69.69855,8.87001],[-69.70133,8.87289],[-69.69721,8.87881],[-69.7076,8.88227],[-69.70977,8.87675],[-69.71318,8.87511],[-69.71382,8.87952],[-69.71659,8.88143],[-69.72025,8.877],[-69.76172,8.86251],[-69.76201,8.84051],[-69.7912,8.84653],[-69.8064,8.84663],[-69.81843,8.85794],[-69.8296,8.86348],[-69.83862,8.88038],[-69.86678,8.90327],[-69.90854,8.99318]]]}},{"type":"Feature","id":"relation/9821322","properties":{"name":"Municipio Guanare","level":6,"population":"192644"},"geometry":{"type":"Polygon","coordinates":[[[-69.52908,8.99018],[-69.52622,9.00346],[-69.52275,9.00338],[-69.52528,9.00543],[-69.51215,9.01563],[-69.51125,9.01385],[-69.5068,9.01758],[-69.50376,9.01652],[-69.4964,9.02442],[-69.49093,9.02228],[-69.49129,9.0266],[-69.48713,9.03387],[-69.49161,9.03179],[-69.4923,9.03588],[-69.49533,9.03639],[-69.4938,9.04167],[-69.49923,9.0423],[-69.48775,9.05434],[-69.48509,9.05459],[-69.48348,9.06045],[-69.48006,9.05661],[-69.48446,9.0504],[-69.48238,9.0497],[-69.47929,9.05375],[-69.47657,9.05265],[-69.47661,9.04837],[-69.48073,9.04695],[-69.48043,9.04455],[-69.47414,9.04676],[-69.46522,9.04337],[-69.4659,9.04071],[-69.47273,9.03801],[-69.46798,9.03436],[-69.46936,9.0279],[-69.46749,9.02631],[-69.4555,9.02709],[-69.45468,9.03392],[-69.45751,9.039],[-69.45582,9.0407],[-69.45105,9.03767],[-69.44932,9.03112],[-69.44666,9.0311],[-69.44719,9.03913],[-69.44249,9.04142],[-69.4402,9.03556],[-69.43595,9.04058],[-69.4369,9.04517],[-69.43363,9.0468],[-69.43542,9.04865],[-69.43901,9.04668],[-69.44273,9.05329],[-69.44626,9.05333],[-69.45112,9.05839],[-69.45017,9.06501],[-69.44687,9.06442],[-69.44444,9.06817],[-69.44852,9.07451],[-69.44686,9.07896],[-69.45099,9.08069],[-69.45015,9.08379],[-69.44049,9.08603],[-69.43747,9.08891],[-69.44609,9.09457],[-69.44472,9.09695],[-69.44082,9.09628],[-69.44025,9.09965],[-69.44631,9.09886],[-69.44777,9.10309],[-69.45224,9.10081],[-69.45657,9.10224],[-69.45576,9.11308],[-69.45708,9.11417],[-69.45698,9.11095],[-69.45951,9.11083],[-69.45824,9.11337],[-69.46027,9.11598],[-69.45813,9.12021],[-69.46474,9.12392],[-69.45747,9.12824],[-69.46157,9.13545],[-69.45518,9.13883],[-69.45976,9.13828],[-69.46236,9.14212],[-69.46519,9.14196],[-69.47322,9.1551],[-69.48007,9.15528],[-69.49027,9.17114],[-69.48633,9.17681],[-69.4907,9.18004],[-69.48546,9.18255],[-69.48905,9.18583],[-69.48434,9.18751],[-69.48861,9.18934],[-69.48695,9.20085],[-69.49114,9.20402],[-69.49177,9.20747],[-69.48681,9.21033],[-69.48817,9.21606],[-69.48361,9.21678],[-69.48583,9.22605],[-69.49019,9.22627],[-69.49172,9.23022],[-69.49534,9.23109],[-69.49568,9.23627],[-69.5016,9.2373],[-69.50428,9.2433],[-69.51136,9.24749],[-69.51309,9.25312],[-69.52408,9.25558],[-69.52675,9.2631],[-69.53496,9.26579],[-69.53876,9.26347],[-69.54623,9.2653],[-69.55166,9.26259],[-69.5556,9.27414],[-69.56073,9.27219],[-69.56217,9.27666],[-69.56714,9.27229],[-69.57204,9.27818],[-69.58018,9.27204],[-69.58579,9.27421],[-69.58945,9.28365],[-69.59237,9.28245],[-69.59015,9.27577],[-69.59785,9.26624],[-69.59438,9.26145],[-69.59835,9.25635],[-69.6021,9.25654],[-69.61098,9.26319],[-69.61495,9.26135],[-69.61592,9.25525],[-69.61935,9.25264],[-69.62118,9.25811],[-69.62337,9.25504],[-69.62523,9.25648],[-69.62819,9.25468],[-69.63264,9.26309],[-69.63723,9.25955],[-69.64169,9.26082],[-69.64487,9.25688],[-69.65289,9.25817],[-69.65725,9.27425],[-69.66562,9.28316],[-69.67212,9.28339],[-69.69346,9.31178],[-69.67964,9.33375],[-69.68315,9.34167],[-69.68171,9.34743],[-69.6748,9.3538],[-69.66673,9.35278],[-69.65864,9.35583],[-69.65832,9.35344],[-69.65568,9.35355],[-69.65503,9.36056],[-69.65225,9.36189],[-69.64719,9.37973],[-69.65414,9.39101],[-69.66205,9.38905],[-69.68038,9.40197],[-69.68593,9.40201],[-69.69261,9.407],[-69.70452,9.40404],[-69.7195,9.40768],[-69.72787,9.41699],[-69.73051,9.41602],[-69.73786,9.41945],[-69.72972,9.42489],[-69.73047,9.43554],[-69.74454,9.43961],[-69.75079,9.43913],[-69.7513,9.43711],[-69.75438,9.43709],[-69.75222,9.43253],[-69.7555,9.42643],[-69.76995,9.42548],[-69.77493,9.42203],[-69.77748,9.42463],[-69.7778,9.421],[-69.78266,9.42339],[-69.78716,9.42069],[-69.78758,9.40933],[-69.79361,9.40622],[-69.79847,9.4085],[-69.81224,9.40781],[-69.81638,9.41101],[-69.81995,9.40611],[-69.82148,9.40763],[-69.82958,9.40586],[-69.83641,9.40247],[-69.84633,9.40699],[-69.8568,9.40462],[-69.8607,9.41159],[-69.86709,9.41663],[-69.8693,9.4097],[-69.87228,9.40894],[-69.87613,9.41329],[-69.88267,9.40889],[-69.88439,9.41071],[-69.88823,9.4082],[-69.89636,9.40821],[-69.90343,9.41534],[-69.91877,9.40988],[-69.92175,9.38957],[-69.93158,9.37868],[-69.93207,9.3732],[-69.92905,9.36784],[-69.94026,9.3501],[-69.93843,9.34088],[-69.93277,9.33697],[-69.93242,9.33413],[-69.9268,9.33399],[-69.92164,9.33117],[-69.92041,9.32636],[-69.91708,9.32583],[-69.9101,9.30188],[-69.90626,9.30001],[-69.90666,9.29753],[-69.90505,9.29928],[-69.90091,9.2957],[-69.89546,9.29909],[-69.90061,9.29186],[-69.89699,9.27897],[-69.89216,9.2753],[-69.88832,9.26078],[-69.88244,9.25851],[-69.87657,9.24887],[-69.86965,9.24901],[-69.86673,9.22089],[-69.87376,9.21905],[-69.87403,9.21547],[-69.87111,9.21318],[-69.87236,9.20573],[-69.8768,9.1999],[-69.8762,9.19707],[-69.88124,9.19708],[-69.88427,9.19315],[-69.88433,9.18543],[-69.89111,9.18373],[-69.89262,9.18546],[-69.89529,9.18238],[-69.89342,9.17844],[-69.89472,9.16809],[-69.90233,9.18415],[-69.90602,9.18247],[-69.90976,9.18607],[-69.91241,9.18389],[-69.91385,9.18789],[-69.91819,9.18433],[-69.92285,9.18712],[-69.92347,9.18526],[-69.9393,9.18239],[-69.94974,9.18863],[-69.95132,9.20003],[-69.95571,9.20769],[-69.96128,9.20696],[-69.96706,9.19903],[-69.97414,9.20101],[-69.97747,9.20586],[-69.98348,9.2083],[-69.99809,9.20915],[-69.9943,9.2056],[-69.99282,9.19561],[-69.99511,9.19551],[-70.00117,9.18349],[-69.99339,9.17583],[-69.86678,8.90327],[-69.83862,8.88038],[-69.8296,8.86348],[-69.81843,8.85794],[-69.8064,8.84663],[-69.7912,8.84653],[-69.76201,8.84051],[-69.76172,8.86251],[-69.72025,8.877],[-69.71659,8.88143],[-69.71382,8.87952],[-69.71318,8.87511],[-69.70977,8.87675],[-69.7076,8.88227],[-69.69721,8.87881],[-69.70133,8.87289],[-69.69813,8.87019],[-69.69503,8.87276],[-69.69499,8.87921],[-69.69121,8.87679],[-69.67094,8.8938],[-69.66957,8.91108],[-69.65642,8.90854],[-69.64356,8.90983],[-69.63841,8.90536],[-69.6059,8.95261],[-69.5984,8.94967],[-69.5958,8.95492],[-69.58794,8.95611],[-69.57864,8.95056],[-69.57381,8.95302],[-69.5519,8.94598],[-69.54189,8.94747],[-69.55124,8.95372],[-69.55181,8.96057],[-69.55774,8.96404],[-69.55883,8.97197],[-69.5549,8.97103],[-69.54954,8.96463],[-69.53853,8.96404],[-69.52093,8.98267],[-69.52908,8.99018]]]}},{"type":"Feature","id":"relation/9823128","properties":{"name":"Municipio Ospino","level":6,"population":"47644"},"geometry":{"type":"Polygon","coordinates":[[[-69.13839,8.93613],[-69.13675,8.9299],[-69.13235,8.93448],[-69.13332,8.93789],[-69.13016,8.93908],[-69.13188,8.94499],[-69.1286,8.94541],[-69.12282,8.93526],[-69.11928,8.93539],[-69.12357,8.93168],[-69.12287,8.92846],[-69.11888,8.93219],[-69.11411,8.92935],[-69.1183,8.93482],[-69.11433,8.93963],[-69.10844,8.93567],[-69.10928,8.93126],[-69.10465,8.92944],[-69.10462,8.93298],[-69.09926,8.93389],[-69.09754,8.93931],[-69.10056,8.94219],[-69.10294,8.94143],[-69.09994,8.9454],[-69.10005,8.94987],[-69.10696,8.94199],[-69.10917,8.9437],[-69.10565,8.94642],[-69.11056,8.94703],[-69.1147,8.9444],[-69.11468,8.94822],[-69.11116,8.95063],[-69.1138,8.95534],[-69.11822,8.95269],[-69.12363,8.95385],[-69.12174,8.96066],[-69.11893,8.95871],[-69.11957,8.9604],[-69.11742,8.95951],[-69.11513,8.96282],[-69.1168,8.96808],[-69.12047,8.96613],[-69.12186,8.96993],[-69.12191,8.96567],[-69.12879,8.96785],[-69.12922,8.97773],[-69.13551,8.97804],[-69.13263,8.98182],[-69.13965,8.98076],[-69.14366,8.98459],[-69.1475,8.9823],[-69.14619,8.98839],[-69.14898,8.98595],[-69.15368,8.98677],[-69.15317,8.99105],[-69.156,8.98666],[-69.15855,8.99088],[-69.16196,8.99035],[-69.1713,8.99668],[-69.17774,8.99761],[-69.18667,9.00729],[-69.19404,9.0073],[-69.20005,9.01531],[-69.22001,9.01838],[-69.22307,9.02642],[-69.22228,9.03639],[-69.23121,9.04704],[-69.2346,9.05583],[-69.23036,9.063],[-69.23311,9.06615],[-69.23327,9.07156],[-69.24275,9.07765],[-69.24216,9.0808],[-69.24557,9.08114],[-69.24752,9.08477],[-69.2436,9.09604],[-69.24634,9.09702],[-69.24645,9.10116],[-69.24964,9.10197],[-69.25142,9.10964],[-69.2607,9.11206],[-69.26474,9.11924],[-69.26281,9.12012],[-69.26503,9.13428],[-69.26287,9.13687],[-69.26504,9.13901],[-69.26331,9.1436],[-69.26578,9.14538],[-69.26649,9.14878],[-69.26446,9.15013],[-69.26638,9.15393],[-69.26438,9.15656],[-69.26476,9.16546],[-69.26255,9.16768],[-69.26739,9.18551],[-69.26571,9.18698],[-69.26727,9.21108],[-69.29688,9.25292],[-69.29659,9.25524],[-69.30092,9.25759],[-69.29862,9.2594],[-69.30075,9.26261],[-69.29707,9.27264],[-69.29901,9.27455],[-69.29866,9.28108],[-69.29554,9.28474],[-69.29412,9.29296],[-69.29704,9.29755],[-69.29352,9.2999],[-69.29846,9.30173],[-69.2969,9.30476],[-69.29872,9.30951],[-69.30495,9.31058],[-69.31489,9.32117],[-69.31016,9.32202],[-69.31271,9.32474],[-69.31207,9.32905],[-69.30762,9.33436],[-69.31036,9.33775],[-69.30314,9.34612],[-69.3038,9.34858],[-69.30766,9.34883],[-69.30384,9.3525],[-69.30653,9.35835],[-69.30415,9.36003],[-69.30452,9.36469],[-69.3017,9.36579],[-69.30423,9.38243],[-69.31275,9.38779],[-69.31739,9.39746],[-69.31708,9.4017],[-69.31981,9.40312],[-69.32415,9.4126],[-69.32876,9.44039],[-69.33523,9.44963],[-69.34158,9.45573],[-69.3506,9.45732],[-69.35519,9.45579],[-69.37691,9.47261],[-69.38279,9.48372],[-69.38282,9.48847],[-69.38779,9.4888],[-69.38753,9.49704],[-69.40398,9.5013],[-69.40336,9.51962],[-69.40855,9.52028],[-69.41325,9.5243],[-69.41248,9.52699],[-69.41766,9.533],[-69.41711,9.53638],[-69.42577,9.53747],[-69.42739,9.53972],[-69.43576,9.53936],[-69.44269,9.54374],[-69.44437,9.54952],[-69.45109,9.54748],[-69.45326,9.54962],[-69.46172,9.54609],[-69.46764,9.54656],[-69.46888,9.54892],[-69.47571,9.54741],[-69.47806,9.5437],[-69.48148,9.54613],[-69.49158,9.54439],[-69.5005,9.55293],[-69.50763,9.54554],[-69.50611,9.54255],[-69.51139,9.54443],[-69.51252,9.54097],[-69.51562,9.54169],[-69.51873,9.5385],[-69.52019,9.54126],[-69.52604,9.54003],[-69.52827,9.53595],[-69.53548,9.5382],[-69.53952,9.53368],[-69.55315,9.53725],[-69.55583,9.53482],[-69.5606,9.53489],[-69.56261,9.52634],[-69.57209,9.52164],[-69.57431,9.52526],[-69.57808,9.52455],[-69.57892,9.52813],[-69.58452,9.52736],[-69.58485,9.5299],[-69.59605,9.53139],[-69.60061,9.53424],[-69.60257,9.5466],[-69.60646,9.54788],[-69.61101,9.55409],[-69.60931,9.5614],[-69.61141,9.56464],[-69.62452,9.55899],[-69.62537,9.55606],[-69.62108,9.5483],[-69.61879,9.53594],[-69.62627,9.51021],[-69.62294,9.49967],[-69.61852,9.49412],[-69.6205,9.48676],[-69.61822,9.47965],[-69.62367,9.47591],[-69.61989,9.46051],[-69.62418,9.45948],[-69.62688,9.45444],[-69.62845,9.44904],[-69.62571,9.44101],[-69.63649,9.43367],[-69.6448,9.41231],[-69.65367,9.40325],[-69.65438,9.39996],[-69.65162,9.39749],[-69.65458,9.3963],[-69.65026,9.39452],[-69.65212,9.39463],[-69.65326,9.38834],[-69.64717,9.37658],[-69.65095,9.37066],[-69.65243,9.36152],[-69.65503,9.36056],[-69.65529,9.35407],[-69.65832,9.35344],[-69.65864,9.35583],[-69.66673,9.35278],[-69.6748,9.3538],[-69.68263,9.34571],[-69.67964,9.33375],[-69.69344,9.31214],[-69.68879,9.30404],[-69.67883,9.29445],[-69.67212,9.28339],[-69.66562,9.28316],[-69.65725,9.27425],[-69.65289,9.25817],[-69.64487,9.25688],[-69.64169,9.26082],[-69.63723,9.25955],[-69.63264,9.26309],[-69.62819,9.25468],[-69.62523,9.25648],[-69.62337,9.25504],[-69.62118,9.25811],[-69.61935,9.25264],[-69.61592,9.25525],[-69.61495,9.26135],[-69.61098,9.26319],[-69.6021,9.25654],[-69.59835,9.25635],[-69.59438,9.26145],[-69.59785,9.26624],[-69.59015,9.27577],[-69.59237,9.28245],[-69.58945,9.28365],[-69.58579,9.27421],[-69.58018,9.27204],[-69.57204,9.27818],[-69.56714,9.27229],[-69.56217,9.27666],[-69.56073,9.27219],[-69.5556,9.27414],[-69.55166,9.26259],[-69.54623,9.2653],[-69.53876,9.26347],[-69.53496,9.26579],[-69.52675,9.2631],[-69.52408,9.25558],[-69.51309,9.25312],[-69.51136,9.24749],[-69.50428,9.2433],[-69.5016,9.2373],[-69.49568,9.23627],[-69.49534,9.23109],[-69.49172,9.23022],[-69.49019,9.22627],[-69.48583,9.22605],[-69.48361,9.21678],[-69.48817,9.21606],[-69.48681,9.21033],[-69.49177,9.20747],[-69.49114,9.20402],[-69.48695,9.20085],[-69.48861,9.18934],[-69.48434,9.18751],[-69.48905,9.18583],[-69.48591,9.18133],[-69.4907,9.18004],[-69.48633,9.17681],[-69.49021,9.17216],[-69.48847,9.16571],[-69.48462,9.16477],[-69.48521,9.16073],[-69.48007,9.15528],[-69.47244,9.15456],[-69.46519,9.14196],[-69.46236,9.14212],[-69.45976,9.13828],[-69.45518,9.13883],[-69.46157,9.13545],[-69.45747,9.12824],[-69.46474,9.12392],[-69.45813,9.12021],[-69.46027,9.11598],[-69.45824,9.11337],[-69.45951,9.11083],[-69.45698,9.11095],[-69.45708,9.11417],[-69.45576,9.11308],[-69.45657,9.10224],[-69.45224,9.10081],[-69.44777,9.10309],[-69.44631,9.09886],[-69.44025,9.09965],[-69.44082,9.09628],[-69.44472,9.09695],[-69.44609,9.09457],[-69.43754,9.08946],[-69.44049,9.08603],[-69.45015,9.08379],[-69.45099,9.08069],[-69.44686,9.07896],[-69.44852,9.07451],[-69.44444,9.06817],[-69.44687,9.06442],[-69.45017,9.06501],[-69.45112,9.05839],[-69.44626,9.05333],[-69.44273,9.05329],[-69.43901,9.04668],[-69.43377,9.04756],[-69.4369,9.04517],[-69.43595,9.04058],[-69.4402,9.03556],[-69.42966,9.03169],[-69.43496,9.02177],[-69.42172,9.02044],[-69.41666,9.01495],[-69.41129,9.01522],[-69.41046,9.0083],[-69.40243,9.00647],[-69.39996,9.00978],[-69.40453,9.00088],[-69.39462,9.0013],[-69.38805,8.99897],[-69.37994,9.00952],[-69.3746,9.00228],[-69.37284,9.008],[-69.36694,9.01177],[-69.36448,9.00947],[-69.36621,9.00574],[-69.36424,9.00143],[-69.3613,9.00005],[-69.35576,9.00289],[-69.356,8.99808],[-69.36057,8.99695],[-69.35776,8.99282],[-69.35389,8.99147],[-69.35001,8.99657],[-69.34688,8.99611],[-69.34814,8.98615],[-69.33769,8.9882],[-69.33029,8.98623],[-69.32857,8.99321],[-69.32589,8.98829],[-69.32323,8.98852],[-69.32031,8.99191],[-69.32546,8.99528],[-69.32347,8.99882],[-69.31907,8.99505],[-69.31282,8.99872],[-69.30978,8.98689],[-69.30218,8.98295],[-69.29596,8.99043],[-69.29443,8.98712],[-69.29664,8.98208],[-69.29405,8.98006],[-69.28834,8.98195],[-69.28776,8.98505],[-69.29089,8.98924],[-69.28718,8.99039],[-69.28583,8.98466],[-69.28057,8.98299],[-69.28074,8.97911],[-69.27637,8.98195],[-69.26918,8.97845],[-69.26557,8.98049],[-69.26465,8.9768],[-69.26178,8.97608],[-69.26751,8.97229],[-69.27188,8.97332],[-69.27072,8.96423],[-69.25839,8.96178],[-69.25139,8.96551],[-69.24787,8.96271],[-69.24397,8.9674],[-69.24337,8.96123],[-69.23369,8.95924],[-69.23303,8.95106],[-69.22912,8.95487],[-69.22612,8.95362],[-69.22511,8.94911],[-69.22,8.94682],[-69.22221,8.93999],[-69.22612,8.94046],[-69.22532,8.93567],[-69.22865,8.93526],[-69.22217,8.92918],[-69.2156,8.93173],[-69.21483,8.93628],[-69.21032,8.93083],[-69.2091,8.93518],[-69.21187,8.93948],[-69.20693,8.93946],[-69.20648,8.93457],[-69.21206,8.92583],[-69.21092,8.92428],[-69.19515,8.92422],[-69.19659,8.92973],[-69.2028,8.93314],[-69.19803,8.93666],[-69.19054,8.93164],[-69.18638,8.93176],[-69.18499,8.92886],[-69.18782,8.92689],[-69.17992,8.9271],[-69.17559,8.9339],[-69.1796,8.93804],[-69.17151,8.94219],[-69.17252,8.94692],[-69.16819,8.93808],[-69.16392,8.93753],[-69.16632,8.93195],[-69.15909,8.92981],[-69.16085,8.92689],[-69.15949,8.92477],[-69.15293,8.9285],[-69.15334,8.93274],[-69.14411,8.93045],[-69.14402,8.93558],[-69.13839,8.93613]]]}},{"type":"Feature","id":"relation/9823706","properties":{"name":"Municipio Esteller","level":6,"population":"50513"},"geometry":{"type":"Polygon","coordinates":[[[-69.08351,9.0154],[-69.08656,9.0177],[-69.08452,9.02099],[-69.09185,9.02521],[-69.09015,9.02714],[-69.0934,9.04037],[-69.08862,9.04802],[-69.09235,9.05029],[-69.09184,9.05669],[-69.08941,9.05886],[-69.08985,9.06604],[-69.0827,9.07708],[-69.07661,9.07729],[-69.07445,9.07494],[-69.06837,9.0793],[-69.07661,9.09372],[-69.0844,9.09815],[-69.08574,9.09584],[-69.08801,9.09661],[-69.09289,9.10023],[-69.09381,9.10556],[-69.09862,9.10993],[-69.09112,9.12861],[-69.09564,9.14173],[-69.09571,9.15129],[-69.10004,9.15292],[-69.09977,9.15747],[-69.10175,9.1575],[-69.09919,9.16115],[-69.10193,9.16324],[-69.10069,9.16649],[-69.1035,9.17276],[-69.10112,9.17359],[-69.10132,9.17705],[-69.10405,9.1871],[-69.09997,9.19295],[-69.10421,9.19389],[-69.10296,9.20011],[-69.10558,9.20476],[-69.10317,9.21038],[-69.10695,9.21382],[-69.10655,9.22509],[-69.129,9.25293],[-69.13381,9.25482],[-69.1318,9.26312],[-69.12884,9.26557],[-69.12927,9.27025],[-69.12497,9.27336],[-69.13084,9.27843],[-69.13414,9.29002],[-69.14506,9.29137],[-69.14669,9.29837],[-69.14868,9.29883],[-69.14544,9.30792],[-69.14821,9.31055],[-69.1462,9.31814],[-69.15207,9.32205],[-69.14799,9.32731],[-69.15229,9.3314],[-69.15789,9.33001],[-69.16237,9.33799],[-69.16376,9.34975],[-69.16043,9.35848],[-69.1645,9.35975],[-69.17012,9.36657],[-69.17112,9.36518],[-69.17126,9.37443],[-69.17546,9.38402],[-69.17539,9.38772],[-69.1666,9.39559],[-69.17027,9.40281],[-69.18138,9.41066],[-69.18674,9.42082],[-69.20282,9.43272],[-69.2146,9.45732],[-69.23296,9.47692],[-69.24153,9.48147],[-69.25071,9.47994],[-69.26273,9.46256],[-69.28061,9.44579],[-69.28085,9.44011],[-69.28661,9.44447],[-69.28725,9.45007],[-69.31099,9.41563],[-69.31766,9.39884],[-69.31275,9.38779],[-69.30438,9.38293],[-69.3017,9.36606],[-69.30452,9.36469],[-69.30415,9.36003],[-69.30653,9.35835],[-69.30384,9.3525],[-69.30766,9.34883],[-69.3038,9.34858],[-69.30314,9.34612],[-69.31036,9.33775],[-69.30762,9.33436],[-69.31207,9.32905],[-69.31265,9.32452],[-69.31005,9.32227],[-69.31488,9.32102],[-69.30495,9.31058],[-69.29872,9.30951],[-69.2969,9.30476],[-69.29846,9.30173],[-69.29345,9.29939],[-69.29704,9.29755],[-69.29412,9.29296],[-69.29554,9.28474],[-69.29866,9.28108],[-69.29901,9.27455],[-69.29707,9.27264],[-69.30075,9.26261],[-69.29862,9.2594],[-69.30092,9.25759],[-69.29659,9.25524],[-69.29688,9.25292],[-69.26727,9.21108],[-69.26571,9.18698],[-69.26739,9.18551],[-69.26255,9.16768],[-69.26476,9.16546],[-69.26438,9.15656],[-69.26638,9.15393],[-69.26446,9.15013],[-69.26649,9.14878],[-69.26578,9.14538],[-69.26331,9.1436],[-69.26504,9.13901],[-69.26287,9.13687],[-69.26503,9.13428],[-69.26281,9.12012],[-69.26474,9.11924],[-69.2607,9.11206],[-69.25142,9.10964],[-69.24964,9.10197],[-69.24645,9.10116],[-69.24634,9.09702],[-69.2436,9.09604],[-69.24752,9.08477],[-69.24557,9.08114],[-69.24216,9.0808],[-69.24275,9.07765],[-69.23327,9.07156],[-69.23311,9.06615],[-69.23036,9.063],[-69.2346,9.05583],[-69.23121,9.04704],[-69.22228,9.03639],[-69.22307,9.02642],[-69.22001,9.01838],[-69.20005,9.01531],[-69.19404,9.0073],[-69.18667,9.00729],[-69.17774,8.99761],[-69.1713,8.99668],[-69.16196,8.99035],[-69.15855,8.99088],[-69.156,8.98666],[-69.15317,8.99105],[-69.15368,8.98677],[-69.14898,8.98595],[-69.14619,8.98839],[-69.1475,8.9823],[-69.14366,8.98459],[-69.13965,8.98076],[-69.13263,8.98182],[-69.13551,8.97804],[-69.12922,8.97773],[-69.12879,8.96785],[-69.12191,8.96567],[-69.12186,8.96993],[-69.12047,8.96613],[-69.1168,8.96808],[-69.11513,8.96282],[-69.11742,8.95951],[-69.11957,8.9604],[-69.11893,8.95871],[-69.12174,8.96066],[-69.12363,8.95385],[-69.11822,8.95269],[-69.1138,8.95534],[-69.11116,8.95063],[-69.11533,8.94476],[-69.10565,8.94642],[-69.10917,8.9437],[-69.10696,8.94199],[-69.10005,8.94987],[-69.10239,8.94049],[-69.10056,8.94219],[-69.09754,8.93931],[-69.09512,8.94118],[-69.08763,8.93683],[-69.09259,8.92997],[-69.08838,8.92952],[-69.08699,8.93374],[-69.0802,8.93582],[-69.08162,8.93921],[-69.07849,8.93758],[-69.0745,8.94042],[-69.07171,8.93946],[-69.07214,8.94478],[-69.06561,8.9338],[-69.06212,8.93473],[-69.06222,8.92982],[-69.05853,8.93272],[-69.05613,8.92897],[-69.05315,8.93283],[-69.05046,8.93039],[-69.05205,8.93435],[-69.05928,8.93374],[-69.05952,8.9366],[-69.05654,8.94145],[-69.05109,8.94364],[-69.04954,8.94635],[-69.05158,8.94788],[-69.04892,8.94966],[-69.04295,8.9472],[-69.03808,8.9401],[-69.03188,8.93711],[-69.02278,8.94406],[-69.02305,8.95309],[-69.02455,8.9517],[-69.02787,8.95616],[-69.03185,8.95688],[-69.02915,8.9584],[-69.02919,8.96241],[-69.03239,8.9644],[-69.03353,8.96145],[-69.03386,8.9651],[-69.03737,8.96502],[-69.03427,8.96723],[-69.03516,8.96908],[-69.03934,8.96668],[-69.04321,8.97038],[-69.05099,8.97135],[-69.05219,8.97776],[-69.06326,8.97974],[-69.07282,8.98636],[-69.08351,9.0154]]]}},{"type":"Feature","id":"relation/9825580","properties":{"name":"Municipio Santa Rosal\u00eda","level":6,"population":"18198"},"geometry":{"type":"Polygon","coordinates":[[[-69.02278,8.94406],[-69.01892,8.94477],[-69.0004,8.93486],[-68.98736,8.9338],[-68.97884,8.92729],[-68.96556,8.9221],[-68.94693,8.90539],[-68.94818,8.89427],[-68.93723,8.88316],[-68.92801,8.88117],[-68.92256,8.8768],[-68.92217,8.86854],[-68.92595,8.8626],[-68.91698,8.8601],[-68.9199,8.86701],[-68.91402,8.86824],[-68.91526,8.87184],[-68.90938,8.87235],[-68.91136,8.87409],[-68.91007,8.87557],[-68.90745,8.87345],[-68.90689,8.86832],[-68.91046,8.86332],[-68.90955,8.86111],[-68.90445,8.86128],[-68.8978,8.86748],[-68.8805,8.85738],[-68.87218,8.86025],[-68.87408,8.85485],[-68.86721,8.84813],[-68.86376,8.84042],[-68.85411,8.838],[-68.85126,8.83176],[-68.84514,8.84589],[-68.83952,8.84576],[-68.83611,8.84427],[-68.83647,8.83659],[-68.83163,8.83985],[-68.82856,8.83783],[-68.83461,8.83056],[-68.83326,8.82852],[-68.83178,8.82767],[-68.82919,8.8312],[-68.82872,8.82705],[-68.8202,8.82667],[-68.81808,8.8371],[-68.81097,8.83673],[-68.8067,8.84464],[-68.80558,8.84298],[-68.79833,8.84359],[-68.7936,8.85],[-68.78913,8.84561],[-68.78967,8.84987],[-68.79214,8.85088],[-68.78852,8.85447],[-68.78609,8.84938],[-68.78406,8.85017],[-68.78418,8.85416],[-68.78016,8.84899],[-68.77706,8.85028],[-68.77254,8.84177],[-68.76616,8.85072],[-68.76426,8.84717],[-68.7562,8.8452],[-68.75818,8.85464],[-68.75434,8.85342],[-68.75371,8.85602],[-68.74882,8.85127],[-68.74696,8.84556],[-68.74106,8.84951],[-68.74122,8.85237],[-68.73773,8.84661],[-68.73364,8.86355],[-68.72928,8.85827],[-68.72671,8.84987],[-68.71916,8.84805],[-68.71521,8.84957],[-68.71504,8.86246],[-68.70323,8.86329],[-68.7022,8.85875],[-68.69754,8.86135],[-68.69604,8.85928],[-68.69378,8.86585],[-68.68762,8.86109],[-68.69014,8.8602],[-68.68492,8.85666],[-68.6857,8.85291],[-68.68078,8.85183],[-68.67964,8.85489],[-68.67797,8.85108],[-68.67529,8.85247],[-68.67669,8.85595],[-68.67429,8.85792],[-68.6713,8.85587],[-68.67504,8.86508],[-68.66997,8.87058],[-68.67651,8.87349],[-68.6729,8.87809],[-68.67621,8.87863],[-68.6724,8.88082],[-68.66661,8.87934],[-68.67121,8.8743],[-68.66834,8.87175],[-68.66344,8.87719],[-68.66176,8.87329],[-68.65792,8.87472],[-68.65359,8.87028],[-68.65469,8.87619],[-68.64968,8.87419],[-68.65155,8.86777],[-68.6502,8.86283],[-68.65336,8.85558],[-68.64741,8.85407],[-68.64192,8.85665],[-68.6407,8.86194],[-68.64864,8.86186],[-68.6461,8.86458],[-68.63967,8.86522],[-68.63593,8.86312],[-68.63357,8.86562],[-68.62682,8.85978],[-68.62394,8.86291],[-68.62047,8.86219],[-68.62153,8.85755],[-68.62496,8.85807],[-68.62314,8.85295],[-68.62009,8.85238],[-68.62276,8.84753],[-68.61897,8.84782],[-68.6194,8.84332],[-68.61653,8.84609],[-68.61853,8.84215],[-68.62123,8.84318],[-68.61778,8.83777],[-68.62152,8.83658],[-68.62108,8.83484],[-68.61278,8.83376],[-68.60672,8.83815],[-68.60405,8.83725],[-68.60229,8.84291],[-68.60242,8.8357],[-68.60568,8.8347],[-68.59731,8.83108],[-68.59859,8.82816],[-68.58925,8.82929],[-68.58852,8.82136],[-68.58289,8.81785],[-68.57066,8.82142],[-68.57255,8.84543],[-68.58057,8.84591],[-68.58243,8.8504],[-68.58044,8.85295],[-68.58339,8.85505],[-68.58377,8.86125],[-68.5871,8.86055],[-68.59,8.8647],[-68.60357,8.87238],[-68.60142,8.88019],[-68.60576,8.88554],[-68.61018,8.88446],[-68.61533,8.89427],[-68.62363,8.89882],[-68.62142,8.9104],[-68.62736,8.91428],[-68.6254,8.91723],[-68.62631,8.92224],[-68.62263,8.92486],[-68.63126,8.93719],[-68.62945,8.94293],[-68.63098,8.9478],[-68.64028,8.95298],[-68.64561,8.95268],[-68.64942,8.96044],[-68.6577,8.9632],[-68.65437,8.97242],[-68.65873,8.97551],[-68.65787,8.98523],[-68.6611,8.98502],[-68.65109,8.99348],[-68.65628,9.00186],[-68.73824,9.08358],[-68.75233,9.10393],[-68.77374,9.09336],[-68.77733,9.09898],[-68.79329,9.0937],[-68.81566,9.07773],[-68.82256,9.08777],[-68.83485,9.07192],[-68.83708,9.07286],[-68.83573,9.07016],[-68.84378,9.06065],[-68.84578,9.06087],[-68.84561,9.05786],[-68.88008,9.01333],[-68.8918,9.16226],[-69.00359,9.15365],[-69.02481,9.15402],[-69.03054,9.16172],[-69.0292,9.17252],[-69.03671,9.17892],[-69.03667,9.1833],[-69.04292,9.19088],[-69.10974,9.2292],[-69.10553,9.22071],[-69.10659,9.21255],[-69.10317,9.21038],[-69.10558,9.20476],[-69.10296,9.20011],[-69.10411,9.19346],[-69.09997,9.19295],[-69.10405,9.1871],[-69.10132,9.17705],[-69.10112,9.17359],[-69.1035,9.17276],[-69.10069,9.16649],[-69.10193,9.16324],[-69.09919,9.16115],[-69.10175,9.1575],[-69.09977,9.15747],[-69.10004,9.15292],[-69.09571,9.15129],[-69.09564,9.14173],[-69.09112,9.12861],[-69.09862,9.10993],[-69.09381,9.10556],[-69.09289,9.10023],[-69.08801,9.09661],[-69.08574,9.09584],[-69.0844,9.09815],[-69.07661,9.09372],[-69.06835,9.07908],[-69.07467,9.07491],[-69.07661,9.07729],[-69.0825,9.0772],[-69.0896,9.06672],[-69.09235,9.05029],[-69.08862,9.04802],[-69.0934,9.04037],[-69.09015,9.02714],[-69.09185,9.02521],[-69.08452,9.02099],[-69.08656,9.0177],[-69.08098,9.01189],[-69.07282,8.98636],[-69.06326,8.97974],[-69.05219,8.97776],[-69.05099,8.97135],[-69.04321,8.97038],[-69.03934,8.96668],[-69.03516,8.96908],[-69.03427,8.96723],[-69.03737,8.96502],[-69.03386,8.9651],[-69.03353,8.96145],[-69.03239,8.9644],[-69.02919,8.96241],[-69.02915,8.9584],[-69.03185,8.95688],[-69.02787,8.95616],[-69.02455,8.9517],[-69.02305,8.95309],[-69.02278,8.94406]]]}},{"type":"Feature","id":"relation/9825864","properties":{"name":"Municipio Tur\u00e9n","level":6,"population":"71825"},"geometry":{"type":"Polygon","coordinates":[[[-69.18674,9.42082],[-69.18138,9.41066],[-69.17027,9.40281],[-69.1666,9.39559],[-69.17539,9.38772],[-69.17546,9.38402],[-69.17126,9.37443],[-69.17112,9.36518],[-69.17012,9.36657],[-69.1645,9.35975],[-69.16043,9.35848],[-69.16376,9.34975],[-69.16237,9.33799],[-69.15789,9.33001],[-69.15229,9.3314],[-69.14792,9.32711],[-69.15207,9.32205],[-69.1462,9.31814],[-69.14821,9.31055],[-69.14544,9.30807],[-69.14727,9.30702],[-69.14765,9.29633],[-69.14263,9.29008],[-69.13414,9.29002],[-69.13084,9.27843],[-69.12504,9.27361],[-69.12927,9.27025],[-69.12884,9.26557],[-69.1318,9.26312],[-69.1332,9.25376],[-69.129,9.25293],[-69.10974,9.2292],[-69.04292,9.19088],[-69.03667,9.1833],[-69.03671,9.17892],[-69.0292,9.17252],[-69.03131,9.16579],[-69.02701,9.1556],[-69.01077,9.15324],[-68.8918,9.16226],[-68.88008,9.01333],[-68.84561,9.05786],[-68.84578,9.06087],[-68.84378,9.06065],[-68.83573,9.07016],[-68.83708,9.07286],[-68.83485,9.07192],[-68.82256,9.08777],[-68.81566,9.07773],[-68.79329,9.0937],[-68.77733,9.09898],[-68.77374,9.09336],[-68.75233,9.10393],[-68.73824,9.08358],[-68.66816,9.01394],[-68.66546,9.01607],[-68.66751,9.01931],[-68.65661,9.0266],[-68.65903,9.02954],[-68.64868,9.03655],[-68.64448,9.03003],[-68.63682,9.03597],[-68.65329,9.06028],[-68.64102,9.06602],[-68.64773,9.07462],[-68.64325,9.07804],[-68.65018,9.08816],[-68.65586,9.08366],[-68.65983,9.09133],[-68.66352,9.08903],[-68.66899,9.09892],[-68.65315,9.10922],[-68.64834,9.1033],[-68.64322,9.10829],[-68.63958,9.1057],[-68.63646,9.11032],[-68.63677,9.11542],[-68.63538,9.11664],[-68.63242,9.11295],[-68.63102,9.11463],[-68.62845,9.12325],[-68.63101,9.12682],[-68.62515,9.12859],[-68.62767,9.13584],[-68.62459,9.1414],[-68.62011,9.14587],[-68.61671,9.14245],[-68.61133,9.14243],[-68.60971,9.13935],[-68.58895,9.17406],[-68.59447,9.17294],[-68.59848,9.1788],[-68.5968,9.17754],[-68.59376,9.18049],[-68.60292,9.18463],[-68.60642,9.19075],[-68.61298,9.19421],[-68.61455,9.20578],[-68.62105,9.20824],[-68.62182,9.21758],[-68.62769,9.21974],[-68.6317,9.21749],[-68.63308,9.22441],[-68.63476,9.22125],[-68.63849,9.22371],[-68.64152,9.22211],[-68.63977,9.21952],[-68.64586,9.22122],[-68.649,9.22936],[-68.65152,9.23047],[-68.65457,9.22778],[-68.65798,9.23229],[-68.66736,9.22756],[-68.66813,9.23171],[-68.67295,9.22952],[-68.67332,9.23251],[-68.67774,9.23582],[-68.68083,9.23354],[-68.6794,9.23886],[-68.6834,9.24304],[-68.68684,9.2431],[-68.68643,9.23895],[-68.69412,9.24121],[-68.69325,9.24419],[-68.69568,9.24722],[-68.69344,9.24862],[-68.69941,9.24845],[-68.70913,9.25315],[-68.71341,9.24936],[-68.71672,9.25314],[-68.7263,9.25642],[-68.72799,9.26355],[-68.72978,9.26221],[-68.73136,9.2644],[-68.73426,9.26066],[-68.73987,9.2625],[-68.76624,9.28918],[-68.7807,9.31849],[-68.82669,9.34231],[-68.84446,9.35836],[-68.8512,9.35767],[-68.85791,9.34866],[-68.86193,9.34925],[-68.87071,9.35612],[-68.88411,9.35628],[-68.90863,9.36547],[-68.92167,9.3633],[-68.93565,9.37868],[-68.95941,9.39597],[-69.00603,9.39509],[-69.01883,9.42452],[-69.02015,9.43269],[-69.02196,9.4303],[-69.03326,9.43828],[-69.03526,9.4445],[-69.03236,9.44596],[-69.03902,9.44814],[-69.03738,9.45394],[-69.03949,9.45828],[-69.04195,9.45665],[-69.04631,9.45906],[-69.04782,9.4571],[-69.05518,9.4609],[-69.07523,9.4623],[-69.08316,9.45971],[-69.09361,9.46071],[-69.18674,9.42082]]]}},{"type":"Feature","id":"relation/9826265","properties":{"name":"Municipio Papel\u00f3n","level":6,"population":"16643"},"geometry":{"type":"Polygon","coordinates":[[[-69.55288,8.96842],[-69.55883,8.97197],[-69.55774,8.96404],[-69.55203,8.96097],[-69.55041,8.95278],[-69.54189,8.94747],[-69.5519,8.94598],[-69.57381,8.95302],[-69.57864,8.95056],[-69.58794,8.95611],[-69.5958,8.95492],[-69.5984,8.94967],[-69.6059,8.95261],[-69.63841,8.90536],[-69.64452,8.90998],[-69.65642,8.90854],[-69.66423,8.91131],[-69.6707,8.91039],[-69.67094,8.8938],[-69.68984,8.87826],[-69.6896,8.87105],[-69.69545,8.86872],[-69.68582,8.86306],[-69.68611,8.85518],[-69.68145,8.86015],[-69.67854,8.85899],[-69.68006,8.85262],[-69.67693,8.84705],[-69.67816,8.84263],[-69.66995,8.8429],[-69.66697,8.83917],[-69.65743,8.83676],[-69.65032,8.82786],[-69.64812,8.81929],[-69.64377,8.818],[-69.64458,8.81266],[-69.63925,8.80974],[-69.63817,8.80558],[-69.64921,8.79673],[-69.64715,8.79023],[-69.65344,8.79283],[-69.6569,8.79132],[-69.64491,8.77671],[-69.6429,8.77841],[-69.6438,8.78383],[-69.6368,8.78393],[-69.63656,8.77747],[-69.64229,8.77426],[-69.63938,8.76709],[-69.63041,8.76548],[-69.63365,8.75658],[-69.62905,8.75099],[-69.62029,8.74896],[-69.6198,8.7412],[-69.61204,8.74314],[-69.60216,8.7378],[-69.59621,8.73974],[-69.59065,8.73339],[-69.58024,8.73409],[-69.57928,8.73764],[-69.57296,8.74006],[-69.5673,8.73201],[-69.57192,8.72706],[-69.56812,8.71806],[-69.55823,8.71477],[-69.56036,8.70942],[-69.56027,8.6949],[-69.55382,8.69857],[-69.5472,8.69108],[-69.5388,8.69461],[-69.53481,8.69349],[-69.52866,8.70294],[-69.52702,8.69494],[-69.53539,8.68964],[-69.52847,8.68121],[-69.52636,8.6822],[-69.52574,8.6902],[-69.51489,8.68964],[-69.51242,8.68238],[-69.50724,8.68885],[-69.50277,8.68945],[-69.50251,8.68676],[-69.5085,8.68217],[-69.50659,8.67878],[-69.4949,8.6859],[-69.48768,8.68442],[-69.48414,8.69531],[-69.48054,8.69823],[-69.47674,8.69169],[-69.46575,8.69732],[-69.46053,8.68804],[-69.45524,8.69348],[-69.44389,8.69329],[-69.44169,8.69022],[-69.44337,8.68597],[-69.43781,8.68127],[-69.42953,8.68865],[-69.42609,8.68856],[-69.41755,8.67897],[-69.41824,8.68576],[-69.41195,8.68983],[-69.39848,8.68678],[-69.38878,8.69237],[-69.38374,8.69226],[-69.38058,8.69817],[-69.37874,8.69177],[-69.37547,8.69132],[-69.36923,8.70515],[-69.37172,8.7078],[-69.37676,8.70704],[-69.37854,8.70996],[-69.37192,8.71205],[-69.37489,8.71899],[-69.36858,8.72264],[-69.35467,8.71665],[-69.35199,8.72548],[-69.34221,8.73119],[-69.33528,8.73169],[-69.31647,8.7203],[-69.31778,8.72796],[-69.31577,8.73072],[-69.30353,8.71655],[-69.30123,8.71838],[-69.30282,8.72552],[-69.29409,8.72536],[-69.29107,8.7336],[-69.28972,8.72542],[-69.28612,8.72479],[-69.28047,8.73202],[-69.27907,8.72496],[-69.27053,8.72812],[-69.26653,8.72154],[-69.26247,8.72395],[-69.26373,8.73116],[-69.25813,8.7268],[-69.25378,8.7314],[-69.24996,8.72619],[-69.23498,8.72547],[-69.23056,8.71868],[-69.22494,8.71885],[-69.21798,8.7155],[-69.21795,8.71295],[-69.2226,8.70908],[-69.21662,8.70479],[-69.19765,8.70923],[-69.19521,8.70348],[-69.19021,8.70507],[-69.18699,8.70329],[-69.18429,8.69701],[-69.17969,8.69883],[-69.16675,8.69612],[-69.16581,8.69084],[-69.16157,8.69158],[-69.15936,8.68664],[-69.14955,8.68077],[-69.14569,8.67073],[-69.13868,8.67045],[-69.13627,8.66424],[-69.13183,8.66557],[-69.1305,8.66253],[-69.12428,8.66665],[-69.114,8.66494],[-69.11453,8.6696],[-69.10087,8.67026],[-69.09761,8.68107],[-69.09422,8.68102],[-69.09124,8.67763],[-69.0851,8.67861],[-69.08365,8.68471],[-69.07751,8.68455],[-69.07547,8.68775],[-69.09119,8.78249],[-69.08329,8.78955],[-69.08003,8.79692],[-69.07475,8.79342],[-69.07346,8.79574],[-69.07278,8.78963],[-69.06989,8.79111],[-69.06668,8.78881],[-69.06438,8.79127],[-69.06202,8.78606],[-69.05888,8.78902],[-69.05796,8.78598],[-69.05716,8.7893],[-69.05335,8.78747],[-69.04932,8.79098],[-69.04792,8.78959],[-69.04778,8.79171],[-69.04196,8.78774],[-69.03928,8.79135],[-69.03682,8.78949],[-69.03492,8.79468],[-69.03161,8.79498],[-69.02935,8.78869],[-69.03074,8.78676],[-69.02215,8.78777],[-69.01267,8.78158],[-69.01041,8.78618],[-69.00492,8.78646],[-69.00327,8.78988],[-68.99838,8.78976],[-68.99714,8.78762],[-68.99278,8.79001],[-68.98966,8.78422],[-68.98913,8.78653],[-68.98572,8.78653],[-68.98553,8.78286],[-68.98397,8.78508],[-68.98102,8.78372],[-68.9779,8.78569],[-68.97744,8.78083],[-68.9633,8.78191],[-68.96091,8.77814],[-68.95735,8.77987],[-68.958,8.77672],[-68.95509,8.77823],[-68.95472,8.77439],[-68.94951,8.77303],[-68.9505,8.77612],[-68.94843,8.77611],[-68.94664,8.77432],[-68.94843,8.77311],[-68.94417,8.77177],[-68.94294,8.7746],[-68.94039,8.77425],[-68.93764,8.78066],[-68.9354,8.77854],[-68.92938,8.78032],[-68.92953,8.77706],[-68.92779,8.77926],[-68.92523,8.77621],[-68.92484,8.77876],[-68.91668,8.78154],[-68.91714,8.78338],[-68.91382,8.78152],[-68.91189,8.78385],[-68.90964,8.77934],[-68.90514,8.77899],[-68.90595,8.77419],[-68.90364,8.77103],[-68.90045,8.77579],[-68.89273,8.77617],[-68.89368,8.77068],[-68.88902,8.76681],[-68.89221,8.7649],[-68.89222,8.76213],[-68.88937,8.76252],[-68.88787,8.75493],[-68.87849,8.75226],[-68.87919,8.74174],[-68.87294,8.74394],[-68.87136,8.74004],[-68.86377,8.74036],[-68.86047,8.73687],[-68.85727,8.73836],[-68.85205,8.73538],[-68.84904,8.72934],[-68.83931,8.7268],[-68.83608,8.72859],[-68.83439,8.72615],[-68.82767,8.72528],[-68.8249,8.7201],[-68.8202,8.72033],[-68.81767,8.72585],[-68.8148,8.72226],[-68.81269,8.72379],[-68.80842,8.73072],[-68.81053,8.73306],[-68.80914,8.73895],[-68.80543,8.74179],[-68.79936,8.73907],[-68.79643,8.74041],[-68.79394,8.73754],[-68.79107,8.73858],[-68.79137,8.74117],[-68.78201,8.74211],[-68.78048,8.73891],[-68.77738,8.74147],[-68.77749,8.74504],[-68.77155,8.75035],[-68.77224,8.75409],[-68.76955,8.7574],[-68.77131,8.75772],[-68.77102,8.76162],[-68.76463,8.76292],[-68.76783,8.76718],[-68.76302,8.7701],[-68.76672,8.77578],[-68.76465,8.77785],[-68.75356,8.77326],[-68.75161,8.7683],[-68.74874,8.7719],[-68.74455,8.77263],[-68.74037,8.76416],[-68.74126,8.76875],[-68.73834,8.77241],[-68.74092,8.77538],[-68.73901,8.77603],[-68.73224,8.76643],[-68.7376,8.76184],[-68.73043,8.75926],[-68.72644,8.76231],[-68.72608,8.75869],[-68.72126,8.75393],[-68.71443,8.76075],[-68.70856,8.75885],[-68.70479,8.76176],[-68.6986,8.75665],[-68.69479,8.75894],[-68.69481,8.76276],[-68.69097,8.76311],[-68.68915,8.76635],[-68.68664,8.7666],[-68.68339,8.76271],[-68.68037,8.7655],[-68.67449,8.76576],[-68.67258,8.7687],[-68.66862,8.76462],[-68.66353,8.76966],[-68.66018,8.76862],[-68.65966,8.77089],[-68.65464,8.77233],[-68.65652,8.77553],[-68.65455,8.77766],[-68.6477,8.77508],[-68.64144,8.77851],[-68.64205,8.78111],[-68.63963,8.78287],[-68.64168,8.79266],[-68.63474,8.79498],[-68.6309,8.79924],[-68.62934,8.79683],[-68.63044,8.80088],[-68.62609,8.80326],[-68.62473,8.80085],[-68.6191,8.80406],[-68.60582,8.79782],[-68.60386,8.80153],[-68.60122,8.79807],[-68.60186,8.80261],[-68.59971,8.80128],[-68.59899,8.80324],[-68.59597,8.79837],[-68.59353,8.80115],[-68.59048,8.79868],[-68.58416,8.79944],[-68.58289,8.81785],[-68.58852,8.82136],[-68.58925,8.82929],[-68.59859,8.82816],[-68.59731,8.83108],[-68.60522,8.83371],[-68.60541,8.83604],[-68.60242,8.8357],[-68.60203,8.84272],[-68.60451,8.84064],[-68.60386,8.83734],[-68.60672,8.83815],[-68.61165,8.83407],[-68.62125,8.83502],[-68.61778,8.83777],[-68.62123,8.84318],[-68.61853,8.84215],[-68.61651,8.84588],[-68.6194,8.84332],[-68.61897,8.84782],[-68.62308,8.8482],[-68.62009,8.85238],[-68.62314,8.85295],[-68.62496,8.85807],[-68.62153,8.85755],[-68.62047,8.86219],[-68.62394,8.86291],[-68.62682,8.85978],[-68.63357,8.86562],[-68.63593,8.86312],[-68.63967,8.86522],[-68.6461,8.86458],[-68.64864,8.86186],[-68.6407,8.86194],[-68.64192,8.85665],[-68.64741,8.85407],[-68.65336,8.85558],[-68.6502,8.86283],[-68.65155,8.86777],[-68.64968,8.87419],[-68.65469,8.87619],[-68.65359,8.87028],[-68.65792,8.87472],[-68.66176,8.87329],[-68.66344,8.87719],[-68.66834,8.87175],[-68.67121,8.8743],[-68.66661,8.87934],[-68.67208,8.88077],[-68.67608,8.87884],[-68.6729,8.87809],[-68.67652,8.87377],[-68.66997,8.87058],[-68.67504,8.86508],[-68.6713,8.85587],[-68.67429,8.85792],[-68.67669,8.85595],[-68.67529,8.85247],[-68.67797,8.85108],[-68.67964,8.85489],[-68.68078,8.85183],[-68.6857,8.85291],[-68.68492,8.85666],[-68.68989,8.85991],[-68.68762,8.86109],[-68.6931,8.86584],[-68.695,8.86547],[-68.69604,8.85928],[-68.69754,8.86135],[-68.7022,8.85875],[-68.70323,8.86329],[-68.71504,8.86246],[-68.71506,8.85019],[-68.71815,8.84799],[-68.72671,8.84987],[-68.72928,8.85827],[-68.73364,8.86355],[-68.73773,8.84661],[-68.74122,8.85237],[-68.74106,8.84951],[-68.74696,8.84556],[-68.74882,8.85127],[-68.75371,8.85602],[-68.75434,8.85342],[-68.75818,8.85464],[-68.7562,8.8452],[-68.76426,8.84717],[-68.76616,8.85072],[-68.77254,8.84177],[-68.77706,8.85028],[-68.78016,8.84899],[-68.78418,8.85416],[-68.78406,8.85017],[-68.78609,8.84938],[-68.78852,8.85447],[-68.79214,8.85088],[-68.78967,8.84987],[-68.78913,8.84561],[-68.79344,8.85001],[-68.79833,8.84359],[-68.80558,8.84298],[-68.8065,8.84478],[-68.80878,8.83807],[-68.81808,8.8371],[-68.81891,8.82737],[-68.82453,8.82613],[-68.82892,8.82722],[-68.82894,8.83114],[-68.83178,8.82767],[-68.83442,8.82997],[-68.82856,8.83783],[-68.83163,8.83985],[-68.83647,8.83659],[-68.83611,8.84427],[-68.83952,8.84576],[-68.84514,8.84589],[-68.85009,8.83204],[-68.85301,8.83319],[-68.85411,8.838],[-68.86266,8.83898],[-68.86721,8.84813],[-68.87408,8.85485],[-68.87218,8.86025],[-68.8805,8.85738],[-68.8978,8.86748],[-68.90445,8.86128],[-68.90955,8.86111],[-68.91046,8.86332],[-68.90689,8.86743],[-68.90921,8.87528],[-68.91153,8.87494],[-68.90938,8.87235],[-68.91526,8.87184],[-68.91402,8.86824],[-68.9199,8.86701],[-68.91698,8.8601],[-68.92595,8.8626],[-68.92217,8.86854],[-68.92256,8.8768],[-68.92801,8.88117],[-68.93723,8.88316],[-68.94818,8.89427],[-68.94693,8.90539],[-68.96556,8.9221],[-68.97884,8.92729],[-68.98577,8.93317],[-69.0004,8.93486],[-69.01961,8.94497],[-69.03188,8.93711],[-69.03808,8.9401],[-69.04295,8.9472],[-69.05027,8.94913],[-69.05109,8.94364],[-69.05939,8.93753],[-69.05928,8.93374],[-69.05012,8.93266],[-69.05046,8.93039],[-69.05315,8.93283],[-69.05613,8.92897],[-69.05853,8.93272],[-69.0628,8.93033],[-69.06212,8.93473],[-69.06561,8.9338],[-69.07214,8.94478],[-69.07171,8.93946],[-69.0745,8.94042],[-69.07849,8.93758],[-69.08162,8.93921],[-69.0802,8.93582],[-69.08699,8.93374],[-69.08838,8.92952],[-69.09269,8.93092],[-69.08802,8.93783],[-69.09593,8.94135],[-69.09926,8.93389],[-69.10462,8.93298],[-69.10465,8.92944],[-69.10928,8.93126],[-69.10844,8.93567],[-69.11433,8.93963],[-69.1183,8.93482],[-69.11411,8.92935],[-69.11888,8.93219],[-69.12287,8.92846],[-69.12357,8.93168],[-69.11928,8.93539],[-69.12282,8.93526],[-69.12782,8.94478],[-69.13143,8.94563],[-69.13016,8.93908],[-69.13332,8.93789],[-69.13235,8.93448],[-69.13675,8.9299],[-69.13815,8.93594],[-69.14321,8.93585],[-69.14364,8.93064],[-69.15334,8.93274],[-69.15293,8.9285],[-69.15949,8.92477],[-69.16085,8.92689],[-69.15909,8.92981],[-69.16632,8.93195],[-69.16392,8.93753],[-69.16819,8.93808],[-69.17252,8.94692],[-69.17151,8.94219],[-69.1796,8.93804],[-69.17559,8.9339],[-69.17992,8.9271],[-69.18782,8.92689],[-69.18499,8.92886],[-69.18638,8.93176],[-69.19054,8.93164],[-69.19803,8.93666],[-69.2028,8.93314],[-69.19659,8.92973],[-69.19515,8.92422],[-69.21092,8.92428],[-69.21206,8.92583],[-69.20648,8.93457],[-69.20693,8.93946],[-69.21187,8.93948],[-69.2091,8.93518],[-69.21032,8.93083],[-69.21483,8.93628],[-69.2156,8.93173],[-69.21964,8.92905],[-69.22474,8.93113],[-69.22865,8.93526],[-69.22532,8.93567],[-69.22571,8.94105],[-69.22221,8.93999],[-69.22022,8.94752],[-69.22511,8.94911],[-69.22846,8.95491],[-69.23303,8.95106],[-69.23369,8.95924],[-69.24337,8.96123],[-69.24328,8.96714],[-69.24787,8.96271],[-69.25139,8.96551],[-69.25839,8.96178],[-69.27072,8.96423],[-69.27188,8.97332],[-69.26751,8.97229],[-69.26141,8.97536],[-69.26465,8.9768],[-69.26557,8.98049],[-69.26918,8.97845],[-69.27637,8.98195],[-69.28074,8.97911],[-69.281,8.98365],[-69.28583,8.98466],[-69.28901,8.99094],[-69.29089,8.98924],[-69.28765,8.98343],[-69.28997,8.98062],[-69.29611,8.98104],[-69.29443,8.98712],[-69.29596,8.99043],[-69.30218,8.98295],[-69.30978,8.98689],[-69.31186,8.99776],[-69.31422,8.99882],[-69.3181,8.99509],[-69.32475,8.99836],[-69.32546,8.99528],[-69.32031,8.99191],[-69.32323,8.98852],[-69.32589,8.98829],[-69.32857,8.99321],[-69.33029,8.98623],[-69.33769,8.9882],[-69.34814,8.98615],[-69.34688,8.99611],[-69.35001,8.99657],[-69.35389,8.99147],[-69.35776,8.99282],[-69.36057,8.99695],[-69.356,8.99808],[-69.35576,9.00289],[-69.3613,9.00005],[-69.36424,9.00143],[-69.36621,9.00574],[-69.36448,9.00947],[-69.36694,9.01177],[-69.37284,9.008],[-69.3746,9.00228],[-69.37994,9.00952],[-69.38805,8.99897],[-69.39462,9.0013],[-69.4034,9.00033],[-69.40509,9.00272],[-69.40162,9.0044],[-69.39996,9.00978],[-69.40243,9.00647],[-69.41046,9.0083],[-69.41129,9.01522],[-69.41666,9.01495],[-69.42172,9.02044],[-69.43346,9.02065],[-69.43449,9.0258],[-69.42966,9.03169],[-69.43902,9.03428],[-69.44249,9.04142],[-69.44719,9.03913],[-69.44666,9.0311],[-69.44932,9.03112],[-69.45105,9.03767],[-69.45582,9.0407],[-69.45751,9.039],[-69.45468,9.03392],[-69.4555,9.02709],[-69.46869,9.0269],[-69.46747,9.03322],[-69.47273,9.03801],[-69.4659,9.04071],[-69.46522,9.04337],[-69.47414,9.04676],[-69.48043,9.04455],[-69.48073,9.04695],[-69.47661,9.04837],[-69.47657,9.05265],[-69.47929,9.05375],[-69.48238,9.0497],[-69.48446,9.0504],[-69.48006,9.05661],[-69.48266,9.0607],[-69.48509,9.05459],[-69.48775,9.05434],[-69.49923,9.0423],[-69.4938,9.04167],[-69.49533,9.03639],[-69.4923,9.03588],[-69.49161,9.03179],[-69.48713,9.03387],[-69.49129,9.0266],[-69.49093,9.02228],[-69.4964,9.02442],[-69.50376,9.01652],[-69.5068,9.01758],[-69.51125,9.01385],[-69.51215,9.01563],[-69.52528,9.00543],[-69.52275,9.00338],[-69.52622,9.00346],[-69.52916,8.99045],[-69.52855,8.98773],[-69.52093,8.98267],[-69.53853,8.96404],[-69.54954,8.96463],[-69.55288,8.96842]]]}},{"type":"Feature","id":"relation/9826430","properties":{"name":"Municipio Guanarito","level":6,"population":"38232"},"geometry":{"type":"Polygon","coordinates":[[[-69.28637,8.72475],[-69.29081,8.72685],[-69.29107,8.7336],[-69.29409,8.72536],[-69.30282,8.72552],[-69.30123,8.71838],[-69.30353,8.71655],[-69.31577,8.73072],[-69.31778,8.72796],[-69.31647,8.7203],[-69.33528,8.73169],[-69.34221,8.73119],[-69.35199,8.72548],[-69.35467,8.71665],[-69.36858,8.72264],[-69.37489,8.71899],[-69.37192,8.71205],[-69.37854,8.70996],[-69.37676,8.70704],[-69.37172,8.7078],[-69.36923,8.70515],[-69.37547,8.69132],[-69.37874,8.69177],[-69.38058,8.69817],[-69.38374,8.69226],[-69.38878,8.69237],[-69.39848,8.68678],[-69.41195,8.68983],[-69.41824,8.68576],[-69.41755,8.67897],[-69.42609,8.68856],[-69.42953,8.68865],[-69.43781,8.68127],[-69.44337,8.68597],[-69.44169,8.69022],[-69.44389,8.69329],[-69.45524,8.69348],[-69.46053,8.68804],[-69.46575,8.69732],[-69.47635,8.69167],[-69.47916,8.69795],[-69.4818,8.69792],[-69.48724,8.68465],[-69.4949,8.6859],[-69.50161,8.68135],[-69.49973,8.64885],[-69.45382,8.65347],[-69.45444,8.65944],[-69.44976,8.65782],[-69.44768,8.65042],[-69.44141,8.65633],[-69.43386,8.65012],[-69.4294,8.65487],[-69.43087,8.65638],[-69.42913,8.66112],[-69.43249,8.66564],[-69.43014,8.6672],[-69.42259,8.66512],[-69.42188,8.67775],[-69.41847,8.67656],[-69.41848,8.66952],[-69.41312,8.66859],[-69.40924,8.66377],[-69.40609,8.66486],[-69.40446,8.66275],[-69.3978,8.66809],[-69.37016,8.66366],[-69.36934,8.65505],[-69.36531,8.65433],[-69.36535,8.65183],[-69.36037,8.65354],[-69.36049,8.64966],[-69.35695,8.64617],[-69.3492,8.64363],[-69.34488,8.63654],[-69.33933,8.63528],[-69.34027,8.62897],[-69.33439,8.62822],[-69.33107,8.63207],[-69.32238,8.63449],[-69.32171,8.62955],[-69.31982,8.62932],[-69.31677,8.63373],[-69.31175,8.6326],[-69.3107,8.63447],[-69.30959,8.63109],[-69.30554,8.63415],[-69.29878,8.61509],[-69.29516,8.61375],[-69.29778,8.60524],[-69.29663,8.60417],[-69.29074,8.61094],[-69.2855,8.60575],[-69.28041,8.60662],[-69.27567,8.59913],[-69.27121,8.59865],[-69.26634,8.58944],[-69.26064,8.58842],[-69.25996,8.58342],[-69.25404,8.58894],[-69.24854,8.57462],[-69.24489,8.57394],[-69.23976,8.56411],[-69.23534,8.56273],[-69.24145,8.5592],[-69.23745,8.5591],[-69.23276,8.55482],[-69.22881,8.55907],[-69.2247,8.55563],[-69.21602,8.55712],[-69.21534,8.55277],[-69.21197,8.55002],[-69.21501,8.54521],[-69.21557,8.53545],[-69.21016,8.53055],[-69.20116,8.53256],[-69.19731,8.52369],[-69.19358,8.52262],[-69.19233,8.51722],[-69.18922,8.51868],[-69.18449,8.51597],[-69.18266,8.51126],[-69.18598,8.50967],[-69.18242,8.50082],[-69.18891,8.49786],[-69.18745,8.49331],[-69.19088,8.47151],[-69.18001,8.46571],[-69.17536,8.46938],[-69.17635,8.45915],[-69.16998,8.45187],[-69.16562,8.452],[-69.16029,8.44379],[-69.15741,8.4461],[-69.14836,8.44309],[-69.14436,8.44726],[-69.13255,8.44733],[-69.13009,8.44401],[-69.13167,8.44044],[-69.12758,8.44098],[-69.12881,8.43768],[-69.12194,8.43567],[-69.12237,8.42918],[-69.11948,8.42841],[-69.11924,8.4234],[-69.11576,8.42273],[-69.11588,8.41994],[-69.11297,8.41804],[-69.11599,8.41199],[-69.1216,8.41422],[-69.14044,8.40537],[-69.14004,8.40131],[-69.13394,8.40483],[-69.13439,8.39604],[-69.13728,8.38825],[-69.14367,8.38274],[-69.13885,8.37959],[-69.14039,8.37123],[-69.1442,8.36982],[-69.14492,8.36642],[-69.13899,8.35267],[-69.13297,8.3513],[-69.13202,8.34735],[-69.12591,8.3463],[-69.12711,8.34089],[-69.11531,8.33556],[-69.10906,8.336],[-69.10372,8.33144],[-69.10421,8.3289],[-69.09941,8.32622],[-69.10218,8.31974],[-69.09879,8.31849],[-69.09603,8.31207],[-69.09301,8.31308],[-69.09492,8.30772],[-69.09136,8.30076],[-69.09658,8.2993],[-69.09808,8.29522],[-69.1026,8.29548],[-69.10205,8.29131],[-69.09831,8.28986],[-69.09024,8.29404],[-69.08707,8.29094],[-69.08445,8.29991],[-69.07822,8.29652],[-69.07198,8.29852],[-69.0693,8.29576],[-69.07083,8.29026],[-69.06253,8.28671],[-69.05518,8.28932],[-69.05498,8.28341],[-69.05118,8.28584],[-69.04742,8.28278],[-69.04632,8.28621],[-69.04453,8.28585],[-69.04161,8.28034],[-69.03383,8.27676],[-69.03319,8.27393],[-69.03691,8.27412],[-69.03744,8.27223],[-69.02714,8.2692],[-69.02131,8.26419],[-69.01541,8.26741],[-69.01372,8.2644],[-69.00988,8.26877],[-69.00416,8.26766],[-68.99827,8.26149],[-69.00297,8.26004],[-69.0032,8.25468],[-68.99725,8.24958],[-68.99562,8.25175],[-68.99389,8.25049],[-68.99026,8.24525],[-68.9923,8.24403],[-68.99066,8.24192],[-68.98437,8.23902],[-68.98075,8.24077],[-68.98239,8.23712],[-68.9797,8.23509],[-68.97503,8.2358],[-68.97365,8.23399],[-68.96967,8.2379],[-68.96599,8.22977],[-68.96679,8.22595],[-68.96378,8.22278],[-68.96484,8.21616],[-68.9593,8.2118],[-68.96171,8.21029],[-68.95887,8.19842],[-68.95971,8.19212],[-68.9534,8.18368],[-68.94685,8.18493],[-68.94568,8.17811],[-68.93904,8.17944],[-68.9377,8.17542],[-68.92895,8.17383],[-68.92415,8.16251],[-68.91838,8.16143],[-68.91857,8.15242],[-68.9093,8.154],[-68.90654,8.15221],[-68.90651,8.14747],[-68.90249,8.14801],[-68.9057,8.15131],[-68.90433,8.15401],[-68.89932,8.15074],[-68.8931,8.15178],[-68.89129,8.14784],[-68.89529,8.14376],[-68.89154,8.14233],[-68.89347,8.13985],[-68.8922,8.1364],[-68.88493,8.13561],[-68.88804,8.12964],[-68.88308,8.12755],[-68.88587,8.12409],[-68.88184,8.11924],[-68.88231,8.11525],[-68.87572,8.11277],[-68.87285,8.11586],[-68.8701,8.11495],[-68.86805,8.11283],[-68.87285,8.10297],[-68.86852,8.10863],[-68.8675,8.1053],[-68.86172,8.10476],[-68.86455,8.10221],[-68.85622,8.09304],[-68.85192,8.09372],[-68.85068,8.09151],[-68.84456,8.09786],[-68.83957,8.09445],[-68.83336,8.10628],[-68.81941,8.14972],[-68.82428,8.15129],[-68.81989,8.16503],[-68.82199,8.16572],[-68.82549,8.16246],[-68.82863,8.17087],[-68.82421,8.17519],[-68.82994,8.19011],[-68.83984,8.18604],[-68.84338,8.20697],[-68.82573,8.20889],[-68.81413,8.2149],[-68.81321,8.21956],[-68.8092,8.22078],[-68.8086,8.23003],[-68.79554,8.23224],[-68.7967,8.23454],[-68.7834,8.24142],[-68.78752,8.27838],[-68.79046,8.27891],[-68.78732,8.28776],[-68.78297,8.28966],[-68.7827,8.29466],[-68.77759,8.304],[-68.78198,8.31162],[-68.78711,8.31217],[-68.78822,8.31435],[-68.78695,8.31703],[-68.78173,8.31478],[-68.77899,8.32182],[-68.78226,8.32211],[-68.78225,8.32764],[-68.75895,8.33341],[-68.75448,8.34205],[-68.74871,8.33942],[-68.74856,8.33571],[-68.74149,8.34276],[-68.73403,8.34294],[-68.71885,8.35722],[-68.71778,8.355],[-68.69899,8.37466],[-68.70087,8.37612],[-68.69933,8.37797],[-68.69721,8.37637],[-68.69004,8.38181],[-68.69191,8.38334],[-68.672,8.4025],[-68.634,8.42516],[-68.60318,8.44876],[-68.60227,8.46696],[-68.60004,8.47019],[-68.55852,8.51325],[-68.54622,8.51758],[-68.5272,8.54634],[-68.52873,8.5481],[-68.52374,8.5709],[-68.51292,8.57104],[-68.51077,8.56609],[-68.50719,8.56868],[-68.50451,8.59324],[-68.51224,8.60421],[-68.52906,8.60147],[-68.53053,8.59872],[-68.53416,8.59839],[-68.54845,8.60766],[-68.54804,8.61345],[-68.56074,8.61899],[-68.56717,8.61428],[-68.57281,8.61393],[-68.58143,8.62333],[-68.58337,8.62896],[-68.57884,8.63329],[-68.58444,8.63771],[-68.59398,8.63659],[-68.59589,8.63493],[-68.59395,8.63016],[-68.59927,8.62686],[-68.60925,8.62733],[-68.62183,8.63519],[-68.62504,8.63443],[-68.63225,8.63787],[-68.64284,8.63404],[-68.65189,8.64377],[-68.63407,8.6501],[-68.6369,8.6549],[-68.63546,8.65932],[-68.63899,8.66661],[-68.64802,8.66932],[-68.64687,8.69054],[-68.64804,8.6946],[-68.65127,8.6924],[-68.65354,8.69772],[-68.64856,8.7],[-68.64908,8.70481],[-68.65495,8.71189],[-68.66599,8.71101],[-68.67631,8.70704],[-68.68188,8.69983],[-68.6976,8.69871],[-68.70653,8.70964],[-68.71432,8.709],[-68.71634,8.71263],[-68.71539,8.71769],[-68.72207,8.71771],[-68.72037,8.7216],[-68.71544,8.72218],[-68.71697,8.72649],[-68.72771,8.7237],[-68.72464,8.73009],[-68.73055,8.73027],[-68.73151,8.7356],[-68.736,8.73854],[-68.73294,8.74634],[-68.72676,8.74518],[-68.72573,8.74174],[-68.72781,8.7387],[-68.72107,8.73736],[-68.71803,8.73773],[-68.71173,8.74476],[-68.69922,8.74184],[-68.68898,8.74967],[-68.69015,8.756],[-68.68748,8.76304],[-68.68442,8.76374],[-68.68664,8.7666],[-68.69453,8.76302],[-68.69479,8.75894],[-68.6986,8.75665],[-68.70675,8.76171],[-68.70856,8.75885],[-68.71257,8.761],[-68.71749,8.75938],[-68.72144,8.75393],[-68.72608,8.75869],[-68.72644,8.76231],[-68.73043,8.75926],[-68.7376,8.76184],[-68.73224,8.76643],[-68.73901,8.77603],[-68.74092,8.77538],[-68.73834,8.77241],[-68.74126,8.76875],[-68.74037,8.76416],[-68.74455,8.77263],[-68.74874,8.7719],[-68.75161,8.7683],[-68.75356,8.77326],[-68.76465,8.77785],[-68.76672,8.77578],[-68.76302,8.7701],[-68.76783,8.76718],[-68.76463,8.76292],[-68.77102,8.76162],[-68.77131,8.75772],[-68.76955,8.7574],[-68.77224,8.75409],[-68.77155,8.75035],[-68.77749,8.74504],[-68.77738,8.74147],[-68.78048,8.73891],[-68.78201,8.74211],[-68.79137,8.74117],[-68.79107,8.73858],[-68.79394,8.73754],[-68.79643,8.74041],[-68.79936,8.73907],[-68.80543,8.74179],[-68.80914,8.73895],[-68.81053,8.73306],[-68.80842,8.73072],[-68.81269,8.72379],[-68.8148,8.72226],[-68.81767,8.72585],[-68.8202,8.72033],[-68.8249,8.7201],[-68.82767,8.72528],[-68.83439,8.72615],[-68.83608,8.72859],[-68.83931,8.7268],[-68.84904,8.72934],[-68.85205,8.73538],[-68.85727,8.73836],[-68.86047,8.73687],[-68.86377,8.74036],[-68.87136,8.74004],[-68.87294,8.74394],[-68.87919,8.74174],[-68.87849,8.75226],[-68.88787,8.75493],[-68.88937,8.76252],[-68.89222,8.76213],[-68.89221,8.7649],[-68.88902,8.76681],[-68.89368,8.77068],[-68.89273,8.77617],[-68.90045,8.77579],[-68.90364,8.77103],[-68.90595,8.77419],[-68.90514,8.77899],[-68.90964,8.77934],[-68.91189,8.78385],[-68.91382,8.78152],[-68.91714,8.78338],[-68.91668,8.78154],[-68.92484,8.77876],[-68.92523,8.77621],[-68.92779,8.77926],[-68.92953,8.77706],[-68.92938,8.78032],[-68.9354,8.77854],[-68.93764,8.78066],[-68.94039,8.77425],[-68.94294,8.7746],[-68.94417,8.77177],[-68.94843,8.77311],[-68.94664,8.77432],[-68.94843,8.77611],[-68.9505,8.77612],[-68.94951,8.77303],[-68.95472,8.77439],[-68.95509,8.77823],[-68.958,8.77672],[-68.95735,8.77987],[-68.96091,8.77814],[-68.9633,8.78191],[-68.97744,8.78083],[-68.9779,8.78569],[-68.98102,8.78372],[-68.98397,8.78508],[-68.98553,8.78286],[-68.98572,8.78653],[-68.98913,8.78653],[-68.98966,8.78422],[-68.99278,8.79001],[-68.99714,8.78762],[-68.99838,8.78976],[-69.00327,8.78988],[-69.00492,8.78646],[-69.01041,8.78618],[-69.01267,8.78158],[-69.02215,8.78777],[-69.03074,8.78676],[-69.02935,8.78869],[-69.03161,8.79498],[-69.03492,8.79468],[-69.03682,8.78949],[-69.03928,8.79135],[-69.04196,8.78774],[-69.04778,8.79171],[-69.04792,8.78959],[-69.04932,8.79098],[-69.05335,8.78747],[-69.05716,8.7893],[-69.05796,8.78598],[-69.05888,8.78902],[-69.06202,8.78606],[-69.06438,8.79127],[-69.06668,8.78881],[-69.06989,8.79111],[-69.07278,8.78963],[-69.07346,8.79574],[-69.07475,8.79342],[-69.08003,8.79692],[-69.08329,8.78955],[-69.09119,8.78249],[-69.07547,8.68775],[-69.07751,8.68455],[-69.08365,8.68471],[-69.0851,8.67861],[-69.09124,8.67763],[-69.09422,8.68102],[-69.09761,8.68107],[-69.10087,8.67026],[-69.11453,8.6696],[-69.114,8.66494],[-69.12428,8.66665],[-69.1305,8.66253],[-69.13183,8.66557],[-69.13627,8.66424],[-69.13868,8.67045],[-69.14569,8.67073],[-69.14955,8.68077],[-69.15936,8.68664],[-69.16157,8.69158],[-69.16581,8.69084],[-69.16633,8.69589],[-69.17969,8.69883],[-69.18429,8.69701],[-69.18699,8.70329],[-69.19021,8.70507],[-69.19521,8.70348],[-69.19765,8.70923],[-69.21662,8.70479],[-69.2226,8.70908],[-69.21795,8.71295],[-69.21798,8.7155],[-69.22494,8.71885],[-69.23056,8.71868],[-69.23498,8.72547],[-69.24996,8.72619],[-69.25378,8.7314],[-69.25903,8.72679],[-69.26253,8.73147],[-69.26444,8.72957],[-69.26247,8.72395],[-69.26653,8.72154],[-69.27053,8.72812],[-69.27907,8.72496],[-69.27931,8.73111],[-69.28195,8.73209],[-69.28637,8.72475]]]}},{"type":"Feature","id":"relation/9828793","properties":{"name":"Municipio P\u00e1ez","level":6,"population":"195637"},"geometry":{"type":"Polygon","coordinates":[[[-69.14339,9.54405],[-69.14643,9.54704],[-69.14253,9.54743],[-69.14688,9.55819],[-69.14938,9.55535],[-69.16472,9.55471],[-69.16706,9.55966],[-69.17132,9.56224],[-69.17042,9.56737],[-69.17436,9.5721],[-69.19378,9.57664],[-69.19629,9.57323],[-69.2147,9.57565],[-69.21503,9.54487],[-69.21828,9.54355],[-69.21457,9.53561],[-69.23111,9.49462],[-69.2309,9.4881],[-69.2352,9.47833],[-69.2146,9.45732],[-69.20282,9.43272],[-69.18674,9.42082],[-69.09361,9.46071],[-69.08316,9.45971],[-69.07523,9.4623],[-69.05518,9.4609],[-69.04782,9.4571],[-69.04631,9.45906],[-69.04195,9.45665],[-69.03954,9.45829],[-69.03738,9.45394],[-69.03902,9.44814],[-69.03236,9.44596],[-69.03526,9.4445],[-69.03326,9.43828],[-69.02196,9.4303],[-69.02015,9.43269],[-69.01883,9.42452],[-69.00603,9.39509],[-68.95941,9.39597],[-68.93565,9.37868],[-68.92167,9.3633],[-68.90863,9.36547],[-68.88411,9.35628],[-68.87071,9.35612],[-68.86193,9.34925],[-68.85791,9.34866],[-68.8512,9.35767],[-68.84446,9.35836],[-68.85748,9.36954],[-68.86048,9.37756],[-68.86926,9.38565],[-68.87556,9.39666],[-68.8859,9.40231],[-68.89255,9.41646],[-68.89014,9.42156],[-68.89496,9.43059],[-68.88696,9.45871],[-68.89958,9.49234],[-68.89721,9.49217],[-68.89407,9.50381],[-68.89808,9.50947],[-68.89213,9.51164],[-68.89461,9.51483],[-68.89262,9.51733],[-68.89813,9.5207],[-68.90168,9.53069],[-68.90856,9.53664],[-68.90234,9.56492],[-68.91377,9.56854],[-68.95868,9.5506],[-68.95255,9.53742],[-68.99388,9.52079],[-68.99271,9.50884],[-69.0188,9.4866],[-69.02141,9.48714],[-69.02288,9.49103],[-69.0257,9.49009],[-69.02324,9.49382],[-69.02448,9.49617],[-69.03082,9.49568],[-69.03511,9.49806],[-69.03714,9.49497],[-69.03978,9.49724],[-69.04068,9.49315],[-69.04195,9.49734],[-69.05074,9.4988],[-69.05016,9.50404],[-69.05475,9.50585],[-69.06067,9.51278],[-69.06312,9.52181],[-69.07238,9.52277],[-69.07272,9.52618],[-69.0794,9.52932],[-69.07931,9.53165],[-69.08809,9.53496],[-69.09023,9.54059],[-69.09416,9.54349],[-69.09485,9.54851],[-69.10885,9.55526],[-69.11361,9.56232],[-69.12688,9.5446],[-69.13134,9.54518],[-69.1323,9.54246],[-69.13517,9.54255],[-69.13745,9.54646],[-69.13813,9.54438],[-69.14339,9.54405]]]}},{"type":"Feature","id":"relation/9829596","properties":{"name":"Municipio Agua Blanca","level":6,"population":"17092"},"geometry":{"type":"Polygon","coordinates":[[[-69.17414,9.67723],[-69.17596,9.65997],[-69.17286,9.65151],[-69.16989,9.64993],[-69.17194,9.64472],[-69.16955,9.6451],[-69.16286,9.63762],[-69.15334,9.63294],[-69.14321,9.61819],[-69.12937,9.6091],[-69.12748,9.61091],[-69.118,9.61068],[-69.10784,9.60657],[-69.10253,9.59895],[-69.10339,9.59489],[-69.0997,9.58784],[-69.09434,9.59259],[-69.08671,9.5694],[-69.07675,9.55688],[-69.07277,9.52323],[-69.06312,9.52181],[-69.06067,9.51278],[-69.05475,9.50585],[-69.05016,9.50404],[-69.05055,9.49867],[-69.04195,9.49734],[-69.04068,9.49315],[-69.03978,9.49724],[-69.03714,9.49497],[-69.03511,9.49806],[-69.03082,9.49568],[-69.02448,9.49617],[-69.02324,9.49382],[-69.0257,9.49009],[-69.02288,9.49103],[-69.02141,9.48714],[-69.0188,9.4866],[-68.99271,9.50884],[-68.99388,9.52079],[-68.95255,9.53742],[-68.95868,9.5506],[-68.96591,9.5483],[-68.98951,9.56513],[-69.00066,9.57756],[-68.9886,9.58903],[-69.00077,9.60584],[-69.02109,9.61033],[-69.02986,9.61547],[-69.03251,9.61901],[-69.02707,9.6259],[-69.02722,9.63033],[-69.09554,9.70006],[-69.10676,9.69893],[-69.1251,9.69207],[-69.13536,9.696],[-69.14705,9.68978],[-69.14981,9.6846],[-69.15837,9.68184],[-69.16912,9.68235],[-69.17593,9.6793],[-69.17414,9.67723]]]}},{"type":"Feature","id":"relation/9829597","properties":{"name":"Municipio Onoto","level":6,"population":"18403"},"geometry":{"type":"Polygon","coordinates":[[[-68.96583,9.54836],[-68.91377,9.56854],[-68.90888,9.56717],[-68.91037,9.57282],[-68.90473,9.57475],[-68.91081,9.58145],[-68.91139,9.58946],[-68.91486,9.59044],[-68.91324,9.59495],[-68.91569,9.59579],[-68.91464,9.59921],[-68.91833,9.61086],[-68.92034,9.60939],[-68.92212,9.6132],[-68.92126,9.61677],[-68.92387,9.61926],[-68.92577,9.61774],[-68.92561,9.6212],[-68.92797,9.6204],[-68.92683,9.62404],[-68.93037,9.62202],[-68.93403,9.62462],[-68.93043,9.62473],[-68.93248,9.62863],[-68.93654,9.62654],[-68.93694,9.62885],[-68.93366,9.63108],[-68.93823,9.63081],[-68.9364,9.63454],[-68.9401,9.63725],[-68.9419,9.64262],[-68.94592,9.64411],[-68.943,9.64682],[-68.94762,9.64987],[-68.95023,9.65939],[-68.95944,9.66652],[-68.96571,9.67564],[-68.96236,9.68581],[-68.96738,9.6889],[-68.96149,9.69328],[-68.96535,9.70185],[-68.96416,9.70967],[-68.97112,9.7132],[-68.96956,9.71663],[-68.97359,9.72081],[-68.97748,9.71685],[-68.98183,9.7212],[-68.98762,9.71984],[-68.98535,9.72483],[-68.98796,9.72675],[-68.98763,9.73104],[-68.98155,9.73598],[-68.98371,9.73867],[-68.98332,9.74486],[-68.98013,9.74997],[-68.98344,9.75847],[-68.98679,9.76064],[-68.98319,9.76639],[-68.97896,9.76423],[-68.97657,9.76569],[-68.978,9.77387],[-68.98108,9.77157],[-68.9866,9.77264],[-68.99364,9.76735],[-68.99393,9.75852],[-68.99908,9.75525],[-69.001,9.74917],[-69.00591,9.75232],[-69.00927,9.75047],[-69.01528,9.75401],[-69.01995,9.75275],[-69.02338,9.75555],[-69.03178,9.7501],[-69.03723,9.74249],[-69.04826,9.74481],[-69.04768,9.74022],[-69.0521,9.7358],[-69.0523,9.72903],[-69.05552,9.72833],[-69.06089,9.72192],[-69.0588,9.7182],[-69.06252,9.71343],[-69.06739,9.71129],[-69.07869,9.713],[-69.08441,9.70974],[-69.08874,9.71134],[-69.09488,9.70772],[-69.09719,9.70098],[-69.02722,9.63033],[-69.02707,9.6259],[-69.03251,9.61901],[-69.02986,9.61547],[-69.02109,9.61033],[-69.00084,9.60593],[-68.9886,9.58903],[-69.00066,9.57756],[-68.98951,9.56513],[-68.96583,9.54836]]]}},{"type":"Feature","id":"relation/9829691","properties":{"name":"Municipio Araure","level":6,"population":"133500"},"geometry":{"type":"Polygon","coordinates":[[[-69.17414,9.67723],[-69.17592,9.67715],[-69.17572,9.68123],[-69.17844,9.67745],[-69.18607,9.67759],[-69.1915,9.67507],[-69.19468,9.67731],[-69.202,9.67682],[-69.23303,9.68407],[-69.24669,9.69144],[-69.24552,9.69546],[-69.25282,9.71109],[-69.26077,9.71121],[-69.26365,9.71577],[-69.26885,9.71264],[-69.27472,9.71745],[-69.27545,9.72285],[-69.27131,9.72526],[-69.27087,9.72822],[-69.27379,9.73262],[-69.27109,9.73545],[-69.27363,9.74298],[-69.28048,9.74573],[-69.28,9.75085],[-69.27606,9.7528],[-69.27358,9.75826],[-69.26373,9.75933],[-69.26315,9.7625],[-69.25955,9.7631],[-69.26191,9.76414],[-69.26037,9.77041],[-69.26367,9.78023],[-69.27131,9.78553],[-69.27534,9.79176],[-69.27399,9.79555],[-69.27688,9.80413],[-69.27671,9.80878],[-69.27255,9.81177],[-69.27387,9.81731],[-69.26663,9.82275],[-69.26711,9.82751],[-69.27459,9.83457],[-69.27898,9.84337],[-69.28428,9.84265],[-69.28434,9.8347],[-69.2919,9.82976],[-69.29422,9.82198],[-69.29346,9.81471],[-69.30451,9.80562],[-69.30445,9.79948],[-69.30816,9.79619],[-69.31189,9.78305],[-69.31498,9.78382],[-69.32073,9.77487],[-69.32604,9.7768],[-69.32867,9.77458],[-69.33274,9.77739],[-69.33428,9.76438],[-69.34505,9.75709],[-69.34811,9.75239],[-69.34996,9.74729],[-69.34731,9.73996],[-69.34418,9.73858],[-69.34515,9.73297],[-69.34236,9.72602],[-69.3502,9.71373],[-69.34939,9.70754],[-69.35253,9.7053],[-69.35292,9.6984],[-69.37107,9.69317],[-69.37334,9.68377],[-69.36688,9.67713],[-69.36488,9.67092],[-69.37324,9.64658],[-69.37285,9.63662],[-69.37599,9.6362],[-69.37976,9.6311],[-69.38334,9.6315],[-69.39125,9.62507],[-69.39384,9.62551],[-69.39616,9.62216],[-69.40473,9.62116],[-69.40398,9.61728],[-69.40771,9.61194],[-69.40728,9.60647],[-69.41059,9.59815],[-69.41572,9.59734],[-69.43066,9.60217],[-69.43863,9.59359],[-69.44144,9.58341],[-69.43885,9.57961],[-69.44037,9.56307],[-69.4384,9.56171],[-69.44108,9.56062],[-69.44288,9.544],[-69.43576,9.53936],[-69.42739,9.53972],[-69.42577,9.53747],[-69.41711,9.53638],[-69.41766,9.533],[-69.41248,9.52699],[-69.41325,9.5243],[-69.40855,9.52028],[-69.40336,9.51962],[-69.40398,9.5013],[-69.38753,9.49704],[-69.38779,9.4888],[-69.38282,9.48847],[-69.38279,9.48372],[-69.37691,9.47261],[-69.35519,9.45579],[-69.3506,9.45732],[-69.34158,9.45573],[-69.33523,9.44963],[-69.32876,9.44039],[-69.32415,9.4126],[-69.31699,9.40107],[-69.31099,9.41563],[-69.28725,9.45007],[-69.28661,9.44447],[-69.28085,9.44011],[-69.28061,9.44579],[-69.26273,9.46256],[-69.25445,9.47684],[-69.25071,9.47994],[-69.24153,9.48147],[-69.2352,9.47833],[-69.2309,9.4881],[-69.23111,9.49462],[-69.21457,9.53561],[-69.21828,9.54355],[-69.21503,9.54487],[-69.2147,9.57565],[-69.19629,9.57323],[-69.19378,9.57664],[-69.17436,9.5721],[-69.17042,9.56737],[-69.17132,9.56224],[-69.16706,9.55966],[-69.16493,9.55485],[-69.14938,9.55535],[-69.14725,9.55846],[-69.14253,9.54743],[-69.14633,9.54684],[-69.14339,9.54405],[-69.13813,9.54438],[-69.13735,9.54646],[-69.13517,9.54255],[-69.1323,9.54246],[-69.13134,9.54518],[-69.12688,9.5446],[-69.11361,9.56232],[-69.10885,9.55526],[-69.09485,9.54851],[-69.09416,9.54349],[-69.09023,9.54059],[-69.08817,9.53503],[-69.0728,9.52626],[-69.07691,9.55738],[-69.08671,9.5694],[-69.09434,9.59259],[-69.0997,9.58784],[-69.10339,9.59489],[-69.10253,9.59895],[-69.10784,9.60657],[-69.118,9.61068],[-69.12748,9.61091],[-69.12937,9.6091],[-69.14321,9.61819],[-69.15334,9.63294],[-69.16286,9.63762],[-69.16955,9.6451],[-69.17194,9.64472],[-69.16989,9.64993],[-69.17286,9.65151],[-69.17596,9.65997],[-69.17414,9.67723]]]}}]}