{"type":"FeatureCollection","features":[{"type":"Feature","id":"relation/272669","properties":{"name":"Delta Amacuro","level":4},"geometry":{"type":"Polygon","coordinates":[[[-62.0796,10.05462],[-62.09244,10.05848],[-62.10904,10.05992],[-62.13322,10.06934],[-62.1868,10.08135],[-62.19855,10.098],[-62.21257,10.10891],[-62.22923,10.11518],[-62.2489,10.11648],[-62.27345,10.11219],[-62.29431,10.10286],[-62.34153,10.05214],[-62.3454,10.04536],[-62.35744,9.97017],[-62.34847,9.94435],[-62.34836,9.93233],[-62.35711,9.90511],[-62.35896,9.87784],[-62.35733,9.85978],[-62.35333,9.84684],[-62.34145,9.82528],[-62.30334,9.79162],[-62.2996,9.78346],[-62.29797,9.76848],[-62.30437,9.75922],[-62.30596,9.74844],[-62.31737,9.7327],[-62.32439,9.71669],[-62.35243,9.68884],[-62.34919,9.66794],[-62.35125,9.64674],[-62.36366,9.63691],[-62.3964,9.60297],[-62.41518,9.57722],[-62.42921,9.5663],[-62.43835,9.55329],[-62.44346,9.54186],[-62.43831,9.517],[-62.44313,9.4952],[-62.43477,9.48511],[-62.41556,9.48913],[-62.40503,9.48492],[-62.40056,9.47935],[-62.39861,9.46674],[-62.40646,9.43154],[-62.41148,9.4207],[-62.40749,9.40963],[-62.37767,9.39474],[-62.35775,9.39563],[-62.34709,9.38096],[-62.32855,9.37036],[-62.32299,9.36138],[-62.32366,9.35227],[-62.33898,9.33993],[-62.34318,9.33142],[-62.34366,9.32445],[-62.33576,9.30762],[-62.32332,9.2947],[-62.3303,9.28228],[-62.32792,9.26189],[-62.32092,9.2556],[-62.31716,9.24481],[-62.30721,9.23933],[-62.30162,9.22628],[-62.31203,9.21666],[-62.30596,9.20448],[-62.30456,9.1856],[-62.30837,9.18207],[-62.32083,9.1779],[-62.32668,9.16828],[-62.32929,9.15488],[-62.32896,9.12829],[-62.31579,9.12946],[-62.30223,9.13793],[-62.27938,9.13062],[-62.26279,9.13274],[-62.26153,9.12868],[-62.26595,9.11789],[-62.26463,9.11162],[-62.24048,9.09438],[-62.22327,9.08891],[-62.22768,9.06306],[-62.22562,9.05949],[-62.21713,9.0598],[-62.20432,9.06649],[-62.19416,9.06402],[-62.1903,9.06525],[-62.18642,9.07101],[-62.18801,9.08686],[-62.16219,9.08748],[-62.16001,9.09056],[-62.1648,9.10365],[-62.16098,9.10559],[-62.15039,9.10288],[-62.14276,9.09702],[-62.14204,9.08893],[-62.1482,9.07397],[-62.14686,9.06632],[-62.11812,9.04802],[-62.11048,9.04744],[-62.11285,9.06752],[-62.09978,9.08023],[-62.0851,9.07387],[-62.06777,9.05789],[-62.056,9.05582],[-62.05379,9.04075],[-62.05894,9.02268],[-62.08438,8.98807],[-62.08818,8.96912],[-62.07095,8.92594],[-62.06267,8.91246],[-62.05451,8.88021],[-62.05617,8.87509],[-62.05087,8.87444],[-62.03366,8.88102],[-62.01887,8.89434],[-62.01014,8.89888],[-61.99924,8.89733],[-61.99433,8.88889],[-62.00648,8.8806],[-62.01122,8.86387],[-62.02073,8.84826],[-62.02096,8.84106],[-62.04533,8.82982],[-62.05803,8.81506],[-62.05936,8.8065],[-62.05606,8.7764],[-62.05958,8.76387],[-62.06539,8.75488],[-62.07537,8.74701],[-62.09402,8.74126],[-62.10966,8.73314],[-62.12563,8.71365],[-62.14953,8.70326],[-62.17906,8.69698],[-62.18854,8.69002],[-62.19631,8.67468],[-62.22832,8.64819],[-62.2321,8.63393],[-62.2357,8.59647],[-62.26025,8.58696],[-62.27755,8.59413],[-62.28677,8.60648],[-62.30158,8.60576],[-62.31428,8.59761],[-62.3263,8.58586],[-62.33364,8.57449],[-62.33557,8.56532],[-62.3772,8.53714],[-62.40043,8.52441],[-62.42887,8.51601],[-62.44904,8.51286],[-62.53186,8.51185],[-62.54499,8.50234],[-62.55847,8.47653],[-62.59954,8.47131],[-62.60881,8.46639],[-62.61462,8.45945],[-62.54753,8.42767],[-62.53623,8.42004],[-62.53598,8.41551],[-62.53224,8.41243],[-62.53491,8.40986],[-62.53321,8.40394],[-62.51624,8.39171],[-62.25441,8.30429],[-61.68673,8.45879],[-61.6881,8.45236],[-61.69764,8.44583],[-61.69649,8.4357],[-61.70107,8.43594],[-61.70017,8.43329],[-61.70472,8.43141],[-61.70629,8.42374],[-61.70202,8.4252],[-61.70333,8.41991],[-61.69486,8.41621],[-61.69742,8.4126],[-61.69413,8.40224],[-61.69836,8.40002],[-61.69733,8.3955],[-61.69372,8.39625],[-61.69076,8.39318],[-61.6855,8.39265],[-61.6858,8.38107],[-61.68134,8.3788],[-61.68563,8.37075],[-61.68507,8.36791],[-61.68175,8.36761],[-61.68284,8.36441],[-61.69278,8.35895],[-61.69315,8.35481],[-61.6976,8.35331],[-61.69873,8.34689],[-61.69671,8.34347],[-61.70298,8.33524],[-61.71011,8.33072],[-61.72008,8.32979],[-61.74872,8.319],[-61.75321,8.32002],[-61.7611,8.31707],[-61.76657,8.30688],[-61.76273,8.29836],[-61.76973,8.29599],[-61.76404,8.28946],[-61.76151,8.29017],[-61.76146,8.2855],[-61.76542,8.28286],[-61.76542,8.27999],[-61.7549,8.26758],[-61.75455,8.25947],[-61.74888,8.25853],[-61.74646,8.25541],[-61.74001,8.25607],[-61.74342,8.24668],[-61.73822,8.24465],[-61.73746,8.24065],[-61.74046,8.23709],[-61.73972,8.23187],[-61.74546,8.22764],[-61.7451,8.22179],[-61.73638,8.22009],[-61.73417,8.21691],[-61.73853,8.20384],[-61.73467,8.19793],[-61.73732,8.19501],[-61.73594,8.19072],[-61.74034,8.1895],[-61.73763,8.18682],[-61.73798,8.18364],[-61.72543,8.18306],[-61.7283,8.17701],[-61.73359,8.17613],[-61.73174,8.17075],[-61.73429,8.16216],[-61.72879,8.16244],[-61.72151,8.15185],[-61.72353,8.14985],[-61.72216,8.14372],[-61.71919,8.14002],[-61.72016,8.1381],[-61.71406,8.13874],[-61.71594,8.13466],[-61.71404,8.12915],[-61.70244,8.12578],[-61.69712,8.11646],[-61.69459,8.10232],[-61.6859,8.10424],[-61.6818,8.10166],[-61.67718,8.09207],[-61.65696,8.08739],[-61.66027,8.07347],[-61.65778,8.07077],[-61.65929,8.06499],[-61.65741,8.05601],[-61.6548,8.0535],[-61.65575,8.05012],[-61.65211,8.04599],[-61.65502,8.03986],[-61.65371,8.03698],[-61.64933,8.03778],[-61.65002,8.03261],[-61.64349,8.01618],[-61.64647,8.01294],[-61.64594,8.00521],[-61.6514,8.00083],[-61.6481,7.98294],[-61.65202,7.96471],[-61.64651,7.96293],[-61.63816,7.95232],[-61.6294,7.95515],[-61.61981,7.94505],[-61.61734,7.9389],[-61.62116,7.93477],[-61.62249,7.92827],[-61.62088,7.91885],[-61.61768,7.91446],[-61.62039,7.91142],[-61.62075,7.90387],[-61.61431,7.89403],[-61.61352,7.88812],[-61.61906,7.87973],[-61.62376,7.87792],[-61.62288,7.87257],[-61.62483,7.86988],[-61.62199,7.86594],[-61.61947,7.86636],[-61.62038,7.86268],[-61.61216,7.85643],[-61.61277,7.85365],[-61.60552,7.84965],[-61.60248,7.84317],[-61.60444,7.84044],[-61.60084,7.83703],[-61.5996,7.83005],[-61.59101,7.82825],[-61.58984,7.81925],[-61.58738,7.81842],[-61.58894,7.81367],[-61.58479,7.80669],[-61.58214,7.80963],[-61.57705,7.80801],[-61.57699,7.81121],[-61.57441,7.81174],[-61.56215,7.80627],[-61.55535,7.80749],[-61.55164,7.80227],[-61.55429,7.79766],[-61.5427,7.80047],[-61.53777,7.84434],[-61.54341,7.86595],[-61.54125,7.87129],[-61.53294,7.87788],[-61.5105,7.89297],[-61.49735,7.89554],[-61.49233,7.90721],[-61.4852,7.90627],[-61.47756,7.9098],[-61.47072,7.90989],[-61.42216,7.93817],[-61.41692,7.94008],[-61.41893,7.93511],[-61.41591,7.9363],[-61.40943,7.94284],[-61.40203,7.94538],[-61.40008,7.95002],[-61.39685,7.94982],[-61.33867,7.99188],[-61.33633,7.98873],[-61.33367,7.99221],[-61.32808,7.9916],[-61.32693,7.99449],[-61.32019,7.99542],[-61.31808,7.99783],[-61.31289,7.99733],[-61.30898,8.00024],[-61.30598,7.998],[-61.29006,8.01053],[-61.28374,8.00963],[-61.28171,8.01332],[-61.27836,8.01093],[-61.27519,8.01193],[-61.27116,8.01767],[-61.27278,8.02191],[-61.26731,8.02523],[-61.26306,8.02453],[-61.26336,8.02665],[-61.25806,8.0293],[-61.24768,8.01117],[-61.21204,7.98002],[-61.08828,7.8616],[-61.09466,7.85895],[-61.09751,7.85295],[-61.10822,7.84512],[-61.1042,7.84039],[-61.1019,7.83005],[-61.098,7.82387],[-61.09312,7.82236],[-61.0912,7.81784],[-61.07784,7.81306],[-61.07813,7.81061],[-61.07336,7.81151],[-61.07154,7.8041],[-61.06323,7.80148],[-61.06267,7.803],[-61.06214,7.79971],[-61.0605,7.80077],[-61.05833,7.79741],[-61.0574,7.80001],[-61.05561,7.79826],[-61.04718,7.80155],[-61.04185,7.79648],[-61.0394,7.79749],[-61.02973,7.79356],[-61.02521,7.78885],[-61.02595,7.78605],[-61.02206,7.7796],[-61.01401,7.78107],[-61.01221,7.77926],[-61.01073,7.7812],[-61.00803,7.7782],[-61.00716,7.78088],[-61.00334,7.78006],[-61.003,7.77799],[-60.99872,7.77955],[-60.99733,7.77615],[-60.98934,7.77488],[-60.98862,7.77661],[-60.98511,7.77313],[-60.98067,7.77414],[-60.97798,7.77117],[-60.97512,7.77276],[-60.97528,7.77019],[-60.97268,7.77061],[-60.97096,7.76808],[-60.96004,7.76799],[-60.95402,7.7652],[-60.95179,7.76811],[-60.94802,7.76626],[-60.94689,7.76967],[-60.94294,7.77106],[-60.93619,7.76719],[-60.93084,7.77009],[-60.93404,7.77177],[-60.93256,7.77796],[-60.93861,7.78424],[-60.93602,7.78383],[-60.93657,7.78724],[-60.932,7.79159],[-60.93316,7.79604],[-60.92952,7.7972],[-60.93315,7.79945],[-60.93248,7.80174],[-60.92942,7.80113],[-60.93093,7.80485],[-60.92543,7.80713],[-60.92232,7.81245],[-60.90614,7.8101],[-60.90109,7.81792],[-60.89573,7.82112],[-60.8927,7.82041],[-60.89249,7.82524],[-60.88781,7.82614],[-60.88983,7.82804],[-60.88476,7.83077],[-60.88334,7.83573],[-60.88368,7.83794],[-60.8891,7.83929],[-60.88536,7.84183],[-60.8891,7.84408],[-60.8854,7.84838],[-60.88609,7.85048],[-60.8792,7.85261],[-60.87095,7.85982],[-60.86602,7.86585],[-60.86703,7.86724],[-60.86852,7.86507],[-60.87058,7.87129],[-60.86547,7.8733],[-60.86428,7.8773],[-60.86173,7.87699],[-60.85687,7.88301],[-60.85405,7.88138],[-60.85205,7.88352],[-60.84723,7.88004],[-60.84064,7.88853],[-60.83236,7.88264],[-60.83179,7.89011],[-60.82909,7.88965],[-60.82661,7.89246],[-60.82182,7.88843],[-60.81879,7.89379],[-60.81002,7.89247],[-60.81057,7.89488],[-60.79911,7.89786],[-60.79352,7.90328],[-60.792,7.90162],[-60.79191,7.90452],[-60.78924,7.90191],[-60.78592,7.90267],[-60.78671,7.90018],[-60.77514,7.90232],[-60.77467,7.90519],[-60.77171,7.90267],[-60.76107,7.90284],[-60.76074,7.90098],[-60.75886,7.90389],[-60.75882,7.90071],[-60.75187,7.90498],[-60.75354,7.90591],[-60.75171,7.90741],[-60.74298,7.90206],[-60.74386,7.89659],[-60.7415,7.89761],[-60.73308,7.89273],[-60.72853,7.89434],[-60.7268,7.88752],[-60.72164,7.88739],[-60.71695,7.8839],[-60.70392,7.89122],[-60.69637,7.88811],[-60.69228,7.89209],[-60.6884,7.89077],[-60.68769,7.89614],[-60.67968,7.89559],[-60.67067,7.90919],[-60.66615,7.91033],[-60.66137,7.91566],[-60.66344,7.92923],[-60.65846,7.95129],[-60.65214,7.95064],[-60.65124,7.94822],[-60.64435,7.94974],[-60.64061,7.94624],[-60.63547,7.94752],[-60.63433,7.94223],[-60.63615,7.93856],[-60.62713,7.93514],[-60.63025,7.93304],[-60.62992,7.92871],[-60.62415,7.92613],[-60.62355,7.92133],[-60.62078,7.9227],[-60.6142,7.92023],[-60.61237,7.92319],[-60.60746,7.92285],[-60.6026,7.92841],[-60.596,7.92433],[-60.59317,7.92719],[-60.58264,7.92958],[-60.57823,7.92726],[-60.57184,7.92782],[-60.57097,7.93155],[-60.56098,7.93994],[-60.55637,7.95796],[-60.55251,7.95774],[-60.55283,7.96156],[-60.54866,7.96333],[-60.54882,7.97778],[-60.55301,7.98229],[-60.54137,7.98652],[-60.54239,7.99241],[-60.53946,7.99259],[-60.54055,7.99486],[-60.53631,7.99155],[-60.53189,7.99321],[-60.53179,7.99706],[-60.52788,8.00049],[-60.5271,8.01146],[-60.51541,8.00863],[-60.51096,8.01474],[-60.50499,8.01207],[-60.50492,8.00519],[-60.50192,7.99985],[-60.48969,8.00355],[-60.47743,7.99391],[-60.47031,7.99658],[-60.46884,7.98754],[-60.45893,7.98263],[-60.4586,7.97863],[-60.45395,7.97775],[-60.45406,7.9749],[-60.44459,7.97526],[-60.43578,7.972],[-60.42973,7.97486],[-60.42969,7.98041],[-60.42414,7.98173],[-60.42056,7.97975],[-60.41719,7.97296],[-60.40299,7.97241],[-60.40018,7.9664],[-60.39288,7.96935],[-60.38778,7.96802],[-60.38499,7.96151],[-60.37812,7.96232],[-60.37578,7.96489],[-60.36483,7.96197],[-60.35954,7.95638],[-60.36142,7.95125],[-60.35841,7.94897],[-60.34718,7.94665],[-60.33957,7.95127],[-60.33492,7.94961],[-60.33378,7.94315],[-60.32906,7.94474],[-60.32625,7.94268],[-60.32041,7.94328],[-60.31829,7.93917],[-60.30198,7.93964],[-60.30284,7.93233],[-60.29769,7.93042],[-60.29599,7.92731],[-60.2929,7.92772],[-60.29196,7.92481],[-60.28457,7.92553],[-60.28582,7.92321],[-60.28413,7.92278],[-60.26953,7.92766],[-60.2671,7.92433],[-60.25571,7.92386],[-60.24974,7.9278],[-60.24352,7.92497],[-60.24341,7.93126],[-60.23284,7.93235],[-60.23243,7.93544],[-60.22892,7.93593],[-60.23477,7.94109],[-60.23495,7.94423],[-60.2202,7.9548],[-60.2182,7.95857],[-60.20574,7.95735],[-60.19827,7.95925],[-60.19534,7.96358],[-60.19698,7.96742],[-60.19438,7.96429],[-60.19131,7.96618],[-60.18841,7.9619],[-60.17116,7.97421],[-60.16468,7.97235],[-60.16549,7.97389],[-60.16135,7.97763],[-60.16348,7.97959],[-60.14865,7.98454],[-60.14141,7.99059],[-60.13936,7.98975],[-60.13916,7.9938],[-60.13378,7.99651],[-60.13174,8.00804],[-60.12791,8.01016],[-60.12934,8.01254],[-60.12316,8.01762],[-60.12276,8.02903],[-60.1042,8.02953],[-60.10056,8.03214],[-60.10085,8.03505],[-60.08918,8.03605],[-60.08334,8.0302],[-60.07805,8.03245],[-60.06602,8.02412],[-60.06038,8.02359],[-60.05016,8.02639],[-60.04234,8.03601],[-60.03264,8.03363],[-60.0231,8.04684],[-60.00776,8.05833],[-60.00766,8.07112],[-60.00019,8.07633],[-60.00068,8.09813],[-59.99457,8.11951],[-59.98091,8.13429],[-59.98223,8.13946],[-59.99389,8.15169],[-59.99479,8.15636],[-59.98299,8.16941],[-59.97738,8.18707],[-59.94972,8.19472],[-59.94552,8.20314],[-59.93996,8.20328],[-59.92239,8.21341],[-59.91308,8.21219],[-59.90491,8.21923],[-59.89046,8.21978],[-59.86678,8.2248],[-59.84859,8.22493],[-59.83522,8.23465],[-59.8178,8.2626],[-59.80594,8.27114],[-59.8069,8.28],[-59.81805,8.29747],[-59.819,8.30949],[-59.99144,8.54998],[-59.9148,8.56887],[-59.9481,8.61072],[-59.96407,8.62583],[-59.98209,8.63771],[-60.02964,8.65977],[-60.10277,8.68014],[-60.14637,8.6876],[-60.26379,8.69303],[-60.34035,8.68896],[-60.39528,8.68251],[-60.42721,8.67301],[-60.45364,8.65842],[-60.48386,8.63533],[-60.49175,8.66554],[-60.50549,8.69948],[-60.51888,8.72188],[-60.53913,8.74088],[-60.56522,8.75208],[-60.58273,8.75547],[-60.56763,8.79314],[-60.56437,8.82876],[-60.57123,8.86709],[-60.57913,8.88456],[-60.58771,8.90068],[-60.60677,8.9156],[-60.60402,8.94816],[-60.60745,8.96986],[-60.61432,8.98614],[-60.62531,9.00174],[-60.60642,9.04633],[-60.60316,9.06938],[-60.60848,9.11786],[-60.62119,9.16447],[-60.64041,9.20107],[-60.65483,9.21463],[-60.66856,9.22344],[-60.68024,9.28782],[-60.70496,9.35219],[-60.74822,9.41926],[-60.79285,9.47209],[-60.83032,9.50451],[-60.84203,9.51159],[-60.85981,9.51654],[-60.87889,9.52832],[-60.89861,9.53465],[-60.91307,9.54212],[-60.92151,9.55491],[-60.96198,9.59967],[-60.98089,9.61303],[-61.01915,9.62965],[-61.04967,9.63742],[-61.10831,9.64316],[-61.13321,9.63809],[-61.15516,9.65274],[-61.19174,9.66697],[-61.20291,9.67704],[-61.25999,9.71485],[-61.2986,9.74365],[-61.32364,9.75521],[-61.3602,9.78022],[-61.38793,9.79235],[-61.40588,9.82667],[-61.41804,9.8433],[-61.4491,9.87131],[-61.47247,9.88544],[-61.48605,9.90466],[-61.50422,9.91676],[-61.53236,9.92696],[-61.54747,9.93523],[-61.56397,9.93883],[-61.60859,9.95612],[-61.63797,9.96289],[-61.67426,9.96185],[-61.68886,9.95806],[-61.70202,9.95073],[-61.71287,9.94034],[-61.72158,9.92627],[-61.72612,9.912],[-61.72687,9.89706],[-61.71745,9.86698],[-61.77381,9.87894],[-61.80519,9.88296],[-61.83364,9.88194],[-61.85063,9.8773],[-61.87448,9.91059],[-61.9214,9.95008],[-61.95182,9.9705],[-61.96399,9.98757],[-61.98835,10.00888],[-62.00398,10.01861],[-62.08306,10.04611],[-62.0796,10.05462]]]}},{"type":"Feature","id":"relation/272670","properties":{"name":"Monagas","level":4},"geometry":{"type":"Polygon","coordinates":[[[-63.30706,8.78324],[-63.29415,8.78264],[-63.29175,8.77391],[-63.2882,8.77325],[-63.28658,8.76831],[-63.27244,8.76284],[-63.2534,8.76472],[-63.24985,8.76763],[-63.23246,8.77207],[-63.23,8.77511],[-63.22657,8.77432],[-63.21981,8.77055],[-63.21887,8.76558],[-63.2121,8.7633],[-63.20835,8.76583],[-63.21274,8.76027],[-63.20906,8.75731],[-63.15781,8.77626],[-63.10161,8.68921],[-63.0975,8.69099],[-63.09638,8.6836],[-63.09031,8.68431],[-63.08597,8.67129],[-63.02732,8.69733],[-62.94801,8.5357],[-62.721,8.46678],[-62.7229,8.46022],[-62.72988,8.45357],[-62.73073,8.44984],[-62.7283,8.44413],[-62.73018,8.43969],[-62.72861,8.42717],[-62.72422,8.41804],[-62.72527,8.41122],[-62.72052,8.40383],[-62.72215,8.39984],[-62.71517,8.40001],[-62.71696,8.39605],[-62.71411,8.391],[-62.70804,8.39481],[-62.70824,8.39932],[-62.70289,8.39966],[-62.69701,8.39105],[-62.69309,8.3932],[-62.68782,8.38157],[-62.66713,8.38416],[-62.64842,8.39698],[-62.63803,8.40759],[-62.62201,8.43141],[-62.61817,8.4514],[-62.60881,8.46639],[-62.59954,8.47131],[-62.55847,8.47653],[-62.54499,8.50234],[-62.53547,8.51049],[-62.52199,8.51329],[-62.44904,8.51286],[-62.42887,8.51601],[-62.40043,8.52441],[-62.3772,8.53714],[-62.33557,8.56532],[-62.33364,8.57449],[-62.3263,8.58586],[-62.31428,8.59761],[-62.30158,8.60576],[-62.28677,8.60648],[-62.27755,8.59413],[-62.26025,8.58696],[-62.2357,8.59647],[-62.2321,8.63393],[-62.22832,8.64819],[-62.19631,8.67468],[-62.18854,8.69002],[-62.17906,8.69698],[-62.14953,8.70326],[-62.12563,8.71365],[-62.10966,8.73314],[-62.09402,8.74126],[-62.07368,8.74797],[-62.06104,8.76103],[-62.0557,8.78147],[-62.05936,8.8065],[-62.05803,8.81506],[-62.04533,8.82982],[-62.02096,8.84106],[-62.02073,8.84826],[-62.01122,8.86387],[-62.00648,8.8806],[-61.99433,8.88889],[-61.99924,8.89733],[-62.01014,8.89888],[-62.01887,8.89434],[-62.03366,8.88102],[-62.05087,8.87444],[-62.05617,8.87509],[-62.05451,8.88021],[-62.06267,8.91246],[-62.07095,8.92594],[-62.08818,8.96912],[-62.08438,8.98807],[-62.05894,9.02268],[-62.05397,9.03884],[-62.05507,9.05423],[-62.06777,9.05789],[-62.0851,9.07387],[-62.09978,9.08023],[-62.11285,9.06752],[-62.11048,9.04744],[-62.11812,9.04802],[-62.14686,9.06632],[-62.1482,9.07397],[-62.14204,9.08893],[-62.14276,9.09702],[-62.15039,9.10288],[-62.16098,9.10559],[-62.1648,9.10365],[-62.16001,9.09056],[-62.16219,9.08748],[-62.18801,9.08686],[-62.18642,9.07101],[-62.1903,9.06525],[-62.19416,9.06402],[-62.20432,9.06649],[-62.21713,9.0598],[-62.22562,9.05949],[-62.22768,9.06306],[-62.22327,9.08891],[-62.24048,9.09438],[-62.26463,9.11162],[-62.26595,9.11789],[-62.26153,9.12868],[-62.26279,9.13274],[-62.27938,9.13062],[-62.30223,9.13793],[-62.31579,9.12946],[-62.32896,9.12829],[-62.32929,9.15488],[-62.32668,9.16828],[-62.32083,9.1779],[-62.30837,9.18207],[-62.30456,9.1856],[-62.30596,9.20448],[-62.31203,9.21666],[-62.30162,9.22628],[-62.30721,9.23933],[-62.31716,9.24481],[-62.32092,9.2556],[-62.32792,9.26189],[-62.3303,9.28228],[-62.32332,9.2947],[-62.33576,9.30762],[-62.34366,9.32445],[-62.34318,9.33142],[-62.33898,9.33993],[-62.32366,9.35227],[-62.32299,9.36138],[-62.32855,9.37036],[-62.34709,9.38096],[-62.35775,9.39563],[-62.37767,9.39474],[-62.40749,9.40963],[-62.41148,9.4207],[-62.40646,9.43154],[-62.39861,9.46674],[-62.40056,9.47935],[-62.40503,9.48492],[-62.41556,9.48913],[-62.43477,9.48511],[-62.44292,9.49393],[-62.43831,9.517],[-62.44346,9.54186],[-62.43835,9.55329],[-62.42921,9.5663],[-62.41518,9.57722],[-62.3964,9.60297],[-62.36366,9.63691],[-62.35125,9.64674],[-62.34919,9.66794],[-62.35243,9.68884],[-62.32439,9.71669],[-62.31737,9.7327],[-62.30596,9.74844],[-62.30437,9.75922],[-62.29909,9.76531],[-62.2978,9.77238],[-62.30334,9.79162],[-62.33934,9.82266],[-62.35681,9.85653],[-62.35827,9.89538],[-62.35582,9.91238],[-62.34836,9.93233],[-62.34847,9.94435],[-62.35744,9.97017],[-62.3454,10.04536],[-62.35422,10.05388],[-62.36068,10.06782],[-62.37565,10.08929],[-62.39057,10.1011],[-62.40676,10.1083],[-62.43067,10.17486],[-62.4415,10.19806],[-62.45779,10.22246],[-62.4817,10.24619],[-62.51658,10.26723],[-62.55749,10.28745],[-62.59553,10.29799],[-62.62404,10.28486],[-62.63125,10.2792],[-62.63778,10.27025],[-62.64456,10.2509],[-62.64447,10.22337],[-62.63975,10.19963],[-62.62156,10.16897],[-62.61134,10.12436],[-62.61387,10.10919],[-62.62031,10.10146],[-62.63327,10.09499],[-62.66344,10.06947],[-62.69812,10.06094],[-62.72846,10.06035],[-62.73863,10.06791],[-62.74451,10.0789],[-62.75,10.08405],[-62.75828,10.08498],[-62.76996,10.08261],[-62.78051,10.07501],[-62.78742,10.0633],[-62.79034,10.05274],[-62.78689,10.03476],[-62.78884,10.034],[-62.8151,10.03413],[-62.82547,10.0367],[-62.8345,10.05185],[-62.8372,10.07089],[-62.84534,10.07719],[-62.85467,10.07569],[-62.85946,10.05741],[-62.86506,10.05194],[-62.88177,10.05202],[-62.89849,10.05684],[-62.90209,10.06335],[-62.89572,10.07336],[-62.89422,10.08116],[-62.89716,10.09178],[-62.903,10.09499],[-62.91578,10.08999],[-62.93398,10.07535],[-62.9375,10.07702],[-62.94053,10.0868],[-62.94533,10.09265],[-62.95473,10.09588],[-62.9608,10.09537],[-62.97096,10.08947],[-62.97061,10.07657],[-62.97328,10.07056],[-62.9789,10.06853],[-62.98448,10.0698],[-63.00267,10.09212],[-63.02176,10.10133],[-63.03397,10.11527],[-63.04595,10.12239],[-63.04387,10.14083],[-63.05667,10.15703],[-63.05696,10.16265],[-63.05297,10.17337],[-63.06499,10.17781],[-63.06229,10.19527],[-63.06615,10.2011],[-63.07418,10.20205],[-63.08271,10.19957],[-63.08705,10.18743],[-63.09642,10.18396],[-63.10853,10.19092],[-63.1198,10.21128],[-63.12523,10.20473],[-63.14019,10.19927],[-63.14648,10.19452],[-63.14852,10.1888],[-63.1461,10.18178],[-63.1539,10.16295],[-63.17356,10.15687],[-63.17758,10.15049],[-63.1815,10.15104],[-63.18867,10.14357],[-63.19606,10.15942],[-63.21967,10.16791],[-63.22211,10.17317],[-63.22029,10.18692],[-63.22248,10.19338],[-63.22947,10.19076],[-63.25878,10.1904],[-63.26157,10.20065],[-63.26973,10.20407],[-63.2734,10.20861],[-63.28114,10.20696],[-63.28698,10.21184],[-63.29642,10.21123],[-63.30136,10.21488],[-63.31101,10.21539],[-63.31284,10.20926],[-63.31822,10.21247],[-63.32228,10.21055],[-63.33429,10.21127],[-63.34459,10.22996],[-63.35268,10.23479],[-63.35444,10.24465],[-63.36657,10.24229],[-63.37369,10.23783],[-63.38564,10.23946],[-63.39167,10.23783],[-63.399,10.25872],[-63.40221,10.26103],[-63.40393,10.257],[-63.41158,10.25946],[-63.42209,10.25562],[-63.42567,10.25745],[-63.42164,10.27113],[-63.41863,10.27316],[-63.41999,10.28082],[-63.43462,10.28908],[-63.44744,10.28752],[-63.45614,10.29494],[-63.46183,10.2924],[-63.46525,10.29409],[-63.47022,10.29063],[-63.47009,10.29829],[-63.47415,10.30526],[-63.48475,10.30229],[-63.4887,10.29792],[-63.48788,10.29237],[-63.49086,10.29022],[-63.4969,10.29131],[-63.50145,10.28943],[-63.5094,10.29255],[-63.50972,10.29475],[-63.51255,10.29399],[-63.52943,10.28676],[-63.53754,10.2769],[-63.54817,10.27112],[-63.5492,10.26397],[-63.54374,10.25701],[-63.54168,10.24831],[-63.54468,10.24307],[-63.5579,10.2423],[-63.56113,10.24407],[-63.56625,10.22205],[-63.56869,10.21945],[-63.56777,10.21642],[-63.57875,10.2011],[-63.58732,10.19489],[-63.59326,10.1939],[-63.59645,10.20611],[-63.60577,10.21361],[-63.60589,10.21784],[-63.6276,10.21425],[-63.64178,10.22345],[-63.65899,10.21896],[-63.67665,10.20884],[-63.67935,10.21022],[-63.69879,10.20139],[-63.69883,10.19593],[-63.70365,10.19406],[-63.70455,10.19108],[-63.72843,10.18648],[-63.75762,10.17578],[-63.76363,10.17116],[-63.76863,10.17171],[-63.77067,10.16871],[-63.76943,10.165],[-63.77401,10.16317],[-63.77444,10.16055],[-63.7726,10.1442],[-63.78707,10.13702],[-63.79166,10.13583],[-63.7948,10.13765],[-63.81107,10.11953],[-63.80842,10.11452],[-63.81482,10.10393],[-63.82319,10.10562],[-63.82595,10.10935],[-63.83788,10.10574],[-63.84328,10.10764],[-63.84604,10.10585],[-63.84839,10.10887],[-63.85906,10.10539],[-63.8648,10.10696],[-63.9022,10.09274],[-63.916,10.09268],[-63.92344,10.09019],[-63.93346,10.08378],[-63.94307,10.0887],[-63.94982,10.08784],[-63.95863,10.08375],[-63.95999,10.0802],[-63.95657,10.07502],[-63.95923,10.06577],[-63.95452,10.06169],[-63.95526,10.05516],[-63.97877,10.04898],[-63.97571,10.02768],[-63.97022,10.02085],[-63.96164,10.02273],[-63.95467,10.00814],[-63.95583,10.00548],[-63.96412,10.00469],[-63.97421,9.99677],[-63.97868,9.99789],[-63.9863,9.99422],[-63.99429,9.99479],[-63.99848,9.9894],[-64.00339,9.99124],[-64.0048,9.98186],[-64.00198,9.97417],[-64.00509,9.96713],[-63.99869,9.95106],[-63.99561,9.95163],[-63.98832,9.93841],[-63.9842,9.93797],[-63.98349,9.93456],[-63.98896,9.93168],[-63.99028,9.92039],[-63.98756,9.91598],[-63.98523,9.91618],[-63.98767,9.91164],[-63.98704,9.90701],[-63.97897,9.90509],[-63.97708,9.89901],[-63.98682,9.89197],[-63.99763,9.88828],[-63.99459,9.8757],[-63.98721,9.86708],[-63.99405,9.8567],[-63.98816,9.85492],[-63.98399,9.84792],[-63.97727,9.84329],[-63.97257,9.84363],[-63.96682,9.83783],[-63.95662,9.82247],[-63.95293,9.82033],[-63.95034,9.8074],[-63.94512,9.80094],[-63.94631,9.78933],[-63.95119,9.78713],[-63.95112,9.78232],[-63.95637,9.7803],[-63.96165,9.77161],[-63.96121,9.76042],[-63.95781,9.75579],[-63.96177,9.746],[-63.9609,9.74138],[-63.95794,9.7352],[-63.95417,9.73498],[-63.95348,9.7262],[-63.95086,9.72236],[-63.95326,9.71905],[-63.9518,9.71235],[-63.94873,9.71119],[-63.94796,9.70633],[-63.94437,9.70665],[-63.94484,9.70256],[-63.94153,9.70574],[-63.93965,9.70301],[-63.9328,9.70345],[-63.93184,9.7005],[-63.92335,9.69992],[-63.92394,9.69793],[-63.91898,9.69536],[-63.92129,9.68606],[-63.91659,9.63011],[-63.89644,9.62837],[-63.89676,9.62523],[-63.8918,9.6269],[-63.86776,9.60934],[-63.86601,9.60096],[-63.86779,9.57989],[-63.86256,9.57394],[-63.8515,9.56973],[-63.85119,9.56745],[-63.849,9.56903],[-63.84803,9.56268],[-63.84277,9.55517],[-63.83323,9.5591],[-63.82739,9.55729],[-63.82655,9.54773],[-63.82249,9.54261],[-63.83114,9.54388],[-63.83153,9.53451],[-63.83799,9.53472],[-63.84839,9.5274],[-63.86423,9.54389],[-63.86631,9.53827],[-63.85982,9.52723],[-63.86229,9.5188],[-63.86931,9.523],[-63.86964,9.52927],[-63.88455,9.52614],[-63.89256,9.52749],[-63.8995,9.51989],[-63.90435,9.52154],[-63.90764,9.51953],[-63.91205,9.50562],[-63.91596,9.50233],[-63.92487,9.51201],[-63.93015,9.51325],[-63.93252,9.5097],[-63.93302,9.49928],[-63.94075,9.48859],[-63.94439,9.48813],[-63.95039,9.49649],[-63.95387,9.49691],[-63.96654,9.49141],[-63.96307,9.47403],[-63.97338,9.47535],[-63.97974,9.47938],[-63.98359,9.47742],[-63.98587,9.47056],[-63.98411,9.45777],[-63.98744,9.45812],[-63.99376,9.4652],[-63.9983,9.46511],[-63.99526,9.45491],[-64.01229,9.44855],[-64.01165,9.44025],[-64.00821,9.43878],[-64.00202,9.42771],[-64.01186,9.41883],[-64.0185,9.40401],[-64.00792,9.38627],[-64.00759,9.36755],[-64.00227,9.36068],[-63.99972,9.36151],[-63.99949,9.35874],[-63.98885,9.35375],[-63.99158,9.35167],[-63.98993,9.34877],[-63.98197,9.34349],[-63.9789,9.33858],[-63.97174,9.33769],[-63.96695,9.33333],[-63.96419,9.32175],[-63.96116,9.31992],[-63.96246,9.31185],[-63.95495,9.2983],[-63.94428,9.29449],[-63.93883,9.28681],[-63.93946,9.28132],[-63.93504,9.28098],[-63.92757,9.27343],[-63.92228,9.26324],[-63.91946,9.2625],[-63.91728,9.25195],[-63.91161,9.24126],[-63.91513,9.22367],[-63.91548,9.20073],[-63.91189,9.19686],[-63.90611,9.19592],[-63.90219,9.20045],[-63.89071,9.20183],[-63.89043,9.20547],[-63.8862,9.20798],[-63.87277,9.20927],[-63.86831,9.21508],[-63.86119,9.2153],[-63.83777,9.22851],[-63.82749,9.22965],[-63.81993,9.2205],[-63.80664,9.21766],[-63.79781,9.22448],[-63.79184,9.22342],[-63.77504,9.22855],[-63.77073,9.22858],[-63.76478,9.22231],[-63.75746,9.22447],[-63.75078,9.21857],[-63.7423,9.20503],[-63.74297,9.2001],[-63.73392,9.19642],[-63.72296,9.20045],[-63.72124,9.19841],[-63.71603,9.19895],[-63.70923,9.18854],[-63.69509,9.18378],[-63.69686,9.17733],[-63.68804,9.17108],[-63.6887,9.16791],[-63.68584,9.16725],[-63.68547,9.16335],[-63.67959,9.16811],[-63.67632,9.1651],[-63.6771,9.16074],[-63.68076,9.15762],[-63.67508,9.16075],[-63.67435,9.15767],[-63.67037,9.16129],[-63.66909,9.15482],[-63.6665,9.15844],[-63.6599,9.1605],[-63.65401,9.15722],[-63.65242,9.15361],[-63.65179,9.15934],[-63.64687,9.15679],[-63.64154,9.15746],[-63.63589,9.14898],[-63.63371,9.15186],[-63.63096,9.15097],[-63.62488,9.15449],[-63.60809,9.14472],[-63.60662,9.14017],[-63.60851,9.13419],[-63.60304,9.13382],[-63.60101,9.12198],[-63.60334,9.12013],[-63.60626,9.12255],[-63.61004,9.11607],[-63.60728,9.11505],[-63.60765,9.11034],[-63.60462,9.10952],[-63.60564,9.10683],[-63.60202,9.10524],[-63.60225,9.10204],[-63.59851,9.10106],[-63.60026,9.09793],[-63.59699,9.09756],[-63.59672,9.10087],[-63.59268,9.10399],[-63.58809,9.09973],[-63.58879,9.10504],[-63.58238,9.10421],[-63.57978,9.10751],[-63.56722,9.10437],[-63.56576,9.10201],[-63.56989,9.09673],[-63.56641,9.0928],[-63.56392,9.09194],[-63.55945,9.09488],[-63.55605,9.08838],[-63.54872,9.08853],[-63.54678,9.08555],[-63.54425,9.08776],[-63.54537,9.09285],[-63.54108,9.09233],[-63.53317,9.08237],[-63.53405,9.0768],[-63.53107,9.07881],[-63.52613,9.07468],[-63.52249,9.07626],[-63.52735,9.06871],[-63.52071,9.0669],[-63.52052,9.07056],[-63.51649,9.0702],[-63.51785,9.07524],[-63.51382,9.06986],[-63.51033,9.07268],[-63.50946,9.07045],[-63.51301,9.06506],[-63.50225,9.04879],[-63.49053,9.05639],[-63.49376,9.0603],[-63.48495,9.05798],[-63.48204,9.04802],[-63.48538,9.04707],[-63.48275,9.04444],[-63.48812,9.04397],[-63.49068,9.03422],[-63.48431,9.03589],[-63.47638,9.03251],[-63.47503,9.01778],[-63.4721,9.01703],[-63.46861,9.02441],[-63.46584,9.01644],[-63.4586,9.01226],[-63.45969,9.01798],[-63.45606,9.01968],[-63.45613,9.02387],[-63.45305,9.02617],[-63.4502,9.02313],[-63.45023,9.01361],[-63.44345,9.00461],[-63.439,9.00464],[-63.43337,9.01374],[-63.43052,9.01408],[-63.42708,9.01148],[-63.42834,9.00527],[-63.42604,9.00255],[-63.4211,9.00262],[-63.41558,8.99771],[-63.40887,8.99792],[-63.4073,8.99375],[-63.40095,8.99301],[-63.39853,8.98904],[-63.396,8.98995],[-63.39403,8.98541],[-63.39244,8.99029],[-63.38779,8.98887],[-63.38523,8.9836],[-63.38913,8.97584],[-63.3852,8.97666],[-63.38504,8.97314],[-63.38097,8.97436],[-63.38031,8.972],[-63.38244,8.97189],[-63.38119,8.96624],[-63.38356,8.96409],[-63.37977,8.96569],[-63.38006,8.96376],[-63.37148,8.95639],[-63.36947,8.95151],[-63.37143,8.94991],[-63.36518,8.94915],[-63.36704,8.94729],[-63.36466,8.94683],[-63.35987,8.90095],[-63.30706,8.78324]]]}}]}