{"type":"FeatureCollection","features":[{"type":"Feature","id":"relation/6924971","properties":{"name":"Municipio Pedernales","level":6,"population":"6438"},"geometry":{"type":"Polygon","coordinates":[[[-62.39856,9.46723],[-62.3875,9.46679],[-62.37571,9.46048],[-62.3671,9.45913],[-62.35884,9.44822],[-62.34803,9.44302],[-62.3251,9.45293],[-62.32593,9.46538],[-62.3115,9.46511],[-62.30808,9.47013],[-62.30905,9.47909],[-62.30765,9.48128],[-62.30424,9.48051],[-62.28991,9.46732],[-62.28183,9.46416],[-62.29062,9.45019],[-62.28941,9.44774],[-62.27193,9.44728],[-62.26184,9.43394],[-62.24929,9.43318],[-62.2377,9.42575],[-62.22995,9.42583],[-62.22579,9.43118],[-62.22083,9.43221],[-62.21704,9.41983],[-62.21946,9.41809],[-62.21022,9.40559],[-62.20741,9.40524],[-62.21307,9.38979],[-62.21264,9.38426],[-62.20752,9.37506],[-62.20063,9.37033],[-62.19787,9.37199],[-62.19168,9.38641],[-62.16335,9.404],[-62.14612,9.40298],[-62.14658,9.40111],[-62.13354,9.39248],[-62.13497,9.38135],[-62.13275,9.38183],[-62.12731,9.37626],[-62.11923,9.37545],[-62.1105,9.38349],[-62.10187,9.38608],[-62.10209,9.38859],[-62.09596,9.38919],[-62.0917,9.38512],[-62.08846,9.38554],[-62.07357,9.39586],[-62.06394,9.39566],[-62.05616,9.40008],[-62.03611,9.40433],[-62.02523,9.41405],[-62.02443,9.42067],[-62.02746,9.4277],[-62.02311,9.43266],[-62.01575,9.4314],[-62.00959,9.41994],[-61.97274,9.43672],[-61.95132,9.46156],[-61.93006,9.46795],[-61.91016,9.48096],[-61.89659,9.50755],[-61.88708,9.51534],[-61.88103,9.51641],[-61.87259,9.53718],[-61.85834,9.55531],[-61.85573,9.56475],[-61.86075,9.56965],[-61.8604,9.58352],[-61.85103,9.60423],[-61.8465,9.6222],[-61.84831,9.65029],[-61.84455,9.65949],[-61.84124,9.65898],[-61.83595,9.67667],[-61.83834,9.67762],[-61.83654,9.68175],[-61.81372,9.71614],[-61.80917,9.72934],[-61.80827,9.75501],[-61.81134,9.76396],[-61.82558,9.76521],[-61.83281,9.77466],[-61.83335,9.78523],[-61.82775,9.80274],[-61.8538,9.82738],[-61.86148,9.82908],[-61.86577,9.83259],[-61.89035,9.86383],[-61.92671,9.89941],[-62.02968,9.97599],[-62.08023,10.00089],[-62.13712,10.01867],[-62.18475,10.03099],[-62.20263,10.0322],[-62.21262,10.02776],[-62.21769,10.02867],[-62.22805,10.04613],[-62.23105,10.05837],[-62.2407,10.06635],[-62.25427,10.06778],[-62.26053,10.06449],[-62.28314,10.06327],[-62.28981,10.05456],[-62.30052,10.0323],[-62.31071,9.99839],[-62.31844,9.9968],[-62.33329,10.00046],[-62.3405,9.99788],[-62.34542,9.99315],[-62.35327,9.9728],[-62.35307,9.96647],[-62.34826,9.96161],[-62.33856,9.96072],[-62.33641,9.95625],[-62.33186,9.95372],[-62.34274,9.95114],[-62.34847,9.94435],[-62.34836,9.93233],[-62.35582,9.91238],[-62.35878,9.88633],[-62.35621,9.85386],[-62.34664,9.83386],[-62.33934,9.82266],[-62.30334,9.79162],[-62.2996,9.78346],[-62.29797,9.76848],[-62.30437,9.75922],[-62.30596,9.74844],[-62.31737,9.7327],[-62.32439,9.71669],[-62.35243,9.68884],[-62.34919,9.66794],[-62.35125,9.64674],[-62.36366,9.63691],[-62.3964,9.60297],[-62.41719,9.57498],[-62.42921,9.5663],[-62.44346,9.54186],[-62.43831,9.517],[-62.44294,9.49886],[-62.44157,9.49129],[-62.43322,9.4846],[-62.41721,9.48906],[-62.40668,9.48597],[-62.40056,9.47935],[-62.39856,9.46723]]]}},{"type":"Feature","id":"relation/11046657","properties":{"name":"Municipio Casacoima","level":6,"population":"29555"},"geometry":{"type":"Polygon","coordinates":[[[-61.54679,8.47975],[-61.53323,8.47731],[-61.52029,8.48642],[-61.50929,8.48455],[-61.50187,8.49287],[-61.49319,8.49651],[-61.49682,8.50301],[-61.49061,8.50713],[-61.49505,8.51482],[-61.49387,8.53126],[-61.49767,8.53536],[-61.50307,8.5357],[-61.52129,8.52984],[-61.5391,8.53264],[-61.58824,8.56176],[-61.59691,8.56464],[-61.62719,8.56674],[-61.67347,8.59698],[-61.70918,8.60852],[-61.75844,8.60648],[-61.77625,8.60848],[-61.80166,8.61535],[-61.85174,8.60555],[-61.87388,8.61739],[-61.88599,8.6193],[-61.9062,8.62961],[-61.92628,8.63449],[-61.94384,8.63334],[-61.95517,8.6372],[-61.99164,8.66754],[-62.00156,8.66783],[-62.02533,8.66211],[-62.0673,8.68077],[-62.09473,8.70491],[-62.11146,8.71246],[-62.12279,8.7139],[-62.14953,8.70326],[-62.18189,8.69549],[-62.19094,8.68714],[-62.20013,8.67085],[-62.22532,8.65218],[-62.23124,8.63949],[-62.2357,8.59647],[-62.26025,8.58696],[-62.27755,8.59413],[-62.28677,8.60648],[-62.30158,8.60576],[-62.31428,8.59761],[-62.3263,8.58586],[-62.33364,8.57449],[-62.33557,8.56532],[-62.3772,8.53714],[-62.40043,8.52441],[-62.42887,8.51601],[-62.44904,8.51286],[-62.53186,8.51185],[-62.54499,8.50234],[-62.55847,8.47653],[-62.59954,8.47131],[-62.60881,8.46639],[-62.61462,8.45945],[-62.54753,8.42767],[-62.53623,8.42004],[-62.53598,8.41551],[-62.53224,8.41243],[-62.53491,8.40986],[-62.53321,8.40394],[-62.51624,8.39171],[-62.25441,8.30429],[-61.68542,8.45953],[-61.6812,8.4579],[-61.66298,8.46967],[-61.65768,8.46794],[-61.65818,8.4733],[-61.65281,8.47135],[-61.64463,8.47387],[-61.64482,8.46766],[-61.64201,8.46695],[-61.64178,8.47129],[-61.63456,8.47975],[-61.63115,8.4773],[-61.63163,8.4747],[-61.62891,8.47451],[-61.6225,8.47989],[-61.62354,8.48412],[-61.61447,8.50006],[-61.60554,8.50467],[-61.57911,8.50629],[-61.56913,8.51405],[-61.56362,8.51233],[-61.56694,8.50182],[-61.57786,8.49266],[-61.57942,8.4872],[-61.56897,8.4819],[-61.56694,8.47547],[-61.54908,8.48434],[-61.54679,8.47975]]]}},{"type":"Feature","id":"relation/11046658","properties":{"name":"Municipio Antonio D\u00edaz","level":6,"population":"26655"},"geometry":{"type":"MultiPolygon","coordinates":[[[[-60.62686,8.82671],[-60.61229,8.82149],[-60.60439,8.82332],[-60.5978,8.828],[-60.59353,8.83483],[-60.59223,8.84277],[-60.59431,8.851],[-60.5989,8.8571],[-60.60585,8.86129],[-60.61389,8.86253],[-60.62178,8.86062],[-60.62829,8.85591],[-60.6325,8.84911],[-60.63374,8.84079],[-60.63171,8.83308],[-60.62686,8.82671]]],[[[-60.68776,8.84531],[-60.67942,8.84685],[-60.67453,8.8537],[-60.67584,8.86198],[-60.68294,8.86709],[-60.69132,8.8658],[-60.6965,8.85878],[-60.69501,8.85022],[-60.68776,8.84531]]],[[[-60.67309,8.89612],[-60.6595,8.90249],[-60.64892,8.91389],[-60.64356,8.92843],[-60.64426,8.94389],[-60.65127,8.9584],[-60.66299,8.96864],[-60.67777,8.97366],[-60.69336,8.97273],[-60.70741,8.96597],[-60.71778,8.95442],[-60.72288,8.93983],[-60.72195,8.92442],[-60.71475,8.91004],[-60.70345,8.90028],[-60.68869,8.89522],[-60.67309,8.89612]]],[[[-59.84859,8.22493],[-59.83522,8.23465],[-59.8178,8.2626],[-59.80559,8.2716],[-59.8069,8.28],[-59.81805,8.29747],[-59.81805,8.30805],[-59.99144,8.54998],[-59.96651,8.55631],[-59.993,8.58412],[-60.0105,8.59231],[-60.05151,8.60467],[-60.12733,8.62292],[-60.16206,8.63532],[-60.22046,8.64887],[-60.24783,8.65044],[-60.33981,8.64049],[-60.40825,8.63899],[-60.41633,8.63536],[-60.42007,8.63049],[-60.42276,8.6125],[-60.43442,8.57658],[-60.46185,8.54266],[-60.47148,8.53768],[-60.4877,8.54121],[-60.50248,8.53896],[-60.52388,8.5443],[-60.59421,8.55222],[-60.62359,8.56238],[-60.66097,8.59034],[-60.6952,8.6033],[-60.71086,8.61251],[-60.71581,8.62057],[-60.71424,8.62673],[-60.7003,8.63028],[-60.62728,8.6239],[-60.60527,8.62348],[-60.59339,8.62723],[-60.58338,8.63247],[-60.5751,8.64044],[-60.56316,8.6624],[-60.5629,8.66911],[-60.56608,8.67514],[-60.58834,8.68647],[-60.60722,8.69292],[-60.65609,8.70044],[-60.66592,8.7046],[-60.67072,8.71102],[-60.67275,8.71736],[-60.67122,8.7256],[-60.66279,8.74246],[-60.65519,8.7503],[-60.63448,8.7588],[-60.62353,8.77635],[-60.61914,8.79081],[-60.62121,8.81228],[-60.62444,8.81747],[-60.63875,8.82304],[-60.6495,8.81781],[-60.66179,8.80458],[-60.66948,8.80201],[-60.68392,8.80614],[-60.6951,8.81734],[-60.70078,8.82754],[-60.70234,8.83286],[-60.69933,8.84813],[-60.70214,8.85521],[-60.7151,8.86912],[-60.72061,8.88729],[-60.72486,8.89254],[-60.73856,8.89817],[-60.7608,8.8889],[-60.76682,8.88928],[-60.77251,8.89206],[-60.77841,8.90299],[-60.77458,8.9123],[-60.76693,8.91534],[-60.75807,8.92487],[-60.7546,8.93437],[-60.76274,8.95394],[-60.76007,8.97231],[-60.76458,8.97964],[-60.77742,8.99154],[-60.78052,9.00005],[-60.77968,9.00664],[-60.7455,9.05535],[-60.73963,9.06164],[-60.73418,9.06328],[-60.72827,9.06094],[-60.72626,9.0535],[-60.7376,9.0262],[-60.73776,9.00677],[-60.7355,9.00142],[-60.73051,8.99707],[-60.71536,8.99394],[-60.70327,8.99973],[-60.69737,9.01113],[-60.69264,9.02959],[-60.6776,9.04877],[-60.66752,9.06865],[-60.66771,9.08177],[-60.6763,9.09777],[-60.67404,9.12185],[-60.67889,9.14489],[-60.6843,9.16033],[-60.69308,9.16949],[-60.69849,9.17208],[-60.71672,9.17374],[-60.72089,9.18165],[-60.72251,9.19326],[-60.7373,9.21194],[-60.7467,9.2403],[-60.75129,9.27111],[-60.76918,9.30049],[-60.76973,9.33014],[-60.77281,9.34638],[-60.78952,9.38521],[-60.80104,9.40424],[-60.83154,9.44229],[-60.86846,9.48102],[-60.8955,9.50503],[-60.9203,9.5184],[-60.95361,9.52719],[-60.9658,9.50338],[-61.16913,9.28985],[-61.21239,9.16162],[-61.55185,8.83851],[-61.58013,8.75441],[-61.67175,8.68082],[-61.68901,8.65434],[-61.71659,8.64138],[-61.73128,8.63869],[-61.7272,8.63251],[-61.71516,8.62375],[-61.7114,8.60886],[-61.67347,8.59698],[-61.63184,8.56884],[-61.62208,8.56532],[-61.59335,8.56375],[-61.53404,8.5309],[-61.52129,8.52984],[-61.50031,8.53597],[-61.49363,8.53027],[-61.49505,8.51482],[-61.49061,8.50713],[-61.49683,8.50266],[-61.49289,8.49705],[-61.50187,8.49287],[-61.50929,8.48455],[-61.52029,8.48642],[-61.53323,8.47731],[-61.54679,8.47975],[-61.54908,8.48434],[-61.56694,8.47547],[-61.56861,8.48156],[-61.58023,8.48906],[-61.56694,8.50182],[-61.56359,8.51214],[-61.56822,8.51426],[-61.57911,8.50629],[-61.60554,8.50467],[-61.61447,8.50006],[-61.62354,8.48412],[-61.6225,8.47989],[-61.62891,8.47451],[-61.63163,8.4747],[-61.63115,8.4773],[-61.63456,8.47975],[-61.64178,8.47129],[-61.64201,8.46695],[-61.64482,8.46766],[-61.64463,8.47387],[-61.65281,8.47135],[-61.6579,8.47336],[-61.65768,8.46794],[-61.66251,8.46987],[-61.6812,8.4579],[-61.68657,8.45897],[-61.6881,8.45236],[-61.69764,8.44583],[-61.69649,8.4357],[-61.70107,8.43594],[-61.70017,8.43329],[-61.70472,8.43141],[-61.70629,8.42374],[-61.70202,8.4252],[-61.70333,8.41991],[-61.69486,8.41621],[-61.69742,8.4126],[-61.69413,8.40224],[-61.69836,8.40002],[-61.69733,8.3955],[-61.69372,8.39625],[-61.69076,8.39318],[-61.6855,8.39265],[-61.6858,8.38107],[-61.68134,8.3788],[-61.68563,8.37075],[-61.68507,8.36791],[-61.68175,8.36761],[-61.68284,8.36441],[-61.69278,8.35895],[-61.69315,8.35481],[-61.6976,8.35331],[-61.69873,8.34689],[-61.69671,8.34347],[-61.70298,8.33524],[-61.71011,8.33072],[-61.72008,8.32979],[-61.74872,8.319],[-61.75321,8.32002],[-61.7611,8.31707],[-61.76657,8.30688],[-61.76273,8.29836],[-61.76973,8.29599],[-61.76404,8.28946],[-61.76151,8.29017],[-61.76146,8.2855],[-61.76542,8.28286],[-61.76542,8.27999],[-61.7549,8.26758],[-61.75455,8.25947],[-61.74888,8.25853],[-61.74646,8.25541],[-61.74001,8.25607],[-61.74342,8.24668],[-61.73822,8.24465],[-61.73746,8.24065],[-61.74046,8.23709],[-61.73972,8.23187],[-61.74546,8.22764],[-61.7451,8.22179],[-61.73638,8.22009],[-61.73417,8.21691],[-61.73853,8.20384],[-61.73467,8.19793],[-61.73732,8.19501],[-61.73594,8.19072],[-61.74034,8.1895],[-61.73763,8.18682],[-61.73798,8.18364],[-61.72543,8.18306],[-61.7283,8.17701],[-61.73359,8.17613],[-61.73174,8.17075],[-61.73429,8.16216],[-61.72879,8.16244],[-61.72151,8.15185],[-61.72353,8.14985],[-61.72216,8.14372],[-61.71919,8.14002],[-61.72016,8.1381],[-61.71406,8.13874],[-61.71594,8.13466],[-61.71404,8.12915],[-61.70244,8.12578],[-61.69712,8.11646],[-61.69459,8.10232],[-61.6859,8.10424],[-61.6818,8.10166],[-61.67718,8.09207],[-61.65696,8.08739],[-61.66027,8.07347],[-61.65778,8.07077],[-61.65929,8.06499],[-61.65741,8.05601],[-61.6548,8.0535],[-61.65575,8.05012],[-61.65211,8.04599],[-61.65502,8.03986],[-61.65371,8.03698],[-61.64933,8.03778],[-61.65002,8.03261],[-61.64349,8.01618],[-61.64647,8.01294],[-61.64594,8.00521],[-61.6514,8.00083],[-61.6481,7.98294],[-61.65202,7.96471],[-61.64651,7.96293],[-61.63816,7.95232],[-61.6294,7.95515],[-61.61981,7.94505],[-61.61734,7.9389],[-61.62116,7.93477],[-61.62249,7.92827],[-61.62088,7.91885],[-61.61768,7.91446],[-61.62039,7.91142],[-61.62075,7.90387],[-61.61431,7.89403],[-61.61352,7.88812],[-61.61906,7.87973],[-61.62376,7.87792],[-61.62288,7.87257],[-61.62483,7.86988],[-61.62199,7.86594],[-61.61947,7.86636],[-61.62038,7.86268],[-61.61216,7.85643],[-61.61277,7.85365],[-61.60552,7.84965],[-61.60248,7.84317],[-61.60444,7.84044],[-61.60084,7.83703],[-61.5996,7.83005],[-61.59101,7.82825],[-61.58984,7.81925],[-61.58738,7.81842],[-61.58894,7.81367],[-61.58479,7.80669],[-61.58214,7.80963],[-61.57705,7.80801],[-61.57699,7.81121],[-61.57441,7.81174],[-61.56215,7.80627],[-61.55535,7.80749],[-61.55164,7.80227],[-61.55429,7.79766],[-61.5427,7.80047],[-61.53777,7.84434],[-61.54341,7.86595],[-61.54125,7.87129],[-61.53294,7.87788],[-61.5105,7.89297],[-61.49735,7.89554],[-61.49233,7.90721],[-61.4852,7.90627],[-61.47756,7.9098],[-61.47072,7.90989],[-61.42216,7.93817],[-61.41692,7.94008],[-61.41893,7.93511],[-61.41591,7.9363],[-61.40943,7.94284],[-61.40203,7.94538],[-61.40008,7.95002],[-61.39685,7.94982],[-61.33867,7.99188],[-61.33633,7.98873],[-61.33367,7.99221],[-61.32808,7.9916],[-61.32693,7.99449],[-61.32019,7.99542],[-61.31808,7.99783],[-61.31289,7.99733],[-61.30898,8.00024],[-61.30598,7.998],[-61.29006,8.01053],[-61.28374,8.00963],[-61.28171,8.01332],[-61.27836,8.01093],[-61.27519,8.01193],[-61.27116,8.01767],[-61.27278,8.02191],[-61.26731,8.02523],[-61.26306,8.02453],[-61.26336,8.02665],[-61.25806,8.0293],[-61.24768,8.01117],[-61.21204,7.98002],[-61.08828,7.8616],[-61.09466,7.85895],[-61.09751,7.85295],[-61.10822,7.84512],[-61.1042,7.84039],[-61.1019,7.83005],[-61.098,7.82387],[-61.09312,7.82236],[-61.0912,7.81784],[-61.07784,7.81306],[-61.07813,7.81061],[-61.07336,7.81151],[-61.07154,7.8041],[-61.06323,7.80148],[-61.06267,7.803],[-61.06214,7.79971],[-61.0605,7.80077],[-61.05833,7.79741],[-61.0574,7.80001],[-61.05561,7.79826],[-61.04718,7.80155],[-61.04185,7.79648],[-61.0394,7.79749],[-61.02973,7.79356],[-61.02521,7.78885],[-61.02595,7.78605],[-61.02206,7.7796],[-61.01401,7.78107],[-61.01221,7.77926],[-61.01073,7.7812],[-61.00803,7.7782],[-61.00716,7.78088],[-61.00334,7.78006],[-61.003,7.77799],[-60.99872,7.77955],[-60.99733,7.77615],[-60.98934,7.77488],[-60.98862,7.77661],[-60.98511,7.77313],[-60.98067,7.77414],[-60.97798,7.77117],[-60.97512,7.77276],[-60.97528,7.77019],[-60.97268,7.77061],[-60.97096,7.76808],[-60.96004,7.76799],[-60.95402,7.7652],[-60.95179,7.76811],[-60.94802,7.76626],[-60.94689,7.76967],[-60.94294,7.77106],[-60.93619,7.76719],[-60.93084,7.77009],[-60.93404,7.77177],[-60.93256,7.77796],[-60.93861,7.78424],[-60.93602,7.78383],[-60.93657,7.78724],[-60.932,7.79159],[-60.93316,7.79604],[-60.92952,7.7972],[-60.93315,7.79945],[-60.93248,7.80174],[-60.92942,7.80113],[-60.93093,7.80485],[-60.92543,7.80713],[-60.92232,7.81245],[-60.90614,7.8101],[-60.90109,7.81792],[-60.89573,7.82112],[-60.8927,7.82041],[-60.89249,7.82524],[-60.88781,7.82614],[-60.88983,7.82804],[-60.88476,7.83077],[-60.88334,7.83573],[-60.88368,7.83794],[-60.8891,7.83929],[-60.88536,7.84183],[-60.8891,7.84408],[-60.8854,7.84838],[-60.88609,7.85048],[-60.8792,7.85261],[-60.87095,7.85982],[-60.86602,7.86585],[-60.86703,7.86724],[-60.86852,7.86507],[-60.87058,7.87129],[-60.86547,7.8733],[-60.86428,7.8773],[-60.86173,7.87699],[-60.85687,7.88301],[-60.85405,7.88138],[-60.85205,7.88352],[-60.84723,7.88004],[-60.84064,7.88853],[-60.83236,7.88264],[-60.83179,7.89011],[-60.82909,7.88965],[-60.82661,7.89246],[-60.82182,7.88843],[-60.81879,7.89379],[-60.81002,7.89247],[-60.81057,7.89488],[-60.79911,7.89786],[-60.79352,7.90328],[-60.792,7.90162],[-60.79191,7.90452],[-60.78924,7.90191],[-60.78592,7.90267],[-60.78671,7.90018],[-60.77514,7.90232],[-60.77467,7.90519],[-60.77171,7.90267],[-60.76107,7.90284],[-60.76074,7.90098],[-60.75886,7.90389],[-60.75882,7.90071],[-60.75187,7.90498],[-60.75354,7.90591],[-60.75171,7.90741],[-60.74298,7.90206],[-60.74386,7.89659],[-60.7415,7.89761],[-60.73308,7.89273],[-60.72853,7.89434],[-60.7268,7.88752],[-60.72164,7.88739],[-60.71695,7.8839],[-60.70392,7.89122],[-60.69637,7.88811],[-60.69228,7.89209],[-60.6884,7.89077],[-60.68769,7.89614],[-60.67968,7.89559],[-60.67067,7.90919],[-60.66615,7.91033],[-60.66137,7.91566],[-60.66344,7.92923],[-60.65846,7.95129],[-60.65214,7.95064],[-60.65124,7.94822],[-60.64435,7.94974],[-60.64061,7.94624],[-60.63547,7.94752],[-60.63433,7.94223],[-60.63615,7.93856],[-60.62713,7.93514],[-60.63025,7.93304],[-60.62992,7.92871],[-60.62415,7.92613],[-60.62355,7.92133],[-60.62078,7.9227],[-60.6142,7.92023],[-60.61237,7.92319],[-60.60746,7.92285],[-60.6026,7.92841],[-60.596,7.92433],[-60.59317,7.92719],[-60.58264,7.92958],[-60.57823,7.92726],[-60.57184,7.92782],[-60.57097,7.93155],[-60.56098,7.93994],[-60.55637,7.95796],[-60.55251,7.95774],[-60.55283,7.96156],[-60.54866,7.96333],[-60.54882,7.97778],[-60.55301,7.98229],[-60.54137,7.98652],[-60.54239,7.99241],[-60.53946,7.99259],[-60.54055,7.99486],[-60.53631,7.99155],[-60.53189,7.99321],[-60.53179,7.99706],[-60.52788,8.00049],[-60.5271,8.01146],[-60.51541,8.00863],[-60.51096,8.01474],[-60.50499,8.01207],[-60.50492,8.00519],[-60.50192,7.99985],[-60.48969,8.00355],[-60.47743,7.99391],[-60.47031,7.99658],[-60.46884,7.98754],[-60.45893,7.98263],[-60.4586,7.97863],[-60.45395,7.97775],[-60.45406,7.9749],[-60.44459,7.97526],[-60.43578,7.972],[-60.42973,7.97486],[-60.42969,7.98041],[-60.42414,7.98173],[-60.42056,7.97975],[-60.41719,7.97296],[-60.40299,7.97241],[-60.40018,7.9664],[-60.39288,7.96935],[-60.38778,7.96802],[-60.38499,7.96151],[-60.37812,7.96232],[-60.37578,7.96489],[-60.36483,7.96197],[-60.35954,7.95638],[-60.36142,7.95125],[-60.35841,7.94897],[-60.34718,7.94665],[-60.33957,7.95127],[-60.33492,7.94961],[-60.33378,7.94315],[-60.32906,7.94474],[-60.32625,7.94268],[-60.32041,7.94328],[-60.31829,7.93917],[-60.30198,7.93964],[-60.30284,7.93233],[-60.29769,7.93042],[-60.29599,7.92731],[-60.2929,7.92772],[-60.29196,7.92481],[-60.28457,7.92553],[-60.28582,7.92321],[-60.28413,7.92278],[-60.26953,7.92766],[-60.2671,7.92433],[-60.25571,7.92386],[-60.24974,7.9278],[-60.24352,7.92497],[-60.24341,7.93126],[-60.23284,7.93235],[-60.23243,7.93544],[-60.22892,7.93593],[-60.23477,7.94109],[-60.23495,7.94423],[-60.2202,7.9548],[-60.2182,7.95857],[-60.20574,7.95735],[-60.19827,7.95925],[-60.19534,7.96358],[-60.19698,7.96742],[-60.19438,7.96429],[-60.19131,7.96618],[-60.18841,7.9619],[-60.17116,7.97421],[-60.16468,7.97235],[-60.16549,7.97389],[-60.16135,7.97763],[-60.16348,7.97959],[-60.14865,7.98454],[-60.14141,7.99059],[-60.13936,7.98975],[-60.13916,7.9938],[-60.13378,7.99651],[-60.13174,8.00804],[-60.12791,8.01016],[-60.12934,8.01254],[-60.12316,8.01762],[-60.12276,8.02903],[-60.1042,8.02953],[-60.10056,8.03214],[-60.10085,8.03505],[-60.08918,8.03605],[-60.08496,8.03099],[-60.07734,8.03222],[-60.06588,8.02406],[-60.05476,8.02432],[-60.04823,8.02803],[-60.04234,8.03601],[-60.03264,8.03363],[-60.0231,8.04684],[-60.01076,8.05484],[-60.00694,8.06008],[-60.00766,8.07112],[-60.00019,8.07633],[-60.00068,8.09813],[-59.99457,8.11951],[-59.98098,8.13347],[-59.98223,8.13946],[-59.99362,8.1513],[-59.99479,8.15636],[-59.98299,8.16941],[-59.97689,8.18753],[-59.94972,8.19472],[-59.94552,8.20314],[-59.93996,8.20328],[-59.92239,8.21341],[-59.91308,8.21219],[-59.90491,8.21923],[-59.89046,8.21978],[-59.86678,8.2248],[-59.84859,8.22493]]]]}},{"type":"Feature","id":"relation/11046659","properties":{"name":"Municipio Tucupita","level":6,"population":"102877"},"geometry":{"type":"Polygon","coordinates":[[[-61.82775,9.80274],[-61.83335,9.78523],[-61.83281,9.77466],[-61.82558,9.76521],[-61.81134,9.76396],[-61.80827,9.75501],[-61.80917,9.72934],[-61.81372,9.71614],[-61.83654,9.68175],[-61.83834,9.67762],[-61.83595,9.67667],[-61.84124,9.65898],[-61.84455,9.65949],[-61.84831,9.65029],[-61.8465,9.6222],[-61.85103,9.60423],[-61.8604,9.58352],[-61.86075,9.56965],[-61.85573,9.56475],[-61.85834,9.55531],[-61.87259,9.53718],[-61.88103,9.51641],[-61.88708,9.51534],[-61.89659,9.50755],[-61.91016,9.48096],[-61.93006,9.46795],[-61.95132,9.46156],[-61.97274,9.43672],[-62.00959,9.41994],[-62.01575,9.4314],[-62.02311,9.43266],[-62.02746,9.4277],[-62.02443,9.42067],[-62.02523,9.41405],[-62.03611,9.40433],[-62.05616,9.40008],[-62.06394,9.39566],[-62.07357,9.39586],[-62.08846,9.38554],[-62.0917,9.38512],[-62.09596,9.38919],[-62.10209,9.38859],[-62.10187,9.38608],[-62.1105,9.38349],[-62.11923,9.37545],[-62.12731,9.37626],[-62.13275,9.38183],[-62.13497,9.38135],[-62.13354,9.39248],[-62.14658,9.40111],[-62.14612,9.40298],[-62.16335,9.404],[-62.19168,9.38641],[-62.20015,9.37032],[-62.20752,9.37506],[-62.21264,9.38426],[-62.21307,9.38979],[-62.20741,9.40524],[-62.21022,9.40559],[-62.21946,9.41809],[-62.21704,9.41983],[-62.22083,9.43221],[-62.22579,9.43118],[-62.22995,9.42583],[-62.2377,9.42575],[-62.24929,9.43318],[-62.26184,9.43394],[-62.27193,9.44728],[-62.28941,9.44774],[-62.29062,9.45019],[-62.2851,9.45617],[-62.28193,9.46437],[-62.28951,9.46704],[-62.30658,9.48127],[-62.3093,9.47833],[-62.30808,9.47013],[-62.3112,9.46538],[-62.31531,9.46407],[-62.32518,9.46604],[-62.32473,9.45325],[-62.34803,9.44302],[-62.35884,9.44822],[-62.3671,9.45913],[-62.37571,9.46048],[-62.3875,9.46679],[-62.39856,9.46723],[-62.40591,9.43355],[-62.41148,9.41987],[-62.40934,9.41225],[-62.40492,9.40726],[-62.37906,9.39534],[-62.35775,9.39563],[-62.34709,9.38096],[-62.32733,9.3693],[-62.32256,9.3599],[-62.32366,9.35227],[-62.34018,9.33817],[-62.34366,9.32445],[-62.33576,9.30762],[-62.32332,9.2947],[-62.3303,9.28228],[-62.32792,9.26189],[-62.32092,9.2556],[-62.31716,9.24481],[-62.30721,9.23933],[-62.30162,9.22628],[-62.31203,9.21666],[-62.30596,9.20448],[-62.30456,9.1856],[-62.30837,9.18207],[-62.32083,9.1779],[-62.32668,9.16828],[-62.32929,9.15488],[-62.32896,9.12829],[-62.31579,9.12946],[-62.30223,9.13793],[-62.27938,9.13062],[-62.26279,9.13274],[-62.26153,9.12868],[-62.26595,9.11789],[-62.26463,9.11162],[-62.24048,9.09438],[-62.22327,9.08891],[-62.22768,9.06306],[-62.22562,9.05949],[-62.21713,9.0598],[-62.20432,9.06649],[-62.19416,9.06402],[-62.1903,9.06525],[-62.18642,9.07101],[-62.18801,9.08686],[-62.16219,9.08748],[-62.16001,9.09056],[-62.1648,9.10365],[-62.16098,9.10559],[-62.15039,9.10288],[-62.14276,9.09702],[-62.14204,9.08893],[-62.1482,9.07397],[-62.14686,9.06632],[-62.11812,9.04802],[-62.11048,9.04744],[-62.11285,9.06752],[-62.09978,9.08023],[-62.0851,9.07387],[-62.06777,9.05789],[-62.05507,9.05423],[-62.05397,9.03884],[-62.05894,9.02268],[-62.08438,8.98807],[-62.08818,8.96912],[-62.07095,8.92594],[-62.06267,8.91246],[-62.05451,8.88021],[-62.05617,8.87509],[-62.05087,8.87444],[-62.03366,8.88102],[-62.01887,8.89434],[-62.01014,8.89888],[-61.99924,8.89733],[-61.99433,8.88889],[-62.00648,8.8806],[-62.01122,8.86387],[-62.02073,8.84826],[-62.02096,8.84106],[-62.04533,8.82982],[-62.05803,8.81506],[-62.05936,8.8065],[-62.05606,8.7764],[-62.06288,8.75798],[-62.07537,8.74701],[-62.09402,8.74126],[-62.10966,8.73314],[-62.12563,8.71365],[-62.11146,8.71246],[-62.09473,8.70491],[-62.0673,8.68077],[-62.02533,8.66211],[-62.00156,8.66783],[-61.99164,8.66754],[-61.95517,8.6372],[-61.94384,8.63334],[-61.92628,8.63449],[-61.9062,8.62961],[-61.88599,8.6193],[-61.87388,8.61739],[-61.85174,8.60555],[-61.80166,8.61535],[-61.77625,8.60848],[-61.75844,8.60648],[-61.7114,8.60886],[-61.71516,8.62375],[-61.72864,8.63385],[-61.73116,8.63898],[-61.71659,8.64138],[-61.68901,8.65434],[-61.67175,8.68082],[-61.58013,8.75441],[-61.55185,8.83851],[-61.21239,9.16162],[-61.16913,9.28985],[-60.9658,9.50338],[-60.95361,9.52719],[-60.98304,9.54823],[-61.01514,9.56369],[-61.0387,9.56952],[-61.10445,9.57979],[-61.15173,9.59469],[-61.20655,9.61773],[-61.21365,9.62516],[-61.21926,9.6392],[-61.22581,9.64577],[-61.26355,9.66825],[-61.29941,9.69582],[-61.33137,9.72533],[-61.43293,9.83127],[-61.45742,9.84757],[-61.4848,9.85975],[-61.51989,9.88701],[-61.53274,9.89057],[-61.57254,9.89292],[-61.64304,9.91515],[-61.67113,9.91428],[-61.67772,9.90914],[-61.68278,9.89965],[-61.68205,9.88899],[-61.66343,9.86472],[-61.6593,9.85455],[-61.66957,9.82499],[-61.67511,9.82003],[-61.69488,9.81874],[-61.75683,9.83923],[-61.77591,9.84299],[-61.81564,9.84426],[-61.83749,9.83764],[-61.8538,9.82738],[-61.82775,9.80274]]]}},{"type":"Feature","id":"relation/11089546","properties":{"name":"Municipio Libertador","level":6,"population":"45274"},"geometry":{"type":"Polygon","coordinates":[[[-62.39126,9.03444],[-62.38658,9.03269],[-62.37897,9.03746],[-62.3557,9.04162],[-62.34702,9.04028],[-62.3449,9.0426],[-62.34766,9.05233],[-62.35502,9.05087],[-62.35754,9.05269],[-62.3581,9.06155],[-62.35473,9.06661],[-62.34779,9.06843],[-62.34698,9.07615],[-62.35264,9.07829],[-62.35165,9.08303],[-62.34623,9.08557],[-62.34265,9.07992],[-62.33761,9.08054],[-62.33237,9.08427],[-62.33062,9.09171],[-62.32373,9.09632],[-62.32551,9.11128],[-62.331,9.11559],[-62.32639,9.12497],[-62.33004,9.13194],[-62.32919,9.15588],[-62.32295,9.17572],[-62.30456,9.1856],[-62.30596,9.20448],[-62.31203,9.21666],[-62.30327,9.22287],[-62.3016,9.22789],[-62.30721,9.23933],[-62.31716,9.24481],[-62.32092,9.2556],[-62.32792,9.26189],[-62.3303,9.28228],[-62.32332,9.2947],[-62.33576,9.30762],[-62.3434,9.32284],[-62.34366,9.32939],[-62.34018,9.33817],[-62.32308,9.35344],[-62.32256,9.3599],[-62.32548,9.36695],[-62.34709,9.38096],[-62.35775,9.39563],[-62.37767,9.39474],[-62.40749,9.40963],[-62.41148,9.4207],[-62.40646,9.43154],[-62.40373,9.44805],[-62.41157,9.44473],[-62.43031,9.44426],[-62.43407,9.43772],[-62.43455,9.42838],[-62.44121,9.4261],[-62.44678,9.41994],[-62.4598,9.41846],[-62.46562,9.41554],[-62.46994,9.40695],[-62.47453,9.40523],[-62.474,9.39988],[-62.46696,9.39154],[-62.4722,9.39082],[-62.47702,9.39329],[-62.48243,9.39012],[-62.48013,9.37832],[-62.47696,9.37621],[-62.47476,9.3688],[-62.46416,9.36316],[-62.4595,9.35677],[-62.45993,9.35389],[-62.47279,9.34143],[-62.48137,9.33902],[-62.49077,9.32966],[-62.4997,9.32712],[-62.50015,9.31927],[-62.5076,9.31354],[-62.50873,9.30737],[-62.50399,9.29232],[-62.50637,9.28632],[-62.5013,9.28211],[-62.50339,9.27876],[-62.51009,9.27668],[-62.50873,9.2645],[-62.51399,9.26516],[-62.52056,9.27379],[-62.52566,9.2709],[-62.5283,9.274],[-62.5384,9.27597],[-62.54087,9.27163],[-62.53862,9.25618],[-62.54798,9.2543],[-62.55181,9.24449],[-62.54869,9.23888],[-62.54462,9.23744],[-62.54459,9.23244],[-62.54807,9.22654],[-62.54679,9.21973],[-62.54285,9.21896],[-62.53944,9.21346],[-62.54316,9.21286],[-62.54363,9.21045],[-62.54682,9.21138],[-62.54908,9.20891],[-62.55514,9.21335],[-62.55745,9.20959],[-62.56202,9.215],[-62.56197,9.21216],[-62.5663,9.21269],[-62.56852,9.20813],[-62.571,9.20824],[-62.56798,9.20632],[-62.56815,9.20304],[-62.57364,9.20027],[-62.58216,9.20664],[-62.58534,9.20397],[-62.58948,9.20529],[-62.58838,9.20241],[-62.59114,9.1983],[-62.59413,9.19968],[-62.59688,9.19593],[-62.59937,9.19934],[-62.60781,9.20205],[-62.60972,9.19814],[-62.61349,9.19909],[-62.61219,9.19448],[-62.61568,9.19695],[-62.61615,9.19465],[-62.62202,9.19235],[-62.62111,9.1965],[-62.62484,9.19776],[-62.62338,9.19997],[-62.63309,9.20283],[-62.63772,9.2079],[-62.64351,9.20689],[-62.64529,9.21298],[-62.65072,9.21233],[-62.64983,9.21595],[-62.65111,9.21433],[-62.65685,9.21779],[-62.66251,9.21631],[-62.66079,9.21957],[-62.66367,9.22131],[-62.66467,9.22659],[-62.66297,9.22804],[-62.6673,9.23337],[-62.66293,9.23526],[-62.67003,9.23885],[-62.67188,9.23512],[-62.67483,9.23537],[-62.67466,9.2409],[-62.67898,9.2361],[-62.67803,9.23994],[-62.68234,9.23809],[-62.68401,9.24291],[-62.688,9.24138],[-62.68799,9.24723],[-62.6944,9.24571],[-62.69747,9.2414],[-62.69841,9.24459],[-62.70098,9.24513],[-62.70425,9.23996],[-62.70652,9.24347],[-62.70926,9.24325],[-62.71769,9.23457],[-62.72301,9.24219],[-62.72544,9.23803],[-62.72893,9.23876],[-62.73138,9.24273],[-62.72952,9.24484],[-62.73398,9.24935],[-62.73832,9.24719],[-62.74375,9.24848],[-62.74513,9.24552],[-62.75239,9.24563],[-62.76763,9.2395],[-62.76889,9.23159],[-62.77199,9.22995],[-62.77406,9.22319],[-62.78153,9.22171],[-62.77942,9.21959],[-62.77948,9.21355],[-62.78292,9.21326],[-62.79595,9.19518],[-62.79578,9.19266],[-62.78627,9.1865],[-62.78692,9.18299],[-62.79066,9.18344],[-62.78696,9.17966],[-62.78746,9.17177],[-62.79205,9.17233],[-62.78972,9.16753],[-62.79336,9.16521],[-62.79067,9.16344],[-62.79392,9.15896],[-62.79255,9.1571],[-62.79547,9.15043],[-62.79881,9.14882],[-62.79774,9.14552],[-62.80426,9.14189],[-62.80669,9.13677],[-62.80421,9.13489],[-62.80577,9.13073],[-62.80173,9.12397],[-62.80142,9.11844],[-62.80361,9.11647],[-62.79917,9.11331],[-62.79971,9.10797],[-62.79634,9.10649],[-62.79629,9.10271],[-62.7923,9.10112],[-62.79318,9.09785],[-62.79037,9.09465],[-62.79156,9.08729],[-62.78958,9.08785],[-62.78655,9.08348],[-62.78747,9.08138],[-62.78334,9.07856],[-62.78131,9.07971],[-62.77567,9.07232],[-62.77728,9.06211],[-62.7746,9.05846],[-62.7777,9.05116],[-62.77479,9.0433],[-62.77146,9.04083],[-62.77427,9.03776],[-62.77177,9.0343],[-62.77562,9.02734],[-62.77272,9.0233],[-62.77503,9.02089],[-62.77327,9.013],[-62.77646,9.00207],[-62.77464,9.00187],[-62.77882,8.99787],[-62.77712,8.99694],[-62.7811,8.99057],[-62.78807,8.98712],[-62.793,8.97128],[-62.79526,8.97097],[-62.79795,8.96137],[-62.79716,8.95123],[-62.80117,8.94458],[-62.79996,8.94156],[-62.80469,8.93757],[-62.80392,8.9337],[-62.80682,8.93075],[-62.80487,8.92788],[-62.80713,8.92753],[-62.80679,8.92253],[-62.80974,8.91999],[-62.80839,8.91688],[-62.81712,8.90583],[-62.81947,8.89561],[-62.83295,8.88769],[-62.83538,8.88126],[-62.84197,8.87701],[-62.84738,8.86687],[-62.85633,8.86242],[-62.86207,8.85388],[-62.865,8.85395],[-62.86489,8.85165],[-62.86989,8.8479],[-62.87004,8.84261],[-62.87528,8.83932],[-62.87468,8.83639],[-62.87913,8.83314],[-62.87865,8.83002],[-62.88767,8.8228],[-62.8892,8.81877],[-62.89132,8.81994],[-62.89519,8.81629],[-62.89363,8.81389],[-62.9124,8.80453],[-62.91075,8.8033],[-62.91546,8.7965],[-62.91767,8.79719],[-62.92249,8.79034],[-62.92957,8.78566],[-62.94144,8.7681],[-62.94591,8.76811],[-62.94511,8.76455],[-62.94828,8.76324],[-62.95312,8.75514],[-62.95546,8.75535],[-62.95781,8.7494],[-62.9608,8.75131],[-62.96976,8.74455],[-62.97733,8.74302],[-62.9875,8.74451],[-62.9917,8.74284],[-63.00918,8.75074],[-63.02563,8.75066],[-63.03152,8.74016],[-63.03042,8.73819],[-63.0328,8.73704],[-63.03653,8.72176],[-63.0416,8.71702],[-63.0498,8.6982],[-63.05934,8.69381],[-63.06379,8.68895],[-63.08135,8.68595],[-63.08617,8.68741],[-63.0898,8.68512],[-63.08597,8.67129],[-63.02732,8.69733],[-62.94801,8.5357],[-62.721,8.46678],[-62.71423,8.46903],[-62.69835,8.47774],[-62.7146,8.52278],[-62.71541,8.64348],[-62.71243,8.64531],[-62.71033,8.65288],[-62.69024,8.66144],[-62.6811,8.6725],[-62.68133,8.67708],[-62.67871,8.67773],[-62.64128,8.79476],[-62.62992,8.82322],[-62.66177,8.88183],[-62.65492,8.88454],[-62.64046,8.90074],[-62.61736,8.90328],[-62.6073,8.90733],[-62.59584,8.91878],[-62.58206,8.92202],[-62.5751,8.9313],[-62.57603,8.93949],[-62.57184,8.94931],[-62.56229,8.95731],[-62.56045,8.9659],[-62.55449,8.96974],[-62.55053,8.96982],[-62.54113,8.97666],[-62.53459,8.97547],[-62.52632,8.97747],[-62.52441,8.97486],[-62.52003,8.97633],[-62.5196,8.97988],[-62.51029,8.982],[-62.50877,8.98606],[-62.50357,8.98822],[-62.49814,8.98671],[-62.49586,8.98992],[-62.49373,8.98754],[-62.48513,8.99083],[-62.48136,8.98886],[-62.47776,8.99005],[-62.47107,8.98463],[-62.47135,8.98644],[-62.4633,8.98758],[-62.45708,8.99277],[-62.45147,8.99367],[-62.446,9.00076],[-62.44297,9.00068],[-62.43956,9.00457],[-62.43466,9.00397],[-62.4291,8.99913],[-62.41972,8.99782],[-62.41387,9.00206],[-62.41255,9.00661],[-62.40732,9.00491],[-62.40448,9.01309],[-62.39739,9.01549],[-62.397,9.02054],[-62.38744,9.0301],[-62.38846,9.0316],[-62.39091,9.0293],[-62.39126,9.03444]]]}}]}