{"type":"FeatureCollection","features":[{"type":"Feature","id":"node/829834635","properties":{"name":"Tucupita","place":"city","population":"148750"},"geometry":{"type":"Point","coordinates":[-62.0543,9.06603]}},{"type":"Feature","id":"node/1517424401","properties":{"name":"El Triunfo","place":"town"},"geometry":{"type":"Point","coordinates":[-62.4959,8.41517]}},{"type":"Feature","id":"node/1517424410","properties":{"name":"Los Castillos de Guayana","place":"village"},"geometry":{"type":"Point","coordinates":[-62.40344,8.50757]}},{"type":"Feature","id":"node/1691362791","properties":{"name":"Sierra Imataca","place":"town"},"geometry":{"type":"Point","coordinates":[-62.4527,8.39412]}},{"type":"Feature","id":"node/1873902461","properties":{"name":"San Francisco de Guayo","place":"village","population":"1176"},"geometry":{"type":"Point","coordinates":[-60.88789,9.0226]}},{"type":"Feature","id":"node/2837150857","properties":{"name":"Pueblo Casacoima","place":"village"},"geometry":{"type":"Point","coordinates":[-62.24237,8.51718]}},{"type":"Feature","id":"node/2837151877","properties":{"name":"Santa Catalina del Orinoco","place":"village"},"geometry":{"type":"Point","coordinates":[-61.86278,8.53477]}},{"type":"Feature","id":"node/2837151899","properties":{"name":"Manoa","place":"village"},"geometry":{"type":"Point","coordinates":[-61.3316,8.42424]}},{"type":"Feature","id":"node/2837152255","properties":{"name":"Curiapo","place":"village"},"geometry":{"type":"Point","coordinates":[-60.99819,8.58128]}},{"type":"Feature","id":"node/2837152277","properties":{"name":"Guasey","place":"village"},"geometry":{"type":"Point","coordinates":[-61.14526,8.41624]}},{"type":"Feature","id":"node/2837152283","properties":{"name":"Cuyubin\u00ed","place":"village"},"geometry":{"type":"Point","coordinates":[-60.32378,8.39144]}},{"type":"Feature","id":"node/2837152293","properties":{"name":"Sacupana","place":"village"},"geometry":{"type":"Point","coordinates":[-61.65115,8.57328]}},{"type":"Feature","id":"node/2837152423","properties":{"name":"San Jos\u00e9 de Amacuro","place":"village"},"geometry":{"type":"Point","coordinates":[-60.47321,8.51981]}},{"type":"Feature","id":"node/2838859759","properties":{"name":"Esa\u00f1a","place":"village"},"geometry":{"type":"Point","coordinates":[-61.09853,9.22066]}},{"type":"Feature","id":"node/2838859765","properties":{"name":"Siawani","place":"village"},"geometry":{"type":"Point","coordinates":[-60.94823,9.15901]}},{"type":"Feature","id":"node/2838859766","properties":{"name":"Nabasanuka","place":"village"},"geometry":{"type":"Point","coordinates":[-60.96754,9.13379]}},{"type":"Feature","id":"node/2838859770","properties":{"name":"Joruajito","place":"village"},"geometry":{"type":"Point","coordinates":[-61.05006,9.01529]}},{"type":"Feature","id":"node/2838859808","properties":{"name":"Coboina","place":"village"},"geometry":{"type":"Point","coordinates":[-61.07708,9.11661]}},{"type":"Feature","id":"node/2838859811","properties":{"name":"Mariuseros","place":"village"},"geometry":{"type":"Point","coordinates":[-61.08703,9.30114]}},{"type":"Feature","id":"node/2838859817","properties":{"name":"El Borboll\u00f3n","place":"village"},"geometry":{"type":"Point","coordinates":[-61.0424,9.1944]}},{"type":"Feature","id":"node/2838859821","properties":{"name":"Soburojo","place":"village"},"geometry":{"type":"Point","coordinates":[-61.05425,9.52248]}},{"type":"Feature","id":"node/2838859823","properties":{"name":"Moninoco","place":"village"},"geometry":{"type":"Point","coordinates":[-60.89294,9.08619]}},{"type":"Feature","id":"node/2838864104","properties":{"name":"Vuelta Larga","place":"village"},"geometry":{"type":"Point","coordinates":[-61.82721,9.16064]}},{"type":"Feature","id":"node/2838864115","properties":{"name":"El Muertico","place":"village"},"geometry":{"type":"Point","coordinates":[-61.84284,8.97044]}},{"type":"Feature","id":"node/2838864122","properties":{"name":"Pueblo Blanco","place":"village"},"geometry":{"type":"Point","coordinates":[-61.80215,9.18724]}},{"type":"Feature","id":"node/2838864139","properties":{"name":"El Tirital","place":"village"},"geometry":{"type":"Point","coordinates":[-61.81812,9.06775]}},{"type":"Feature","id":"node/3126286669","properties":{"name":"Pedernales","place":"village"},"geometry":{"type":"Point","coordinates":[-62.25372,9.96928]}},{"type":"Feature","id":"node/3126377100","properties":{"name":"Capure","place":"village"},"geometry":{"type":"Point","coordinates":[-62.23687,9.97807]}},{"type":"Feature","id":"node/5239908395","properties":{"name":"Piacoa","place":"town"},"geometry":{"type":"Point","coordinates":[-62.13297,8.56202]}},{"type":"Feature","id":"node/5241582078","properties":{"name":"Coporito","place":"town"},"geometry":{"type":"Point","coordinates":[-61.99507,8.87098]}},{"type":"Feature","id":"node/5241582406","properties":{"name":"Puerto Volc\u00e1n","place":"village"},"geometry":{"type":"Point","coordinates":[-62.03099,8.88736]}},{"type":"Feature","id":"node/5241582407","properties":{"name":"Volc\u00e1n","place":"town"},"geometry":{"type":"Point","coordinates":[-62.04244,8.88733]}},{"type":"Feature","id":"node/5241582408","properties":{"name":"Carapal","place":"town"},"geometry":{"type":"Point","coordinates":[-62.05114,8.89349]}},{"type":"Feature","id":"node/5241582433","properties":{"name":"San Jos\u00e9 de Macare\u00edto","place":"village"},"geometry":{"type":"Point","coordinates":[-61.98748,8.91603]}},{"type":"Feature","id":"node/5241582481","properties":{"name":"Guacasia","place":"village"},"geometry":{"type":"Point","coordinates":[-61.96618,8.93443]}},{"type":"Feature","id":"node/5241582623","properties":{"name":"Jonokosebe","place":"village"},"geometry":{"type":"Point","coordinates":[-62.05856,8.91744]}},{"type":"Feature","id":"node/5241582628","properties":{"name":"El Caj\u00f3n","place":"village"},"geometry":{"type":"Point","coordinates":[-62.05783,8.92177]}},{"type":"Feature","id":"node/5241582629","properties":{"name":"San Salvador","place":"village"},"geometry":{"type":"Point","coordinates":[-62.05888,8.93718]}},{"type":"Feature","id":"node/5241582630","properties":{"name":"Agua Negra","place":"village"},"geometry":{"type":"Point","coordinates":[-62.07356,8.9468]}},{"type":"Feature","id":"node/5241582632","properties":{"name":"La Frontera","place":"village"},"geometry":{"type":"Point","coordinates":[-62.08191,8.96304]}},{"type":"Feature","id":"node/5241582633","properties":{"name":"Paloma","place":"town"},"geometry":{"type":"Point","coordinates":[-62.07129,8.99845]}},{"type":"Feature","id":"node/5241593865","properties":{"name":"La Florida","place":"town"},"geometry":{"type":"Point","coordinates":[-62.0756,9.13152]}},{"type":"Feature","id":"node/5241593883","properties":{"name":"San Jos\u00e9 de Chaguaramal","place":"village"},"geometry":{"type":"Point","coordinates":[-62.08525,9.15855]}},{"type":"Feature","id":"node/5241593897","properties":{"name":"Londres","place":"village"},"geometry":{"type":"Point","coordinates":[-62.07064,9.13828]}},{"type":"Feature","id":"node/5241593898","properties":{"name":"Clavellina","place":"village"},"geometry":{"type":"Point","coordinates":[-62.10557,9.17995]}},{"type":"Feature","id":"node/5241594027","properties":{"name":"Ceiba Mocha","place":"village"},"geometry":{"type":"Point","coordinates":[-62.11367,9.19435]}},{"type":"Feature","id":"node/5241594064","properties":{"name":"La Horqueta","place":"town"},"geometry":{"type":"Point","coordinates":[-62.07206,9.23032]}},{"type":"Feature","id":"node/5241623849","properties":{"name":"Guasina","place":"village"},"geometry":{"type":"Point","coordinates":[-62.03541,9.08679]}},{"type":"Feature","id":"node/5241623864","properties":{"name":"Las Mulas","place":"village"},"geometry":{"type":"Point","coordinates":[-62.00738,9.11052]}},{"type":"Feature","id":"node/5241623894","properties":{"name":"Palo Blanco","place":"village"},"geometry":{"type":"Point","coordinates":[-61.93354,9.14518]}},{"type":"Feature","id":"node/5241624433","properties":{"name":"El Caigual","place":"village"},"geometry":{"type":"Point","coordinates":[-61.91341,9.15444]}},{"type":"Feature","id":"node/5241624492","properties":{"name":"Los G\u00fcires","place":"village"},"geometry":{"type":"Point","coordinates":[-61.88902,9.18247]}},{"type":"Feature","id":"node/7526572587","properties":{"place":"village"},"geometry":{"type":"Point","coordinates":[-62.26241,8.57337]}},{"type":"Feature","id":"node/7538791818","properties":{"place":"village"},"geometry":{"type":"Point","coordinates":[-61.10252,9.13345]}},{"type":"Feature","id":"node/7623796914","properties":{"place":"village"},"geometry":{"type":"Point","coordinates":[-61.1283,9.03815]}},{"type":"Feature","id":"node/8655652113","properties":{"name":"Boca de Macareo","place":"village"},"geometry":{"type":"Point","coordinates":[-62.00531,8.83742]}},{"type":"Feature","id":"node/8659129147","properties":{"name":"La Fe","place":"village"},"geometry":{"type":"Point","coordinates":[-62.20078,8.50415]}},{"type":"Feature","id":"node/9300465061","properties":{"name":"El Zamuro","place":"village"},"geometry":{"type":"Point","coordinates":[-62.15265,9.16319]}},{"type":"Feature","id":"node/9490795725","properties":{"name":"Los Remolinos","place":"village"},"geometry":{"type":"Point","coordinates":[-62.03466,8.67624]}},{"type":"Feature","id":"node/9490795731","properties":{"name":"La Chivera","place":"village"},"geometry":{"type":"Point","coordinates":[-62.18858,8.65553]}},{"type":"Feature","id":"node/13285872207","properties":{"name":"Guiniquina","place":"village"},"geometry":{"type":"Point","coordinates":[-61.08875,9.1758]}},{"type":"Feature","id":"node/13759263842","properties":{"name":"Caig\u00fcire","place":"village"},"geometry":{"type":"Point","coordinates":[-60.8062,8.80375]}},{"type":"Feature","id":"node/13759263843","properties":{"name":"Juaneida","place":"village"},"geometry":{"type":"Point","coordinates":[-60.81438,8.76828]}},{"type":"Feature","id":"node/13759263844","properties":{"name":"Jobure de Curiapo","place":"village"},"geometry":{"type":"Point","coordinates":[-60.90707,8.74659]}},{"type":"Feature","id":"node/13759263845","properties":{"name":"Ajotejana","place":"village"},"geometry":{"type":"Point","coordinates":[-60.99592,8.7147]}}]}