{"type":"FeatureCollection","features":[{"type":"Feature","id":"way/106683573","properties":{"name":"Avenida Gu\u00e1sima","highway":"secondary","ref":"L-1"},"geometry":{"type":"LineString","coordinates":[[-62.05867,9.06626],[-62.05626,9.06269],[-62.05205,9.06263]]}},{"type":"Feature","id":"way/106683599","properties":{"highway":"secondary","ref":"L-1"},"geometry":{"type":"LineString","coordinates":[[-62.05867,9.06626],[-62.0604,9.06464],[-62.0569,9.0609]]}},{"type":"Feature","id":"way/106683608","properties":{"name":"Carretera Nacional V\u00eda a Tucupita","highway":"trunk","ref":"T-15"},"geometry":{"type":"LineString","coordinates":[[-62.05802,9.02076],[-62.05399,9.02911],[-62.05141,9.03777],[-62.05033,9.04886]]}},{"type":"Feature","id":"way/156896885","properties":{"name":"Carretera Regional San F\u00e9lix - El Triunfo","highway":"primary","ref":"L-3"},"geometry":{"type":"LineString","coordinates":[[-62.51361,8.42078],[-62.50416,8.41494],[-62.49363,8.41125],[-62.4902,8.41223]]}},{"type":"Feature","id":"way/168523726","properties":{"name":"Avenida Intercomunal","highway":"secondary","ref":"L-3;R-5"},"geometry":{"type":"LineString","coordinates":[[-62.4902,8.41223],[-62.48958,8.41201]]}},{"type":"Feature","id":"way/168524887","properties":{"name":"Carretera Regional El Triunfo - Piacoa","highway":"secondary","ref":"L-3"},"geometry":{"type":"LineString","coordinates":[[-62.48075,8.42818],[-62.47798,8.43105],[-62.47359,8.43177],[-62.47091,8.4335],[-62.46982,8.43515],[-62.46916,8.44029],[-62.46383,8.44547],[-62.45574,8.44746],[-62.45309,8.44983],[-62.45141,8.45462],[-62.45477,8.46118],[-62.45332,8.46345],[-62.42838,8.47229],[-62.39343,8.49216],[-62.38941,8.49182],[-62.38667,8.49021],[-62.31394,8.49427],[-62.31214,8.49594],[-62.31284,8.50257],[-62.30914,8.51151],[-62.30218,8.51682],[-62.29601,8.52364],[-62.27396,8.53558],[-62.26742,8.53676],[-62.26623,8.53526],[-62.26591,8.5312],[-62.24244,8.51626],[-62.22669,8.51431],[-62.22288,8.52008],[-62.21271,8.52532],[-62.20956,8.53028],[-62.18693,8.53106],[-62.16447,8.54518],[-62.15163,8.54873],[-62.1428,8.54754],[-62.1341,8.55943],[-62.13388,8.56336]]}},{"type":"Feature","id":"way/168802516","properties":{"name":"Avenida Intercomunal","highway":"secondary","ref":"R-5"},"geometry":{"type":"LineString","coordinates":[[-62.45512,8.39232],[-62.45866,8.39288],[-62.46138,8.3971],[-62.46177,8.40144],[-62.46275,8.40246],[-62.47203,8.40656],[-62.47469,8.40618],[-62.4791,8.40847],[-62.48593,8.40896],[-62.48958,8.41201]]}},{"type":"Feature","id":"way/317406875","properties":{"name":"Avenida Orinoco","highway":"secondary","ref":"L-1"},"geometry":{"type":"LineString","coordinates":[[-62.06,9.06816],[-62.08248,9.08026]]}},{"type":"Feature","id":"way/363384585","properties":{"name":"Avenida La Rivera","highway":"secondary","ref":"T-15"},"geometry":{"type":"LineString","coordinates":[[-62.05025,9.05434],[-62.05033,9.04886]]}},{"type":"Feature","id":"way/386257858","properties":{"name":"Avenida 19 de Abril","highway":"tertiary","ref":"L-2"},"geometry":{"type":"LineString","coordinates":[[-62.04167,9.05122],[-62.04918,9.04913]]}},{"type":"Feature","id":"way/386257859","properties":{"name":"Avenida Perimetral","highway":"tertiary","ref":"L-2"},"geometry":{"type":"LineString","coordinates":[[-62.03895,9.0592],[-62.03796,9.05513]]}},{"type":"Feature","id":"way/386257860","properties":{"name":"Avenida 19 de Abril","highway":"tertiary","ref":"L-2"},"geometry":{"type":"LineString","coordinates":[[-62.04915,9.04903],[-62.0417,9.05105]]}},{"type":"Feature","id":"way/386257861","properties":{"name":"Avenida Perimetral","highway":"tertiary","ref":"L-2"},"geometry":{"type":"LineString","coordinates":[[-62.04134,9.05108],[-62.03887,9.05382]]}},{"type":"Feature","id":"way/386257862","properties":{"name":"Avenida Perimetral","highway":"tertiary","ref":"L-2"},"geometry":{"type":"LineString","coordinates":[[-62.03773,9.05518],[-62.03877,9.05923]]}},{"type":"Feature","id":"way/386257874","properties":{"highway":"tertiary","ref":"L-2;R-2"},"geometry":{"type":"LineString","coordinates":[[-62.03869,9.05942],[-62.03869,9.05942]]}},{"type":"Feature","id":"way/386257875","properties":{"highway":"tertiary","ref":"L-2"},"geometry":{"type":"LineString","coordinates":[[-62.04946,9.04889],[-62.04946,9.04889]]}},{"type":"Feature","id":"way/386257876","properties":{"highway":"tertiary","ref":"L-2"},"geometry":{"type":"LineString","coordinates":[[-62.03794,9.05492],[-62.03794,9.05492]]}},{"type":"Feature","id":"way/386257889","properties":{"name":"Avenida La Rivera","highway":"secondary","ref":"T-15"},"geometry":{"type":"LineString","coordinates":[[-62.05084,9.05536],[-62.05077,9.05528]]}},{"type":"Feature","id":"way/386257891","properties":{"name":"Avenida Casacoima","highway":"tertiary","ref":"L-2"},"geometry":{"type":"LineString","coordinates":[[-62.04984,9.04893],[-62.04946,9.04889]]}},{"type":"Feature","id":"way/386257911","properties":{"name":"V\u00eda a La Horqueta","highway":"secondary","ref":"L-1"},"geometry":{"type":"LineString","coordinates":[[-62.08248,9.08026],[-62.079,9.08652],[-62.07366,9.08727],[-62.06976,9.09022],[-62.06593,9.09732],[-62.06638,9.1006],[-62.06874,9.10568],[-62.07699,9.11504],[-62.07521,9.11904],[-62.07627,9.12361],[-62.07467,9.13233]]}},{"type":"Feature","id":"way/386690578","properties":{"name":"Calle M\u00e1namo","highway":"secondary","ref":"L-1"},"geometry":{"type":"LineString","coordinates":[[-62.0569,9.0609],[-62.05178,9.05514]]}},{"type":"Feature","id":"way/386690600","properties":{"name":"Avenida Perimetral","highway":"tertiary","ref":"L-2"},"geometry":{"type":"LineString","coordinates":[[-62.04244,9.06354],[-62.04228,9.06345]]}},{"type":"Feature","id":"way/388897401","properties":{"name":"Avenida La Rivera","highway":"secondary","ref":"T-15"},"geometry":{"type":"LineString","coordinates":[[-62.0504,9.05539],[-62.05043,9.05551]]}},{"type":"Feature","id":"way/388897402","properties":{"name":"Avenida La Rivera","highway":"secondary","ref":"T-15"},"geometry":{"type":"LineString","coordinates":[[-62.05059,9.05499],[-62.05025,9.05434]]}},{"type":"Feature","id":"way/388897404","properties":{"name":"Avenida La Rivera","highway":"secondary","ref":"T-15"},"geometry":{"type":"LineString","coordinates":[[-62.05032,9.05507],[-62.0504,9.05539]]}},{"type":"Feature","id":"way/388897407","properties":{"name":"Avenida La Rivera","highway":"secondary","ref":"T-15"},"geometry":{"type":"LineString","coordinates":[[-62.05077,9.05528],[-62.05059,9.05499]]}},{"type":"Feature","id":"way/388897419","properties":{"name":"Avenida Dalla Costa","highway":"secondary","ref":"L-1"},"geometry":{"type":"LineString","coordinates":[[-62.05043,9.05551],[-62.05168,9.0609]]}},{"type":"Feature","id":"way/474225780","properties":{"highway":"tertiary","ref":"L-2;R-2"},"geometry":{"type":"LineString","coordinates":[[-62.04167,9.05122],[-62.04167,9.05122]]}},{"type":"Feature","id":"way/479378224","properties":{"name":"Avenida Casacoima","highway":"tertiary","ref":"L-2"},"geometry":{"type":"LineString","coordinates":[[-62.05033,9.04886],[-62.04984,9.04893]]}},{"type":"Feature","id":"way/480934717","properties":{"name":"Avenida Perimetral","highway":"tertiary","ref":"L-2"},"geometry":{"type":"LineString","coordinates":[[-62.03952,9.06192],[-62.039,9.05977]]}},{"type":"Feature","id":"way/480934719","properties":{"highway":"tertiary","ref":"L-2"},"geometry":{"type":"LineString","coordinates":[[-62.03938,9.06188],[-62.03938,9.06188]]}},{"type":"Feature","id":"way/517416363","properties":{"highway":"secondary","ref":"L-1"},"geometry":{"type":"LineString","coordinates":[[-62.05168,9.0609],[-62.0519,9.06191]]}},{"type":"Feature","id":"way/523721650","properties":{"name":"Carretera Regional San F\u00e9lix - El Triunfo","highway":"primary","ref":"L-3"},"geometry":{"type":"LineString","coordinates":[[-62.58741,8.40901],[-62.58452,8.41217],[-62.58,8.41346],[-62.57383,8.41924],[-62.56949,8.42145],[-62.56243,8.42054],[-62.55756,8.42111],[-62.55155,8.41621],[-62.54735,8.41591],[-62.53834,8.41237],[-62.53174,8.41718],[-62.52419,8.41978],[-62.5161,8.42154],[-62.51361,8.42078]]}},{"type":"Feature","id":"way/542132989","properties":{"name":"Carretera Ataguia - Boca de Macareo","highway":"tertiary","ref":"R-3"},"geometry":{"type":"LineString","coordinates":[[-62.00518,8.83816],[-62.00386,8.83922],[-62.00273,8.84436],[-61.99663,8.8576],[-61.99443,8.87141],[-61.99286,8.8727],[-61.99366,8.87638]]}},{"type":"Feature","id":"way/542132995","properties":{"name":"Entrada de Macare\u00edto","highway":"tertiary","ref":"R-6"},"geometry":{"type":"LineString","coordinates":[[-61.99824,8.90031],[-61.99596,8.9056],[-61.99184,8.9056],[-61.98693,8.90954],[-61.98736,8.91393]]}},{"type":"Feature","id":"way/542138066","properties":{"highway":"tertiary","ref":"L-2"},"geometry":{"type":"LineString","coordinates":[[-61.91603,9.17065],[-61.91225,9.16433],[-61.9109,9.15839],[-61.91139,9.15628],[-61.91307,9.15424],[-61.92006,9.15301],[-61.92524,9.14957]]}},{"type":"Feature","id":"way/558033282","properties":{"name":"Calle Tucupita","highway":"secondary","ref":"L-1"},"geometry":{"type":"LineString","coordinates":[[-62.05084,9.05536],[-62.05178,9.05514]]}},{"type":"Feature","id":"way/558033283","properties":{"name":"Avenida La Rivera","highway":"secondary","ref":"T-15"},"geometry":{"type":"LineString","coordinates":[[-62.05025,9.05434],[-62.05032,9.05507]]}},{"type":"Feature","id":"way/558033284","properties":{"name":"Calle Tucupita","highway":"secondary","ref":"T-15;L-1"},"geometry":{"type":"LineString","coordinates":[[-62.05043,9.05551],[-62.05084,9.05536]]}},{"type":"Feature","id":"way/558035500","properties":{"name":"Avenida Casacoima","highway":"tertiary","ref":"L-2"},"geometry":{"type":"LineString","coordinates":[[-62.04951,9.04907],[-62.04984,9.04893]]}},{"type":"Feature","id":"way/558038963","properties":{"name":"Avenida Perimetral","highway":"tertiary","ref":"L-2"},"geometry":{"type":"LineString","coordinates":[[-62.03799,9.05503],[-62.03883,9.05401]]}},{"type":"Feature","id":"way/558041351","properties":{"name":"Avenida Perimetral","highway":"tertiary","ref":"L-2"},"geometry":{"type":"LineString","coordinates":[[-62.03947,9.06213],[-62.04216,9.06347]]}},{"type":"Feature","id":"way/558044472","properties":{"highway":"tertiary","ref":"L-2"},"geometry":{"type":"LineString","coordinates":[[-62.04259,9.06361],[-62.04259,9.06361]]}},{"type":"Feature","id":"way/558079561","properties":{"name":"Avenida Perimetral","highway":"tertiary","ref":"L-2"},"geometry":{"type":"LineString","coordinates":[[-62.03884,9.05959],[-62.03888,9.05968]]}},{"type":"Feature","id":"way/690659590","properties":{"highway":"tertiary"},"geometry":{"type":"LineString","coordinates":[[-62.07491,9.13241],[-62.07467,9.13233]]}},{"type":"Feature","id":"way/690659594","properties":{"highway":"tertiary"},"geometry":{"type":"LineString","coordinates":[[-62.07491,9.13241],[-62.07516,9.13249]]}},{"type":"Feature","id":"way/690659595","properties":{"highway":"tertiary"},"geometry":{"type":"LineString","coordinates":[[-62.07516,9.13249],[-62.07863,9.13357]]}},{"type":"Feature","id":"way/690659604","properties":{"name":"V\u00eda a Zamuro","highway":"tertiary"},"geometry":{"type":"LineString","coordinates":[[-62.08257,9.13247],[-62.08382,9.13231],[-62.08672,9.12855],[-62.13034,9.15299]]}},{"type":"Feature","id":"way/691171660","properties":{"highway":"trunk_link","ref":"T-15"},"geometry":{"type":"LineString","coordinates":[[-62.04743,8.8876],[-62.04794,8.888]]}},{"type":"Feature","id":"way/691171661","properties":{"name":"Carretera Nacional V\u00eda a Tucupita","highway":"trunk","ref":"T-15"},"geometry":{"type":"LineString","coordinates":[[-62.04806,8.8883],[-62.04816,8.88772]]}},{"type":"Feature","id":"way/691286607","properties":{"name":"Avenida Perimetral","highway":"tertiary","ref":"L-2"},"geometry":{"type":"LineString","coordinates":[[-62.03895,9.05388],[-62.04154,9.05129]]}},{"type":"Feature","id":"way/691286608","properties":{"name":"Avenida Perimetral","highway":"tertiary","ref":"L-2"},"geometry":{"type":"LineString","coordinates":[[-62.03883,9.05401],[-62.03895,9.05388]]}},{"type":"Feature","id":"way/691286609","properties":{"name":"Avenida Perimetral","highway":"tertiary","ref":"L-2"},"geometry":{"type":"LineString","coordinates":[[-62.03876,9.05395],[-62.03777,9.05488]]}},{"type":"Feature","id":"way/691286610","properties":{"name":"Avenida Perimetral","highway":"tertiary","ref":"L-2"},"geometry":{"type":"LineString","coordinates":[[-62.03887,9.05382],[-62.03876,9.05395]]}},{"type":"Feature","id":"way/691286613","properties":{"name":"Avenida Perimetral","highway":"tertiary","ref":"L-2"},"geometry":{"type":"LineString","coordinates":[[-62.03892,9.05977],[-62.03931,9.06193]]}},{"type":"Feature","id":"way/691286614","properties":{"name":"Avenida Perimetral","highway":"tertiary","ref":"L-2"},"geometry":{"type":"LineString","coordinates":[[-62.03888,9.05968],[-62.03892,9.05977]]}},{"type":"Feature","id":"way/691286615","properties":{"name":"Avenida Perimetral","highway":"tertiary","ref":"L-2"},"geometry":{"type":"LineString","coordinates":[[-62.039,9.05977],[-62.03899,9.05968]]}},{"type":"Feature","id":"way/691286616","properties":{"name":"Avenida Perimetral","highway":"tertiary","ref":"L-2"},"geometry":{"type":"LineString","coordinates":[[-62.03899,9.05968],[-62.03906,9.05951]]}},{"type":"Feature","id":"way/691286619","properties":{"name":"Avenida Perimetral","highway":"tertiary","ref":"L-2"},"geometry":{"type":"LineString","coordinates":[[-62.04219,9.06341],[-62.03954,9.06196]]}},{"type":"Feature","id":"way/691286620","properties":{"name":"Avenida Perimetral","highway":"tertiary","ref":"L-2"},"geometry":{"type":"LineString","coordinates":[[-62.0423,9.06357],[-62.04239,9.0637]]}},{"type":"Feature","id":"way/691286621","properties":{"name":"Avenida Perimetral","highway":"tertiary","ref":"L-2"},"geometry":{"type":"LineString","coordinates":[[-62.04225,9.06352],[-62.0423,9.06357]]}},{"type":"Feature","id":"way/691286622","properties":{"name":"Avenida Magisterio","highway":"tertiary","ref":"L-2"},"geometry":{"type":"LineString","coordinates":[[-62.04241,9.06385],[-62.04236,9.06397]]}},{"type":"Feature","id":"way/691286623","properties":{"name":"V\u00eda principal los cocos","highway":"tertiary","ref":"L-2"},"geometry":{"type":"LineString","coordinates":[[-62.04236,9.06397],[-62.04157,9.07144],[-62.04028,9.07286],[-62.03782,9.08044]]}},{"type":"Feature","id":"way/692865166","properties":{"highway":"trunk_link","ref":"R-3"},"geometry":{"type":"LineString","coordinates":[[-62.04796,8.88728],[-62.04737,8.8876]]}},{"type":"Feature","id":"way/772004941","properties":{"name":"Carretera Nacional V\u00eda a Tucupita","highway":"trunk","ref":"T-15"},"geometry":{"type":"LineString","coordinates":[[-62.04827,8.88669],[-62.04788,8.88752]]}},{"type":"Feature","id":"way/772005915","properties":{"name":"V\u00eda Ataguia - Boca de Macareo","highway":"secondary","ref":"R-3"},"geometry":{"type":"LineString","coordinates":[[-62.04786,8.88754],[-62.04749,8.8876]]}},{"type":"Feature","id":"way/772005916","properties":{"name":"V\u00eda Ataguia - Boca de Macareo","highway":"secondary","ref":"R-3"},"geometry":{"type":"LineString","coordinates":[[-62.04749,8.8876],[-62.04785,8.8877]]}},{"type":"Feature","id":"way/772005918","properties":{"name":"Carretera Nacional V\u00eda a Tucupita","highway":"trunk","ref":"T-15;R-3"},"geometry":{"type":"LineString","coordinates":[[-62.04818,8.8876],[-62.04818,8.8876]]}},{"type":"Feature","id":"way/772005919","properties":{"name":"Carretera Nacional V\u00eda a Tucupita","highway":"trunk","ref":"T-15"},"geometry":{"type":"LineString","coordinates":[[-62.04788,8.88774],[-62.04806,8.8883]]}},{"type":"Feature","id":"way/772005920","properties":{"name":"Carretera Nacional V\u00eda a Tucupita","highway":"trunk","ref":"T-15"},"geometry":{"type":"LineString","coordinates":[[-62.04816,8.88754],[-62.04834,8.88676]]}},{"type":"Feature","id":"way/804988463","properties":{"name":"Carretera Nacional V\u00eda a Tucupita","highway":"trunk","ref":"T-15"},"geometry":{"type":"LineString","coordinates":[[-62.04806,8.8883],[-62.04847,8.88985],[-62.05258,8.89309],[-62.05704,8.89849],[-62.05756,8.91352],[-62.0566,8.92308],[-62.05833,8.93586],[-62.06272,8.94052],[-62.07377,8.94668],[-62.07794,8.95029],[-62.08385,8.96537],[-62.08496,8.97169],[-62.08118,8.98526],[-62.07066,9.00189],[-62.06437,9.00903],[-62.05802,9.02076]]}},{"type":"Feature","id":"way/876267362","properties":{"highway":"secondary","ref":"L-1"},"geometry":{"type":"LineString","coordinates":[[-62.0519,9.06191],[-62.05205,9.06263]]}},{"type":"Feature","id":"way/876280687","properties":{"name":"Carretera Nacional V\u00eda a Tucupita","highway":"trunk","ref":"T-15"},"geometry":{"type":"LineString","coordinates":[[-62.05389,8.87418],[-62.0538,8.87611]]}},{"type":"Feature","id":"way/876280688","properties":{"name":"Carretera Nacional V\u00eda a Tucupita","highway":"trunk","ref":"T-15"},"geometry":{"type":"LineString","coordinates":[[-62.0539,8.87345],[-62.05389,8.87418]]}},{"type":"Feature","id":"way/902619255","properties":{"name":"Carretera Nacional V\u00eda a Tucupita","highway":"trunk","ref":"T-15"},"geometry":{"type":"LineString","coordinates":[[-62.04834,8.88676],[-62.0538,8.87611]]}},{"type":"Feature","id":"way/902619256","properties":{"name":"Carretera Nacional V\u00eda a Tucupita","highway":"trunk","ref":"T-15"},"geometry":{"type":"LineString","coordinates":[[-62.0538,8.87611],[-62.04827,8.88669]]}},{"type":"Feature","id":"way/905947278","properties":{"name":"Avenida Perimetral","highway":"tertiary","ref":"L-2"},"geometry":{"type":"LineString","coordinates":[[-62.04216,9.06347],[-62.04225,9.06352]]}},{"type":"Feature","id":"way/905947279","properties":{"name":"Avenida Perimetral","highway":"tertiary","ref":"L-2"},"geometry":{"type":"LineString","coordinates":[[-62.04228,9.06345],[-62.04219,9.06341]]}},{"type":"Feature","id":"way/936116337","properties":{"name":"Avenida Gu\u00e1sima","highway":"secondary","ref":"L-1"},"geometry":{"type":"LineString","coordinates":[[-62.05867,9.06626],[-62.06,9.06816]]}},{"type":"Feature","id":"way/936119089","properties":{"name":"V\u00eda a Zamuro","highway":"tertiary"},"geometry":{"type":"LineString","coordinates":[[-62.08083,9.13165],[-62.08257,9.13247]]}},{"type":"Feature","id":"way/936119090","properties":{"name":"V\u00eda a Zamuro","highway":"tertiary"},"geometry":{"type":"LineString","coordinates":[[-62.07863,9.13357],[-62.08083,9.13165]]}},{"type":"Feature","id":"way/937093622","properties":{"name":"Avenida Intercomunal","highway":"secondary","ref":"L-3;R-5"},"geometry":{"type":"LineString","coordinates":[[-62.48958,8.41201],[-62.48958,8.41261]]}},{"type":"Feature","id":"way/937093623","properties":{"name":"Carretera Regional El Triunfo - Piacoa","highway":"secondary","ref":"L-3"},"geometry":{"type":"LineString","coordinates":[[-62.4902,8.41223],[-62.48958,8.41261]]}},{"type":"Feature","id":"way/937093624","properties":{"name":"Carretera Regional El Triunfo - Piacoa","highway":"secondary","ref":"L-3"},"geometry":{"type":"LineString","coordinates":[[-62.48958,8.41261],[-62.48943,8.4127]]}},{"type":"Feature","id":"way/937449839","properties":{"name":"Carretera Regional El Triunfo - Piacoa","highway":"secondary","ref":"L-3"},"geometry":{"type":"LineString","coordinates":[[-62.48943,8.4127],[-62.48499,8.41618],[-62.4826,8.42107],[-62.48075,8.42818]]}},{"type":"Feature","id":"way/965602306","properties":{"name":"Avenida Magisterio","highway":"tertiary","ref":"L-2"},"geometry":{"type":"LineString","coordinates":[[-62.04239,9.0637],[-62.04241,9.06385]]}},{"type":"Feature","id":"way/965602307","properties":{"highway":"tertiary","ref":"L-2"},"geometry":{"type":"LineString","coordinates":[[-62.04241,9.06385],[-62.04253,9.06375]]}},{"type":"Feature","id":"way/965606576","properties":{"name":"Carretera Ataguia - Boca de Macareo","highway":"secondary","ref":"R-3"},"geometry":{"type":"LineString","coordinates":[[-61.99824,8.90031],[-62.0089,8.90179],[-62.0179,8.89925],[-62.03073,8.88709],[-62.03665,8.88391],[-62.04343,8.88452],[-62.04749,8.8876]]}},{"type":"Feature","id":"way/1050081347","properties":{"name":"Carretera Ataguia - Boca de Macareo","highway":"secondary","ref":"R-3"},"geometry":{"type":"LineString","coordinates":[[-61.99366,8.87638],[-61.99117,8.88275],[-61.9913,8.88953],[-61.9962,8.89916],[-61.99824,8.90031]]}},{"type":"Feature","id":"way/1050082166","properties":{"name":"V\u00eda a La Horqueta","highway":"tertiary","ref":"L-1"},"geometry":{"type":"LineString","coordinates":[[-62.07467,9.13233],[-62.07384,9.13735],[-62.07587,9.14531],[-62.08325,9.15637],[-62.08941,9.16168],[-62.09742,9.16376],[-62.10149,9.16341],[-62.10144,9.17231],[-62.105,9.17584],[-62.10519,9.17907],[-62.10702,9.18366],[-62.11288,9.19269],[-62.1152,9.20904],[-62.11188,9.22069],[-62.11028,9.22303],[-62.10732,9.2248],[-62.09867,9.2252],[-62.08617,9.22376],[-62.07879,9.22558],[-62.07633,9.22711]]}},{"type":"Feature","id":"way/1050085936","properties":{"name":"V\u00eda a Zamuro","highway":"tertiary"},"geometry":{"type":"LineString","coordinates":[[-62.15039,9.16441],[-62.13034,9.15299]]}},{"type":"Feature","id":"way/1056847930","properties":{"name":"V\u00eda a Caigual","highway":"tertiary","ref":"L-2"},"geometry":{"type":"LineString","coordinates":[[-61.92524,9.14957],[-61.92867,9.14603],[-61.9311,9.14491],[-61.94143,9.14663],[-61.94586,9.14607],[-61.94998,9.14743],[-61.95456,9.14496],[-61.96236,9.13415],[-61.96558,9.12303],[-61.97446,9.10715],[-61.97945,9.10227],[-61.98326,9.10215]]}},{"type":"Feature","id":"way/1056847931","properties":{"name":"V\u00eda Principal de Las Mulas","highway":"tertiary","ref":"L-2"},"geometry":{"type":"LineString","coordinates":[[-61.98326,9.10215],[-61.98675,9.10382],[-61.99,9.10747],[-61.99577,9.11093],[-62.00017,9.11145],[-62.00597,9.11064],[-62.01326,9.10625],[-62.02493,9.09338],[-62.03292,9.08832],[-62.03745,9.08317],[-62.03782,9.08044]]}}]}