{"type":"FeatureCollection","features":[{"type":"Feature","id":"relation/2269815","properties":{"name":"Amazonas","level":4},"geometry":{"type":"Polygon","coordinates":[[[-67.79184,4.21883],[-67.78002,4.19812],[-67.77362,4.17068],[-67.74209,4.14187],[-67.72781,4.11189],[-67.72078,4.08648],[-67.72029,4.06402],[-67.70182,4.02839],[-67.69767,3.98003],[-67.69083,3.95283],[-67.68851,3.93069],[-67.68381,3.9259],[-67.67978,3.91319],[-67.66554,3.89867],[-67.66153,3.88456],[-67.64507,3.85173],[-67.64384,3.81277],[-67.63432,3.78615],[-67.62305,3.77873],[-67.61895,3.76723],[-67.61126,3.75638],[-67.59695,3.75219],[-67.5564,3.75725],[-67.54369,3.75669],[-67.53724,3.76007],[-67.52627,3.77456],[-67.52052,3.77661],[-67.51255,3.77519],[-67.50099,3.76865],[-67.48501,3.74053],[-67.48526,3.72423],[-67.47839,3.7052],[-67.47176,3.69741],[-67.46558,3.68441],[-67.45417,3.68326],[-67.44797,3.67858],[-67.44671,3.67117],[-67.45244,3.65655],[-67.44177,3.6437],[-67.43864,3.63271],[-67.44594,3.60423],[-67.44375,3.58659],[-67.43028,3.57444],[-67.43025,3.56251],[-67.41119,3.53922],[-67.40709,3.51617],[-67.40677,3.49949],[-67.40011,3.47852],[-67.39337,3.47161],[-67.3697,3.46768],[-67.35636,3.45834],[-67.34245,3.45406],[-67.33756,3.44994],[-67.32843,3.42303],[-67.31199,3.39375],[-67.31044,3.37651],[-67.31446,3.37052],[-67.32502,3.36271],[-67.32444,3.35556],[-67.33264,3.34286],[-67.33389,3.33387],[-67.35215,3.31535],[-67.35488,3.30981],[-67.37335,3.30182],[-67.38062,3.29358],[-67.38395,3.26385],[-67.38122,3.253],[-67.44044,3.253],[-67.82315,2.89059],[-67.82222,2.88773],[-67.83216,2.88555],[-67.86425,2.86758],[-67.86432,2.78936],[-67.85748,2.78869],[-67.85229,2.79229],[-67.84102,2.79244],[-67.83836,2.79441],[-67.83581,2.79683],[-67.83619,2.80177],[-67.82943,2.82062],[-67.82368,2.82745],[-67.81536,2.83226],[-67.80978,2.83257],[-67.79877,2.82828],[-67.78169,2.82739],[-67.75023,2.8383],[-67.74008,2.83881],[-67.736,2.83605],[-67.73478,2.82905],[-67.73789,2.82251],[-67.73633,2.8178],[-67.65846,2.79746],[-67.6508,2.79815],[-67.64202,2.80889],[-67.631,2.81273],[-67.62028,2.81451],[-67.61346,2.8117],[-67.60986,2.80508],[-67.59358,2.78996],[-67.58446,2.77649],[-67.58408,2.74436],[-67.56296,2.7254],[-67.56264,2.71477],[-67.5653,2.7079],[-67.56902,2.6737],[-67.56815,2.6676],[-67.56145,2.65608],[-67.55436,2.6548],[-67.55089,2.66109],[-67.54018,2.66872],[-67.52478,2.67419],[-67.50637,2.66691],[-67.50377,2.66872],[-67.48618,2.66717],[-67.46758,2.62057],[-67.4525,2.62115],[-67.44186,2.61261],[-67.43141,2.59886],[-67.41717,2.58543],[-67.40211,2.57767],[-67.39218,2.57558],[-67.38612,2.56431],[-67.38549,2.54849],[-67.38279,2.54409],[-67.37525,2.5421],[-67.36789,2.53575],[-67.35716,2.53453],[-67.34049,2.52102],[-67.33513,2.51186],[-67.33428,2.49606],[-67.32725,2.48557],[-67.31236,2.47492],[-67.31153,2.46887],[-67.30173,2.45951],[-67.30081,2.44762],[-67.29609,2.44222],[-67.27652,2.43067],[-67.26128,2.43139],[-67.245,2.4135],[-67.22669,2.40443],[-67.21971,2.39839],[-67.21416,2.39053],[-67.21318,2.38263],[-67.20357,2.36833],[-67.18442,2.34628],[-67.18529,2.33965],[-67.19584,2.32431],[-67.21256,2.31],[-67.21783,2.30267],[-67.21883,2.29391],[-67.21511,2.28562],[-67.21508,2.27786],[-67.22247,2.25854],[-67.22167,2.25124],[-67.20366,2.22465],[-67.19106,2.17725],[-67.16198,2.13343],[-67.15421,2.12664],[-67.14761,2.1259],[-67.13158,2.1351],[-67.12341,2.13696],[-67.11498,2.13261],[-67.10866,2.12017],[-67.10694,2.11073],[-67.10825,2.1013],[-67.0978,2.06913],[-67.09694,2.05549],[-67.10428,2.0382],[-67.11405,2.02437],[-67.12412,1.97797],[-67.12032,1.97526],[-67.11707,1.97637],[-67.10937,1.96831],[-67.1039,1.95713],[-67.09331,1.9531],[-67.06588,1.92005],[-67.05158,1.87078],[-67.04595,1.85695],[-67.03602,1.84519],[-67.03856,1.81729],[-67.0345,1.79022],[-67.03088,1.78114],[-67.02236,1.77499],[-67.01291,1.74079],[-67.003,1.72548],[-66.98218,1.66975],[-66.96593,1.64711],[-66.96227,1.63852],[-66.96014,1.62758],[-66.96188,1.60738],[-66.95987,1.6048],[-66.96375,1.59783],[-66.9633,1.58941],[-66.95892,1.58524],[-66.94733,1.58145],[-66.91955,1.52851],[-66.90766,1.48774],[-66.91128,1.47773],[-66.91313,1.42965],[-66.90653,1.41358],[-66.89455,1.40416],[-66.87424,1.39687],[-66.85808,1.3745],[-66.85118,1.33515],[-66.85452,1.32004],[-66.87804,1.29886],[-66.88173,1.28737],[-66.87773,1.26608],[-66.86875,1.25794],[-66.85705,1.24008],[-66.85592,1.22688],[-66.81346,1.19608],[-66.31035,0.74492],[-66.20442,0.7766],[-66.20252,0.77989],[-66.19645,0.78176],[-66.18557,0.77962],[-66.17939,0.76299],[-66.16986,0.76421],[-66.15728,0.75835],[-66.14441,0.74745],[-66.1231,0.74781],[-66.11812,0.75174],[-66.11333,0.76373],[-66.10895,0.7659],[-66.09907,0.76649],[-66.0936,0.76011],[-66.08971,0.75908],[-66.0777,0.76095],[-66.07525,0.76653],[-66.07586,0.78848],[-66.07208,0.79109],[-66.07407,0.7986],[-66.07057,0.81233],[-66.05268,0.8095],[-66.05033,0.8121],[-66.04553,0.81093],[-66.04001,0.81616],[-66.03511,0.81674],[-66.02652,0.81203],[-66.02363,0.80769],[-66.01883,0.80751],[-66.01402,0.80393],[-66.00525,0.80553],[-65.99957,0.81452],[-65.99268,0.81771],[-65.98587,0.8176],[-65.98061,0.82225],[-65.96732,0.81554],[-65.96875,0.82057],[-65.96677,0.8352],[-65.95904,0.84192],[-65.95338,0.85099],[-65.9542,0.85883],[-65.94948,0.86294],[-65.94307,0.86371],[-65.94057,0.86932],[-65.94286,0.87345],[-65.94075,0.89111],[-65.93495,0.89376],[-65.92754,0.89289],[-65.91378,0.89799],[-65.91573,0.88947],[-65.9102,0.88923],[-65.90685,0.89519],[-65.88903,0.90819],[-65.88754,0.91182],[-65.89106,0.91748],[-65.88565,0.91916],[-65.89045,0.92104],[-65.88857,0.92895],[-65.89374,0.93428],[-65.89005,0.93357],[-65.88444,0.938],[-65.8843,0.94081],[-65.87188,0.93737],[-65.863,0.93794],[-65.85378,0.94169],[-65.84763,0.9404],[-65.83204,0.94886],[-65.82454,0.94835],[-65.82393,0.95411],[-65.82043,0.95592],[-65.81675,0.95511],[-65.81589,0.95081],[-65.81277,0.95621],[-65.81098,0.9548],[-65.80622,0.95798],[-65.80215,0.95818],[-65.80207,0.95569],[-65.79846,0.95468],[-65.79767,0.96134],[-65.79303,0.96131],[-65.78503,0.96573],[-65.7781,0.96299],[-65.77787,0.95952],[-65.77248,0.95854],[-65.76976,0.96219],[-65.77195,0.9654],[-65.76945,0.967],[-65.77048,0.9704],[-65.76488,0.972],[-65.76365,0.9793],[-65.75518,0.98106],[-65.75326,0.98914],[-65.74236,1.00114],[-65.73432,0.99855],[-65.72844,1.00045],[-65.71666,0.99875],[-65.71031,1.00279],[-65.70487,1.00001],[-65.69653,1.00389],[-65.69247,1.00009],[-65.69165,0.99432],[-65.68716,0.99187],[-65.68637,0.98657],[-65.68435,0.98636],[-65.6813,0.98985],[-65.68124,0.99873],[-65.67262,1.00269],[-65.66867,0.99999],[-65.66614,1.007],[-65.66169,1.00843],[-65.65874,1.01294],[-65.65145,1.00571],[-65.63985,1.0018],[-65.62853,0.98831],[-65.62716,0.99608],[-65.63187,0.99919],[-65.63211,1.00777],[-65.62686,1.01404],[-65.62245,1.01405],[-65.61716,1.00908],[-65.6144,1.01127],[-65.6078,1.0019],[-65.59998,0.99919],[-65.59288,0.99757],[-65.58899,1.00494],[-65.58471,0.99943],[-65.58695,0.99825],[-65.58459,0.99509],[-65.58575,0.9807],[-65.57336,0.99017],[-65.57131,0.99614],[-65.55806,0.99186],[-65.55782,0.98403],[-65.56387,0.97947],[-65.56442,0.9703],[-65.55743,0.9668],[-65.54688,0.97069],[-65.54305,0.96893],[-65.54438,0.96126],[-65.54719,0.95861],[-65.54601,0.95594],[-65.53402,0.95276],[-65.53273,0.94678],[-65.53676,0.9456],[-65.53702,0.93979],[-65.52948,0.93725],[-65.52737,0.93278],[-65.52309,0.93063],[-65.52342,0.92261],[-65.51733,0.92277],[-65.51185,0.91949],[-65.51219,0.91529],[-65.50993,0.91411],[-65.51245,0.9072],[-65.50728,0.90486],[-65.51223,0.89436],[-65.5117,0.87785],[-65.50976,0.87693],[-65.5068,0.87994],[-65.50356,0.87881],[-65.50154,0.88361],[-65.49717,0.88134],[-65.49608,0.87404],[-65.50491,0.86836],[-65.50538,0.85641],[-65.50322,0.85658],[-65.502,0.85276],[-65.50459,0.84523],[-65.5035,0.84148],[-65.50587,0.84021],[-65.50342,0.83663],[-65.5046,0.83485],[-65.50886,0.83592],[-65.50875,0.83124],[-65.51271,0.82872],[-65.52148,0.83116],[-65.52205,0.82864],[-65.52765,0.82676],[-65.52265,0.81836],[-65.52726,0.81469],[-65.53132,0.81605],[-65.5296,0.80734],[-65.53187,0.8037],[-65.53678,0.80113],[-65.54109,0.8028],[-65.54065,0.79819],[-65.54539,0.79853],[-65.55195,0.79436],[-65.54196,0.78793],[-65.54694,0.78241],[-65.54557,0.77969],[-65.55212,0.77431],[-65.55635,0.7757],[-65.56535,0.77247],[-65.56839,0.76515],[-65.57686,0.7613],[-65.57759,0.74986],[-65.58163,0.74314],[-65.58837,0.73793],[-65.58613,0.72973],[-65.59324,0.72735],[-65.59829,0.71607],[-65.60236,0.71667],[-65.60478,0.71419],[-65.60624,0.70692],[-65.60148,0.69781],[-65.60178,0.69105],[-65.59645,0.69014],[-65.58898,0.69253],[-65.5843,0.68719],[-65.57325,0.68519],[-65.57104,0.68058],[-65.56849,0.68078],[-65.56884,0.67363],[-65.56591,0.66902],[-65.55628,0.66774],[-65.55585,0.65323],[-65.5458,0.6474],[-65.53885,0.65065],[-65.53564,0.66087],[-65.52975,0.66896],[-65.51639,0.66782],[-65.51201,0.67027],[-65.5058,0.66761],[-65.50184,0.67474],[-65.49668,0.67786],[-65.48597,0.67776],[-65.4843,0.68561],[-65.47166,0.68263],[-65.46435,0.68349],[-65.46436,0.68553],[-65.46194,0.6829],[-65.4533,0.6863],[-65.45268,0.69004],[-65.445,0.68943],[-65.44173,0.69319],[-65.44199,0.69959],[-65.43917,0.7048],[-65.4409,0.7065],[-65.43673,0.71268],[-65.44039,0.7163],[-65.43606,0.7217],[-65.43666,0.72471],[-65.43324,0.72637],[-65.43082,0.7225],[-65.42546,0.72171],[-65.42142,0.72542],[-65.42275,0.73378],[-65.41631,0.73485],[-65.41249,0.74119],[-65.41779,0.74376],[-65.41708,0.75312],[-65.41293,0.75117],[-65.40823,0.75401],[-65.39971,0.75111],[-65.39766,0.75225],[-65.39881,0.75836],[-65.39219,0.75674],[-65.39074,0.75946],[-65.40071,0.76678],[-65.4008,0.77295],[-65.39538,0.77391],[-65.39665,0.77765],[-65.40229,0.77976],[-65.39926,0.784],[-65.40041,0.78955],[-65.39662,0.79189],[-65.39785,0.79524],[-65.40288,0.79637],[-65.4012,0.79903],[-65.40757,0.80436],[-65.40885,0.80938],[-65.4145,0.81244],[-65.4144,0.81488],[-65.40899,0.81533],[-65.41184,0.82412],[-65.40598,0.82471],[-65.40159,0.81968],[-65.39623,0.82196],[-65.39547,0.82605],[-65.39919,0.83357],[-65.39383,0.83221],[-65.39064,0.83388],[-65.39463,0.84058],[-65.38978,0.8412],[-65.38272,0.84626],[-65.38332,0.85023],[-65.37761,0.84718],[-65.37731,0.85689],[-65.37441,0.85737],[-65.37432,0.86138],[-65.37169,0.86181],[-65.37298,0.86408],[-65.36441,0.86362],[-65.36115,0.8676],[-65.359,0.8641],[-65.35591,0.86498],[-65.35301,0.87386],[-65.35835,0.87965],[-65.35575,0.88352],[-65.34743,0.88795],[-65.34063,0.89812],[-65.34161,0.90597],[-65.33715,0.90641],[-65.33852,0.91015],[-65.33164,0.92084],[-65.33349,0.9257],[-65.32719,0.92908],[-65.33005,0.93452],[-65.3092,0.9364],[-65.30309,0.94197],[-65.29872,0.93863],[-65.2919,0.94134],[-65.28911,0.93933],[-65.28997,0.9356],[-65.28435,0.93296],[-65.27569,0.93958],[-65.27023,0.93299],[-65.27173,0.92495],[-65.26911,0.92203],[-65.26471,0.92064],[-65.25948,0.92503],[-65.25598,0.92007],[-65.24803,0.91766],[-65.24583,0.92215],[-65.23902,0.92148],[-65.23714,0.92717],[-65.2229,0.92718],[-65.22071,0.9299],[-65.21128,0.92403],[-65.21333,0.92112],[-65.21046,0.91955],[-65.2132,0.90258],[-65.20215,0.90855],[-65.18416,0.93267],[-65.17452,0.94175],[-65.16964,0.95436],[-65.17033,0.96561],[-65.16786,0.96713],[-65.17,0.97179],[-65.16135,0.98186],[-65.1634,0.98559],[-65.16144,0.98902],[-65.16212,0.99735],[-65.14905,1.00307],[-65.15212,1.01151],[-65.16332,1.00637],[-65.16779,1.01196],[-65.17245,1.01193],[-65.17543,1.01559],[-65.17283,1.02376],[-65.16448,1.02863],[-65.16286,1.03314],[-65.16407,1.0456],[-65.15654,1.05056],[-65.15839,1.05424],[-65.15516,1.07282],[-65.15963,1.08442],[-65.15754,1.08482],[-65.15244,1.09896],[-65.15482,1.10329],[-65.1517,1.10906],[-65.1544,1.11429],[-65.16045,1.11684],[-65.16083,1.12214],[-65.15811,1.12466],[-65.14751,1.12371],[-65.14453,1.12697],[-65.13136,1.12787],[-65.1249,1.13387],[-65.12144,1.14487],[-65.11782,1.14353],[-65.11495,1.14901],[-65.10896,1.15128],[-65.10554,1.15611],[-65.08801,1.14133],[-65.08672,1.14467],[-65.08051,1.14591],[-65.07169,1.15296],[-65.06899,1.14958],[-65.06998,1.14438],[-65.06312,1.14341],[-65.05996,1.13965],[-65.06077,1.13049],[-65.0648,1.12796],[-65.06293,1.12239],[-65.06615,1.12034],[-65.06294,1.11185],[-65.05645,1.11296],[-65.05203,1.11719],[-65.04709,1.11531],[-65.03165,1.11826],[-65.02553,1.11482],[-65.02366,1.10814],[-65.01369,1.10884],[-65.01062,1.11087],[-65.00667,1.12969],[-65.00136,1.13096],[-64.99251,1.13768],[-64.99128,1.14641],[-64.98467,1.15707],[-64.97516,1.16096],[-64.97129,1.17962],[-64.97513,1.18995],[-64.97446,1.20286],[-64.9638,1.20729],[-64.96169,1.21548],[-64.95585,1.21649],[-64.94696,1.22358],[-64.93189,1.21371],[-64.92247,1.21865],[-64.92224,1.22116],[-64.91479,1.22163],[-64.91428,1.2334],[-64.9105,1.23293],[-64.90639,1.23593],[-64.90449,1.24217],[-64.9083,1.2509],[-64.90462,1.25139],[-64.89541,1.25109],[-64.88499,1.24263],[-64.8859,1.23456],[-64.88211,1.22726],[-64.87646,1.22365],[-64.87061,1.22676],[-64.87063,1.23146],[-64.86757,1.23197],[-64.86516,1.23865],[-64.86008,1.24198],[-64.85926,1.25084],[-64.84993,1.26159],[-64.85531,1.26599],[-64.85642,1.27238],[-64.8533,1.27437],[-64.8487,1.27288],[-64.84395,1.27632],[-64.8441,1.28045],[-64.83976,1.2847],[-64.8217,1.29255],[-64.80923,1.30367],[-64.8004,1.31536],[-64.79242,1.29955],[-64.78912,1.30055],[-64.78419,1.29273],[-64.78419,1.28099],[-64.79043,1.27361],[-64.78601,1.26354],[-64.77233,1.25164],[-64.76732,1.25413],[-64.76496,1.25064],[-64.76459,1.24066],[-64.75589,1.22792],[-64.74908,1.22909],[-64.74318,1.22706],[-64.74067,1.22924],[-64.74049,1.23389],[-64.73197,1.23357],[-64.72146,1.23943],[-64.71971,1.24908],[-64.71198,1.25277],[-64.70981,1.26578],[-64.6952,1.28482],[-64.67852,1.28766],[-64.67534,1.28619],[-64.66429,1.29477],[-64.66115,1.29624],[-64.65756,1.29347],[-64.65656,1.29586],[-64.64561,1.30039],[-64.63886,1.31181],[-64.63525,1.31385],[-64.63547,1.31833],[-64.62092,1.32481],[-64.62028,1.32958],[-64.61642,1.32988],[-64.60968,1.33879],[-64.60122,1.33946],[-64.59447,1.33606],[-64.58891,1.3361],[-64.58503,1.33947],[-64.57874,1.34041],[-64.5792,1.34446],[-64.57478,1.35469],[-64.58073,1.35974],[-64.57727,1.37162],[-64.57874,1.37736],[-64.57327,1.38121],[-64.56746,1.39651],[-64.55743,1.40865],[-64.55746,1.41372],[-64.54793,1.41388],[-64.54593,1.41671],[-64.53727,1.41502],[-64.52665,1.42917],[-64.52749,1.44205],[-64.52496,1.44346],[-64.51037,1.43554],[-64.50961,1.43811],[-64.49993,1.44364],[-64.49849,1.44783],[-64.49454,1.44701],[-64.48448,1.45487],[-64.48345,1.46217],[-64.48014,1.4626],[-64.47669,1.46738],[-64.4692,1.46879],[-64.46636,1.47429],[-64.4513,1.47867],[-64.44725,1.47669],[-64.44836,1.47251],[-64.44646,1.47041],[-64.43578,1.47042],[-64.43225,1.4728],[-64.42533,1.48013],[-64.42243,1.49022],[-64.41048,1.50101],[-64.40926,1.51342],[-64.39965,1.51995],[-64.39387,1.52905],[-64.38919,1.52789],[-64.38831,1.52428],[-64.38479,1.5243],[-64.3819,1.5188],[-64.37964,1.52232],[-64.37319,1.52514],[-64.36633,1.52366],[-64.36603,1.52072],[-64.3613,1.5196],[-64.35933,1.52536],[-64.35114,1.5294],[-64.34792,1.5261],[-64.34781,1.52122],[-64.34469,1.51921],[-64.34886,1.50801],[-64.34773,1.49504],[-64.35708,1.48239],[-64.37338,1.47163],[-64.37456,1.46634],[-64.37801,1.46421],[-64.3765,1.45758],[-64.37296,1.45701],[-64.37399,1.44884],[-64.38289,1.44329],[-64.38646,1.4457],[-64.38931,1.44452],[-64.39323,1.43766],[-64.39075,1.43484],[-64.39133,1.42614],[-64.39416,1.42333],[-64.39872,1.4239],[-64.39766,1.42022],[-64.40096,1.41825],[-64.40558,1.4203],[-64.40168,1.41128],[-64.40849,1.40934],[-64.41016,1.40304],[-64.40369,1.39921],[-64.3974,1.39943],[-64.39919,1.39398],[-64.39675,1.39441],[-64.39332,1.38965],[-64.39089,1.39194],[-64.38873,1.38627],[-64.38155,1.39138],[-64.37478,1.38458],[-64.37008,1.38443],[-64.36445,1.38931],[-64.35521,1.38791],[-64.35438,1.38189],[-64.35693,1.37506],[-64.35322,1.37511],[-64.34466,1.36346],[-64.33717,1.36183],[-64.33574,1.36696],[-64.34219,1.37143],[-64.34396,1.37667],[-64.34103,1.37972],[-64.34346,1.38173],[-64.33661,1.39308],[-64.33477,1.39116],[-64.32608,1.39477],[-64.32537,1.39772],[-64.32827,1.40067],[-64.32038,1.40691],[-64.3254,1.41207],[-64.32807,1.42351],[-64.32354,1.43746],[-64.31659,1.44061],[-64.31342,1.44376],[-64.31408,1.44639],[-64.30806,1.44883],[-64.3136,1.45614],[-64.31113,1.45793],[-64.30578,1.45655],[-64.30607,1.46007],[-64.30195,1.46138],[-64.30208,1.46434],[-64.28535,1.47476],[-64.2839,1.47838],[-64.28138,1.47855],[-64.2809,1.4752],[-64.27777,1.47341],[-64.27737,1.47886],[-64.27371,1.48332],[-64.26578,1.48167],[-64.26053,1.50234],[-64.25519,1.49805],[-64.24509,1.50304],[-64.24333,1.50702],[-64.23403,1.50844],[-64.23079,1.50602],[-64.21684,1.50597],[-64.21011,1.51472],[-64.19673,1.52092],[-64.19137,1.53072],[-64.19647,1.53502],[-64.19209,1.54614],[-64.18595,1.55337],[-64.18495,1.55814],[-64.1809,1.55879],[-64.17503,1.56411],[-64.17291,1.57355],[-64.16794,1.57455],[-64.16659,1.57943],[-64.1642,1.57833],[-64.15908,1.58376],[-64.15019,1.5837],[-64.14407,1.58732],[-64.1397,1.57935],[-64.13155,1.57613],[-64.12564,1.57853],[-64.12261,1.58504],[-64.11509,1.58855],[-64.1112,1.60741],[-64.1085,1.60999],[-64.09891,1.61005],[-64.09643,1.62234],[-64.09349,1.6247],[-64.09293,1.63253],[-64.08947,1.63625],[-64.08993,1.64024],[-64.08677,1.64595],[-64.07705,1.64522],[-64.07351,1.64883],[-64.07335,1.65764],[-64.06474,1.68222],[-64.06746,1.68259],[-64.06957,1.6905],[-64.06273,1.69225],[-64.06366,1.69727],[-64.06103,1.70311],[-64.06811,1.70901],[-64.06484,1.71091],[-64.06709,1.71568],[-64.07182,1.7173],[-64.07352,1.72425],[-64.06404,1.73326],[-64.06589,1.74389],[-64.07673,1.74893],[-64.07959,1.75535],[-64.07896,1.75816],[-64.07286,1.75941],[-64.07242,1.76478],[-64.07027,1.76775],[-64.06646,1.76763],[-64.06464,1.77285],[-64.06913,1.77297],[-64.07105,1.77793],[-64.07559,1.77714],[-64.07607,1.78197],[-64.06765,1.79169],[-64.0605,1.79043],[-64.06125,1.80017],[-64.05883,1.80441],[-64.05447,1.80268],[-64.05511,1.80674],[-64.05081,1.80987],[-64.05048,1.81285],[-64.0559,1.81785],[-64.04986,1.82265],[-64.05289,1.83304],[-64.05109,1.83583],[-64.0528,1.83803],[-64.05501,1.83597],[-64.05854,1.83737],[-64.06494,1.84293],[-64.06923,1.85228],[-64.0668,1.85306],[-64.0663,1.85916],[-64.06395,1.86042],[-64.06473,1.87094],[-64.06001,1.87272],[-64.05712,1.88477],[-64.0603,1.88892],[-64.05751,1.89178],[-64.06249,1.89609],[-64.06219,1.90121],[-64.05715,1.90284],[-64.05735,1.90519],[-64.06032,1.90535],[-64.05637,1.91077],[-64.06296,1.91446],[-64.05908,1.91973],[-64.05864,1.92285],[-64.06127,1.92418],[-64.05496,1.93024],[-64.05192,1.92818],[-64.04477,1.92968],[-64.04247,1.9326],[-64.03833,1.93168],[-64.03661,1.93819],[-64.0301,1.93728],[-64.02671,1.94466],[-64.01603,1.95229],[-64.01424,1.95518],[-64.01648,1.95671],[-64.01172,1.96137],[-64.00392,1.95831],[-64.00571,1.96307],[-64.00354,1.96403],[-64.00203,1.97272],[-63.99317,1.97633],[-63.99268,1.98224],[-63.98584,1.97648],[-63.97921,1.98263],[-63.9785,1.98733],[-63.97277,1.98933],[-63.97271,1.99208],[-63.96234,1.9877],[-63.9556,1.99155],[-63.94483,1.98378],[-63.94339,1.9873],[-63.94017,1.98788],[-63.94026,1.99104],[-63.93664,1.99134],[-63.93636,1.98752],[-63.93258,1.98667],[-63.93024,1.98273],[-63.92781,1.9853],[-63.92159,1.98198],[-63.90631,1.98604],[-63.90733,1.98765],[-63.90326,1.99323],[-63.89685,1.99043],[-63.89425,1.99298],[-63.89008,1.99216],[-63.89322,1.98865],[-63.88986,1.9819],[-63.8849,1.9837],[-63.88144,1.98037],[-63.8764,1.98077],[-63.87285,1.97639],[-63.87083,1.97774],[-63.86648,1.97573],[-63.86192,1.97807],[-63.86147,1.98146],[-63.85629,1.98221],[-63.84971,1.97395],[-63.85178,1.97002],[-63.8328,1.96701],[-63.83155,1.97088],[-63.83445,1.97197],[-63.83169,1.97884],[-63.83254,1.98316],[-63.82771,1.98146],[-63.82327,1.98432],[-63.8207,1.9886],[-63.82562,1.99125],[-63.82187,1.99563],[-63.81386,1.98889],[-63.7979,1.98715],[-63.79099,1.97979],[-63.7865,1.98279],[-63.78355,1.98182],[-63.77553,1.99785],[-63.77088,2.00165],[-63.76472,2.00218],[-63.76279,2.00537],[-63.75898,1.9987],[-63.75616,1.9996],[-63.75567,1.99728],[-63.74701,2.00253],[-63.74184,2.00024],[-63.74009,2.00501],[-63.74377,2.01024],[-63.74021,2.01852],[-63.73151,2.01896],[-63.73021,2.02899],[-63.72055,2.03292],[-63.71709,2.04112],[-63.712,2.04624],[-63.69985,2.0491],[-63.6965,2.04481],[-63.69135,2.04578],[-63.68896,2.04413],[-63.69137,2.04087],[-63.68799,2.03838],[-63.68601,2.03209],[-63.69035,2.03006],[-63.69014,2.02816],[-63.67732,2.02188],[-63.67268,2.02368],[-63.67001,2.01826],[-63.66481,2.01847],[-63.66075,2.02338],[-63.66341,2.03618],[-63.65941,2.04264],[-63.66388,2.04914],[-63.66166,2.0554],[-63.66385,2.05813],[-63.6639,2.06506],[-63.65598,2.07159],[-63.65138,2.07164],[-63.64985,2.06752],[-63.64348,2.06767],[-63.64238,2.07102],[-63.63767,2.06987],[-63.63582,2.08006],[-63.63149,2.08318],[-63.63564,2.08958],[-63.63401,2.09635],[-63.6359,2.09835],[-63.62702,2.10763],[-63.62693,2.11219],[-63.62435,2.11099],[-63.61785,2.11669],[-63.61281,2.11277],[-63.60804,2.11432],[-63.6035,2.11276],[-63.60163,2.11593],[-63.60305,2.11914],[-63.59435,2.11986],[-63.59459,2.12269],[-63.59002,2.12312],[-63.58508,2.11812],[-63.58355,2.12078],[-63.56835,2.12688],[-63.56509,2.13045],[-63.56769,2.13424],[-63.56448,2.13554],[-63.55956,2.1318],[-63.55403,2.13137],[-63.55329,2.12887],[-63.55023,2.12968],[-63.54649,2.14093],[-63.54316,2.13934],[-63.53971,2.13121],[-63.53465,2.13213],[-63.53093,2.12631],[-63.52555,2.1235],[-63.52373,2.12598],[-63.51675,2.12356],[-63.51142,2.11151],[-63.4968,2.11698],[-63.49403,2.11431],[-63.4876,2.11758],[-63.48667,2.12191],[-63.47564,2.12348],[-63.47649,2.13282],[-63.47393,2.14129],[-63.46786,2.1409],[-63.46123,2.13324],[-63.4489,2.12637],[-63.43668,2.12369],[-63.4313,2.12734],[-63.43113,2.13571],[-63.42351,2.13971],[-63.42019,2.13834],[-63.41314,2.14881],[-63.41172,2.14652],[-63.40854,2.14693],[-63.40431,2.15327],[-63.40067,2.15325],[-63.39594,2.15752],[-63.39522,2.16972],[-63.38907,2.18306],[-63.39754,2.18853],[-63.3984,2.19596],[-63.39253,2.20403],[-63.38467,2.20198],[-63.38191,2.20783],[-63.37488,2.20835],[-63.37529,2.2104],[-63.37174,2.21218],[-63.37564,2.215],[-63.37729,2.22579],[-63.38205,2.22685],[-63.38567,2.23306],[-63.38337,2.23803],[-63.37646,2.236],[-63.37361,2.2418],[-63.36727,2.24222],[-63.36972,2.24889],[-63.36682,2.26225],[-63.36046,2.26911],[-63.3612,2.27871],[-63.36416,2.28033],[-63.36522,2.28738],[-63.36772,2.28962],[-63.36099,2.30202],[-63.36797,2.3101],[-63.36699,2.31619],[-63.36269,2.31898],[-63.3602,2.32745],[-63.36831,2.33163],[-63.36812,2.33691],[-63.37632,2.3398],[-63.37485,2.34428],[-63.37669,2.3553],[-63.37542,2.36203],[-63.36976,2.36105],[-63.36598,2.37018],[-63.35709,2.37873],[-63.35489,2.38444],[-63.35622,2.38837],[-63.36324,2.38568],[-63.36499,2.3886],[-63.36451,2.3972],[-63.36747,2.40055],[-63.36749,2.40827],[-63.36441,2.41886],[-63.37075,2.41599],[-63.37272,2.42613],[-63.38209,2.42635],[-63.38409,2.43064],[-63.38843,2.43133],[-63.39038,2.42538],[-63.39354,2.42926],[-63.39887,2.42848],[-63.40433,2.43131],[-63.40476,2.43411],[-63.40806,2.4352],[-63.40557,2.44036],[-63.41049,2.43976],[-63.41272,2.44319],[-63.41034,2.44469],[-63.41473,2.45416],[-63.41696,2.4539],[-63.4229,2.44436],[-63.42775,2.44689],[-63.43585,2.44183],[-63.43516,2.43638],[-63.44164,2.43007],[-63.44235,2.41705],[-63.4461,2.41693],[-63.44848,2.41099],[-63.45226,2.41425],[-63.45594,2.41186],[-63.45423,2.40684],[-63.4558,2.40286],[-63.4601,2.40411],[-63.4654,2.40186],[-63.46771,2.40944],[-63.47125,2.41047],[-63.4726,2.41405],[-63.47091,2.42234],[-63.47533,2.42328],[-63.48056,2.43359],[-63.48445,2.42831],[-63.48837,2.42726],[-63.48805,2.43643],[-63.49441,2.43724],[-63.49814,2.42577],[-63.50299,2.42611],[-63.50407,2.43193],[-63.50883,2.42645],[-63.51533,2.42515],[-63.5196,2.42065],[-63.52629,2.42485],[-63.5285,2.42283],[-63.5336,2.42479],[-63.53578,2.42747],[-63.53905,2.42525],[-63.54755,2.42792],[-63.55584,2.42246],[-63.55342,2.43198],[-63.55726,2.44218],[-63.55531,2.44708],[-63.55909,2.45142],[-63.56207,2.45139],[-63.56232,2.44676],[-63.56697,2.44596],[-63.56948,2.44851],[-63.57141,2.44584],[-63.58123,2.45196],[-63.60283,2.45693],[-63.60365,2.44946],[-63.60776,2.44725],[-63.61213,2.44852],[-63.61476,2.44395],[-63.61942,2.44203],[-63.61862,2.44841],[-63.63021,2.44545],[-63.63332,2.44002],[-63.63648,2.43968],[-63.63901,2.44542],[-63.64361,2.44462],[-63.6459,2.4468],[-63.65359,2.43911],[-63.65894,2.44394],[-63.66502,2.44261],[-63.6696,2.44552],[-63.67235,2.44273],[-63.67514,2.44521],[-63.68298,2.44248],[-63.68919,2.4466],[-63.68859,2.45271],[-63.69096,2.45775],[-63.7017,2.45928],[-63.70552,2.45452],[-63.71162,2.45369],[-63.71209,2.44847],[-63.71849,2.44358],[-63.72145,2.44351],[-63.72523,2.45121],[-63.73369,2.45378],[-63.73598,2.45251],[-63.73645,2.44631],[-63.74757,2.44133],[-63.75896,2.44653],[-63.76379,2.44245],[-63.76886,2.44251],[-63.77411,2.44646],[-63.77374,2.45255],[-63.77674,2.45499],[-63.78181,2.45691],[-63.78677,2.45509],[-63.79162,2.46155],[-63.79325,2.45968],[-63.79778,2.46324],[-63.79598,2.47725],[-63.8007,2.48392],[-63.80566,2.48548],[-63.80995,2.47557],[-63.81236,2.4757],[-63.81681,2.48026],[-63.81666,2.48569],[-63.8236,2.48727],[-63.82354,2.49072],[-63.82816,2.49054],[-63.82967,2.4866],[-63.8364,2.4863],[-63.84548,2.49602],[-63.84661,2.49323],[-63.85383,2.49224],[-63.85659,2.48848],[-63.87375,2.48184],[-63.87436,2.4779],[-63.87837,2.47642],[-63.88175,2.46909],[-63.88792,2.46923],[-63.8929,2.46561],[-63.89977,2.47048],[-63.91248,2.47344],[-63.92629,2.4718],[-63.92703,2.46503],[-63.93546,2.45647],[-63.94045,2.463],[-63.94437,2.46111],[-63.94782,2.46338],[-63.95565,2.45951],[-63.96038,2.47416],[-63.96656,2.47245],[-63.96813,2.46831],[-63.97429,2.46803],[-63.97705,2.46547],[-63.98367,2.46719],[-63.98671,2.47209],[-63.99151,2.47282],[-64.00065,2.47965],[-64.00936,2.48094],[-64.01108,2.47728],[-64.01421,2.4777],[-64.01846,2.46375],[-64.02328,2.46469],[-64.02792,2.47513],[-64.03247,2.47445],[-64.03294,2.48309],[-64.03989,2.48557],[-64.03955,2.48973],[-64.04362,2.49639],[-64.05607,2.4964],[-64.06094,2.50127],[-64.0615,2.50437],[-64.05349,2.52031],[-64.04578,2.52764],[-64.04445,2.53615],[-64.04675,2.54878],[-64.04879,2.55028],[-64.04452,2.55455],[-64.04914,2.56725],[-64.04463,2.57834],[-64.03852,2.58016],[-64.03421,2.57602],[-64.03232,2.57791],[-64.02757,2.57697],[-64.02822,2.58503],[-64.02586,2.59095],[-64.01878,2.59403],[-64.01846,2.59897],[-64.01016,2.60481],[-64.01273,2.6114],[-64.01096,2.61356],[-64.0121,2.61801],[-64.00693,2.6219],[-64.00831,2.62658],[-63.99418,2.63595],[-63.99062,2.6464],[-63.98607,2.64855],[-63.98853,2.65179],[-63.98709,2.65843],[-63.98921,2.66714],[-63.99198,2.67011],[-63.98762,2.67716],[-63.98926,2.68269],[-63.98681,2.68356],[-63.98708,2.68711],[-63.98875,2.68982],[-63.99788,2.69109],[-64.00168,2.70075],[-64.00856,2.70517],[-64.00733,2.70915],[-63.99665,2.71106],[-63.99624,2.71493],[-63.98372,2.71737],[-63.98192,2.72583],[-63.989,2.73326],[-63.99871,2.73487],[-64.00073,2.73815],[-64.004,2.73829],[-64.00273,2.74371],[-64.00648,2.75829],[-64.00511,2.76049],[-63.99948,2.76106],[-63.99744,2.76761],[-64.00391,2.77394],[-64.01218,2.77331],[-64.01746,2.77684],[-64.01419,2.78585],[-64.0196,2.79627],[-64.01509,2.81126],[-64.02074,2.81483],[-64.02067,2.81989],[-64.02482,2.8247],[-64.03324,2.82619],[-64.03371,2.83062],[-64.04274,2.82945],[-64.042,2.83515],[-64.04772,2.8472],[-64.05246,2.85102],[-64.0558,2.86178],[-64.06088,2.8636],[-64.06281,2.86965],[-64.07404,2.87011],[-64.08043,2.87575],[-64.07904,2.88235],[-64.07209,2.88541],[-64.06686,2.8912],[-64.07172,2.90303],[-64.07736,2.90125],[-64.07806,2.90296],[-64.07502,2.91166],[-64.07121,2.91487],[-64.07113,2.92462],[-64.07714,2.92348],[-64.08457,2.92799],[-64.08473,2.93091],[-64.09252,2.93256],[-64.09512,2.93575],[-64.09374,2.94071],[-64.09794,2.94432],[-64.09898,2.95013],[-64.10792,2.95409],[-64.10922,2.96413],[-64.10577,2.96708],[-64.10367,2.9739],[-64.10777,2.97971],[-64.1165,2.97869],[-64.11809,2.98527],[-64.12346,2.98835],[-64.1348,2.97968],[-64.13665,2.98032],[-64.13828,2.99225],[-64.14513,2.98616],[-64.15488,2.98365],[-64.161,2.98477],[-64.15804,2.99399],[-64.16072,2.99722],[-64.15478,2.99947],[-64.15037,3.00546],[-64.15053,3.00916],[-64.14687,3.01058],[-64.14735,3.01813],[-64.14448,3.02641],[-64.14154,3.02806],[-64.14325,3.033],[-64.14875,3.03867],[-64.15568,3.03994],[-64.159,3.04293],[-64.15854,3.04744],[-64.16223,3.04934],[-64.17834,3.05083],[-64.17976,3.05441],[-64.17508,3.05945],[-64.1752,3.06533],[-64.18646,3.06637],[-64.18812,3.07079],[-64.19713,3.07626],[-64.19891,3.08181],[-64.20582,3.0808],[-64.21034,3.08303],[-64.21394,3.09026],[-64.21878,3.09051],[-64.21989,3.09262],[-64.216,3.10049],[-64.21962,3.10563],[-64.21863,3.11359],[-64.226,3.12798],[-64.22613,3.13361],[-64.23037,3.13726],[-64.22992,3.14086],[-64.2235,3.14149],[-64.21999,3.15381],[-64.20662,3.15584],[-64.20027,3.16423],[-64.1927,3.15937],[-64.18731,3.1645],[-64.18153,3.16473],[-64.18107,3.17183],[-64.17647,3.17956],[-64.17703,3.18457],[-64.1715,3.19129],[-64.1698,3.2015],[-64.16763,3.20462],[-64.15878,3.20679],[-64.15649,3.21319],[-64.15392,3.22761],[-64.15693,3.23367],[-64.15812,3.24538],[-64.14772,3.25234],[-64.14988,3.25498],[-64.14451,3.26145],[-64.14526,3.26472],[-64.13866,3.26753],[-64.13695,3.27238],[-64.12986,3.27271],[-64.12279,3.27839],[-64.11733,3.27832],[-64.11712,3.28583],[-64.12409,3.29184],[-64.11869,3.29886],[-64.11972,3.30524],[-64.11694,3.30729],[-64.11559,3.31359],[-64.11961,3.32103],[-64.11481,3.3297],[-64.11488,3.33478],[-64.12029,3.33927],[-64.12548,3.33854],[-64.12772,3.34569],[-64.1343,3.34522],[-64.13624,3.35103],[-64.13324,3.35648],[-64.13318,3.36352],[-64.14011,3.36504],[-64.14414,3.36138],[-64.1466,3.36701],[-64.1497,3.36841],[-64.14431,3.37308],[-64.14155,3.37115],[-64.13597,3.3747],[-64.13577,3.3769],[-64.14393,3.3761],[-64.14793,3.37942],[-64.14206,3.38958],[-64.13603,3.38919],[-64.13432,3.39235],[-64.13799,3.40257],[-64.13437,3.40957],[-64.13468,3.41417],[-64.12688,3.41295],[-64.12336,3.41653],[-64.12002,3.4164],[-64.11756,3.42062],[-64.1249,3.43138],[-64.12285,3.43841],[-64.12677,3.4385],[-64.12923,3.44611],[-64.12281,3.45489],[-64.12225,3.4605],[-64.1157,3.4618],[-64.11962,3.46533],[-64.11786,3.46903],[-64.12517,3.47252],[-64.13043,3.48624],[-64.13309,3.48474],[-64.13843,3.48682],[-64.14147,3.48462],[-64.1417,3.48872],[-64.14778,3.49247],[-64.15073,3.49366],[-64.15342,3.4899],[-64.15833,3.49154],[-64.16339,3.49809],[-64.16154,3.5031],[-64.16917,3.503],[-64.17661,3.50785],[-64.17579,3.51145],[-64.17907,3.5146],[-64.17488,3.51645],[-64.17657,3.5234],[-64.18013,3.52486],[-64.18495,3.52298],[-64.18841,3.5257],[-64.18573,3.53028],[-64.17302,3.53611],[-64.17398,3.54036],[-64.17117,3.54256],[-64.16892,3.55188],[-64.16975,3.55447],[-64.17159,3.55397],[-64.17124,3.57035],[-64.17487,3.57385],[-64.18553,3.57373],[-64.18525,3.57902],[-64.18952,3.58274],[-64.19194,3.5784],[-64.19831,3.57889],[-64.20021,3.58256],[-64.19816,3.58973],[-64.19617,3.59028],[-64.19752,3.59447],[-64.18945,3.60319],[-64.19182,3.60532],[-64.19747,3.60383],[-64.19778,3.60616],[-64.20885,3.6108],[-64.21344,3.60741],[-64.2215,3.60998],[-64.21818,3.61643],[-64.22717,3.61917],[-64.22296,3.62675],[-64.22379,3.62988],[-64.23559,3.63249],[-64.24289,3.62618],[-64.24687,3.62777],[-64.24633,3.63181],[-64.2496,3.63324],[-64.24924,3.63805],[-64.25262,3.64051],[-64.24992,3.64148],[-64.24588,3.63868],[-64.23944,3.64332],[-64.23691,3.65059],[-64.24179,3.65428],[-64.24311,3.65942],[-64.24739,3.66206],[-64.2604,3.652],[-64.26542,3.65063],[-64.26957,3.65314],[-64.27417,3.65026],[-64.28231,3.65141],[-64.28654,3.6563],[-64.29367,3.65349],[-64.29678,3.65938],[-64.30218,3.66114],[-64.30915,3.669],[-64.30809,3.67218],[-64.30264,3.67349],[-64.30192,3.68272],[-64.30482,3.6895],[-64.30925,3.69199],[-64.31026,3.69972],[-64.31852,3.7138],[-64.33319,3.70718],[-64.33451,3.7124],[-64.33905,3.71442],[-64.3394,3.71982],[-64.34428,3.72147],[-64.34654,3.73007],[-64.35393,3.73057],[-64.36403,3.74473],[-64.37089,3.7471],[-64.37758,3.7536],[-64.38419,3.75429],[-64.39189,3.76597],[-64.4069,3.7674],[-64.41088,3.77063],[-64.40998,3.77526],[-64.41293,3.77779],[-64.41784,3.77864],[-64.42193,3.77608],[-64.42611,3.77767],[-64.43883,3.77271],[-64.4462,3.77932],[-64.45733,3.78245],[-64.46415,3.79995],[-64.46312,3.80744],[-64.4722,3.82191],[-64.47416,3.83108],[-64.47709,3.83026],[-64.47996,3.82321],[-64.49022,3.81972],[-64.49274,3.82262],[-64.49997,3.82375],[-64.50461,3.83015],[-64.50832,3.83056],[-64.5032,3.83568],[-64.51484,3.84206],[-64.51513,3.84913],[-64.52115,3.84933],[-64.52563,3.85367],[-64.52559,3.85665],[-64.52097,3.86084],[-64.52898,3.86655],[-64.534,3.87791],[-64.55115,3.88674],[-64.56626,3.90006],[-64.56567,3.90402],[-64.56033,3.90847],[-64.55059,3.9253],[-64.55661,3.9278],[-64.563,3.92524],[-64.56738,3.93365],[-64.57469,3.93387],[-64.57861,3.93613],[-64.58137,3.94165],[-64.58862,3.93934],[-64.58588,3.94839],[-64.59525,3.96171],[-64.60263,3.96276],[-64.61131,3.9715],[-64.61445,3.97077],[-64.61507,3.96752],[-64.62081,3.9706],[-64.62767,3.97001],[-64.63461,3.97632],[-64.64049,3.97756],[-64.64372,3.98772],[-64.64599,3.98769],[-64.64607,3.99532],[-64.65832,3.99361],[-64.66702,3.98939],[-64.67127,3.99074],[-64.6717,3.99581],[-64.68033,4.00402],[-64.6802,4.01268],[-64.68674,4.01547],[-64.68977,4.01396],[-64.69027,4.01041],[-64.70066,4.00674],[-64.70442,4.00928],[-64.70575,4.02703],[-64.7142,4.02968],[-64.71532,4.03281],[-64.73407,4.02279],[-64.73757,4.0267],[-64.73879,4.03794],[-64.74215,4.04194],[-64.75074,4.04693],[-64.75934,4.04545],[-64.7663,4.0534],[-64.77235,4.05318],[-64.77286,4.05658],[-64.76194,4.06053],[-64.76295,4.06425],[-64.7726,4.07321],[-64.76851,4.07847],[-64.76859,4.08895],[-64.7734,4.09414],[-64.76735,4.10843],[-64.76867,4.11173],[-64.77296,4.11289],[-64.77992,4.12449],[-64.7769,4.13081],[-64.77729,4.14152],[-64.78525,4.14767],[-64.78476,4.15369],[-64.79705,4.1525],[-64.79788,4.15983],[-64.80247,4.16796],[-64.79818,4.17273],[-64.79851,4.18321],[-64.8042,4.18577],[-64.80846,4.19346],[-64.80421,4.20006],[-64.82219,4.1947],[-64.82365,4.20494],[-64.82619,4.20599],[-64.82396,4.21722],[-64.82702,4.21985],[-64.82476,4.22671],[-64.8198,4.22861],[-64.82611,4.23203],[-64.82682,4.23533],[-64.82071,4.23676],[-64.8156,4.24203],[-64.8161,4.24886],[-64.80939,4.25016],[-64.80588,4.25634],[-64.81253,4.26786],[-64.80384,4.27051],[-64.80432,4.27358],[-64.80191,4.27492],[-64.79776,4.27502],[-64.79878,4.28093],[-64.79301,4.28529],[-64.78977,4.29175],[-64.78786,4.28846],[-64.78232,4.29108],[-64.77751,4.28771],[-64.77498,4.28003],[-64.77189,4.28085],[-64.76659,4.27784],[-64.76597,4.28035],[-64.76239,4.27822],[-64.75817,4.28056],[-64.7543,4.27342],[-64.75387,4.27558],[-64.74449,4.27209],[-64.73986,4.27823],[-64.73323,4.27712],[-64.7325,4.27205],[-64.72659,4.26589],[-64.72687,4.25899],[-64.72454,4.25481],[-64.72748,4.24973],[-64.71572,4.24347],[-64.7139,4.24039],[-64.70806,4.22495],[-64.70964,4.21767],[-64.69237,4.21909],[-64.69148,4.22773],[-64.68696,4.2292],[-64.69088,4.24129],[-64.68788,4.24459],[-64.69026,4.24945],[-64.68106,4.24764],[-64.67611,4.25175],[-64.67872,4.25704],[-64.68973,4.26491],[-64.68679,4.2685],[-64.68752,4.27625],[-64.67493,4.29151],[-64.66926,4.29258],[-64.66499,4.29641],[-64.66688,4.31154],[-64.6586,4.30969],[-64.65261,4.31404],[-64.65222,4.31774],[-64.64656,4.32189],[-64.6454,4.33342],[-64.63989,4.33456],[-64.63963,4.33999],[-64.63695,4.34305],[-64.6431,4.3551],[-64.64742,4.35546],[-64.64862,4.35039],[-64.65656,4.35127],[-64.66141,4.35555],[-64.65999,4.37177],[-64.66529,4.37622],[-64.66403,4.38073],[-64.66887,4.3898],[-64.66634,4.39791],[-64.66993,4.40752],[-64.66817,4.40972],[-64.67177,4.42313],[-64.67091,4.43458],[-64.66379,4.43377],[-64.6619,4.43148],[-64.65847,4.43349],[-64.65184,4.43259],[-64.64791,4.42583],[-64.64173,4.42835],[-64.63699,4.42373],[-64.61843,4.43524],[-64.6113,4.43509],[-64.60377,4.44271],[-64.59974,4.45077],[-64.58822,4.44812],[-64.58558,4.45272],[-64.5812,4.454],[-64.57953,4.45803],[-64.58437,4.46951],[-64.58081,4.47161],[-64.58013,4.47828],[-64.57665,4.47875],[-64.57201,4.48992],[-64.57644,4.50259],[-64.56369,4.51777],[-64.56296,4.53056],[-64.5685,4.53524],[-64.56575,4.54614],[-64.55837,4.54736],[-64.55453,4.54406],[-64.54352,4.54686],[-64.53835,4.55397],[-64.53519,4.56682],[-64.53957,4.57285],[-64.53174,4.58038],[-64.52882,4.57959],[-64.52788,4.58389],[-64.51899,4.58327],[-64.51569,4.59026],[-64.51751,4.59266],[-64.5118,4.59775],[-64.50715,4.59865],[-64.50583,4.60904],[-64.50161,4.60804],[-64.50125,4.61208],[-64.49636,4.61155],[-64.49327,4.62036],[-64.48678,4.62686],[-64.48724,4.6413],[-64.48013,4.65321],[-64.47402,4.65225],[-64.45816,4.65791],[-64.45106,4.67291],[-64.45653,4.67729],[-64.45441,4.68537],[-64.45833,4.69376],[-64.46859,4.70034],[-64.47417,4.7],[-64.48168,4.69483],[-64.48734,4.69495],[-64.49408,4.69897],[-64.50262,4.69649],[-64.51459,4.69752],[-64.52019,4.69983],[-64.53014,4.7103],[-64.54456,4.69757],[-64.58236,4.67528],[-64.59397,4.67111],[-64.59581,4.66696],[-64.60188,4.66478],[-64.60214,4.6559],[-64.61935,4.64016],[-64.62467,4.62611],[-64.63534,4.62759],[-64.63568,4.63041],[-64.64029,4.63144],[-64.64167,4.62404],[-64.65216,4.62819],[-64.66701,4.62359],[-64.67124,4.62526],[-64.67995,4.61698],[-64.68958,4.62951],[-64.70355,4.62699],[-64.7034,4.63049],[-64.71027,4.63999],[-64.7158,4.64363],[-64.71808,4.63924],[-64.71643,4.6352],[-64.71812,4.61918],[-64.72342,4.62049],[-64.72501,4.61576],[-64.73215,4.61152],[-64.73224,4.60577],[-64.7382,4.60598],[-64.73838,4.60015],[-64.74376,4.59775],[-64.74408,4.57294],[-64.75619,4.56524],[-64.76749,4.56862],[-64.77561,4.5601],[-64.7803,4.55936],[-64.78567,4.55998],[-64.79423,4.57888],[-64.80747,4.58389],[-64.8173,4.59384],[-64.82333,4.59285],[-64.83268,4.60062],[-64.84157,4.60417],[-64.85815,4.60511],[-64.86141,4.61247],[-64.8577,4.61713],[-64.85828,4.62286],[-64.86453,4.62635],[-64.8624,4.6331],[-64.87092,4.64174],[-64.87588,4.64192],[-64.87751,4.63843],[-64.88506,4.63471],[-64.89761,4.63646],[-64.90008,4.63225],[-64.91888,4.63045],[-64.9301,4.62004],[-64.93845,4.6186],[-64.94051,4.6201],[-64.93551,4.6244],[-64.93525,4.63101],[-64.93259,4.63396],[-64.93514,4.65068],[-64.93328,4.65845],[-64.95233,4.66936],[-64.95453,4.68094],[-64.96147,4.68272],[-64.96542,4.68813],[-64.9707,4.68882],[-64.97385,4.69596],[-64.98944,4.69842],[-64.99295,4.7009],[-64.9957,4.70695],[-65.00205,4.7108],[-65.00297,4.71863],[-65.00992,4.71929],[-65.0121,4.72354],[-65.02357,4.72132],[-65.03052,4.7235],[-65.03353,4.72705],[-65.03108,4.73494],[-65.03739,4.74059],[-65.03627,4.74606],[-65.03906,4.75205],[-65.03612,4.75569],[-65.0384,4.75951],[-65.03303,4.76732],[-65.03846,4.76942],[-65.03782,4.77463],[-65.04494,4.78068],[-65.044,4.79217],[-65.04707,4.79418],[-65.04868,4.80583],[-65.05589,4.80743],[-65.05571,4.81184],[-65.06054,4.81674],[-65.0767,4.81712],[-65.08794,4.82084],[-65.08981,4.82591],[-65.0982,4.82916],[-65.10065,4.83356],[-65.10605,4.83085],[-65.10592,4.83951],[-65.11092,4.84333],[-65.11839,4.84156],[-65.12015,4.84507],[-65.11798,4.84994],[-65.12125,4.85524],[-65.11833,4.85943],[-65.12341,4.86882],[-65.13414,4.86551],[-65.13584,4.86747],[-65.13479,4.87339],[-65.14099,4.87566],[-65.14114,4.88026],[-65.13161,4.88394],[-65.1324,4.89088],[-65.12637,4.90181],[-65.1297,4.90508],[-65.12968,4.91004],[-65.13575,4.91263],[-65.13871,4.91992],[-65.13785,4.92496],[-65.14056,4.92746],[-65.13951,4.9305],[-65.1494,4.94018],[-65.15277,4.95288],[-65.15296,4.95878],[-65.14944,4.96273],[-65.15197,4.96859],[-65.15852,4.9696],[-65.16109,4.97441],[-65.16903,4.97655],[-65.1685,4.98191],[-65.17613,4.98845],[-65.17272,4.99422],[-65.17298,5.00002],[-65.16697,5.0],[-65.16777,5.00679],[-65.16472,5.01218],[-65.17535,5.01649],[-65.17517,5.02507],[-65.17064,5.02887],[-65.17182,5.03204],[-65.16581,5.04713],[-65.16624,5.05335],[-65.17345,5.05796],[-65.168,5.06991],[-65.17231,5.07526],[-65.17414,5.08419],[-65.17176,5.0903],[-65.1639,5.09539],[-65.16365,5.1009],[-65.15953,5.1065],[-65.16206,5.10932],[-65.17152,5.10721],[-65.17304,5.11847],[-65.17665,5.12516],[-65.18918,5.13407],[-65.19,5.14115],[-65.19607,5.15226],[-65.19025,5.16746],[-65.19272,5.17211],[-65.19667,5.175],[-65.2021,5.17147],[-65.20392,5.18284],[-65.20723,5.18222],[-65.21083,5.17741],[-65.2136,5.18173],[-65.22132,5.18077],[-65.22437,5.1885],[-65.22892,5.18699],[-65.23182,5.1891],[-65.23315,5.19643],[-65.23667,5.19925],[-65.23338,5.214],[-65.23686,5.21842],[-65.23662,5.2243],[-65.23203,5.229],[-65.23177,5.23325],[-65.23643,5.23844],[-65.2378,5.24921],[-65.25072,5.26357],[-65.26143,5.26855],[-65.26291,5.27278],[-65.27293,5.2746],[-65.27598,5.28152],[-65.27548,5.28876],[-65.27224,5.29278],[-65.25759,5.29319],[-65.25263,5.29643],[-65.25025,5.29259],[-65.24308,5.28902],[-65.23752,5.29069],[-65.23461,5.2972],[-65.22145,5.29861],[-65.21662,5.3066],[-65.211,5.30962],[-65.20914,5.32064],[-65.20596,5.32391],[-65.19364,5.33083],[-65.18281,5.3303],[-65.17637,5.33455],[-65.1709,5.34312],[-65.16407,5.34329],[-65.15712,5.3548],[-65.16133,5.357],[-65.16463,5.36634],[-65.15671,5.36927],[-65.15236,5.37617],[-65.14687,5.37843],[-65.14605,5.39097],[-65.13382,5.40381],[-65.14305,5.40548],[-65.15004,5.40983],[-65.1539,5.41539],[-65.14996,5.41885],[-65.153,5.42124],[-65.14875,5.4256],[-65.14493,5.43543],[-65.14242,5.45014],[-65.14753,5.4501],[-65.15384,5.45662],[-65.15129,5.46193],[-65.15298,5.46565],[-65.15032,5.46926],[-65.15041,5.47791],[-65.15491,5.48338],[-65.16208,5.48693],[-65.14648,5.50841],[-65.14687,5.51708],[-65.15412,5.51775],[-65.15118,5.52708],[-65.1547,5.5406],[-65.15335,5.54703],[-65.15865,5.54948],[-65.16444,5.54651],[-65.16869,5.55367],[-65.17671,5.55136],[-65.18558,5.55341],[-65.18774,5.55557],[-65.18599,5.56256],[-65.18997,5.56725],[-65.19592,5.57048],[-65.20017,5.56759],[-65.20068,5.57031],[-65.21085,5.57481],[-65.21266,5.57951],[-65.22021,5.5784],[-65.22868,5.59158],[-65.2275,5.59762],[-65.23059,5.60029],[-65.22383,5.6108],[-65.2289,5.61571],[-65.22433,5.62598],[-65.22615,5.62984],[-65.22461,5.6338],[-65.23669,5.64823],[-65.24141,5.6484],[-65.24467,5.6559],[-65.24235,5.66407],[-65.23776,5.66555],[-65.2345,5.67172],[-65.23847,5.67689],[-65.23544,5.68101],[-65.23632,5.6838],[-65.24023,5.68427],[-65.23843,5.68775],[-65.24267,5.69439],[-65.24452,5.70627],[-65.23398,5.7166],[-65.23325,5.72185],[-65.22645,5.72209],[-65.22126,5.72634],[-65.22014,5.74863],[-65.22748,5.75813],[-65.23169,5.75877],[-65.23589,5.75477],[-65.24272,5.75657],[-65.24418,5.7612],[-65.24055,5.76722],[-65.24036,5.77313],[-65.24641,5.77674],[-65.25342,5.78949],[-65.26117,5.79468],[-65.26321,5.80524],[-65.2696,5.8097],[-65.274,5.80966],[-65.27874,5.80729],[-65.28201,5.7983],[-65.28115,5.79126],[-65.2913,5.78133],[-65.29876,5.78479],[-65.3008,5.78842],[-65.31564,5.78794],[-65.31722,5.7729],[-65.32587,5.77437],[-65.3276,5.76556],[-65.33247,5.76334],[-65.33213,5.75866],[-65.33805,5.75776],[-65.34981,5.74925],[-65.35704,5.73697],[-65.3756,5.72175],[-65.3788,5.72738],[-65.39168,5.72866],[-65.39532,5.73244],[-65.39653,5.746],[-65.40532,5.74822],[-65.40963,5.74372],[-65.41296,5.74515],[-65.42071,5.74117],[-65.42738,5.74287],[-65.43129,5.74111],[-65.43687,5.74498],[-65.44603,5.74675],[-65.46528,5.73291],[-65.47206,5.73434],[-65.48206,5.7137],[-65.48345,5.70255],[-65.48847,5.69967],[-65.48942,5.71017],[-65.49412,5.72108],[-65.50476,5.71357],[-65.51783,5.72155],[-65.52379,5.71993],[-65.53036,5.73084],[-65.54051,5.73082],[-65.54538,5.7276],[-65.54441,5.72102],[-65.54903,5.71931],[-65.55291,5.72937],[-65.55323,5.74738],[-65.5581,5.74753],[-65.56263,5.758],[-65.56881,5.76075],[-65.57698,5.75164],[-65.57664,5.74764],[-65.58121,5.74034],[-65.58027,5.73468],[-65.59237,5.73099],[-65.60149,5.73398],[-65.60885,5.72994],[-65.61574,5.73404],[-65.61638,5.74071],[-65.61241,5.753],[-65.60692,5.76103],[-65.61121,5.77629],[-65.60917,5.78054],[-65.61303,5.7871],[-65.60477,5.82053],[-65.60889,5.83001],[-65.60651,5.83513],[-65.6075,5.84266],[-65.59724,5.86064],[-65.5963,5.8677],[-65.59853,5.88392],[-65.60177,5.88467],[-65.60209,5.88802],[-65.60872,5.89338],[-65.60728,5.89799],[-65.60921,5.90072],[-65.60539,5.90264],[-65.60482,5.90838],[-65.60934,5.91082],[-65.60986,5.91391],[-65.61799,5.916],[-65.61557,5.92826],[-65.60997,5.93205],[-65.60771,5.94616],[-65.60239,5.9573],[-65.60492,5.96025],[-65.60091,5.96656],[-65.60196,5.97715],[-65.59546,6.00026],[-65.59095,6.00342],[-65.5911,6.01061],[-65.58756,6.01315],[-65.59037,6.02141],[-65.59055,6.03123],[-65.58868,6.03323],[-65.59181,6.03867],[-65.58553,6.048],[-65.58855,6.05118],[-65.58804,6.05483],[-65.58381,6.05711],[-65.58643,6.0694],[-65.58351,6.0748],[-65.58671,6.07964],[-65.58707,6.08596],[-65.60057,6.09112],[-65.60522,6.10025],[-65.60366,6.10896],[-65.60606,6.12524],[-65.61254,6.12669],[-65.62535,6.11706],[-65.62971,6.12071],[-65.63368,6.12048],[-65.64925,6.10934],[-65.73253,6.09296],[-65.7447,6.08547],[-65.74925,6.08508],[-65.75532,6.07772],[-65.76414,6.08692],[-65.77023,6.08933],[-65.7686,6.09522],[-65.77669,6.0959],[-65.77905,6.10023],[-65.7862,6.10158],[-65.80326,6.11295],[-65.80802,6.10906],[-65.80856,6.10527],[-65.81377,6.10795],[-65.81596,6.10119],[-65.81375,6.08867],[-65.81521,6.0837],[-65.82265,6.08081],[-65.8283,6.08323],[-65.82669,6.0764],[-65.83046,6.06475],[-65.84197,6.05662],[-65.8463,6.04279],[-65.8516,6.03464],[-65.86402,6.03093],[-65.86926,6.00577],[-65.86817,5.99855],[-65.8751,5.99597],[-65.88175,5.99858],[-65.88872,5.99369],[-65.88816,5.98718],[-65.88136,5.97598],[-65.88544,5.97147],[-65.8837,5.96522],[-65.8851,5.95182],[-65.87975,5.94652],[-65.87859,5.94132],[-65.88357,5.9353],[-65.8916,5.93624],[-65.897,5.93359],[-65.89602,5.92597],[-65.89986,5.92341],[-65.90033,5.91686],[-65.90311,5.91634],[-65.89479,5.9102],[-65.89718,5.9076],[-65.89608,5.90234],[-65.90958,5.89238],[-65.90958,5.88796],[-65.90649,5.88619],[-65.91488,5.8822],[-65.92123,5.87534],[-65.92153,5.87101],[-65.93001,5.87259],[-65.93338,5.87797],[-65.93977,5.87645],[-65.94807,5.87837],[-65.95022,5.87447],[-65.97292,5.87825],[-65.98932,5.86922],[-65.99226,5.86141],[-66.00221,5.86202],[-66.01009,5.85855],[-66.01854,5.84828],[-66.01524,5.82623],[-66.01103,5.82196],[-66.015,5.81826],[-66.01702,5.80304],[-66.02839,5.79502],[-66.03096,5.78646],[-66.02787,5.78044],[-66.03644,5.76978],[-66.03539,5.76383],[-66.04105,5.75038],[-66.05386,5.74412],[-66.0609,5.74254],[-66.07937,5.74425],[-66.09002,5.74066],[-66.09392,5.73703],[-66.10209,5.73966],[-66.10467,5.73477],[-66.11074,5.7356],[-66.11454,5.74816],[-66.12579,5.7622],[-66.12699,5.76682],[-66.13838,5.77335],[-66.14089,5.77843],[-66.1487,5.77886],[-66.154,5.78925],[-66.16222,5.78453],[-66.17121,5.7729],[-66.17999,5.77286],[-66.18372,5.76413],[-66.18741,5.76302],[-66.19267,5.76562],[-66.1957,5.75896],[-66.2014,5.75682],[-66.20396,5.75307],[-66.20501,5.7434],[-66.20239,5.73488],[-66.20473,5.73078],[-66.2043,5.71991],[-66.20868,5.70941],[-66.20724,5.70693],[-66.20042,5.70879],[-66.19666,5.70052],[-66.19269,5.69877],[-66.2002,5.68816],[-66.20057,5.67279],[-66.1969,5.66946],[-66.20091,5.65891],[-66.19988,5.65293],[-66.20394,5.64402],[-66.20235,5.63834],[-66.20812,5.62886],[-66.21078,5.61776],[-66.21404,5.61616],[-66.22003,5.61889],[-66.21969,5.61415],[-66.22773,5.61204],[-66.22518,5.60211],[-66.22747,5.59405],[-66.23314,5.59287],[-66.2337,5.58807],[-66.23166,5.58109],[-66.22657,5.57699],[-66.22687,5.57225],[-66.22923,5.57165],[-66.22715,5.56674],[-66.23196,5.55638],[-66.23919,5.5529],[-66.24061,5.54833],[-66.24112,5.53776],[-66.23574,5.53169],[-66.23522,5.52409],[-66.27161,5.51054],[-66.31288,5.50833],[-66.32633,5.51206],[-66.33148,5.51924],[-66.33811,5.51954],[-66.3406,5.51636],[-66.34807,5.5155],[-66.3548,5.51988],[-66.36478,5.51164],[-66.36603,5.49513],[-66.36927,5.4934],[-66.37536,5.5013],[-66.38203,5.49696],[-66.3971,5.50013],[-66.39615,5.51871],[-66.39922,5.52067],[-66.40733,5.54235],[-66.40853,5.55903],[-66.41227,5.56721],[-66.40474,5.58594],[-66.40997,5.5944],[-66.41102,5.60076],[-66.41441,5.60193],[-66.41506,5.61107],[-66.41004,5.61466],[-66.40012,5.61432],[-66.398,5.61906],[-66.38796,5.62263],[-66.38457,5.62869],[-66.38688,5.63371],[-66.38405,5.63783],[-66.39051,5.64372],[-66.39708,5.63909],[-66.4054,5.64413],[-66.4072,5.64994],[-66.4168,5.65728],[-66.41917,5.66618],[-66.41603,5.67439],[-66.42034,5.71106],[-66.42817,5.71233],[-66.43248,5.71581],[-66.4327,5.72],[-66.44007,5.72669],[-66.44475,5.74288],[-66.46812,5.77367],[-66.48012,5.77062],[-66.48372,5.76536],[-66.49979,5.75356],[-66.50432,5.75542],[-66.50827,5.76188],[-66.51406,5.76325],[-66.5169,5.76897],[-66.52582,5.76417],[-66.53614,5.76235],[-66.54887,5.75334],[-66.55226,5.74139],[-66.55676,5.73932],[-66.56206,5.74019],[-66.58148,5.73065],[-66.59028,5.7312],[-66.60196,5.74038],[-66.60605,5.74077],[-66.61467,5.73457],[-66.62266,5.73345],[-66.63227,5.7375],[-66.64367,5.73605],[-66.64759,5.73238],[-66.6586,5.73475],[-66.66161,5.73291],[-66.65837,5.72667],[-66.66041,5.72181],[-66.67975,5.72503],[-66.68218,5.72006],[-66.68962,5.71702],[-66.69582,5.71939],[-66.70734,5.71365],[-66.71821,5.7163],[-66.72909,5.70264],[-66.73945,5.70251],[-66.74407,5.69442],[-66.75428,5.69457],[-66.75634,5.68961],[-66.75967,5.68908],[-66.76722,5.69348],[-66.77522,5.68944],[-66.78327,5.69299],[-66.79147,5.68953],[-66.79278,5.68575],[-66.79999,5.68002],[-66.80694,5.67915],[-66.81029,5.67492],[-66.81883,5.67663],[-66.82419,5.6746],[-66.82505,5.66899],[-66.83644,5.67142],[-66.85063,5.6828],[-66.86142,5.67879],[-66.86749,5.67272],[-66.86453,5.65723],[-66.86857,5.64761],[-66.88107,5.64407],[-66.88919,5.63832],[-66.90564,5.64012],[-66.91489,5.65306],[-66.91807,5.6616],[-66.91554,5.66719],[-66.92543,5.67067],[-66.92577,5.67984],[-66.93225,5.68173],[-66.93219,5.6929],[-66.93736,5.69284],[-66.94616,5.68739],[-66.94547,5.68395],[-66.95051,5.67595],[-66.95886,5.66939],[-66.94369,5.64857],[-66.93886,5.63597],[-66.95246,5.63113],[-66.96184,5.62188],[-66.97023,5.62686],[-66.97598,5.61977],[-66.98667,5.62474],[-67.00523,5.62218],[-67.01111,5.62666],[-67.0098,5.63305],[-67.01836,5.64133],[-67.01733,5.64708],[-67.02014,5.64908],[-67.02008,5.65286],[-67.02285,5.65276],[-67.02512,5.64806],[-67.0363,5.64785],[-67.04117,5.65739],[-67.05074,5.66068],[-67.0559,5.66752],[-67.06145,5.66897],[-67.05939,5.67738],[-67.06255,5.69024],[-67.05636,5.69435],[-67.05716,5.70259],[-67.06557,5.70804],[-67.06372,5.71592],[-67.07578,5.72469],[-67.08475,5.72281],[-67.0934,5.71581],[-67.09803,5.71769],[-67.09831,5.72019],[-67.09488,5.72264],[-67.0981,5.7416],[-67.10297,5.74875],[-67.11237,5.75277],[-67.12844,5.74878],[-67.12855,5.7349],[-67.1264,5.73009],[-67.12877,5.72269],[-67.13767,5.72614],[-67.14221,5.72072],[-67.14966,5.72241],[-67.16147,5.71632],[-67.17335,5.71543],[-67.17676,5.7172],[-67.17835,5.70827],[-67.18427,5.70148],[-67.1925,5.70723],[-67.19785,5.70507],[-67.21335,5.70812],[-67.21684,5.71641],[-67.22549,5.71619],[-67.23139,5.72066],[-67.23186,5.72486],[-67.22856,5.7292],[-67.23425,5.73208],[-67.23504,5.73494],[-67.23011,5.74096],[-67.23101,5.75134],[-67.2247,5.75505],[-67.21918,5.75509],[-67.21339,5.76028],[-67.21358,5.76306],[-67.21923,5.76284],[-67.22137,5.77243],[-67.21238,5.77989],[-67.20916,5.78966],[-67.20551,5.79305],[-67.20742,5.79907],[-67.20056,5.80565],[-67.20073,5.81081],[-67.20721,5.81952],[-67.22071,5.8194],[-67.22414,5.82571],[-67.22135,5.83246],[-67.21809,5.83054],[-67.20852,5.83573],[-67.20124,5.84935],[-67.19285,5.85067],[-67.18648,5.85686],[-67.18449,5.86247],[-67.18981,5.8705],[-67.18974,5.88136],[-67.17526,5.89513],[-67.16369,5.90036],[-67.16228,5.91547],[-67.16895,5.91874],[-67.16822,5.9217],[-67.15176,5.9231],[-67.14818,5.93057],[-67.15058,5.9499],[-67.14374,5.95256],[-67.14466,5.95694],[-67.14239,5.96001],[-67.1473,5.97132],[-67.1394,5.98453],[-67.13686,5.99628],[-67.1411,5.99973],[-67.1438,6.0091],[-67.14779,6.01053],[-67.14912,6.01469],[-67.14603,6.02109],[-67.14696,6.02538],[-67.1435,6.02856],[-67.1447,6.03291],[-67.14181,6.03677],[-67.14608,6.0502],[-67.14657,6.05886],[-67.14288,6.06302],[-67.14374,6.06695],[-67.16537,6.07386],[-67.16284,6.08212],[-67.16457,6.09554],[-67.176,6.10598],[-67.17807,6.11256],[-67.18562,6.11826],[-67.20133,6.12124],[-67.2132,6.118],[-67.22519,6.12003],[-67.24886,6.10405],[-67.26094,6.09884],[-67.26736,6.1001],[-67.28148,6.0972],[-67.28802,6.091],[-67.29761,6.09622],[-67.29283,6.1109],[-67.28897,6.11616],[-67.28336,6.1152],[-67.28348,6.11892],[-67.28726,6.12243],[-67.28673,6.1256],[-67.29374,6.12929],[-67.29773,6.14058],[-67.30277,6.14202],[-67.30664,6.14842],[-67.31465,6.1479],[-67.32639,6.15102],[-67.34543,6.14978],[-67.34658,6.14698],[-67.35361,6.14341],[-67.35715,6.13679],[-67.35605,6.13478],[-67.35933,6.13411],[-67.3593,6.13221],[-67.37006,6.12514],[-67.37838,6.12397],[-67.39368,6.13098],[-67.39844,6.13025],[-67.40695,6.13581],[-67.40862,6.13865],[-67.40507,6.14378],[-67.40508,6.15158],[-67.41656,6.16525],[-67.41605,6.1688],[-67.4188,6.16844],[-67.42469,6.17361],[-67.42861,6.17329],[-67.43052,6.18215],[-67.43302,6.18346],[-67.43082,6.18719],[-67.43531,6.18652],[-67.43218,6.18776],[-67.43285,6.18951],[-67.44161,6.19593],[-67.46294,6.18517],[-67.48576,6.16214],[-67.48937,6.15504],[-67.49367,6.12491],[-67.48773,6.11028],[-67.47614,6.09734],[-67.47123,6.08382],[-67.46026,6.06663],[-67.42745,6.0349],[-67.427,6.02729],[-67.42379,6.02142],[-67.41013,6.00719],[-67.40844,5.99428],[-67.42745,5.97786],[-67.44144,5.97235],[-67.45379,5.96357],[-67.46996,5.93442],[-67.4788,5.92444],[-67.51408,5.90856],[-67.52858,5.89959],[-67.56163,5.85682],[-67.5866,5.8347],[-67.59175,5.82757],[-67.59235,5.80998],[-67.60433,5.79171],[-67.61415,5.75588],[-67.62566,5.73676],[-67.6275,5.69215],[-67.63557,5.67744],[-67.63909,5.65457],[-67.63224,5.63764],[-67.63452,5.62376],[-67.62939,5.6175],[-67.62581,5.60804],[-67.62701,5.60176],[-67.6213,5.59074],[-67.62323,5.5772],[-67.61699,5.57415],[-67.61274,5.56285],[-67.60171,5.55542],[-67.59484,5.54286],[-67.59901,5.52785],[-67.61325,5.51629],[-67.61885,5.50606],[-67.61673,5.49978],[-67.61909,5.47516],[-67.62531,5.46373],[-67.64656,5.45333],[-67.65793,5.43461],[-67.68342,5.42428],[-67.70586,5.41817],[-67.71762,5.40804],[-67.72659,5.39027],[-67.75294,5.38215],[-67.78037,5.35692],[-67.83517,5.31912],[-67.84566,5.30658],[-67.85233,5.27827],[-67.863,5.27238],[-67.85961,5.26009],[-67.85427,5.25339],[-67.84325,5.25041],[-67.83976,5.24713],[-67.84216,5.22714],[-67.83174,5.21398],[-67.82798,5.2125],[-67.82326,5.20073],[-67.82599,5.19118],[-67.83828,5.17823],[-67.84021,5.16645],[-67.85396,5.14078],[-67.85389,5.13341],[-67.85095,5.12546],[-67.83363,5.10051],[-67.83093,5.09147],[-67.82317,5.08474],[-67.82304,5.06272],[-67.81031,5.05838],[-67.80676,5.04815],[-67.80854,5.0408],[-67.81762,5.0268],[-67.82307,4.97519],[-67.83883,4.94454],[-67.83587,4.87976],[-67.82788,4.84873],[-67.82443,4.81254],[-67.82673,4.78239],[-67.8233,4.71329],[-67.8452,4.64731],[-67.84395,4.62243],[-67.84688,4.59801],[-67.84265,4.55683],[-67.85351,4.54296],[-67.85688,4.52957],[-67.8552,4.51979],[-67.8488,4.51134],[-67.82734,4.49905],[-67.80997,4.49317],[-67.79855,4.48186],[-67.7937,4.46408],[-67.79832,4.44331],[-67.79725,4.43497],[-67.78623,4.42545],[-67.77044,4.42004],[-67.77058,4.41498],[-67.77861,4.40221],[-67.77938,4.38852],[-67.76629,4.37341],[-67.7608,4.3551],[-67.76812,4.3404],[-67.77347,4.33809],[-67.78905,4.341],[-67.79952,4.33532],[-67.80635,4.32478],[-67.80596,4.31499],[-67.79635,4.29537],[-67.79119,4.2772],[-67.79567,4.24204],[-67.79484,4.22649],[-67.79184,4.21883]]]}}]}