{"type":"FeatureCollection","features":[{"type":"Feature","id":"node/313467639","properties":{"name":"San Carlos de R\u00edo Negro","place":"town"},"geometry":{"type":"Point","coordinates":[-67.06066,1.92322]}},{"type":"Feature","id":"node/313475832","properties":{"name":"La Esmeralda","place":"village"},"geometry":{"type":"Point","coordinates":[-65.54337,3.17719]}},{"type":"Feature","id":"node/313482279","properties":{"name":"San Fernando de Atabapo","place":"town"},"geometry":{"type":"Point","coordinates":[-67.69463,4.04211]}},{"type":"Feature","id":"node/333688135","properties":{"name":"Puerto Ayacucho","place":"city","population":"106171"},"geometry":{"type":"Point","coordinates":[-67.60008,5.65517]}},{"type":"Feature","id":"node/703319904","properties":{"name":"Maroa","place":"town","population":"3031"},"geometry":{"type":"Point","coordinates":[-67.55849,2.71785]}},{"type":"Feature","id":"node/829226855","properties":{"name":"Misi\u00f3n Padamo","place":"village"},"geometry":{"type":"Point","coordinates":[-65.23145,3.03935]}},{"type":"Feature","id":"node/1163958981","properties":{"name":"La Coromoto","place":"village"},"geometry":{"type":"Point","coordinates":[-67.60892,5.40819]}},{"type":"Feature","id":"node/1163959916","properties":{"name":"Pintado","place":"village"},"geometry":{"type":"Point","coordinates":[-67.58171,5.45602]}},{"type":"Feature","id":"node/1215467708","properties":{"name":"Sabana de Tigre","place":"village"},"geometry":{"type":"Point","coordinates":[-67.69135,5.35153]}},{"type":"Feature","id":"node/1215467735","properties":{"name":"Agua Blanca","place":"village"},"geometry":{"type":"Point","coordinates":[-67.60535,5.48321]}},{"type":"Feature","id":"node/1215467740","properties":{"name":"La Laguna","place":"village"},"geometry":{"type":"Point","coordinates":[-67.79455,5.10377]}},{"type":"Feature","id":"node/2242553790","properties":{"name":"Isla Rat\u00f3n","place":"town","population":"8350"},"geometry":{"type":"Point","coordinates":[-67.81297,5.06939]}},{"type":"Feature","id":"node/2825009833","properties":{"name":"Ocamo","place":"village"},"geometry":{"type":"Point","coordinates":[-65.21617,2.78587]}},{"type":"Feature","id":"node/2825009836","properties":{"name":"Platanal","place":"village"},"geometry":{"type":"Point","coordinates":[-64.9045,2.42274]}},{"type":"Feature","id":"node/2833898607","properties":{"name":"Victorino","place":"village"},"geometry":{"type":"Point","coordinates":[-67.83468,2.81086]}},{"type":"Feature","id":"node/2833941217","properties":{"name":"Yavita","place":"village"},"geometry":{"type":"Point","coordinates":[-67.43592,2.92245]}},{"type":"Feature","id":"node/5245616883","properties":{"name":"San Juan de Manapiare","place":"town"},"geometry":{"type":"Point","coordinates":[-66.0569,5.32824]}},{"type":"Feature","id":"node/4886104921","properties":{"name":"Comunidad Wasara\u00f1a","place":"village"},"geometry":{"type":"Point","coordinates":[-65.22326,4.73646]}},{"type":"Feature","id":"node/5244571480","properties":{"name":"Samariapo","place":"village"},"geometry":{"type":"Point","coordinates":[-67.79627,5.23998]}},{"type":"Feature","id":"node/5244571481","properties":{"name":"Raya","place":"village"},"geometry":{"type":"Point","coordinates":[-67.58495,5.39209]}},{"type":"Feature","id":"node/5245616882","properties":{"name":"Majagua","place":"village"},"geometry":{"type":"Point","coordinates":[-65.90857,5.45646]}},{"type":"Feature","id":"node/5245616886","properties":{"name":"Marieta","place":"village"},"geometry":{"type":"Point","coordinates":[-66.5247,5.16427]}},{"type":"Feature","id":"node/5245636856","properties":{"name":"Cacur\u00ed","place":"village"},"geometry":{"type":"Point","coordinates":[-65.35376,4.80759]}},{"type":"Feature","id":"node/5245636863","properties":{"name":"Raudales de La Danta","place":"village"},"geometry":{"type":"Point","coordinates":[-67.55751,5.04303]}},{"type":"Feature","id":"node/5735071075","properties":{"name":"Comunidad Toky","place":"village"},"geometry":{"type":"Point","coordinates":[-65.27314,3.35096]}},{"type":"Feature","id":"node/5735200524","properties":{"name":"Koshilowatery","place":"village"},"geometry":{"type":"Point","coordinates":[-65.31663,3.25286]}},{"type":"Feature","id":"node/6481149993","properties":{"name":"Bel\u00e9n","place":"village"},"geometry":{"type":"Point","coordinates":[-65.76412,3.7475]}},{"type":"Feature","id":"node/6481149998","properties":{"name":"Tama Tama","place":"village"},"geometry":{"type":"Point","coordinates":[-65.85879,3.14916]}},{"type":"Feature","id":"node/6481150005","properties":{"name":"Yajanamateli","place":"village"},"geometry":{"type":"Point","coordinates":[-65.20354,3.61922]}},{"type":"Feature","id":"node/6481150006","properties":{"name":"Comunidad Adajame\u00f1a (La Esmeralda)","place":"village"},"geometry":{"type":"Point","coordinates":[-64.93726,3.78381]}},{"type":"Feature","id":"node/6481150007","properties":{"name":"Asentamiento Parima","place":"village"},"geometry":{"type":"Point","coordinates":[-64.23167,2.78651]}},{"type":"Feature","id":"node/8009622815","properties":{"name":"Tengua","place":"village"},"geometry":{"type":"Point","coordinates":[-65.63121,5.0484]}},{"type":"Feature","id":"node/9892222374","properties":{"name":"Marueta Arriba","place":"village"},"geometry":{"type":"Point","coordinates":[-66.29147,4.3101]}},{"type":"Feature","id":"node/9976655469","properties":{"name":"Pendare","place":"village"},"geometry":{"type":"Point","coordinates":[-67.73999,4.91022]}},{"type":"Feature","id":"node/9976667100","properties":{"name":"Macoruco","place":"village"},"geometry":{"type":"Point","coordinates":[-67.03241,3.95632]}},{"type":"Feature","id":"node/9976667333","properties":{"name":"San Pedro del Orinoco","place":"village"},"geometry":{"type":"Point","coordinates":[-67.83572,4.57358]}},{"type":"Feature","id":"node/9976671860","properties":{"name":"Munduapo","place":"village"},"geometry":{"type":"Point","coordinates":[-67.80089,4.84573]}},{"type":"Feature","id":"node/9976690204","properties":{"name":"Laja Lisa","place":"village"},"geometry":{"type":"Point","coordinates":[-67.77281,4.20717]}},{"type":"Feature","id":"node/9998717376","properties":{"name":"Morrocoy","place":"village"},"geometry":{"type":"Point","coordinates":[-66.07846,5.27504]}},{"type":"Feature","id":"node/10297657153","properties":{"name":"Acana\u00f1a","place":"village"},"geometry":{"type":"Point","coordinates":[-65.91526,3.44626]}},{"type":"Feature","id":"node/10302490210","properties":{"name":"El Lim\u00f3n","place":"village"},"geometry":{"type":"Point","coordinates":[-67.36306,5.87354]}},{"type":"Feature","id":"node/10302518281","properties":{"name":"Parhue\u00f1a","place":"village"},"geometry":{"type":"Point","coordinates":[-67.38256,5.88059]}},{"type":"Feature","id":"node/13653570795","properties":{"name":"Lucero","place":"village"},"geometry":{"type":"Point","coordinates":[-67.39697,5.96203]}}]}