{"type":"FeatureCollection","features":[{"type":"Feature","id":"way/99288308","properties":{"name":"Redoma Los S\u00edmbolos","highway":"tertiary","ref":"T-2"},"geometry":{"type":"LineString","coordinates":[[-67.60407,5.63034],[-67.60468,5.63029],[-67.60407,5.63034]]}},{"type":"Feature","id":"way/99583573","properties":{"name":"Carretera Puerto Ayacucho - Samariapo","highway":"tertiary","ref":"T-2"},"geometry":{"type":"LineString","coordinates":[[-67.59392,5.6033],[-67.59421,5.60266]]}},{"type":"Feature","id":"way/99583593","properties":{"name":"Carretera Puerto Ayacucho - Samariapo","highway":"tertiary","ref":"T-2"},"geometry":{"type":"LineString","coordinates":[[-67.59421,5.60266],[-67.59769,5.59856],[-67.59823,5.58309],[-67.59325,5.5782],[-67.58284,5.56187],[-67.57628,5.5354],[-67.58972,5.51338],[-67.59953,5.50805],[-67.60242,5.49696],[-67.60588,5.49008],[-67.6051,5.47733],[-67.60292,5.46951],[-67.61022,5.44755],[-67.62255,5.43761]]}},{"type":"Feature","id":"way/100166878","properties":{"name":"Avenida Perimetral","highway":"secondary"},"geometry":{"type":"LineString","coordinates":[[-67.591,5.67075],[-67.58828,5.66244],[-67.59302,5.65126]]}},{"type":"Feature","id":"way/100166891","properties":{"highway":"trunk_link","ref":"T-2"},"geometry":{"type":"LineString","coordinates":[[-67.59522,5.67158],[-67.59556,5.67209]]}},{"type":"Feature","id":"way/100166895","properties":{"highway":"trunk_link","ref":"T-2"},"geometry":{"type":"LineString","coordinates":[[-67.59642,5.67149],[-67.5963,5.67125]]}},{"type":"Feature","id":"way/100166911","properties":{"highway":"trunk_link","ref":"T-2"},"geometry":{"type":"LineString","coordinates":[[-67.59569,5.67178],[-67.59606,5.67184]]}},{"type":"Feature","id":"way/100167001","properties":{"name":"Avenida Orinoco","highway":"tertiary","ref":"T-2"},"geometry":{"type":"LineString","coordinates":[[-67.60442,5.63063],[-67.61114,5.64385],[-67.61511,5.64795]]}},{"type":"Feature","id":"way/100167022","properties":{"name":"Carretera Nacional Puerto Ayacucho - Puerto P\u00e1ez","highway":"trunk","ref":"T-2"},"geometry":{"type":"LineString","coordinates":[[-67.59518,5.67384],[-67.59606,5.67184]]}},{"type":"Feature","id":"way/100182376","properties":{"highway":"secondary"},"geometry":{"type":"LineString","coordinates":[[-67.61515,5.6535],[-67.61716,5.65197]]}},{"type":"Feature","id":"way/100294899","properties":{"name":"Redoma La Loca Rosa","highway":"secondary"},"geometry":{"type":"LineString","coordinates":[[-67.59997,5.65101],[-67.59934,5.65082],[-67.59997,5.65101]]}},{"type":"Feature","id":"way/100294936","properties":{"name":"Avenida Perimetral","highway":"secondary"},"geometry":{"type":"LineString","coordinates":[[-67.59849,5.65049],[-67.59947,5.65123]]}},{"type":"Feature","id":"way/100294968","properties":{"name":"Avenida Perimetral","highway":"secondary"},"geometry":{"type":"LineString","coordinates":[[-67.60038,5.65186],[-67.59997,5.65101]]}},{"type":"Feature","id":"way/100294992","properties":{"name":"Avenida Perimetral","highway":"secondary"},"geometry":{"type":"LineString","coordinates":[[-67.61474,5.65353],[-67.61143,5.65251],[-67.60755,5.65294]]}},{"type":"Feature","id":"way/100302536","properties":{"name":"Carretera Puerto Ayacucho - Samariapo","highway":"tertiary","ref":"T-2"},"geometry":{"type":"LineString","coordinates":[[-67.60377,5.63045],[-67.59999,5.63234],[-67.59901,5.63181],[-67.59969,5.61995],[-67.59821,5.61686]]}},{"type":"Feature","id":"way/100302541","properties":{"name":"Avenida El Ej\u00e9rcito","highway":"tertiary"},"geometry":{"type":"LineString","coordinates":[[-67.59975,5.65064],[-67.59954,5.65025]]}},{"type":"Feature","id":"way/100305286","properties":{"highway":"tertiary"},"geometry":{"type":"LineString","coordinates":[[-67.59144,5.65318],[-67.5818,5.65598],[-67.58199,5.65891],[-67.58563,5.66189],[-67.58832,5.66221]]}},{"type":"Feature","id":"way/100685765","properties":{"highway":"tertiary","ref":"T-21"},"geometry":{"type":"LineString","coordinates":[[-67.59379,5.60412],[-67.5906,5.60158],[-67.57616,5.60487],[-67.56956,5.60103],[-67.5676,5.59646],[-67.56392,5.59401],[-67.56138,5.58916],[-67.56032,5.58877]]}},{"type":"Feature","id":"way/100689461","properties":{"name":"Carretera Nacional Puerto Ayacucho - Puerto P\u00e1ez","highway":"trunk","ref":"T-2"},"geometry":{"type":"LineString","coordinates":[[-67.40393,5.89199],[-67.40375,5.8922]]}},{"type":"Feature","id":"way/100689463","properties":{"name":"Carretera Nacional Puerto Ayacucho - Puerto P\u00e1ez","highway":"trunk","ref":"T-2"},"geometry":{"type":"LineString","coordinates":[[-67.3632,6.00573],[-67.36226,6.01106],[-67.3635,6.03616],[-67.36931,6.06632],[-67.36856,6.06913],[-67.36382,6.07575],[-67.36217,6.08197]]}},{"type":"Feature","id":"way/381480050","properties":{"name":"Carretera Nacional Puerto Ayacucho - Puerto P\u00e1ez","highway":"trunk","ref":"T-2"},"geometry":{"type":"LineString","coordinates":[[-67.57625,5.73646],[-67.57181,5.7392],[-67.5653,5.75592],[-67.54466,5.76896],[-67.53129,5.78955],[-67.51954,5.79802]]}},{"type":"Feature","id":"way/407772016","properties":{"name":"Carretera Nacional Puerto Ayacucho - Puerto P\u00e1ez","highway":"trunk","ref":"T-2"},"geometry":{"type":"LineString","coordinates":[[-67.59606,5.67184],[-67.59642,5.67149]]}},{"type":"Feature","id":"way/407772018","properties":{"name":"Avenida El Ej\u00e9rcito","highway":"tertiary"},"geometry":{"type":"LineString","coordinates":[[-67.60077,5.64725],[-67.60138,5.64474],[-67.59939,5.64],[-67.60439,5.63064]]}},{"type":"Feature","id":"way/407772022","properties":{"name":"Avenida El Ej\u00e9rcito","highway":"tertiary"},"geometry":{"type":"LineString","coordinates":[[-67.59954,5.65025],[-67.59936,5.6508]]}},{"type":"Feature","id":"way/407772025","properties":{"name":"Avenida Perimetral","highway":"secondary"},"geometry":{"type":"LineString","coordinates":[[-67.59934,5.65082],[-67.59478,5.6501],[-67.59173,5.65302],[-67.5882,5.66242],[-67.58881,5.66608],[-67.59111,5.67098]]}},{"type":"Feature","id":"way/407772028","properties":{"name":"Avenida Perimetral","highway":"secondary"},"geometry":{"type":"LineString","coordinates":[[-67.60035,5.65196],[-67.60364,5.6537],[-67.60755,5.65303]]}},{"type":"Feature","id":"way/407772030","properties":{"name":"Avenida Perimetral","highway":"secondary"},"geometry":{"type":"LineString","coordinates":[[-67.59947,5.65123],[-67.60035,5.65196]]}},{"type":"Feature","id":"way/407772031","properties":{"name":"Carretera Nacional Puerto Ayacucho - Puerto P\u00e1ez","highway":"trunk","ref":"T-2"},"geometry":{"type":"LineString","coordinates":[[-67.59569,5.67178],[-67.59556,5.67209]]}},{"type":"Feature","id":"way/407772034","properties":{"name":"Avenida 23 de Enero","highway":"secondary","ref":"T-2"},"geometry":{"type":"LineString","coordinates":[[-67.61489,5.66814],[-67.5963,5.67125]]}},{"type":"Feature","id":"way/407772037","properties":{"name":"Carretera Nacional Puerto Ayacucho - Puerto P\u00e1ez","highway":"trunk","ref":"T-2"},"geometry":{"type":"LineString","coordinates":[[-67.5963,5.67125],[-67.59609,5.6713]]}},{"type":"Feature","id":"way/407772043","properties":{"name":"Carretera Nacional Puerto Ayacucho - Puerto P\u00e1ez","highway":"trunk","ref":"T-2"},"geometry":{"type":"LineString","coordinates":[[-67.59609,5.6713],[-67.59569,5.67178]]}},{"type":"Feature","id":"way/407772046","properties":{"name":"Carretera Nacional Puerto Ayacucho - Puerto P\u00e1ez","highway":"trunk","ref":"T-2"},"geometry":{"type":"LineString","coordinates":[[-67.59556,5.67209],[-67.59518,5.67384]]}},{"type":"Feature","id":"way/407772053","properties":{"highway":"secondary"},"geometry":{"type":"LineString","coordinates":[[-67.61493,5.65363],[-67.61493,5.65363]]}},{"type":"Feature","id":"way/407772056","properties":{"name":"Avenida Perimetral","highway":"secondary"},"geometry":{"type":"LineString","coordinates":[[-67.59111,5.67098],[-67.59522,5.67158]]}},{"type":"Feature","id":"way/407772060","properties":{"name":"Avenida Perimetral","highway":"secondary"},"geometry":{"type":"LineString","coordinates":[[-67.59522,5.67158],[-67.59569,5.67178]]}},{"type":"Feature","id":"way/407772063","properties":{"name":"Avenida Perimetral","highway":"secondary"},"geometry":{"type":"LineString","coordinates":[[-67.59609,5.6713],[-67.59485,5.67145]]}},{"type":"Feature","id":"way/408635451","properties":{"name":"Carretera Nacional Puerto Ayacucho - Puerto P\u00e1ez","highway":"trunk","ref":"T-2"},"geometry":{"type":"LineString","coordinates":[[-67.4873,5.8322],[-67.47586,5.83817],[-67.45524,5.84656]]}},{"type":"Feature","id":"way/408635467","properties":{"name":"Carretera Nacional Puerto Ayacucho - Puerto P\u00e1ez","highway":"trunk","ref":"T-2"},"geometry":{"type":"LineString","coordinates":[[-67.36215,6.08207],[-67.36145,6.08668],[-67.36219,6.09221],[-67.37294,6.11847],[-67.37251,6.12549]]}},{"type":"Feature","id":"way/408635496","properties":{"name":"Carretera Nacional Puerto Ayacucho - Puerto P\u00e1ez","highway":"trunk","ref":"T-2"},"geometry":{"type":"LineString","coordinates":[[-67.51917,5.79828],[-67.51289,5.80323],[-67.49337,5.82866],[-67.48738,5.83216]]}},{"type":"Feature","id":"way/408635520","properties":{"name":"Carretera Nacional Puerto Ayacucho - Puerto P\u00e1ez","highway":"trunk","ref":"T-2"},"geometry":{"type":"LineString","coordinates":[[-67.45503,5.84664],[-67.43755,5.85429],[-67.41358,5.8785],[-67.40393,5.89199]]}},{"type":"Feature","id":"way/408635542","properties":{"name":"Carretera Nacional Puerto Ayacucho - Puerto P\u00e1ez","highway":"trunk","ref":"T-2"},"geometry":{"type":"LineString","coordinates":[[-67.37011,5.94498],[-67.36864,5.94969],[-67.36983,5.96829],[-67.36746,5.9855],[-67.36341,6.00472]]}},{"type":"Feature","id":"way/408635557","properties":{"name":"Carretera Nacional Puerto Ayacucho - Puerto P\u00e1ez","highway":"trunk","ref":"T-2"},"geometry":{"type":"LineString","coordinates":[[-67.40375,5.8922],[-67.39093,5.90474],[-67.38502,5.90753],[-67.3831,5.90951],[-67.37919,5.92397],[-67.37019,5.9448]]}},{"type":"Feature","id":"way/408635571","properties":{"name":"Carretera Nacional Puerto Ayacucho - Puerto P\u00e1ez","highway":"trunk","ref":"T-2"},"geometry":{"type":"LineString","coordinates":[[-67.45524,5.84656],[-67.45503,5.84664]]}},{"type":"Feature","id":"way/408635585","properties":{"name":"Carretera Nacional Puerto Ayacucho - Puerto P\u00e1ez","highway":"trunk","ref":"T-2"},"geometry":{"type":"LineString","coordinates":[[-67.37019,5.9448],[-67.37011,5.94498]]}},{"type":"Feature","id":"way/408635615","properties":{"name":"Carretera Nacional Puerto Ayacucho - Puerto P\u00e1ez","highway":"trunk","ref":"T-2"},"geometry":{"type":"LineString","coordinates":[[-67.36217,6.08197],[-67.36215,6.08207]]}},{"type":"Feature","id":"way/408635631","properties":{"name":"Carretera Nacional Puerto Ayacucho - Puerto P\u00e1ez","highway":"trunk","ref":"T-2"},"geometry":{"type":"LineString","coordinates":[[-67.36341,6.00472],[-67.3632,6.00573]]}},{"type":"Feature","id":"way/408635645","properties":{"name":"Carretera Nacional Puerto Ayacucho - Puerto P\u00e1ez","highway":"trunk","ref":"T-2"},"geometry":{"type":"LineString","coordinates":[[-67.48738,5.83216],[-67.4873,5.8322]]}},{"type":"Feature","id":"way/408635660","properties":{"name":"Carretera Nacional Puerto Ayacucho - Puerto P\u00e1ez","highway":"trunk","ref":"T-2"},"geometry":{"type":"LineString","coordinates":[[-67.51954,5.79802],[-67.51917,5.79828]]}},{"type":"Feature","id":"way/557699842","properties":{"name":"Avenida 23 de Enero","highway":"secondary","ref":"T-2"},"geometry":{"type":"LineString","coordinates":[[-67.62812,5.66324],[-67.6237,5.66449]]}},{"type":"Feature","id":"way/557699843","properties":{"name":"Avenida Orinoco","highway":"secondary","ref":"T-2"},"geometry":{"type":"LineString","coordinates":[[-67.62812,5.66324],[-67.62816,5.66332]]}},{"type":"Feature","id":"way/557699845","properties":{"name":"Avenida Orinoco","highway":"secondary","ref":"T-2"},"geometry":{"type":"LineString","coordinates":[[-67.6282,5.6633],[-67.62636,5.65917],[-67.62243,5.65472]]}},{"type":"Feature","id":"way/557699846","properties":{"name":"Avenida 23 de Enero","highway":"secondary","ref":"T-2"},"geometry":{"type":"LineString","coordinates":[[-67.62373,5.66459],[-67.6282,5.6633]]}},{"type":"Feature","id":"way/557699847","properties":{"name":"Avenida 23 de Enero","highway":"secondary","ref":"T-2"},"geometry":{"type":"LineString","coordinates":[[-67.62372,5.66463],[-67.62372,5.66463]]}},{"type":"Feature","id":"way/557709802","properties":{"name":"Avenida Orinoco","highway":"secondary","ref":"T-2"},"geometry":{"type":"LineString","coordinates":[[-67.61716,5.65197],[-67.62243,5.65472]]}},{"type":"Feature","id":"way/557709807","properties":{"name":"Avenida Orinoco","highway":"secondary","ref":"T-2"},"geometry":{"type":"LineString","coordinates":[[-67.62243,5.65472],[-67.6263,5.65921],[-67.62812,5.66324]]}},{"type":"Feature","id":"way/557714706","properties":{"name":"Avenida Perimetral","highway":"secondary"},"geometry":{"type":"LineString","coordinates":[[-67.60755,5.65294],[-67.60365,5.65362],[-67.60038,5.65186]]}},{"type":"Feature","id":"way/557714707","properties":{"name":"Avenida Perimetral","highway":"secondary"},"geometry":{"type":"LineString","coordinates":[[-67.60755,5.65303],[-67.61241,5.65281],[-67.61465,5.65367]]}},{"type":"Feature","id":"way/557714708","properties":{"highway":"secondary"},"geometry":{"type":"LineString","coordinates":[[-67.61515,5.6535],[-67.61479,5.65353]]}},{"type":"Feature","id":"way/557714709","properties":{"highway":"secondary"},"geometry":{"type":"LineString","coordinates":[[-67.61492,5.65372],[-67.61515,5.6535]]}},{"type":"Feature","id":"way/557714714","properties":{"name":"Avenida Orinoco","highway":"tertiary","ref":"T-2"},"geometry":{"type":"LineString","coordinates":[[-67.61511,5.64795],[-67.61121,5.6438],[-67.6046,5.63054]]}},{"type":"Feature","id":"way/557724936","properties":{"name":"Avenida Perimetral","highway":"secondary"},"geometry":{"type":"LineString","coordinates":[[-67.59302,5.65126],[-67.59515,5.65012],[-67.59849,5.65049]]}},{"type":"Feature","id":"way/557735691","properties":{"name":"Avenida El Ej\u00e9rcito","highway":"tertiary"},"geometry":{"type":"LineString","coordinates":[[-67.60417,5.63056],[-67.5993,5.64002],[-67.60112,5.64558]]}},{"type":"Feature","id":"way/557735692","properties":{"name":"Carretera Puerto Ayacucho - Samariapo","highway":"tertiary","ref":"T-2"},"geometry":{"type":"LineString","coordinates":[[-67.60408,5.63026],[-67.60377,5.63045]]}},{"type":"Feature","id":"way/557735693","properties":{"name":"Carretera Puerto Ayacucho - Samariapo","highway":"tertiary","ref":"T-2"},"geometry":{"type":"LineString","coordinates":[[-67.60377,5.63045],[-67.60412,5.63049]]}},{"type":"Feature","id":"way/557788490","properties":{"name":"Avenida El Ej\u00e9rcito","highway":"tertiary"},"geometry":{"type":"LineString","coordinates":[[-67.60112,5.64558],[-67.60059,5.64757]]}},{"type":"Feature","id":"way/557788491","properties":{"name":"Avenida El Ej\u00e9rcito","highway":"tertiary"},"geometry":{"type":"LineString","coordinates":[[-67.60059,5.64757],[-67.60077,5.64725]]}},{"type":"Feature","id":"way/557788492","properties":{"name":"Avenida El Ej\u00e9rcito","highway":"tertiary"},"geometry":{"type":"LineString","coordinates":[[-67.59954,5.65025],[-67.60059,5.64757]]}},{"type":"Feature","id":"way/557796358","properties":{"name":"Avenida Perimetral","highway":"secondary"},"geometry":{"type":"LineString","coordinates":[[-67.59485,5.67145],[-67.591,5.67075]]}},{"type":"Feature","id":"way/557805871","properties":{"highway":"tertiary"},"geometry":{"type":"LineString","coordinates":[[-67.59179,5.65288],[-67.59144,5.65318]]}},{"type":"Feature","id":"way/569391147","properties":{"name":"Avenida 23 de Enero","highway":"secondary","ref":"T-2"},"geometry":{"type":"LineString","coordinates":[[-67.59642,5.67149],[-67.61473,5.66839]]}},{"type":"Feature","id":"way/686856080","properties":{"highway":"tertiary"},"geometry":{"type":"LineString","coordinates":[[-67.59144,5.65318],[-67.59169,5.65318]]}},{"type":"Feature","id":"way/936948993","properties":{"name":"Avenida 23 de Enero","highway":"secondary","ref":"T-2"},"geometry":{"type":"LineString","coordinates":[[-67.61473,5.66839],[-67.62349,5.6647]]}},{"type":"Feature","id":"way/936948994","properties":{"name":"Avenida 23 de Enero","highway":"secondary","ref":"T-2"},"geometry":{"type":"LineString","coordinates":[[-67.62345,5.66451],[-67.61489,5.66814]]}},{"type":"Feature","id":"way/1047606750","properties":{"name":"Carretera Puerto Ayacucho - Samariapo","highway":"tertiary","ref":"T-2"},"geometry":{"type":"LineString","coordinates":[[-67.62255,5.43761],[-67.63727,5.43314],[-67.64972,5.4162],[-67.65645,5.39704],[-67.66839,5.37561],[-67.67479,5.35933],[-67.68292,5.35653],[-67.69049,5.35151],[-67.72532,5.34158],[-67.74036,5.34514],[-67.7445,5.34518],[-67.75296,5.34314],[-67.76507,5.3367],[-67.77117,5.32382],[-67.79148,5.29978],[-67.79744,5.28529],[-67.79833,5.28076],[-67.80066,5.27737],[-67.79915,5.26863],[-67.79197,5.25587],[-67.79129,5.25104],[-67.79256,5.24733]]}},{"type":"Feature","id":"way/1047611166","properties":{"highway":"tertiary","ref":"T-21"},"geometry":{"type":"LineString","coordinates":[[-67.56032,5.58877],[-67.55165,5.58642],[-67.53911,5.57271],[-67.53312,5.57099],[-67.52889,5.56799],[-67.52261,5.56661],[-67.52016,5.56691],[-67.51615,5.56971],[-67.51372,5.57662],[-67.50918,5.57641],[-67.50509,5.57368],[-67.50208,5.57387],[-67.49997,5.57507],[-67.49876,5.57841],[-67.49692,5.58034],[-67.49267,5.58255],[-67.49146,5.58224],[-67.48822,5.57819],[-67.47936,5.57466],[-67.47683,5.57279],[-67.47229,5.56513],[-67.46999,5.56441],[-67.46658,5.56088],[-67.46399,5.55975],[-67.46244,5.55797],[-67.46169,5.55473],[-67.45988,5.55424],[-67.45924,5.55293],[-67.45117,5.55014],[-67.44985,5.54776],[-67.44642,5.54548],[-67.44471,5.54313],[-67.44092,5.54252],[-67.43938,5.54109],[-67.43643,5.54067],[-67.43071,5.53781],[-67.42864,5.53809],[-67.42451,5.53599],[-67.42326,5.5362],[-67.42134,5.53899],[-67.41679,5.54017],[-67.41373,5.53815],[-67.40963,5.53864],[-67.4075,5.53709],[-67.40501,5.53685],[-67.4023,5.53894],[-67.39527,5.54146],[-67.39353,5.54115],[-67.3919,5.54517]]}},{"type":"Feature","id":"way/1186552906","properties":{"name":"Carretera Nacional Puerto Ayacucho - Puerto P\u00e1ez","highway":"trunk","ref":"T-2"},"geometry":{"type":"LineString","coordinates":[[-67.59518,5.67384],[-67.595,5.67584],[-67.59749,5.6825],[-67.59602,5.68399],[-67.59439,5.68994],[-67.58003,5.72125],[-67.5792,5.73401],[-67.57646,5.73635]]}},{"type":"Feature","id":"way/1186552907","properties":{"name":"Carretera Nacional Puerto Ayacucho - Puerto P\u00e1ez","highway":"trunk","ref":"T-2"},"geometry":{"type":"LineString","coordinates":[[-67.57646,5.73635],[-67.57625,5.73646]]}},{"type":"Feature","id":"way/1323408023","properties":{"name":"Carretera Puerto Ayacucho - Samariapo","highway":"tertiary","ref":"T-2"},"geometry":{"type":"LineString","coordinates":[[-67.59816,5.61679],[-67.59392,5.6033]]}},{"type":"Feature","id":"way/1323408024","properties":{"name":"Carretera Puerto Ayacucho - Samariapo","highway":"tertiary","ref":"T-2"},"geometry":{"type":"LineString","coordinates":[[-67.59821,5.61686],[-67.59816,5.61679]]}},{"type":"Feature","id":"way/1491085754","properties":{"name":"Carretera Nacional Puerto Ayacucho - Puerto P\u00e1ez","highway":"trunk","ref":"T-2"},"geometry":{"type":"LineString","coordinates":[[-67.37251,6.12549],[-67.37244,6.12576]]}},{"type":"Feature","id":"way/1503582031","properties":{"name":"Avenida Orinoco","highway":"tertiary","ref":"T-2"},"geometry":{"type":"LineString","coordinates":[[-67.61511,5.64795],[-67.61716,5.65197]]}}]}