{"type":"FeatureCollection","features":[{"type":"Feature","id":"relation/272663","properties":{"name":"Gu\u00e1rico","level":4},"geometry":{"type":"Polygon","coordinates":[[[-67.80012,9.92496],[-67.80451,9.9295],[-67.81241,9.91276],[-67.80897,9.90128],[-67.81446,9.89028],[-67.8129,9.87966],[-67.81543,9.87301],[-67.80399,9.85189],[-67.80226,9.83699],[-67.79748,9.83306],[-67.79949,9.82408],[-67.80378,9.81911],[-67.80032,9.81543],[-67.8001,9.80846],[-67.79667,9.8018],[-67.7979,9.78339],[-67.79323,9.78066],[-67.78751,9.78216],[-67.78339,9.76469],[-67.76284,9.76213],[-67.76564,9.75958],[-67.76508,9.74966],[-67.7681,9.7413],[-67.76414,9.74047],[-67.76489,9.73266],[-67.76129,9.72607],[-67.75741,9.72458],[-67.76245,9.71686],[-67.75191,9.7003],[-67.75588,9.69337],[-67.75493,9.68261],[-67.76601,9.6759],[-67.76832,9.67691],[-67.77361,9.67099],[-67.77799,9.67079],[-67.78196,9.66404],[-67.78828,9.66003],[-67.78607,9.65604],[-67.79102,9.65713],[-67.79433,9.65231],[-67.79672,9.65373],[-67.80647,9.65043],[-67.80564,9.64552],[-67.81115,9.6454],[-67.81274,9.63992],[-67.81635,9.63938],[-67.81501,9.63019],[-67.81867,9.63195],[-67.82168,9.62827],[-67.8247,9.63003],[-67.82787,9.62464],[-67.8302,9.62598],[-67.8333,9.62389],[-67.83638,9.62856],[-67.83969,9.62333],[-67.84591,9.62494],[-67.85144,9.61836],[-67.85697,9.62113],[-67.85839,9.61808],[-67.86439,9.61524],[-67.86939,9.61755],[-67.87143,9.61398],[-67.87374,9.61693],[-67.8742,9.61336],[-67.88205,9.60936],[-67.88432,9.6102],[-67.88388,9.61344],[-67.8873,9.61438],[-67.88766,9.61887],[-67.89299,9.62063],[-67.89956,9.61941],[-67.90482,9.61497],[-67.91575,9.61604],[-67.92383,9.60864],[-67.92286,9.60356],[-67.92632,9.59934],[-67.93809,9.60009],[-67.93313,9.58152],[-67.93523,9.57622],[-67.92839,9.57074],[-67.92704,9.5611],[-67.93886,9.56],[-67.93993,9.55787],[-67.93427,9.55638],[-67.93437,9.55331],[-67.95,9.54864],[-67.95439,9.54973],[-67.96375,9.54291],[-67.97226,9.54118],[-67.97098,9.5382],[-67.97282,9.53591],[-67.96826,9.52846],[-67.95714,9.53117],[-67.95646,9.52665],[-67.96026,9.52583],[-67.95779,9.52125],[-67.96185,9.51927],[-67.96175,9.5138],[-67.95767,9.51526],[-67.95369,9.51186],[-67.95558,9.50821],[-67.95114,9.49486],[-67.94261,9.49415],[-67.94042,9.48883],[-67.93358,9.48862],[-67.93352,9.48568],[-67.9301,9.48565],[-67.92647,9.48166],[-67.92774,9.4724],[-67.92317,9.46933],[-67.92641,9.46622],[-67.92256,9.46169],[-67.92533,9.45913],[-67.92275,9.45912],[-67.91971,9.45408],[-67.92581,9.4553],[-67.92392,9.45081],[-67.92552,9.44755],[-67.92173,9.44446],[-67.92146,9.44087],[-67.91882,9.44144],[-67.92072,9.42954],[-67.91778,9.42309],[-67.9203,9.42305],[-67.92044,9.42089],[-67.91683,9.41646],[-67.91857,9.41394],[-67.9135,9.41226],[-67.91687,9.40918],[-67.91276,9.40667],[-67.91482,9.4055],[-67.91513,9.39958],[-67.92093,9.39723],[-67.91875,9.39453],[-67.92086,9.39253],[-67.919,9.3907],[-67.92073,9.38683],[-67.91706,9.38756],[-67.91986,9.38261],[-67.92169,9.38353],[-67.92031,9.37638],[-67.92324,9.37338],[-67.91953,9.37062],[-67.92206,9.36928],[-67.92268,9.36118],[-67.92506,9.35967],[-67.92306,9.35661],[-67.92156,9.35895],[-67.92088,9.35365],[-67.92451,9.35193],[-67.92362,9.35007],[-67.92777,9.34441],[-67.932,9.34646],[-67.93209,9.34255],[-67.93543,9.34297],[-67.93421,9.33846],[-67.94065,9.33771],[-67.94015,9.33479],[-67.94388,9.33243],[-67.94201,9.3292],[-67.94417,9.32884],[-67.94359,9.32463],[-67.94667,9.32559],[-67.94661,9.31991],[-67.94337,9.3204],[-67.94582,9.31791],[-67.94245,9.31857],[-67.94153,9.31621],[-67.94145,9.31128],[-67.94344,9.31066],[-67.94023,9.30532],[-67.94177,9.30163],[-67.937,9.29969],[-67.93952,9.29814],[-67.93678,9.29321],[-67.92073,9.28579],[-67.91868,9.28108],[-67.91475,9.28258],[-67.91599,9.27829],[-67.91156,9.27405],[-67.91372,9.27309],[-67.90817,9.26991],[-67.90632,9.27127],[-67.90567,9.26738],[-67.90159,9.26965],[-67.89752,9.26196],[-67.8926,9.26122],[-67.89364,9.25926],[-67.89081,9.25607],[-67.88625,9.25628],[-67.88185,9.2328],[-67.87631,9.22237],[-67.87657,9.21848],[-67.87994,9.21752],[-67.87731,9.21548],[-67.87641,9.20589],[-67.88022,9.20104],[-67.87748,9.19985],[-67.87803,9.19743],[-67.87423,9.1966],[-67.87471,9.19216],[-67.87197,9.18862],[-67.87531,9.17971],[-67.8611,9.15357],[-67.86231,9.14545],[-67.8578,9.13552],[-67.85864,9.12763],[-67.85599,9.12719],[-67.85599,9.11692],[-67.86254,9.11],[-67.85853,9.10454],[-67.85688,9.10558],[-67.85631,9.10073],[-67.84924,9.09316],[-67.85122,9.09138],[-67.85011,9.08513],[-67.85714,9.07456],[-67.856,9.06814],[-67.86072,9.06625],[-67.86085,9.05888],[-67.86404,9.0564],[-67.86288,9.05364],[-67.86648,9.04676],[-67.86405,9.04091],[-67.86673,9.02248],[-67.86464,9.0162],[-67.86832,9.01325],[-67.86816,9.01063],[-67.87339,9.0083],[-67.87171,9.00666],[-67.87516,9.00428],[-67.87559,8.99946],[-67.87937,9.0003],[-67.8816,8.99827],[-67.88345,8.99356],[-67.88137,8.98888],[-67.88734,8.98512],[-67.88753,8.97996],[-67.89104,8.98016],[-67.89253,8.9759],[-67.89808,8.97373],[-67.90581,8.96054],[-67.91319,8.95841],[-67.91579,8.9509],[-67.91884,8.94913],[-67.91758,8.94443],[-67.91944,8.94236],[-67.92139,8.94405],[-67.92051,8.94112],[-67.92757,8.9351],[-67.93035,8.93522],[-67.92974,8.9335],[-67.93791,8.93554],[-67.94177,8.93103],[-67.94546,8.93057],[-67.94745,8.93308],[-67.95274,8.92766],[-67.95758,8.93052],[-67.9642,8.92848],[-67.97,8.92222],[-67.97317,8.92474],[-67.9737,8.92173],[-67.97609,8.92224],[-67.97525,8.91742],[-67.97957,8.90997],[-67.98097,8.89704],[-67.97851,8.89539],[-67.97607,8.88203],[-67.96368,8.88335],[-67.96321,8.8796],[-67.96863,8.86769],[-67.96724,8.86593],[-67.97168,8.86512],[-67.97171,8.8564],[-67.97495,8.85531],[-67.97616,8.84931],[-67.97839,8.84973],[-67.97787,8.84532],[-67.98026,8.84558],[-67.98071,8.8428],[-67.98293,8.84394],[-67.9838,8.84025],[-67.99006,8.84011],[-67.99031,8.83607],[-67.98833,8.83684],[-67.98532,8.83101],[-67.99417,8.82661],[-67.99133,8.81763],[-67.99534,8.81839],[-67.99243,8.81293],[-67.99366,8.80727],[-67.99746,8.80478],[-67.99285,8.8031],[-67.99851,8.79889],[-67.99731,8.797],[-68.00215,8.79616],[-68.00305,8.79411],[-68.00015,8.79196],[-68.00703,8.78977],[-68.00532,8.78796],[-68.01379,8.77669],[-68.01266,8.77549],[-68.00971,8.77856],[-68.01054,8.77236],[-68.01694,8.76542],[-68.0266,8.76892],[-68.02431,8.76432],[-68.0273,8.76346],[-68.0249,8.75736],[-68.02139,8.75655],[-68.01795,8.76032],[-68.01515,8.75223],[-68.01336,8.75251],[-68.01696,8.74678],[-68.0132,8.74777],[-68.00939,8.74563],[-68.00818,8.74755],[-68.00666,8.74479],[-68.01682,8.73414],[-68.0214,8.73741],[-68.01917,8.74136],[-68.02584,8.74163],[-68.02676,8.73414],[-68.02847,8.73526],[-68.03047,8.73051],[-68.02254,8.7271],[-68.02278,8.73273],[-68.01968,8.73206],[-68.02208,8.72289],[-68.01641,8.71475],[-68.01928,8.71425],[-68.01917,8.71171],[-68.01351,8.71326],[-68.01865,8.71019],[-68.01599,8.70801],[-68.01178,8.70924],[-68.01243,8.70581],[-68.00835,8.69943],[-68.00498,8.70073],[-68.00451,8.69708],[-68.00314,8.70084],[-68.00191,8.69866],[-68.01076,8.69116],[-68.00834,8.68948],[-68.01197,8.68562],[-68.0161,8.6841],[-68.01677,8.68696],[-68.01919,8.68613],[-68.01198,8.68075],[-68.01375,8.67446],[-68.01005,8.67235],[-68.0109,8.66983],[-68.00849,8.6674],[-68.01413,8.65938],[-68.00725,8.65704],[-68.00975,8.6538],[-68.002,8.65436],[-68.00242,8.64424],[-68.00539,8.63897],[-68.0087,8.63821],[-68.00214,8.63337],[-68.00774,8.62713],[-68.01987,8.62214],[-68.01262,8.61347],[-68.01301,8.6115],[-68.01657,8.61232],[-68.01503,8.60769],[-68.01046,8.60941],[-68.01751,8.60333],[-68.01277,8.59723],[-68.02134,8.59323],[-68.01094,8.59015],[-68.01046,8.5863],[-68.01524,8.57571],[-68.00813,8.57591],[-68.00029,8.58547],[-67.99401,8.57831],[-67.9982,8.57339],[-67.99704,8.56714],[-68.00188,8.55891],[-67.997,8.56019],[-67.99713,8.55634],[-67.99973,8.55681],[-68.00271,8.5538],[-68.00795,8.55485],[-68.01143,8.56096],[-68.01423,8.56116],[-68.00947,8.54998],[-68.01619,8.54868],[-68.01463,8.54144],[-68.01786,8.5433],[-68.02303,8.54141],[-68.02139,8.53423],[-68.02647,8.53883],[-68.03205,8.53333],[-68.02385,8.53184],[-68.02031,8.5284],[-68.02107,8.51334],[-68.01497,8.5031],[-68.01875,8.49195],[-67.9993,8.48724],[-68.00857,8.47448],[-67.99841,8.46624],[-67.97362,8.46917],[-67.97308,8.45306],[-67.98957,8.44634],[-67.99194,8.43822],[-67.97829,8.43423],[-67.96646,8.42266],[-67.95792,8.42054],[-67.96435,8.40888],[-67.95965,8.40571],[-67.951,8.39298],[-67.94463,8.39363],[-67.94012,8.39041],[-67.93573,8.3796],[-67.93893,8.37456],[-67.9308,8.37246],[-67.90815,8.38001],[-67.90024,8.37932],[-67.89868,8.37649],[-67.90591,8.37185],[-67.90291,8.3658],[-67.88614,8.34519],[-67.87339,8.34385],[-67.87071,8.33785],[-67.86325,8.35014],[-67.85529,8.3512],[-67.85243,8.34074],[-67.85352,8.33494],[-67.88131,8.30538],[-67.88005,8.30012],[-67.87611,8.30021],[-67.87589,8.30295],[-67.86033,8.30965],[-67.8598,8.31772],[-67.84381,8.3088],[-67.842,8.30577],[-67.84279,8.2873],[-67.83453,8.28964],[-67.82899,8.28342],[-67.82797,8.26681],[-67.82981,8.26254],[-67.83363,8.26067],[-67.83208,8.25778],[-67.82555,8.25842],[-67.82023,8.25534],[-67.81182,8.26182],[-67.7953,8.25356],[-67.79148,8.25805],[-67.79391,8.2697],[-67.78863,8.27038],[-67.7857,8.26558],[-67.7853,8.25453],[-67.77641,8.24328],[-67.77411,8.22281],[-67.7711,8.21823],[-67.76492,8.21701],[-67.75995,8.21902],[-67.74968,8.2317],[-67.7076,8.22771],[-67.69935,8.21427],[-67.69695,8.20358],[-67.68725,8.19958],[-67.68059,8.20192],[-67.67827,8.19661],[-67.67854,8.18817],[-67.66703,8.18151],[-67.67073,8.15967],[-67.67535,8.15118],[-67.66822,8.15204],[-67.66381,8.14951],[-67.66365,8.13727],[-67.63148,8.12431],[-67.62579,8.11642],[-67.62198,8.10346],[-67.61212,8.09675],[-67.60779,8.10042],[-67.60183,8.09083],[-67.58658,8.09025],[-67.58294,8.08781],[-67.5749,8.07447],[-67.57773,8.06384],[-67.59143,8.04837],[-67.59678,8.05032],[-67.60119,8.04913],[-67.60485,8.04675],[-67.60631,8.04184],[-67.60021,8.03598],[-67.59003,8.03625],[-67.58551,8.03415],[-67.58548,8.02971],[-67.59183,8.02973],[-67.5944,8.02707],[-67.5806,8.02228],[-67.57701,8.02315],[-67.57056,8.00567],[-67.56744,8.00547],[-67.56158,8.01255],[-67.55707,8.01176],[-67.5608,7.9994],[-67.57334,7.98989],[-67.55365,7.97951],[-67.55276,7.97521],[-67.55819,7.96929],[-67.55791,7.96427],[-67.55391,7.96607],[-67.54839,7.97597],[-67.54085,7.97498],[-67.53502,7.96935],[-67.53448,7.97667],[-67.53108,7.97883],[-67.52301,7.97375],[-67.51418,7.97241],[-67.50796,7.96619],[-67.50281,7.95155],[-67.53546,7.94477],[-67.54023,7.94048],[-67.53802,7.93493],[-67.52159,7.9322],[-67.51408,7.90338],[-67.46706,7.9],[-67.43055,7.88314],[-67.42986,7.88693],[-67.43274,7.88934],[-67.42234,7.89259],[-67.41693,7.9075],[-67.40177,7.9128],[-67.39588,7.90731],[-67.39447,7.90909],[-67.39766,7.91448],[-67.39634,7.91539],[-67.39057,7.90768],[-67.38342,7.90677],[-67.38008,7.89751],[-67.37564,7.90229],[-67.36977,7.90113],[-67.3681,7.89445],[-67.36457,7.89334],[-67.36742,7.89048],[-67.36634,7.88663],[-67.3601,7.88133],[-67.35527,7.88401],[-67.35523,7.89395],[-67.34701,7.89218],[-67.34763,7.88662],[-67.35317,7.88271],[-67.3491,7.88007],[-67.34278,7.88939],[-67.33598,7.89422],[-67.33731,7.88692],[-67.33194,7.88978],[-67.32695,7.88112],[-67.31912,7.88158],[-67.3309,7.86822],[-67.32673,7.86374],[-67.32435,7.86684],[-67.32098,7.86632],[-67.32282,7.84932],[-67.30952,7.84255],[-67.30759,7.8452],[-67.30284,7.84105],[-67.30432,7.83876],[-67.30213,7.83562],[-67.28832,7.82945],[-67.2756,7.83138],[-67.2653,7.82813],[-67.25826,7.83078],[-67.25413,7.81559],[-67.25186,7.81403],[-67.25073,7.81687],[-67.23804,7.81223],[-67.23754,7.80216],[-67.23491,7.80302],[-67.22538,7.79799],[-67.22368,7.79316],[-67.22518,7.78948],[-67.21886,7.77617],[-67.19169,7.77497],[-67.18183,7.78122],[-67.16935,7.78028],[-67.16429,7.77601],[-67.15607,7.78007],[-67.15428,7.77476],[-67.15952,7.77057],[-67.16033,7.7643],[-67.15601,7.75806],[-67.14729,7.75935],[-67.13868,7.76457],[-67.13152,7.76116],[-67.12256,7.76506],[-67.09619,7.76448],[-67.09478,7.77593],[-67.06456,7.78308],[-67.05801,7.78262],[-67.05017,7.78961],[-67.0369,7.77732],[-67.029,7.77478],[-67.02433,7.76648],[-67.00974,7.75683],[-67.00759,7.75717],[-67.00847,7.76445],[-67.00496,7.76936],[-66.99989,7.76687],[-66.97456,7.76419],[-66.96954,7.76257],[-66.96737,7.75812],[-66.97031,7.74669],[-66.96666,7.74699],[-66.96493,7.75374],[-66.95888,7.74495],[-66.95391,7.74768],[-66.93702,7.74051],[-66.93111,7.74925],[-66.91622,7.75027],[-66.91116,7.75554],[-66.88867,7.74597],[-66.8911,7.738],[-66.8825,7.73135],[-66.88353,7.72505],[-66.87838,7.72828],[-66.87305,7.72488],[-66.84885,7.72233],[-66.84679,7.72369],[-66.84782,7.72998],[-66.84576,7.73594],[-66.83632,7.7339],[-66.83134,7.72879],[-66.81692,7.73237],[-66.8128,7.72947],[-66.80817,7.72097],[-66.79546,7.71348],[-66.79357,7.7043],[-66.78808,7.70294],[-66.78997,7.7111],[-66.78825,7.71229],[-66.78276,7.70617],[-66.78224,7.70991],[-66.77675,7.71076],[-66.7771,7.70379],[-66.77383,7.70056],[-66.7613,7.70141],[-66.76182,7.69749],[-66.75701,7.69562],[-66.74671,7.69613],[-66.74431,7.69851],[-66.73281,7.69409],[-66.73109,7.68916],[-66.7251,7.68651],[-66.72512,7.68942],[-66.7292,7.69278],[-66.71771,7.69422],[-66.71364,7.68952],[-66.70053,7.69988],[-66.69219,7.70153],[-66.68929,7.70664],[-66.69005,7.71708],[-66.68644,7.72079],[-66.68116,7.71839],[-66.67877,7.71168],[-66.68012,7.70258],[-66.68537,7.70004],[-66.68355,7.69839],[-66.67119,7.70545],[-66.66586,7.70397],[-66.66545,7.69478],[-66.64926,7.7006],[-66.63556,7.72936],[-66.64378,7.72672],[-66.64793,7.72788],[-66.65041,7.73642],[-66.6565,7.73907],[-66.65025,7.74315],[-66.65141,7.74938],[-66.65663,7.75008],[-66.65994,7.74499],[-66.66275,7.74662],[-66.66572,7.75575],[-66.6564,7.76027],[-66.65588,7.76778],[-66.64611,7.7677],[-66.63721,7.7607],[-66.63546,7.76968],[-66.629,7.77432],[-66.61844,7.76514],[-66.60441,7.76422],[-66.59591,7.76793],[-66.58995,7.77707],[-66.58304,7.77552],[-66.58308,7.78044],[-66.56587,7.77643],[-66.55172,7.78568],[-66.54895,7.78404],[-66.54964,7.7802],[-66.55683,7.77488],[-66.55321,7.77325],[-66.54807,7.777],[-66.54409,7.78499],[-66.55233,7.80231],[-66.52959,7.81374],[-66.52456,7.80415],[-66.52243,7.79201],[-66.51363,7.79321],[-66.51443,7.7802],[-66.48577,7.76707],[-66.47787,7.76058],[-66.47661,7.75118],[-66.48738,7.73835],[-66.48594,7.73192],[-66.46845,7.72999],[-66.46204,7.72508],[-66.44971,7.72248],[-66.43979,7.71628],[-66.4194,7.7158],[-66.40474,7.711],[-66.38873,7.71379],[-66.38128,7.72023],[-66.37305,7.71993],[-66.36475,7.72574],[-66.35995,7.72591],[-66.35417,7.71901],[-66.34146,7.69272],[-66.33739,7.6886],[-66.33095,7.68813],[-66.32861,7.68534],[-66.32873,7.68197],[-66.33601,7.67544],[-66.33821,7.67029],[-66.33029,7.64815],[-66.31948,7.65221],[-66.30378,7.65315],[-66.29004,7.6489],[-66.2655,7.63452],[-66.24558,7.62848],[-66.22378,7.63724],[-66.20893,7.65451],[-66.19203,7.66383],[-66.12534,7.68173],[-65.95462,7.68633],[-65.91908,7.69262],[-65.87359,7.69462],[-65.85772,7.70206],[-65.84673,7.71703],[-65.82162,7.72975],[-65.80884,7.73944],[-65.78201,7.79442],[-65.76871,7.81313],[-65.72863,7.84059],[-65.68846,7.87469],[-65.65756,7.89594],[-65.63129,7.91116],[-65.61378,7.91703],[-65.57679,7.92245],[-65.56162,7.92105],[-65.54924,7.91652],[-65.52727,7.90428],[-65.48744,7.86882],[-65.47611,7.86168],[-65.44573,7.85046],[-65.41088,7.84672],[-65.39526,7.84791],[-65.35896,7.85773],[-65.36485,7.87482],[-65.37412,7.87959],[-65.38789,7.89653],[-65.39476,7.90154],[-65.41189,7.90711],[-65.41305,7.90928],[-65.40995,7.9104],[-65.41954,7.91304],[-65.42324,7.91649],[-65.47346,7.91802],[-65.47569,7.91987],[-65.47055,7.92338],[-65.47263,7.92449],[-65.48676,7.91659],[-65.49201,7.91625],[-65.49396,7.91953],[-65.4966,7.91849],[-65.49395,7.92201],[-65.49688,7.9277],[-65.50468,7.92904],[-65.50711,7.93281],[-65.50392,7.93319],[-65.50657,7.9359],[-65.50318,7.93773],[-65.50392,7.94084],[-65.50076,7.94352],[-65.49923,7.95246],[-65.50306,7.95572],[-65.50037,7.95429],[-65.5006,7.95702],[-65.49749,7.9577],[-65.50004,7.96307],[-65.49499,7.96391],[-65.49282,7.96126],[-65.49225,7.96405],[-65.48883,7.96311],[-65.48706,7.96644],[-65.49109,7.96819],[-65.48851,7.97409],[-65.49198,7.97185],[-65.4964,7.97408],[-65.4929,7.97428],[-65.49491,7.97854],[-65.49159,7.97682],[-65.49319,7.98057],[-65.48985,7.97985],[-65.49512,7.98576],[-65.49329,7.98738],[-65.49756,7.98899],[-65.49748,7.99346],[-65.48739,7.99962],[-65.48706,8.0035],[-65.48326,8.00451],[-65.48665,8.00605],[-65.48076,8.00922],[-65.48368,8.01437],[-65.48261,8.01785],[-65.48859,8.02053],[-65.48679,8.02316],[-65.48926,8.02554],[-65.47587,8.03018],[-65.47841,8.03359],[-65.47727,8.03879],[-65.4797,8.04512],[-65.46045,8.05259],[-65.45631,8.04623],[-65.45453,8.05053],[-65.4474,8.05292],[-65.44483,8.06361],[-65.4417,8.06383],[-65.43798,8.06905],[-65.43262,8.08452],[-65.42695,8.08756],[-65.42386,8.09601],[-65.42108,8.09724],[-65.42108,8.10628],[-65.41701,8.10997],[-65.41107,8.10741],[-65.40728,8.11188],[-65.40001,8.11439],[-65.39705,8.12078],[-65.40132,8.12709],[-65.39568,8.13058],[-65.38995,8.1299],[-65.39299,8.13428],[-65.38676,8.13675],[-65.38639,8.14288],[-65.38281,8.1446],[-65.383,8.14943],[-65.37485,8.15606],[-65.3753,8.16058],[-65.38258,8.16165],[-65.38773,8.16818],[-65.38785,8.17476],[-65.38465,8.17263],[-65.38372,8.16759],[-65.38114,8.16934],[-65.38188,8.17437],[-65.3763,8.16738],[-65.37653,8.17387],[-65.36915,8.17437],[-65.36449,8.17843],[-65.36797,8.18401],[-65.37127,8.1805],[-65.37623,8.18153],[-65.37709,8.18471],[-65.37391,8.18975],[-65.36986,8.18749],[-65.36783,8.19321],[-65.36588,8.1929],[-65.36589,8.18934],[-65.3635,8.18917],[-65.36205,8.194],[-65.36561,8.1951],[-65.36738,8.20044],[-65.36342,8.2019],[-65.36276,8.20626],[-65.35784,8.20798],[-65.35854,8.20447],[-65.35457,8.20555],[-65.35385,8.19863],[-65.35107,8.20312],[-65.34653,8.20091],[-65.34492,8.20395],[-65.34858,8.20332],[-65.35134,8.20641],[-65.34154,8.20785],[-65.34255,8.21034],[-65.34562,8.2099],[-65.34355,8.21596],[-65.34016,8.21706],[-65.33749,8.21469],[-65.33636,8.21966],[-65.33232,8.21973],[-65.33582,8.22557],[-65.33066,8.22494],[-65.32962,8.22178],[-65.32392,8.22159],[-65.32701,8.22505],[-65.32335,8.22461],[-65.32297,8.22642],[-65.32933,8.23206],[-65.31908,8.23477],[-65.31238,8.23212],[-65.30806,8.23799],[-65.31028,8.23954],[-65.31156,8.25026],[-65.30694,8.24824],[-65.30195,8.25252],[-65.30485,8.25722],[-65.29833,8.25701],[-65.29816,8.26503],[-65.28958,8.26971],[-65.29166,8.27357],[-65.28756,8.27837],[-65.28279,8.27548],[-65.28082,8.27674],[-65.28097,8.27999],[-65.28666,8.28197],[-65.28213,8.28497],[-65.27949,8.2988],[-65.26755,8.29771],[-65.27009,8.3015],[-65.26904,8.30461],[-65.27217,8.30496],[-65.27411,8.30841],[-65.27192,8.3167],[-65.26681,8.31362],[-65.26859,8.31865],[-65.262,8.31924],[-65.26343,8.32452],[-65.25814,8.32568],[-65.2565,8.33207],[-65.25397,8.32848],[-65.24838,8.33243],[-65.24978,8.32827],[-65.24804,8.32665],[-65.24179,8.33079],[-65.23739,8.33014],[-65.2357,8.33873],[-65.23268,8.33985],[-65.23012,8.33745],[-65.22599,8.34238],[-65.22812,8.34741],[-65.22565,8.35872],[-65.21839,8.35652],[-65.21412,8.3695],[-65.20958,8.36488],[-65.20218,8.37132],[-65.20727,8.38007],[-65.19953,8.38477],[-65.19657,8.39021],[-65.20459,8.3933],[-65.202,8.39871],[-65.20371,8.40248],[-65.19859,8.40473],[-65.20085,8.41123],[-65.19512,8.4115],[-65.1957,8.42209],[-65.18778,8.42794],[-65.18653,8.4323],[-65.18058,8.43134],[-65.17904,8.43481],[-65.18043,8.43824],[-65.18164,8.4367],[-65.18837,8.44109],[-65.18111,8.44325],[-65.18191,8.44707],[-65.17816,8.44875],[-65.17788,8.45553],[-65.18433,8.45473],[-65.18293,8.45997],[-65.17817,8.46088],[-65.17576,8.47034],[-65.17937,8.46806],[-65.18244,8.47147],[-65.1823,8.47647],[-65.17951,8.48006],[-65.17617,8.47892],[-65.17504,8.48333],[-65.17804,8.48753],[-65.17461,8.48695],[-65.16852,8.49206],[-65.17091,8.49448],[-65.16972,8.50323],[-65.15759,8.51317],[-65.16021,8.51986],[-65.16363,8.52129],[-65.16291,8.52719],[-65.16067,8.52985],[-65.15491,8.52893],[-65.15226,8.53076],[-65.15103,8.53429],[-65.15427,8.53417],[-65.15821,8.54255],[-65.15101,8.54152],[-65.14841,8.54511],[-65.14879,8.5513],[-65.15146,8.55006],[-65.15542,8.55343],[-65.14662,8.55759],[-65.15027,8.55865],[-65.14589,8.56343],[-65.15139,8.57144],[-65.14367,8.57364],[-65.14417,8.58091],[-65.15214,8.58831],[-65.14911,8.59034],[-65.15157,8.5931],[-65.14491,8.59835],[-65.14902,8.59766],[-65.15053,8.60124],[-65.15164,8.59963],[-65.15423,8.60222],[-65.15238,8.60508],[-65.15007,8.60366],[-65.14707,8.60602],[-65.14727,8.60942],[-65.15043,8.61034],[-65.14816,8.61201],[-65.16179,8.62653],[-65.16469,8.62608],[-65.16508,8.63247],[-65.16292,8.63335],[-65.16829,8.64231],[-65.17043,8.64243],[-65.16939,8.64966],[-65.17288,8.65212],[-65.17036,8.65273],[-65.17219,8.65505],[-65.16956,8.65734],[-65.1716,8.66291],[-65.16723,8.66352],[-65.16908,8.6665],[-65.16546,8.66719],[-65.1669,8.67137],[-65.15958,8.6716],[-65.16234,8.67646],[-65.16797,8.67658],[-65.16959,8.67911],[-65.16596,8.68402],[-65.16877,8.68479],[-65.16759,8.68956],[-65.17057,8.69528],[-65.17002,8.69797],[-65.16733,8.69845],[-65.17123,8.70371],[-65.16809,8.70157],[-65.16828,8.70583],[-65.1633,8.70932],[-65.1641,8.71196],[-65.1623,8.71021],[-65.15705,8.71172],[-65.15616,8.71401],[-65.15944,8.71527],[-65.15703,8.716],[-65.15559,8.72066],[-65.14976,8.71963],[-65.1516,8.72564],[-65.14682,8.73063],[-65.15022,8.73571],[-65.14611,8.73282],[-65.14525,8.73792],[-65.14072,8.73919],[-65.14116,8.74313],[-65.13823,8.74617],[-65.13547,8.74565],[-65.13491,8.74952],[-65.12619,8.74701],[-65.12621,8.74991],[-65.12268,8.74955],[-65.12179,8.74675],[-65.11703,8.74613],[-65.11169,8.75037],[-65.10599,8.74723],[-65.10221,8.752],[-65.10033,8.75086],[-65.09838,8.75611],[-65.0975,8.75404],[-65.0954,8.75786],[-65.08939,8.75931],[-65.08874,8.76278],[-65.08603,8.76128],[-65.0794,8.76495],[-65.07671,8.76175],[-65.0774,8.75903],[-65.07486,8.7582],[-65.07311,8.76099],[-65.06823,8.75775],[-65.06365,8.76123],[-65.06391,8.75891],[-65.05959,8.75749],[-65.0615,8.75427],[-65.05638,8.75321],[-65.05716,8.74986],[-65.05211,8.74586],[-65.04706,8.74652],[-65.04735,8.74447],[-65.04222,8.74616],[-65.0412,8.7428],[-65.03927,8.74478],[-65.03533,8.74371],[-65.03296,8.74028],[-65.02792,8.74333],[-65.01995,8.73813],[-65.01707,8.74288],[-65.01148,8.74063],[-65.00939,8.74571],[-65.00081,8.74493],[-64.99906,8.74697],[-64.99814,8.74487],[-64.98291,8.75105],[-64.97413,8.74663],[-64.96727,8.75155],[-64.96536,8.74831],[-64.96379,8.75052],[-64.96224,8.74837],[-64.95855,8.74919],[-64.95518,8.74336],[-64.94291,8.74425],[-64.94045,8.74186],[-64.93278,8.74254],[-64.92689,8.74696],[-64.92178,8.74476],[-64.91844,8.7464],[-64.9109,8.74038],[-64.91184,8.73304],[-64.906,8.73088],[-64.90527,8.72427],[-64.89687,8.71834],[-64.89648,8.71441],[-64.87473,8.70991],[-64.87246,8.70404],[-64.85578,8.69636],[-64.8477,8.69502],[-64.82142,8.74587],[-64.78117,8.81269],[-64.78428,8.81995],[-64.77771,8.82554],[-64.77352,8.83973],[-64.77593,8.84192],[-64.77343,8.84635],[-64.77704,8.84724],[-64.7795,8.85113],[-64.77803,8.85481],[-64.78124,8.85876],[-64.78081,8.8649],[-64.77711,8.86737],[-64.77743,8.87317],[-64.7849,8.87605],[-64.78475,8.87812],[-64.78847,8.87675],[-64.79308,8.87965],[-64.79925,8.89623],[-64.80434,8.89631],[-64.80498,8.89894],[-64.80993,8.90035],[-64.80894,8.9032],[-64.81225,8.90806],[-64.81714,8.90841],[-64.82038,8.91409],[-64.82899,8.91422],[-64.8281,8.91652],[-64.83255,8.91744],[-64.83207,8.92085],[-64.83979,8.9211],[-64.84142,8.92483],[-64.84767,8.92607],[-64.84652,8.9295],[-64.85193,8.93053],[-64.85339,8.93525],[-64.85719,8.93281],[-64.85508,8.93455],[-64.85954,8.93503],[-64.8582,8.93722],[-64.86102,8.93997],[-64.86432,8.93981],[-64.86549,8.93701],[-64.86752,8.93866],[-64.86796,8.93565],[-64.87025,8.93887],[-64.87406,8.93838],[-64.87831,8.94697],[-64.87592,8.95001],[-64.88552,8.9564],[-64.88366,8.9616],[-64.88707,8.96148],[-64.88893,8.96508],[-64.88723,8.96803],[-64.89165,8.97],[-64.88955,8.9731],[-64.89632,8.97099],[-64.89629,8.97344],[-64.90108,8.97581],[-64.89909,8.97947],[-64.90378,8.97861],[-64.90706,8.98646],[-64.9091,8.98619],[-64.90745,8.98389],[-64.90967,8.98274],[-64.911,8.98555],[-64.91765,8.98542],[-64.91942,8.98765],[-64.921,8.98438],[-64.92495,8.98735],[-64.92661,8.98471],[-64.92812,8.98785],[-64.93523,8.98902],[-64.9346,8.99373],[-64.94145,8.99925],[-64.93973,9.0055],[-64.94243,9.00332],[-64.94602,9.00597],[-64.9431,9.01119],[-64.94734,9.01124],[-64.94973,9.00601],[-64.95088,9.01014],[-64.95887,9.01062],[-64.95754,9.02154],[-64.9519,9.0227],[-64.94699,9.03321],[-64.94987,9.03822],[-64.94141,9.04446],[-64.94308,9.04666],[-64.94508,9.04498],[-64.94747,9.04638],[-64.94614,9.05334],[-64.94918,9.05538],[-64.94518,9.05634],[-64.9466,9.05963],[-64.95967,9.05758],[-64.96968,9.08648],[-64.96745,9.09211],[-64.9709,9.0987],[-64.97718,9.09915],[-64.97573,9.10317],[-64.97836,9.1015],[-64.9807,9.10308],[-64.97635,9.10443],[-64.97675,9.10801],[-64.98024,9.10585],[-64.98016,9.11],[-64.9852,9.11209],[-64.98602,9.11648],[-64.99484,9.11401],[-64.99596,9.11898],[-64.99983,9.11636],[-65.00194,9.11961],[-65.00192,9.11406],[-65.01287,9.11904],[-65.01089,9.12322],[-65.01488,9.12262],[-65.01621,9.11951],[-65.02179,9.12037],[-65.02419,9.12354],[-65.02373,9.13069],[-65.02841,9.12964],[-65.03039,9.13638],[-65.04151,9.13451],[-65.04478,9.13721],[-65.04534,9.13415],[-65.04609,9.13683],[-65.05438,9.14021],[-65.05717,9.14468],[-65.05892,9.14188],[-65.06325,9.14494],[-65.0616,9.14811],[-65.06371,9.14995],[-65.06768,9.14814],[-65.07115,9.15563],[-65.07402,9.15639],[-65.07767,9.15367],[-65.07468,9.16066],[-65.07912,9.15956],[-65.08106,9.1626],[-65.08524,9.16303],[-65.08229,9.16751],[-65.08506,9.16593],[-65.08599,9.17194],[-65.09043,9.17054],[-65.09782,9.17356],[-65.09906,9.16951],[-65.10255,9.17352],[-65.10085,9.17027],[-65.10787,9.17062],[-65.10948,9.16615],[-65.11532,9.16607],[-65.1171,9.17093],[-65.12055,9.16691],[-65.12599,9.16894],[-65.12599,9.16567],[-65.13063,9.17106],[-65.13598,9.16815],[-65.13657,9.17197],[-65.13982,9.17067],[-65.144,9.1736],[-65.14822,9.17223],[-65.15054,9.1671],[-65.15505,9.16778],[-65.15492,9.16377],[-65.1624,9.16589],[-65.16145,9.1698],[-65.17222,9.167],[-65.17287,9.16474],[-65.17552,9.16594],[-65.17567,9.17001],[-65.17893,9.1679],[-65.1808,9.17214],[-65.18853,9.17125],[-65.1872,9.17925],[-65.19111,9.17519],[-65.18998,9.1796],[-65.19302,9.18289],[-65.192,9.18478],[-65.19485,9.18758],[-65.19913,9.1853],[-65.19831,9.19287],[-65.20188,9.19596],[-65.20387,9.19349],[-65.20807,9.20262],[-65.2042,9.20353],[-65.20554,9.20965],[-65.20288,9.207],[-65.20069,9.21085],[-65.21028,9.21555],[-65.211,9.21948],[-65.21826,9.2238],[-65.21736,9.22636],[-65.21642,9.22346],[-65.21271,9.22434],[-65.21528,9.22793],[-65.2181,9.22847],[-65.22176,9.2252],[-65.21936,9.23048],[-65.22356,9.23135],[-65.22086,9.2333],[-65.21793,9.23183],[-65.21801,9.23525],[-65.22668,9.23562],[-65.23009,9.23026],[-65.23114,9.23746],[-65.23413,9.2379],[-65.23437,9.23297],[-65.23685,9.23267],[-65.23783,9.23594],[-65.23545,9.24018],[-65.23795,9.24325],[-65.2339,9.2437],[-65.23537,9.24569],[-65.24036,9.24473],[-65.24102,9.24736],[-65.23423,9.2515],[-65.24052,9.25792],[-65.23835,9.2617],[-65.24226,9.26462],[-65.24669,9.26065],[-65.24904,9.26538],[-65.25749,9.25988],[-65.25484,9.26476],[-65.25922,9.26601],[-65.2611,9.2693],[-65.26363,9.26705],[-65.26488,9.27015],[-65.26308,9.27265],[-65.26538,9.27625],[-65.26963,9.27682],[-65.27064,9.28363],[-65.26803,9.28473],[-65.26967,9.29077],[-65.26175,9.29504],[-65.26742,9.29535],[-65.26639,9.3018],[-65.26837,9.30417],[-65.2747,9.30377],[-65.27574,9.3066],[-65.27066,9.30822],[-65.27706,9.31052],[-65.27651,9.31897],[-65.27902,9.3203],[-65.28028,9.32595],[-65.27868,9.32847],[-65.28376,9.32781],[-65.28515,9.33281],[-65.28653,9.32869],[-65.28907,9.33121],[-65.28797,9.33375],[-65.29184,9.33041],[-65.29583,9.33162],[-65.29688,9.33418],[-65.29379,9.33769],[-65.29861,9.34184],[-65.3134,9.34316],[-65.31266,9.34891],[-65.30268,9.35382],[-65.29058,9.34919],[-65.28717,9.3511],[-65.2871,9.35412],[-65.29309,9.35837],[-65.29547,9.36678],[-65.30118,9.36922],[-65.30811,9.36742],[-65.30861,9.37176],[-65.30321,9.37253],[-65.29861,9.37739],[-65.28999,9.37145],[-65.28587,9.37467],[-65.28637,9.38137],[-65.28439,9.38307],[-65.273,9.37867],[-65.26611,9.39059],[-65.2594,9.3947],[-65.24821,9.38944],[-65.24755,9.39421],[-65.25304,9.40055],[-65.24488,9.40222],[-65.23949,9.39653],[-65.23534,9.40315],[-65.23011,9.4026],[-65.23257,9.40854],[-65.2375,9.41116],[-65.23753,9.41477],[-65.23065,9.4162],[-65.224,9.42911],[-65.21262,9.42556],[-65.20773,9.43394],[-65.2102,9.43701],[-65.21443,9.43545],[-65.21338,9.43866],[-65.20856,9.4409],[-65.20351,9.43656],[-65.20082,9.43766],[-65.20471,9.44966],[-65.20236,9.4576],[-65.21155,9.4603],[-65.21017,9.4633],[-65.20378,9.46416],[-65.21095,9.46697],[-65.20225,9.47007],[-65.20114,9.47445],[-65.20385,9.47641],[-65.20827,9.46939],[-65.21269,9.46983],[-65.21283,9.48377],[-65.21477,9.48934],[-65.2207,9.48967],[-65.2219,9.50003],[-65.22799,9.50212],[-65.22821,9.49995],[-65.22867,9.50162],[-65.23169,9.49888],[-65.23517,9.50044],[-65.23512,9.49855],[-65.23777,9.49979],[-65.23901,9.49765],[-65.23957,9.50319],[-65.24278,9.50525],[-65.24565,9.51225],[-65.25043,9.5108],[-65.2576,9.51522],[-65.26242,9.51484],[-65.26353,9.51275],[-65.27115,9.51693],[-65.27644,9.51423],[-65.28575,9.51571],[-65.28943,9.51371],[-65.29324,9.51472],[-65.29507,9.51151],[-65.30557,9.5159],[-65.30962,9.51384],[-65.31407,9.52036],[-65.31593,9.51863],[-65.31658,9.52211],[-65.32042,9.52422],[-65.32055,9.52911],[-65.32449,9.53287],[-65.33355,9.53414],[-65.33507,9.53996],[-65.33878,9.53982],[-65.34471,9.54927],[-65.34971,9.54918],[-65.35657,9.55593],[-65.36084,9.55552],[-65.3632,9.55223],[-65.38962,9.5688],[-65.38788,9.57543],[-65.398,9.57993],[-65.40061,9.57981],[-65.40109,9.57664],[-65.44045,9.5881],[-65.44114,9.6046],[-65.44732,9.60667],[-65.44672,9.61332],[-65.45308,9.61984],[-65.46899,9.60485],[-65.47676,9.60667],[-65.4925,9.5777],[-65.49351,9.56567],[-65.49148,9.5647],[-65.49359,9.55925],[-65.49679,9.55764],[-65.50735,9.55927],[-65.5112,9.56695],[-65.52608,9.57247],[-65.53396,9.56943],[-65.53532,9.56196],[-65.54392,9.55437],[-65.54693,9.55548],[-65.54656,9.55866],[-65.55293,9.55985],[-65.57688,9.57735],[-65.5929,9.57451],[-65.59484,9.56782],[-65.60246,9.57305],[-65.60735,9.58422],[-65.60306,9.58774],[-65.61473,9.59463],[-65.62663,9.59226],[-65.62877,9.59612],[-65.6385,9.5973],[-65.64786,9.60279],[-65.64719,9.61275],[-65.64391,9.61622],[-65.65091,9.62194],[-65.64872,9.62478],[-65.65326,9.64691],[-65.67805,9.6672],[-65.68082,9.67322],[-65.67559,9.67842],[-65.69081,9.69033],[-65.68846,9.69516],[-65.67995,9.70054],[-65.67947,9.70623],[-65.67665,9.70764],[-65.6758,9.70431],[-65.67049,9.70652],[-65.66689,9.71422],[-65.66249,9.71493],[-65.65829,9.72029],[-65.65756,9.75905],[-65.6614,9.7694],[-65.66512,9.77098],[-65.66419,9.77282],[-65.66849,9.77577],[-65.67102,9.77321],[-65.67644,9.78057],[-65.67622,9.78497],[-65.67955,9.78659],[-65.67595,9.7907],[-65.6784,9.79496],[-65.69577,9.79225],[-65.69852,9.80531],[-65.70469,9.81634],[-65.70063,9.8236],[-65.71304,9.838],[-65.71239,9.84017],[-65.70409,9.8424],[-65.70689,9.85393],[-65.70514,9.85819],[-65.71567,9.86406],[-65.72187,9.87558],[-65.72313,9.90209],[-65.71821,9.90283],[-65.71768,9.91307],[-65.73079,9.91561],[-65.7368,9.92144],[-65.74159,9.92225],[-65.74451,9.92748],[-65.74949,9.92877],[-65.75103,9.93344],[-65.74592,9.93794],[-65.74799,9.94051],[-65.75641,9.94253],[-65.75887,9.9499],[-65.76964,9.95298],[-65.77199,9.94936],[-65.77015,9.94482],[-65.77496,9.94456],[-65.77834,9.952],[-65.7822,9.95556],[-65.7895,9.95739],[-65.79148,9.96165],[-65.79403,9.96193],[-65.79607,9.9582],[-65.80148,9.95598],[-65.80216,9.96135],[-65.81872,9.96235],[-65.82254,9.97124],[-65.8325,9.96972],[-65.8432,9.97164],[-65.85586,9.97013],[-65.86149,9.96693],[-65.87138,9.96724],[-65.87832,9.96327],[-65.88875,9.96809],[-65.89798,9.96451],[-65.90589,9.95488],[-65.9063,9.9504],[-65.9211,9.94577],[-65.93533,9.94664],[-65.93777,9.95082],[-65.94346,9.95154],[-65.94642,9.94816],[-65.94451,9.94586],[-65.95393,9.93721],[-65.97115,9.94412],[-65.9858,9.93715],[-65.99457,9.94334],[-65.9984,9.94028],[-66.00501,9.94052],[-66.01935,9.94886],[-66.03549,9.9541],[-66.05267,9.95487],[-66.0588,9.95712],[-66.06227,9.96597],[-66.07666,9.97011],[-66.0862,9.97022],[-66.087,9.96591],[-66.09698,9.95287],[-66.11282,9.95772],[-66.12379,9.95556],[-66.12864,9.96518],[-66.132,9.96437],[-66.14717,9.97694],[-66.15085,9.97335],[-66.15417,9.96342],[-66.1533,9.95962],[-66.15705,9.95707],[-66.15768,9.95006],[-66.16249,9.94588],[-66.1784,9.94971],[-66.19036,9.95744],[-66.20182,9.95483],[-66.20683,9.95074],[-66.21211,9.95818],[-66.21866,9.95933],[-66.22251,9.96382],[-66.22318,9.9691],[-66.23315,9.96833],[-66.23723,9.97928],[-66.24417,9.98874],[-66.25975,9.98287],[-66.27716,9.9854],[-66.28414,9.97657],[-66.31164,9.99628],[-66.31656,10.00271],[-66.32323,10.00337],[-66.33644,9.99884],[-66.33795,10.00346],[-66.33439,10.01621],[-66.34324,10.01972],[-66.34539,10.0265],[-66.36479,10.02851],[-66.36889,10.03449],[-66.38467,10.04123],[-66.39609,10.03799],[-66.40681,10.03999],[-66.4221,10.03282],[-66.43217,10.03204],[-66.433,10.01897],[-66.44661,10.01332],[-66.46428,10.01394],[-66.47141,10.02215],[-66.48125,10.02227],[-66.48702,10.01777],[-66.48439,10.00861],[-66.48896,10.00523],[-66.49118,9.99273],[-66.50978,9.97865],[-66.52112,9.97979],[-66.52942,9.97366],[-66.53346,9.97532],[-66.54025,9.96677],[-66.54686,9.96575],[-66.55167,9.9683],[-66.56308,9.97935],[-66.57406,9.97703],[-66.58606,9.98392],[-66.59513,9.97485],[-66.60797,9.97444],[-66.6133,9.97177],[-66.61362,9.96773],[-66.61,9.96207],[-66.60985,9.95484],[-66.60352,9.94779],[-66.60286,9.94017],[-66.60525,9.93656],[-66.60297,9.93355],[-66.60711,9.92431],[-66.6029,9.91587],[-66.6056,9.91193],[-66.6001,9.90842],[-66.60214,9.90336],[-66.60099,9.89849],[-66.59601,9.89218],[-66.59877,9.88716],[-66.60141,9.88742],[-66.59778,9.87211],[-66.60274,9.8659],[-66.59438,9.85143],[-66.59463,9.84754],[-66.5892,9.84343],[-66.57592,9.83952],[-66.57878,9.83667],[-66.57777,9.83213],[-66.58595,9.83229],[-66.58609,9.82772],[-66.5924,9.82733],[-66.59808,9.818],[-66.59185,9.8099],[-66.58845,9.81048],[-66.58441,9.80626],[-66.59857,9.8036],[-66.60353,9.79847],[-66.6025,9.79208],[-66.59875,9.79337],[-66.59821,9.79109],[-66.59886,9.78466],[-66.60379,9.7796],[-66.60385,9.77634],[-66.6105,9.77334],[-66.617,9.77521],[-66.61611,9.77762],[-66.61886,9.77987],[-66.6221,9.77801],[-66.62402,9.77356],[-66.62203,9.76862],[-66.62448,9.76477],[-66.62196,9.76058],[-66.6192,9.76154],[-66.62029,9.75749],[-66.61783,9.75634],[-66.62211,9.75457],[-66.62501,9.75674],[-66.62826,9.7536],[-66.6223,9.74274],[-66.62311,9.73898],[-66.62728,9.73653],[-66.62225,9.73699],[-66.62284,9.73416],[-66.62018,9.73234],[-66.62353,9.72642],[-66.63199,9.72255],[-66.63285,9.71964],[-66.62976,9.71785],[-66.63253,9.71673],[-66.633,9.71333],[-66.62344,9.71501],[-66.62165,9.71425],[-66.62204,9.7089],[-66.61201,9.7106],[-66.60486,9.70374],[-66.602,9.70413],[-66.6007,9.69907],[-66.6029,9.69771],[-66.60018,9.69559],[-66.59648,9.69638],[-66.59752,9.6944],[-66.59419,9.69289],[-66.59435,9.68962],[-66.59003,9.69007],[-66.59087,9.68858],[-66.58593,9.68437],[-66.57337,9.67771],[-66.57484,9.67278],[-66.57258,9.67254],[-66.573,9.66609],[-66.56733,9.66788],[-66.56925,9.6653],[-66.56161,9.66136],[-66.55791,9.66421],[-66.5567,9.65966],[-66.55854,9.65825],[-66.55268,9.65393],[-66.55654,9.65369],[-66.55509,9.65008],[-66.55758,9.64674],[-66.55343,9.64369],[-66.55295,9.63925],[-66.55032,9.63954],[-66.54875,9.63697],[-66.55119,9.62863],[-66.54917,9.62703],[-66.55263,9.62013],[-66.54717,9.6194],[-66.54959,9.61673],[-66.54644,9.61417],[-66.5563,9.60492],[-66.55222,9.60146],[-66.55438,9.59975],[-66.55337,9.59589],[-66.56059,9.59312],[-66.55897,9.58981],[-66.56446,9.59196],[-66.56642,9.58992],[-66.56232,9.58808],[-66.56513,9.58449],[-66.56185,9.58477],[-66.56096,9.58141],[-66.56777,9.58086],[-66.57004,9.57574],[-66.56688,9.57418],[-66.5696,9.57182],[-66.56767,9.56885],[-66.57551,9.55853],[-66.57359,9.55638],[-66.57358,9.55854],[-66.57151,9.55788],[-66.57004,9.551],[-66.56619,9.54894],[-66.57418,9.54315],[-66.57531,9.54874],[-66.57892,9.5439],[-66.57677,9.5404],[-66.58164,9.53664],[-66.58688,9.53665],[-66.58303,9.52663],[-66.57995,9.5258],[-66.57881,9.52845],[-66.57596,9.52687],[-66.58246,9.51994],[-66.57811,9.51802],[-66.57466,9.50887],[-66.56912,9.50419],[-66.57078,9.50171],[-66.56761,9.50311],[-66.56296,9.49648],[-66.56084,9.49823],[-66.56303,9.5007],[-66.55922,9.4996],[-66.5573,9.49136],[-66.55839,9.48439],[-66.56534,9.47541],[-66.56483,9.4722],[-66.56254,9.47475],[-66.56146,9.47283],[-66.56836,9.46088],[-66.56617,9.45454],[-66.56891,9.45205],[-66.56726,9.45146],[-66.5742,9.4459],[-66.57158,9.44501],[-66.57357,9.43986],[-66.56796,9.43726],[-66.57716,9.43647],[-66.57588,9.43376],[-66.57867,9.43026],[-66.5748,9.4257],[-66.57849,9.42225],[-66.57779,9.4188],[-66.58167,9.4163],[-66.58157,9.41378],[-66.587,9.41109],[-66.58659,9.40665],[-66.5825,9.40586],[-66.58231,9.40299],[-66.58428,9.4038],[-66.5875,9.39606],[-66.59128,9.39878],[-66.58962,9.39616],[-66.59235,9.39556],[-66.59173,9.39393],[-66.64675,9.38835],[-66.67098,9.39013],[-66.83387,9.38788],[-66.89829,9.38368],[-66.91322,9.39677],[-66.91917,9.3944],[-66.92645,9.3979],[-66.9353,9.40779],[-66.93826,9.41541],[-66.93736,9.42184],[-66.93273,9.43179],[-66.92694,9.4342],[-66.92485,9.43929],[-66.94575,9.45252],[-66.99982,9.45162],[-67.00033,9.4555],[-67.004,9.45838],[-67.00331,9.46577],[-66.99803,9.47406],[-66.98963,9.4698],[-66.99225,9.47618],[-66.98555,9.47734],[-66.98406,9.48278],[-66.98101,9.4836],[-66.98553,9.48709],[-66.98148,9.48882],[-66.9823,9.49277],[-66.9745,9.49284],[-66.97862,9.50051],[-66.98295,9.49758],[-66.98248,9.5016],[-66.98682,9.50213],[-66.98737,9.50685],[-66.9826,9.51122],[-66.97653,9.50964],[-66.97564,9.51614],[-66.97457,9.51302],[-66.96864,9.51343],[-66.96723,9.51755],[-66.95682,9.52347],[-66.9548,9.53244],[-66.95047,9.53051],[-66.94367,9.53429],[-66.94887,9.53709],[-66.94842,9.53924],[-66.9469,9.53751],[-66.9404,9.53911],[-66.94122,9.5366],[-66.936,9.53242],[-66.93259,9.53803],[-66.92842,9.53984],[-66.9141,9.53401],[-66.91564,9.53998],[-66.91286,9.53763],[-66.9064,9.53788],[-66.90593,9.54152],[-66.90228,9.54303],[-66.89787,9.5326],[-66.88979,9.54028],[-66.89168,9.54324],[-66.88681,9.543],[-66.8812,9.54936],[-66.86803,9.57372],[-66.86812,9.57891],[-66.86394,9.58145],[-66.85929,9.59209],[-66.84639,9.60748],[-66.8487,9.61285],[-66.84447,9.61609],[-66.84556,9.62159],[-66.84382,9.62441],[-66.8463,9.62698],[-66.8448,9.62987],[-66.85026,9.63757],[-66.8472,9.64052],[-66.85124,9.64119],[-66.85249,9.6438],[-66.85162,9.64729],[-66.84782,9.64763],[-66.84968,9.65453],[-66.84516,9.65563],[-66.84523,9.65864],[-66.84812,9.66084],[-66.84687,9.66262],[-66.85081,9.66453],[-66.85017,9.66845],[-66.85368,9.66784],[-66.85277,9.67033],[-66.85544,9.67183],[-66.85274,9.6765],[-66.85702,9.67963],[-66.85469,9.68239],[-66.85773,9.68433],[-66.85515,9.68557],[-66.86019,9.68892],[-66.86233,9.69549],[-66.87074,9.70062],[-66.87738,9.69612],[-66.87885,9.69806],[-66.88469,9.69587],[-66.89296,9.68873],[-66.89468,9.69346],[-66.90352,9.68902],[-66.9075,9.68992],[-66.91325,9.68728],[-66.9153,9.68883],[-66.91998,9.68434],[-66.92534,9.68677],[-66.92824,9.68389],[-66.93752,9.68504],[-66.93828,9.69139],[-66.94212,9.6932],[-66.96238,9.69687],[-66.95677,9.72128],[-66.96269,9.72506],[-66.96527,9.74341],[-66.97078,9.74681],[-66.97429,9.75497],[-66.98288,9.7588],[-66.99191,9.75241],[-66.99641,9.75787],[-67.00387,9.75474],[-67.01942,9.7617],[-67.02908,9.7629],[-67.03381,9.76845],[-67.03237,9.77212],[-67.03648,9.77824],[-67.0349,9.78617],[-67.04489,9.79441],[-67.04973,9.78921],[-67.05457,9.78993],[-67.05605,9.78782],[-67.06837,9.7937],[-67.07664,9.79258],[-67.07861,9.78633],[-67.08742,9.78597],[-67.09272,9.78822],[-67.09658,9.78657],[-67.09687,9.78415],[-67.10447,9.78383],[-67.10666,9.79198],[-67.11205,9.79667],[-67.11416,9.80408],[-67.11223,9.80696],[-67.11306,9.81442],[-67.10643,9.81588],[-67.10614,9.82224],[-67.11117,9.8214],[-67.11271,9.82712],[-67.12744,9.82663],[-67.12959,9.82925],[-67.13615,9.8263],[-67.14433,9.83131],[-67.14443,9.83935],[-67.15005,9.83768],[-67.14977,9.85411],[-67.14479,9.8555],[-67.14912,9.86373],[-67.15934,9.87016],[-67.16085,9.87984],[-67.15978,9.88372],[-67.157,9.88478],[-67.1571,9.89447],[-67.16791,9.90212],[-67.17047,9.9074],[-67.16485,9.90862],[-67.16229,9.91189],[-67.1672,9.91711],[-67.15948,9.92651],[-67.16284,9.92958],[-67.16848,9.92665],[-67.17903,9.93096],[-67.185,9.92878],[-67.19315,9.93222],[-67.21269,9.93062],[-67.2165,9.93472],[-67.22057,9.92851],[-67.22332,9.93126],[-67.22927,9.92383],[-67.24599,9.92007],[-67.2475,9.91691],[-67.26417,9.90645],[-67.26924,9.91255],[-67.27348,9.91266],[-67.27479,9.91605],[-67.2707,9.92651],[-67.27282,9.93552],[-67.28357,9.93664],[-67.28903,9.93318],[-67.28957,9.93613],[-67.30224,9.93629],[-67.30266,9.94023],[-67.30755,9.93583],[-67.31071,9.93924],[-67.31452,9.9327],[-67.33546,9.92602],[-67.33505,9.92964],[-67.33889,9.93329],[-67.34556,9.93478],[-67.34619,9.93844],[-67.35182,9.93691],[-67.3552,9.94023],[-67.35337,9.94258],[-67.35701,9.94288],[-67.35804,9.94539],[-67.36346,9.94155],[-67.364,9.95053],[-67.37629,9.95434],[-67.3776,9.96011],[-67.3819,9.96209],[-67.38414,9.96691],[-67.40286,9.97713],[-67.40598,9.97643],[-67.40709,9.98059],[-67.41327,9.98047],[-67.41368,9.9834],[-67.42198,9.98617],[-67.42188,9.98927],[-67.42494,9.98935],[-67.42752,9.99311],[-67.43607,9.99142],[-67.43595,9.99355],[-67.43992,9.98512],[-67.44702,9.98254],[-67.44939,9.97675],[-67.4535,9.97893],[-67.45569,9.9771],[-67.45776,9.97997],[-67.46577,9.97938],[-67.46821,9.97661],[-67.47004,9.97797],[-67.47687,9.97182],[-67.47889,9.96594],[-67.48227,9.96516],[-67.48674,9.96897],[-67.49205,9.96896],[-67.49986,9.96246],[-67.50445,9.96149],[-67.50644,9.95529],[-67.50886,9.95576],[-67.50941,9.95364],[-67.51537,9.95501],[-67.5242,9.95049],[-67.53373,9.95491],[-67.51746,9.87739],[-67.52361,9.88393],[-67.54014,9.88307],[-67.54604,9.88521],[-67.55038,9.8897],[-67.54855,9.89437],[-67.55576,9.89607],[-67.56567,9.90523],[-67.57781,9.89825],[-67.57381,9.89037],[-67.58669,9.87635],[-67.5848,9.86681],[-67.59104,9.85572],[-67.59049,9.84776],[-67.59234,9.84543],[-67.60037,9.84517],[-67.60379,9.84927],[-67.61129,9.84948],[-67.62365,9.86014],[-67.63135,9.86193],[-67.63383,9.85599],[-67.64469,9.85012],[-67.64558,9.84531],[-67.65848,9.84872],[-67.66584,9.84592],[-67.66703,9.84185],[-67.67886,9.82921],[-67.67963,9.82531],[-67.68959,9.82171],[-67.69809,9.83008],[-67.71077,9.83566],[-67.71092,9.84241],[-67.7029,9.85048],[-67.71152,9.8562],[-67.71249,9.8739],[-67.73189,9.88062],[-67.73676,9.89465],[-67.74502,9.89482],[-67.75211,9.90482],[-67.76428,9.90585],[-67.76756,9.91643],[-67.77465,9.91724],[-67.78247,9.924],[-67.79623,9.9226],[-67.80012,9.92496]]]}}]}