{"type":"FeatureCollection","features":[{"type":"Feature","id":"node/428184717","properties":{"name":"San Juan de Los Morros","place":"city","population":"99791"},"geometry":{"type":"Point","coordinates":[-67.35691,9.91523]}},{"type":"Feature","id":"node/440938406","properties":{"name":"Ortiz","place":"city"},"geometry":{"type":"Point","coordinates":[-67.29148,9.62282]}},{"type":"Feature","id":"node/440938407","properties":{"name":"Parapara","place":"town"},"geometry":{"type":"Point","coordinates":[-67.28761,9.70368]}},{"type":"Feature","id":"node/440938408","properties":{"name":"Las Minas (El Toco)","place":"village"},"geometry":{"type":"Point","coordinates":[-67.30929,9.73232]}},{"type":"Feature","id":"node/440938409","properties":{"name":"Los Flores","place":"town"},"geometry":{"type":"Point","coordinates":[-67.39616,9.84108]}},{"type":"Feature","id":"node/828433558","properties":{"name":"Cabruta","place":"town"},"geometry":{"type":"Point","coordinates":[-66.24592,7.64831]}},{"type":"Feature","id":"node/828799118","properties":{"name":"Camagu\u00e1n","place":"city"},"geometry":{"type":"Point","coordinates":[-67.60622,8.10913]}},{"type":"Feature","id":"node/828966047","properties":{"name":"Zaraza","place":"city","population":"129522"},"geometry":{"type":"Point","coordinates":[-65.325,9.35025]}},{"type":"Feature","id":"node/1427285851","properties":{"name":"El Socorro","place":"city"},"geometry":{"type":"Point","coordinates":[-65.74615,8.99812]}},{"type":"Feature","id":"node/1617073944","properties":{"name":"San Jos\u00e9 de Tiznados","place":"town"},"geometry":{"type":"Point","coordinates":[-67.56189,9.37942]}},{"type":"Feature","id":"node/1884657155","properties":{"name":"El Sombrero","place":"city"},"geometry":{"type":"Point","coordinates":[-67.06108,9.38874]}},{"type":"Feature","id":"node/2078247041","properties":{"name":"Valle de La Pascua","place":"town","population":"96016"},"geometry":{"type":"Point","coordinates":[-66.00651,9.21391]}},{"type":"Feature","id":"node/2612591260","properties":{"name":"Calabozo","place":"city","population":"201605"},"geometry":{"type":"Point","coordinates":[-67.42346,8.92081]}},{"type":"Feature","id":"node/3246440061","properties":{"name":"San Rafael de Orituco","place":"town"},"geometry":{"type":"Point","coordinates":[-66.40715,9.82175]}},{"type":"Feature","id":"node/3246853214","properties":{"name":"El Rastro","place":"town"},"geometry":{"type":"Point","coordinates":[-67.45544,9.04708]}},{"type":"Feature","id":"node/3247469855","properties":{"name":"Altagracia de Orituco","place":"city"},"geometry":{"type":"Point","coordinates":[-66.36056,9.86245]}},{"type":"Feature","id":"node/3437973527","properties":{"name":"Santa Rita","place":"town"},"geometry":{"type":"Point","coordinates":[-66.25587,8.13461]}},{"type":"Feature","id":"node/3440152206","properties":{"name":"Santa Mar\u00eda de Ipire","place":"town"},"geometry":{"type":"Point","coordinates":[-65.32166,8.81538]}},{"type":"Feature","id":"node/3638362784","properties":{"name":"Tucupido","place":"city"},"geometry":{"type":"Point","coordinates":[-65.77106,9.27416]}},{"type":"Feature","id":"node/3846781260","properties":{"name":"Chaguaramas","place":"town"},"geometry":{"type":"Point","coordinates":[-66.25599,9.33613]}},{"type":"Feature","id":"node/5256694404","properties":{"name":"Guayabal","place":"town"},"geometry":{"type":"Point","coordinates":[-67.3972,8.00099]}},{"type":"Feature","id":"node/4584161266","properties":{"name":"Las Mercedes del Llano","place":"city"},"geometry":{"type":"Point","coordinates":[-66.3993,9.10758]}},{"type":"Feature","id":"node/5148016593","properties":{"name":"San Jos\u00e9 de Guaribe","place":"city"},"geometry":{"type":"Point","coordinates":[-65.8138,9.86277]}},{"type":"Feature","id":"node/4429446008","properties":{"name":"La Negra","place":"town"},"geometry":{"type":"Point","coordinates":[-67.56329,8.06976]}},{"type":"Feature","id":"node/4470036927","properties":{"name":"El Toco","place":"village"},"geometry":{"type":"Point","coordinates":[-67.56529,8.08152]}},{"type":"Feature","id":"node/4470036928","properties":{"name":"C\u00e1rdenas","place":"village"},"geometry":{"type":"Point","coordinates":[-67.56297,8.06185]}},{"type":"Feature","id":"node/4470036929","properties":{"name":"San Lorenzo","place":"village"},"geometry":{"type":"Point","coordinates":[-67.56296,8.05798]}},{"type":"Feature","id":"node/4470049811","properties":{"name":"Sombrerito","place":"village"},"geometry":{"type":"Point","coordinates":[-67.50289,7.95855]}},{"type":"Feature","id":"node/4470049812","properties":{"name":"Puerto Miranda","place":"village","population":"8000"},"geometry":{"type":"Point","coordinates":[-67.4746,7.9039]}},{"type":"Feature","id":"node/4737068462","properties":{"name":"Paso Real de Macaira","place":"town"},"geometry":{"type":"Point","coordinates":[-66.1735,9.80868]}},{"type":"Feature","id":"node/4737144450","properties":{"name":"Sabana Grande de Orituco","place":"town"},"geometry":{"type":"Point","coordinates":[-66.09389,9.91703]}},{"type":"Feature","id":"node/5216421089","properties":{"name":"San Rafael de Laya","place":"town","population":"3000"},"geometry":{"type":"Point","coordinates":[-65.63469,9.57624]}},{"type":"Feature","id":"node/5216421441","properties":{"name":"La Estrella","place":"village"},"geometry":{"type":"Point","coordinates":[-65.72209,9.66796]}},{"type":"Feature","id":"node/5216421655","properties":{"name":"Uveral","place":"town"},"geometry":{"type":"Point","coordinates":[-65.84007,9.7358]}},{"type":"Feature","id":"node/5216421840","properties":{"name":"San Antonio de Tamanaco","place":"town"},"geometry":{"type":"Point","coordinates":[-66.04541,9.6753]}},{"type":"Feature","id":"node/5216804379","properties":{"name":"La Sierra","place":"village"},"geometry":{"type":"Point","coordinates":[-64.8457,8.79476]}},{"type":"Feature","id":"node/5250276263","properties":{"name":"El Dos","place":"village"},"geometry":{"type":"Point","coordinates":[-65.80508,9.34174]}},{"type":"Feature","id":"node/5250276400","properties":{"name":"Arenita","place":"village"},"geometry":{"type":"Point","coordinates":[-65.76945,9.47852]}},{"type":"Feature","id":"node/5250289398","properties":{"name":"Santa Rosa","place":"village"},"geometry":{"type":"Point","coordinates":[-65.99428,9.4092]}},{"type":"Feature","id":"node/5250291461","properties":{"name":"Las Campechanas","place":"town"},"geometry":{"type":"Point","coordinates":[-66.05939,9.30917]}},{"type":"Feature","id":"node/5250311531","properties":{"name":"Espino","place":"town"},"geometry":{"type":"Point","coordinates":[-66.02225,8.56601]}},{"type":"Feature","id":"node/5250328817","properties":{"name":"El Bostero de Tamanaco","place":"village"},"geometry":{"type":"Point","coordinates":[-66.0569,9.38227]}},{"type":"Feature","id":"node/5250329264","properties":{"name":"Las Dos Palmas","place":"village"},"geometry":{"type":"Point","coordinates":[-66.07206,8.94956]}},{"type":"Feature","id":"node/5250329317","properties":{"name":"Corozal","place":"town"},"geometry":{"type":"Point","coordinates":[-66.0067,9.1623]}},{"type":"Feature","id":"node/5250655210","properties":{"name":"Parmana","place":"town"},"geometry":{"type":"Point","coordinates":[-65.7589,7.83781]}},{"type":"Feature","id":"node/5251988761","properties":{"name":"El Caro de la Negra","place":"town"},"geometry":{"type":"Point","coordinates":[-65.59799,9.26857]}},{"type":"Feature","id":"node/5251988762","properties":{"name":"Taguapire","place":"village"},"geometry":{"type":"Point","coordinates":[-65.62649,9.25941]}},{"type":"Feature","id":"node/5251988797","properties":{"name":"San Ger\u00f3nimo","place":"village"},"geometry":{"type":"Point","coordinates":[-65.75489,9.08144]}},{"type":"Feature","id":"node/5252025555","properties":{"name":"Mahomito","place":"village"},"geometry":{"type":"Point","coordinates":[-66.07563,9.17284]}},{"type":"Feature","id":"node/5252025569","properties":{"name":"La Quinta","place":"village"},"geometry":{"type":"Point","coordinates":[-66.08302,9.16086]}},{"type":"Feature","id":"node/5252025589","properties":{"name":"Coco de Mono","place":"village"},"geometry":{"type":"Point","coordinates":[-66.08944,9.14671]}},{"type":"Feature","id":"node/5252026620","properties":{"name":"Los Viborales","place":"village"},"geometry":{"type":"Point","coordinates":[-66.14596,9.04014]}},{"type":"Feature","id":"node/5252035825","properties":{"name":"Roblecito","place":"village"},"geometry":{"type":"Point","coordinates":[-66.32936,9.19123]}},{"type":"Feature","id":"node/5252035826","properties":{"name":"San Nicol\u00e1s","place":"village"},"geometry":{"type":"Point","coordinates":[-66.32097,9.18638]}},{"type":"Feature","id":"node/5252317383","properties":{"name":"El Calvario","place":"town"},"geometry":{"type":"Point","coordinates":[-66.99707,8.97915]}},{"type":"Feature","id":"node/5252317384","properties":{"name":"Palenque","place":"town"},"geometry":{"type":"Point","coordinates":[-66.90025,8.99283]}},{"type":"Feature","id":"node/5252344759","properties":{"name":"Pirital","place":"village"},"geometry":{"type":"Point","coordinates":[-66.57075,9.2598]}},{"type":"Feature","id":"node/5252352043","properties":{"name":"El Lechozo","place":"village"},"geometry":{"type":"Point","coordinates":[-66.68012,9.29509]}},{"type":"Feature","id":"node/5252354698","properties":{"name":"El Caj\u00f3n","place":"village"},"geometry":{"type":"Point","coordinates":[-66.57741,9.39245]}},{"type":"Feature","id":"node/5252374041","properties":{"name":"Las Lajitas","place":"town"},"geometry":{"type":"Point","coordinates":[-67.05079,9.35946]}},{"type":"Feature","id":"node/5252374042","properties":{"name":"Sosa","place":"town"},"geometry":{"type":"Point","coordinates":[-67.2084,9.33063]}},{"type":"Feature","id":"node/5252382776","properties":{"name":"Mapoco","place":"town"},"geometry":{"type":"Point","coordinates":[-67.33924,9.25487]}},{"type":"Feature","id":"node/5252384215","properties":{"name":"Palo Seco","place":"town"},"geometry":{"type":"Point","coordinates":[-67.23248,9.05929]}},{"type":"Feature","id":"node/5252384216","properties":{"name":"La Encrucijada","place":"town"},"geometry":{"type":"Point","coordinates":[-67.03657,9.22154]}},{"type":"Feature","id":"node/5252385945","properties":{"name":"Laguna Seca","place":"village"},"geometry":{"type":"Point","coordinates":[-67.03022,9.23816]}},{"type":"Feature","id":"node/5252395680","properties":{"name":"Corozal","place":"town"},"geometry":{"type":"Point","coordinates":[-67.5423,9.31989]}},{"type":"Feature","id":"node/5252405022","properties":{"name":"San Francisco de Tiznados","place":"town"},"geometry":{"type":"Point","coordinates":[-67.60609,9.51994]}},{"type":"Feature","id":"node/5252405043","properties":{"name":"Tig\u00fcig\u00fce","place":"town"},"geometry":{"type":"Point","coordinates":[-67.24681,9.53734]}},{"type":"Feature","id":"node/5252424406","properties":{"name":"Guardatinajas","place":"town"},"geometry":{"type":"Point","coordinates":[-67.63246,9.03731]}},{"type":"Feature","id":"node/5252439989","properties":{"name":"Santa Mar\u00eda de Tiznados","place":"town"},"geometry":{"type":"Point","coordinates":[-67.80319,8.67436]}},{"type":"Feature","id":"node/5252443003","properties":{"name":"Lecherito II","place":"town"},"geometry":{"type":"Point","coordinates":[-67.49697,8.81331]}},{"type":"Feature","id":"node/5252446533","properties":{"name":"Las Lajitas","place":"village"},"geometry":{"type":"Point","coordinates":[-67.65992,9.54321]}},{"type":"Feature","id":"node/5252454708","properties":{"name":"La Cachama","place":"town"},"geometry":{"type":"Point","coordinates":[-66.99439,9.41587]}},{"type":"Feature","id":"node/5252457326","properties":{"name":"Quita Calz\u00f3n","place":"town"},"geometry":{"type":"Point","coordinates":[-66.97724,9.44731]}},{"type":"Feature","id":"node/5255702145","properties":{"name":"P\u00edritu","place":"town"},"geometry":{"type":"Point","coordinates":[-67.39343,8.75103]}},{"type":"Feature","id":"node/5255702229","properties":{"name":"Paso El Caballo","place":"town"},"geometry":{"type":"Point","coordinates":[-67.13444,8.31645]}},{"type":"Feature","id":"node/5255751392","properties":{"name":"El Ororal","place":"village"},"geometry":{"type":"Point","coordinates":[-67.2969,7.93132]}},{"type":"Feature","id":"node/5255751393","properties":{"name":"El Gu\u00e1rico","place":"village"},"geometry":{"type":"Point","coordinates":[-67.36672,7.96598]}},{"type":"Feature","id":"node/5255752596","properties":{"name":"Cazorla","place":"town"},"geometry":{"type":"Point","coordinates":[-66.99908,8.01542]}},{"type":"Feature","id":"node/5255772467","properties":{"name":"Uverito","place":"town"},"geometry":{"type":"Point","coordinates":[-67.47889,8.13007]}},{"type":"Feature","id":"node/5255791583","properties":{"name":"Los Corozales","place":"village"},"geometry":{"type":"Point","coordinates":[-66.90199,7.83497]}},{"type":"Feature","id":"node/5255925112","properties":{"name":"San Francisco de Macaira","place":"town"},"geometry":{"type":"Point","coordinates":[-66.26719,9.96137]}},{"type":"Feature","id":"node/5255950717","properties":{"name":"Lezama","place":"town"},"geometry":{"type":"Point","coordinates":[-66.39252,9.7169]}},{"type":"Feature","id":"node/5255950718","properties":{"name":"La Esperanza","place":"town"},"geometry":{"type":"Point","coordinates":[-66.24786,9.60711]}},{"type":"Feature","id":"node/5255950719","properties":{"name":"Jabillal","place":"town"},"geometry":{"type":"Point","coordinates":[-66.17403,9.87846]}},{"type":"Feature","id":"node/5255950720","properties":{"name":"Turmerino","place":"village"},"geometry":{"type":"Point","coordinates":[-66.21018,9.90642]}},{"type":"Feature","id":"node/5255965976","properties":{"name":"Paso del Medio","place":"town"},"geometry":{"type":"Point","coordinates":[-66.18361,9.77894]}},{"type":"Feature","id":"node/5255991468","properties":{"name":"Los Alzanes","place":"village"},"geometry":{"type":"Point","coordinates":[-65.93777,9.78276]}},{"type":"Feature","id":"node/5255991469","properties":{"name":"La Ceiba","place":"village"},"geometry":{"type":"Point","coordinates":[-65.84073,9.78213]}},{"type":"Feature","id":"node/5256590739","properties":{"name":"Peleojo","place":"village"},"geometry":{"type":"Point","coordinates":[-66.24802,9.97871]}},{"type":"Feature","id":"node/5256726335","properties":{"name":"Guaitoco","place":"village"},"geometry":{"type":"Point","coordinates":[-67.62178,9.47747]}},{"type":"Feature","id":"node/5372748616","properties":{"name":"El Toco","place":"village"},"geometry":{"type":"Point","coordinates":[-67.32742,9.74858]}},{"type":"Feature","id":"node/5416841326","properties":{"name":"Los Melerales","place":"village"},"geometry":{"type":"Point","coordinates":[-66.87492,9.38201]}},{"type":"Feature","id":"node/5644365352","properties":{"name":"Masaguaro","place":"village"},"geometry":{"type":"Point","coordinates":[-65.41611,9.24768]}},{"type":"Feature","id":"node/5644365929","properties":{"name":"La Becerra","place":"village"},"geometry":{"type":"Point","coordinates":[-65.2736,9.02938]}},{"type":"Feature","id":"node/5644365957","properties":{"name":"Corozal","place":"village"},"geometry":{"type":"Point","coordinates":[-65.27239,9.05207]}},{"type":"Feature","id":"node/5644366171","properties":{"name":"Cartanal","place":"village"},"geometry":{"type":"Point","coordinates":[-65.30864,9.18673]}},{"type":"Feature","id":"node/5644367467","properties":{"name":"La Leonera","place":"village"},"geometry":{"type":"Point","coordinates":[-65.47523,9.47665]}},{"type":"Feature","id":"node/5644367469","properties":{"name":"El Carito","place":"village"},"geometry":{"type":"Point","coordinates":[-65.50439,9.45346]}},{"type":"Feature","id":"node/5644367470","properties":{"name":"Carrizalito","place":"village"},"geometry":{"type":"Point","coordinates":[-65.47489,9.45017]}},{"type":"Feature","id":"node/5644367498","properties":{"name":"San Jos\u00e9 de Unare","place":"town"},"geometry":{"type":"Point","coordinates":[-65.23447,9.46678]}},{"type":"Feature","id":"node/5644367499","properties":{"name":"Gavil\u00e1n","place":"village"},"geometry":{"type":"Point","coordinates":[-65.27581,9.49313]}},{"type":"Feature","id":"node/5644367800","properties":{"name":"El Dragal","place":"village"},"geometry":{"type":"Point","coordinates":[-65.30719,9.5073]}},{"type":"Feature","id":"node/5644367977","properties":{"name":"Ca\u00f1o Chiquito","place":"village"},"geometry":{"type":"Point","coordinates":[-65.36923,9.52284]}},{"type":"Feature","id":"node/5644368004","properties":{"name":"Las Trojitas","place":"village"},"geometry":{"type":"Point","coordinates":[-65.38879,9.45948]}},{"type":"Feature","id":"node/5644368013","properties":{"name":"Guanajay","place":"village"},"geometry":{"type":"Point","coordinates":[-65.30443,9.38831]}},{"type":"Feature","id":"node/5644368014","properties":{"name":"Calanche","place":"village"},"geometry":{"type":"Point","coordinates":[-65.30808,9.37573]}},{"type":"Feature","id":"node/5644368575","properties":{"name":"La Martina","place":"village"},"geometry":{"type":"Point","coordinates":[-65.4187,9.3931]}},{"type":"Feature","id":"node/5644368579","properties":{"name":"Las Sabanitas","place":"village"},"geometry":{"type":"Point","coordinates":[-65.4557,9.39475]}},{"type":"Feature","id":"node/5644368586","properties":{"name":"Caraquito","place":"village"},"geometry":{"type":"Point","coordinates":[-65.38148,9.35045]}},{"type":"Feature","id":"node/5644368590","properties":{"name":"Tacalito","place":"town"},"geometry":{"type":"Point","coordinates":[-65.40708,9.34861]}},{"type":"Feature","id":"node/5644368591","properties":{"name":"Las Filipinas","place":"village"},"geometry":{"type":"Point","coordinates":[-65.42305,9.33875]}},{"type":"Feature","id":"node/5644368592","properties":{"name":"Vista Hermosa","place":"village"},"geometry":{"type":"Point","coordinates":[-65.43229,9.33121]}},{"type":"Feature","id":"node/5644425824","properties":{"name":"El Mendero","place":"village"},"geometry":{"type":"Point","coordinates":[-65.41641,8.85261]}},{"type":"Feature","id":"node/5644425864","properties":{"name":"Agua Amarilla","place":"village"},"geometry":{"type":"Point","coordinates":[-65.02754,8.82887]}},{"type":"Feature","id":"node/5651345508","properties":{"name":"La Cabrera","place":"village"},"geometry":{"type":"Point","coordinates":[-65.82496,9.28315]}},{"type":"Feature","id":"node/5651345602","properties":{"name":"La Esperanza","place":"village"},"geometry":{"type":"Point","coordinates":[-65.81655,9.26149]}},{"type":"Feature","id":"node/5651345606","properties":{"name":"San Jos\u00e9","place":"village"},"geometry":{"type":"Point","coordinates":[-65.87945,9.25396]}},{"type":"Feature","id":"node/5651345607","properties":{"name":"Vel\u00e1zquez","place":"village"},"geometry":{"type":"Point","coordinates":[-65.89829,9.2328]}},{"type":"Feature","id":"node/5651345608","properties":{"name":"Loma Alta","place":"village"},"geometry":{"type":"Point","coordinates":[-65.9078,9.27272]}},{"type":"Feature","id":"node/5651345611","properties":{"name":"Pela El Ojo","place":"village"},"geometry":{"type":"Point","coordinates":[-65.94247,9.24995]}},{"type":"Feature","id":"node/5651346517","properties":{"name":"Zanjonote","place":"village"},"geometry":{"type":"Point","coordinates":[-65.92444,9.26706]}},{"type":"Feature","id":"node/5651346758","properties":{"name":"Las Babas","place":"village"},"geometry":{"type":"Point","coordinates":[-65.93742,9.31454]}},{"type":"Feature","id":"node/5651346860","properties":{"name":"La Colorada","place":"village"},"geometry":{"type":"Point","coordinates":[-65.94246,9.28133]}},{"type":"Feature","id":"node/5651346953","properties":{"name":"Las Campechanas","place":"village"},"geometry":{"type":"Point","coordinates":[-65.97096,9.27245]}},{"type":"Feature","id":"node/5651346958","properties":{"name":"Campo Alegre","place":"village"},"geometry":{"type":"Point","coordinates":[-65.83674,9.22681]}},{"type":"Feature","id":"node/5651346991","properties":{"name":"El Potrero","place":"village"},"geometry":{"type":"Point","coordinates":[-65.81458,9.23798]}},{"type":"Feature","id":"node/5651346992","properties":{"name":"Cuj\u00ed Negro","place":"town"},"geometry":{"type":"Point","coordinates":[-65.80025,9.23784]}},{"type":"Feature","id":"node/5651347089","properties":{"name":"Jabillal","place":"village"},"geometry":{"type":"Point","coordinates":[-65.68644,9.2548]}},{"type":"Feature","id":"node/5651347098","properties":{"name":"Pan de Az\u00facar","place":"village"},"geometry":{"type":"Point","coordinates":[-65.5629,9.26852]}},{"type":"Feature","id":"node/5651347099","properties":{"name":"El Macho","place":"village"},"geometry":{"type":"Point","coordinates":[-65.54323,9.27478]}},{"type":"Feature","id":"node/5651347205","properties":{"name":"Mastrantal","place":"village"},"geometry":{"type":"Point","coordinates":[-65.53462,9.26299]}},{"type":"Feature","id":"node/5651347291","properties":{"name":"El Benitero","place":"village"},"geometry":{"type":"Point","coordinates":[-65.52955,9.34978]}},{"type":"Feature","id":"node/5651347312","properties":{"name":"Murci\u00e9lago","place":"village"},"geometry":{"type":"Point","coordinates":[-65.7123,9.47916]}},{"type":"Feature","id":"node/5651347392","properties":{"name":"El Toro","place":"village"},"geometry":{"type":"Point","coordinates":[-65.71821,9.45271]}},{"type":"Feature","id":"node/5651347393","properties":{"name":"La Ceiba","place":"village"},"geometry":{"type":"Point","coordinates":[-65.72002,9.44053]}},{"type":"Feature","id":"node/5651347405","properties":{"name":"Angostura","place":"village"},"geometry":{"type":"Point","coordinates":[-65.73325,9.41691]}},{"type":"Feature","id":"node/5651347410","properties":{"name":"Las Lagunitas","place":"village"},"geometry":{"type":"Point","coordinates":[-65.74707,9.38868]}},{"type":"Feature","id":"node/5651348028","properties":{"name":"Cerro Grande","place":"village"},"geometry":{"type":"Point","coordinates":[-65.77171,9.41203]}},{"type":"Feature","id":"node/5651348089","properties":{"name":"Juasjual","place":"village"},"geometry":{"type":"Point","coordinates":[-65.83741,9.33537]}},{"type":"Feature","id":"node/5651348103","properties":{"name":"La Reforma","place":"village"},"geometry":{"type":"Point","coordinates":[-65.86074,9.39721]}},{"type":"Feature","id":"node/5651348109","properties":{"name":"El Jobo","place":"village"},"geometry":{"type":"Point","coordinates":[-65.89367,9.43277]}},{"type":"Feature","id":"node/5651348118","properties":{"name":"El Tigre","place":"village"},"geometry":{"type":"Point","coordinates":[-65.86776,9.46603]}},{"type":"Feature","id":"node/5651348281","properties":{"name":"El M\u00e9dano","place":"village"},"geometry":{"type":"Point","coordinates":[-65.81589,9.48311]}},{"type":"Feature","id":"node/5651348282","properties":{"name":"Las Mar\u00edas","place":"village"},"geometry":{"type":"Point","coordinates":[-65.80978,9.48875]}},{"type":"Feature","id":"node/5651348283","properties":{"name":"La Smith","place":"village"},"geometry":{"type":"Point","coordinates":[-65.83626,9.49622]}},{"type":"Feature","id":"node/5651348294","properties":{"name":"Las Palmas","place":"village"},"geometry":{"type":"Point","coordinates":[-65.90522,9.44512]}},{"type":"Feature","id":"node/5651348297","properties":{"name":"Tucupido","place":"village"},"geometry":{"type":"Point","coordinates":[-65.90983,9.53997]}},{"type":"Feature","id":"node/5651349362","properties":{"name":"Zamurito Nuevo","place":"village"},"geometry":{"type":"Point","coordinates":[-65.95902,9.58374]}},{"type":"Feature","id":"node/5651349502","properties":{"name":"Aguada del Muerto","place":"village"},"geometry":{"type":"Point","coordinates":[-65.70755,9.64568]}},{"type":"Feature","id":"node/5651349518","properties":{"name":"La Morelia","place":"village"},"geometry":{"type":"Point","coordinates":[-65.7139,9.51469]}},{"type":"Feature","id":"node/5651349621","properties":{"name":"El Caro","place":"village"},"geometry":{"type":"Point","coordinates":[-65.67112,9.53427]}},{"type":"Feature","id":"node/5651349635","properties":{"name":"La Aguadita","place":"village"},"geometry":{"type":"Point","coordinates":[-65.69783,9.65477]}},{"type":"Feature","id":"node/5651349746","properties":{"name":"Las Lajas","place":"village"},"geometry":{"type":"Point","coordinates":[-65.75708,9.77656]}},{"type":"Feature","id":"node/5651349752","properties":{"name":"Cunaguaro","place":"village"},"geometry":{"type":"Point","coordinates":[-65.68466,9.76178]}},{"type":"Feature","id":"node/5651349780","properties":{"name":"Los M\u00e9danos","place":"village"},"geometry":{"type":"Point","coordinates":[-65.85472,9.71975]}},{"type":"Feature","id":"node/5651349781","properties":{"name":"El Cinco","place":"village"},"geometry":{"type":"Point","coordinates":[-65.91133,9.71195]}},{"type":"Feature","id":"node/5651349782","properties":{"name":"Aguada del Cielo","place":"village"},"geometry":{"type":"Point","coordinates":[-65.94929,9.71616]}},{"type":"Feature","id":"node/5651349784","properties":{"name":"El Vedero","place":"village"},"geometry":{"type":"Point","coordinates":[-65.99407,9.69424]}},{"type":"Feature","id":"node/5651355844","properties":{"name":"Los Cantiles","place":"village"},"geometry":{"type":"Point","coordinates":[-65.90186,9.94379]}},{"type":"Feature","id":"node/5651355851","properties":{"name":"R\u00edo Negro","place":"village"},"geometry":{"type":"Point","coordinates":[-65.9467,9.93821]}},{"type":"Feature","id":"node/5652613862","properties":{"name":"Cejerinera","place":"village"},"geometry":{"type":"Point","coordinates":[-65.99215,9.17229]}},{"type":"Feature","id":"node/5652613866","properties":{"name":"El Corozo","place":"town"},"geometry":{"type":"Point","coordinates":[-66.04712,9.24784]}},{"type":"Feature","id":"node/5652613898","properties":{"name":"Guanare","place":"village"},"geometry":{"type":"Point","coordinates":[-65.8387,8.99965]}},{"type":"Feature","id":"node/5652613916","properties":{"name":"Camacho","place":"village"},"geometry":{"type":"Point","coordinates":[-65.70539,9.22041]}},{"type":"Feature","id":"node/5652613929","properties":{"name":"Buena Vista Norte","place":"village"},"geometry":{"type":"Point","coordinates":[-65.61613,9.20339]}},{"type":"Feature","id":"node/5652613932","properties":{"name":"Corcovado","place":"village"},"geometry":{"type":"Point","coordinates":[-65.59518,9.22781]}},{"type":"Feature","id":"node/5652613937","properties":{"name":"Cogollal","place":"village"},"geometry":{"type":"Point","coordinates":[-65.55043,9.18367]}},{"type":"Feature","id":"node/5652613946","properties":{"name":"Paso Real","place":"village"},"geometry":{"type":"Point","coordinates":[-65.55171,9.08528]}},{"type":"Feature","id":"node/5652613952","properties":{"name":"Palma Sola","place":"village"},"geometry":{"type":"Point","coordinates":[-65.51336,9.1037]}},{"type":"Feature","id":"node/5652613979","properties":{"name":"Carro Herrado","place":"village"},"geometry":{"type":"Point","coordinates":[-65.83164,9.05946]}},{"type":"Feature","id":"node/5652613980","properties":{"name":"El Chupadero","place":"town"},"geometry":{"type":"Point","coordinates":[-65.81137,9.03578]}},{"type":"Feature","id":"node/5652613990","properties":{"name":"La Concepci\u00f3n","place":"village"},"geometry":{"type":"Point","coordinates":[-65.77605,9.22669]}},{"type":"Feature","id":"node/5652614218","properties":{"name":"La Soledad","place":"village"},"geometry":{"type":"Point","coordinates":[-65.90259,9.12879]}},{"type":"Feature","id":"node/5652614222","properties":{"name":"Donoso","place":"village"},"geometry":{"type":"Point","coordinates":[-65.86994,9.15253]}},{"type":"Feature","id":"node/5652614224","properties":{"name":"La Hormiguera","place":"village"},"geometry":{"type":"Point","coordinates":[-65.8577,9.15419]}},{"type":"Feature","id":"node/5652614230","properties":{"name":"Bella Vista","place":"village"},"geometry":{"type":"Point","coordinates":[-65.90211,9.0843]}},{"type":"Feature","id":"node/5652614231","properties":{"name":"San Juan","place":"village"},"geometry":{"type":"Point","coordinates":[-65.88806,9.07989]}},{"type":"Feature","id":"node/5652614240","properties":{"name":"La Caseta","place":"village"},"geometry":{"type":"Point","coordinates":[-65.9146,9.09835]}},{"type":"Feature","id":"node/5652614241","properties":{"name":"La Malquerida","place":"village"},"geometry":{"type":"Point","coordinates":[-65.91322,9.09215]}},{"type":"Feature","id":"node/5652614242","properties":{"name":"Pedro","place":"village"},"geometry":{"type":"Point","coordinates":[-65.92132,9.094]}},{"type":"Feature","id":"node/5652614245","properties":{"name":"El Roblito","place":"village"},"geometry":{"type":"Point","coordinates":[-65.93006,9.11739]}},{"type":"Feature","id":"node/5652614246","properties":{"name":"La Bandera Blanca","place":"village"},"geometry":{"type":"Point","coordinates":[-65.93362,9.12771]}},{"type":"Feature","id":"node/5652614249","properties":{"name":"Barrasquito","place":"village"},"geometry":{"type":"Point","coordinates":[-65.97187,9.16792]}},{"type":"Feature","id":"node/5652614250","properties":{"name":"La Pere\u00f1a","place":"village"},"geometry":{"type":"Point","coordinates":[-65.96006,9.15263]}},{"type":"Feature","id":"node/5653590214","properties":{"name":"Altamira","place":"town"},"geometry":{"type":"Point","coordinates":[-65.57101,8.58423]}},{"type":"Feature","id":"node/5653590215","properties":{"name":"San Antonio","place":"village"},"geometry":{"type":"Point","coordinates":[-65.55328,8.57093]}},{"type":"Feature","id":"node/5653590216","properties":{"name":"El Hatico","place":"village"},"geometry":{"type":"Point","coordinates":[-65.54703,8.58176]}},{"type":"Feature","id":"node/5653590664","properties":{"name":"San Juan de Amariles","place":"village"},"geometry":{"type":"Point","coordinates":[-65.70288,8.79549]}},{"type":"Feature","id":"node/5653590674","properties":{"name":"Corocito Pe\u00f1ero","place":"village"},"geometry":{"type":"Point","coordinates":[-65.73801,8.81982]}},{"type":"Feature","id":"node/5653590703","properties":{"name":"Maniral","place":"village"},"geometry":{"type":"Point","coordinates":[-65.68921,8.95312]}},{"type":"Feature","id":"node/5653590711","properties":{"name":"Mahomal","place":"village"},"geometry":{"type":"Point","coordinates":[-65.86838,8.95748]}},{"type":"Feature","id":"node/5653590713","properties":{"name":"Corral Viejo","place":"village"},"geometry":{"type":"Point","coordinates":[-65.83285,8.9548]}},{"type":"Feature","id":"node/5653591041","properties":{"name":"La California","place":"village"},"geometry":{"type":"Point","coordinates":[-65.83049,8.78893]}},{"type":"Feature","id":"node/5653591053","properties":{"name":"Zanjonote","place":"village"},"geometry":{"type":"Point","coordinates":[-65.9682,8.67253]}},{"type":"Feature","id":"node/5653591144","properties":{"name":"Las Garzas","place":"village"},"geometry":{"type":"Point","coordinates":[-65.98996,8.88524]}},{"type":"Feature","id":"node/5658403733","properties":{"name":"Rabanal","place":"village"},"geometry":{"type":"Point","coordinates":[-66.13909,8.43771]}},{"type":"Feature","id":"node/5658403794","properties":{"name":"Paso Matapalo","place":"village"},"geometry":{"type":"Point","coordinates":[-66.3909,8.5874]}},{"type":"Feature","id":"node/5658403993","properties":{"name":"Morichalito","place":"village"},"geometry":{"type":"Point","coordinates":[-66.244,8.91034]}},{"type":"Feature","id":"node/5667390950","properties":{"name":"El Caruto","place":"village"},"geometry":{"type":"Point","coordinates":[-66.3344,9.94388]}},{"type":"Feature","id":"node/5667390957","properties":{"name":"Gamelotal","place":"village"},"geometry":{"type":"Point","coordinates":[-66.31634,9.89699]}},{"type":"Feature","id":"node/5667390959","properties":{"name":"Portachuelo","place":"village"},"geometry":{"type":"Point","coordinates":[-66.3012,9.92959]}},{"type":"Feature","id":"node/5667391469","properties":{"name":"El Morrito","place":"village"},"geometry":{"type":"Point","coordinates":[-66.27239,9.91996]}},{"type":"Feature","id":"node/5667391515","properties":{"name":"Valle de Macaira","place":"village"},"geometry":{"type":"Point","coordinates":[-66.26224,9.95122]}},{"type":"Feature","id":"node/5667391730","properties":{"name":"El Guamo","place":"town"},"geometry":{"type":"Point","coordinates":[-66.16392,9.85172]}},{"type":"Feature","id":"node/5667391731","properties":{"name":"Las Mercedes","place":"village"},"geometry":{"type":"Point","coordinates":[-66.19215,9.89403]}},{"type":"Feature","id":"node/5667392118","properties":{"name":"El Cambur","place":"village"},"geometry":{"type":"Point","coordinates":[-66.07102,9.95884]}},{"type":"Feature","id":"node/5667392119","properties":{"name":"Quebrada Seca","place":"village"},"geometry":{"type":"Point","coordinates":[-66.06241,9.96004]}},{"type":"Feature","id":"node/5667392407","properties":{"name":"Colorado","place":"village"},"geometry":{"type":"Point","coordinates":[-66.03286,9.92627]}},{"type":"Feature","id":"node/5667392409","properties":{"name":"Cruz","place":"town"},"geometry":{"type":"Point","coordinates":[-66.12452,9.90152]}},{"type":"Feature","id":"node/5667392412","properties":{"name":"Tucupido Aragot","place":"village"},"geometry":{"type":"Point","coordinates":[-66.04066,9.88676]}},{"type":"Feature","id":"node/5667392420","properties":{"name":"Uverito","place":"village"},"geometry":{"type":"Point","coordinates":[-66.42416,9.97824]}},{"type":"Feature","id":"node/5667392423","properties":{"name":"La Margarita","place":"village"},"geometry":{"type":"Point","coordinates":[-66.38605,9.93804]}},{"type":"Feature","id":"node/5667392458","properties":{"name":"Apamate","place":"town"},"geometry":{"type":"Point","coordinates":[-66.27379,9.85085]}},{"type":"Feature","id":"node/5667392459","properties":{"name":"Taguapire","place":"village"},"geometry":{"type":"Point","coordinates":[-66.25974,9.83806]}},{"type":"Feature","id":"node/5667392466","properties":{"name":"Arenitas","place":"town"},"geometry":{"type":"Point","coordinates":[-66.0086,9.82842]}},{"type":"Feature","id":"node/5667392485","properties":{"name":"Tamanaco Abajo","place":"village"},"geometry":{"type":"Point","coordinates":[-66.03573,9.66492]}},{"type":"Feature","id":"node/5667392511","properties":{"name":"El Palmar","place":"village"},"geometry":{"type":"Point","coordinates":[-66.18714,9.75747]}},{"type":"Feature","id":"node/5667392513","properties":{"name":"La Cruz de Guataparo","place":"village"},"geometry":{"type":"Point","coordinates":[-66.22209,9.72312]}},{"type":"Feature","id":"node/5667392596","properties":{"name":"San Andr\u00e9s","place":"town"},"geometry":{"type":"Point","coordinates":[-66.4111,9.69236]}},{"type":"Feature","id":"node/5667393030","properties":{"name":"La Libertad de Orituco","place":"town"},"geometry":{"type":"Point","coordinates":[-66.40559,9.51052]}},{"type":"Feature","id":"node/5667393037","properties":{"name":"Las Flores","place":"village"},"geometry":{"type":"Point","coordinates":[-66.39467,9.61099]}},{"type":"Feature","id":"node/5667393042","properties":{"name":"Mamonal","place":"town"},"geometry":{"type":"Point","coordinates":[-66.36028,9.5246]}},{"type":"Feature","id":"node/5667393059","properties":{"name":"Los Negros","place":"town"},"geometry":{"type":"Point","coordinates":[-66.32045,9.56451]}},{"type":"Feature","id":"node/5667393082","properties":{"name":"Casianero","place":"town"},"geometry":{"type":"Point","coordinates":[-66.21776,9.54769]}},{"type":"Feature","id":"node/5667393095","properties":{"name":"Las Camazas","place":"village"},"geometry":{"type":"Point","coordinates":[-66.06941,9.59555]}},{"type":"Feature","id":"node/5667393103","properties":{"name":"Las Piedras","place":"village"},"geometry":{"type":"Point","coordinates":[-66.13664,9.48396]}},{"type":"Feature","id":"node/5667393529","properties":{"name":"Tierra Libre","place":"village"},"geometry":{"type":"Point","coordinates":[-66.03945,9.39143]}},{"type":"Feature","id":"node/5667393550","properties":{"name":"Santa Rosa","place":"village"},"geometry":{"type":"Point","coordinates":[-66.03617,9.28635]}},{"type":"Feature","id":"node/5667393565","properties":{"name":"J\u00e1come Abajo","place":"village"},"geometry":{"type":"Point","coordinates":[-66.04182,9.10405]}},{"type":"Feature","id":"node/5667393566","properties":{"name":"J\u00e1come Arriba","place":"village"},"geometry":{"type":"Point","coordinates":[-66.04388,9.1333]}},{"type":"Feature","id":"node/5667393571","properties":{"name":"La Quinta","place":"village"},"geometry":{"type":"Point","coordinates":[-66.20823,9.31846]}},{"type":"Feature","id":"node/5667393596","properties":{"name":"San Cayetano","place":"village"},"geometry":{"type":"Point","coordinates":[-66.2623,9.22672]}},{"type":"Feature","id":"node/5667393755","properties":{"name":"Santa Teresa","place":"village"},"geometry":{"type":"Point","coordinates":[-66.16329,9.11181]}},{"type":"Feature","id":"node/5667393785","properties":{"name":"Chupadero","place":"village"},"geometry":{"type":"Point","coordinates":[-66.08421,9.21954]}},{"type":"Feature","id":"node/5667393818","properties":{"name":"Los Isle\u00f1os","place":"village"},"geometry":{"type":"Point","coordinates":[-66.06163,9.20868]}},{"type":"Feature","id":"node/5667393826","properties":{"name":"Mamonal","place":"village"},"geometry":{"type":"Point","coordinates":[-66.05919,9.19284]}},{"type":"Feature","id":"node/5667393840","properties":{"name":"La Puerta de Orituco","place":"village"},"geometry":{"type":"Point","coordinates":[-66.43598,9.39093]}},{"type":"Feature","id":"node/5667393860","properties":{"name":"La Morrocoya","place":"village"},"geometry":{"type":"Point","coordinates":[-66.36564,9.13427]}},{"type":"Feature","id":"node/5667393861","properties":{"name":"San Antonio","place":"village"},"geometry":{"type":"Point","coordinates":[-66.35877,9.14882]}},{"type":"Feature","id":"node/5667393863","properties":{"name":"El Guayabo","place":"village"},"geometry":{"type":"Point","coordinates":[-66.32762,9.17703]}},{"type":"Feature","id":"node/5667393930","properties":{"name":"Costa de Paria","place":"village"},"geometry":{"type":"Point","coordinates":[-66.34212,9.20336]}},{"type":"Feature","id":"node/5667393931","properties":{"name":"El Caruto","place":"village"},"geometry":{"type":"Point","coordinates":[-66.35014,9.20035]}},{"type":"Feature","id":"node/5667393987","properties":{"name":"La Chacra","place":"village"},"geometry":{"type":"Point","coordinates":[-66.38162,9.15847]}},{"type":"Feature","id":"node/5667393988","properties":{"name":"La Cruz","place":"village"},"geometry":{"type":"Point","coordinates":[-66.40598,9.16938]}},{"type":"Feature","id":"node/5678661924","properties":{"name":"Rabanalito","place":"village"},"geometry":{"type":"Point","coordinates":[-66.82421,7.83118]}},{"type":"Feature","id":"node/5678661925","properties":{"name":"Ruperto","place":"village"},"geometry":{"type":"Point","coordinates":[-66.83857,7.83674]}},{"type":"Feature","id":"node/5678661929","properties":{"name":"Los Paujises","place":"village"},"geometry":{"type":"Point","coordinates":[-66.95099,7.85676]}},{"type":"Feature","id":"node/5678661930","properties":{"name":"Los Corozos","place":"village"},"geometry":{"type":"Point","coordinates":[-66.96676,7.86721]}},{"type":"Feature","id":"node/5678661931","properties":{"name":"Las Culebritas","place":"village"},"geometry":{"type":"Point","coordinates":[-66.97636,7.87118]}},{"type":"Feature","id":"node/5678662029","properties":{"name":"La Majada","place":"village"},"geometry":{"type":"Point","coordinates":[-66.93875,8.00676]}},{"type":"Feature","id":"node/5678662073","properties":{"name":"Boca de Arguaca","place":"village"},"geometry":{"type":"Point","coordinates":[-66.74709,7.75677]}},{"type":"Feature","id":"node/5679451615","properties":{"name":"Manzanares","place":"town"},"geometry":{"type":"Point","coordinates":[-66.99285,8.8166]}},{"type":"Feature","id":"node/5679451795","properties":{"name":"Torrealba","place":"village"},"geometry":{"type":"Point","coordinates":[-66.77311,9.34435]}},{"type":"Feature","id":"node/5692787995","properties":{"name":"Botal\u00f3n","place":"village"},"geometry":{"type":"Point","coordinates":[-66.8793,9.63274]}},{"type":"Feature","id":"node/5692787996","properties":{"name":"Gu\u00e1sima","place":"town"},"geometry":{"type":"Point","coordinates":[-66.86655,9.63289]}},{"type":"Feature","id":"node/5692788002","properties":{"name":"Guamachito","place":"village"},"geometry":{"type":"Point","coordinates":[-66.94562,9.56404]}},{"type":"Feature","id":"node/5692788278","properties":{"name":"La Danta","place":"village"},"geometry":{"type":"Point","coordinates":[-66.96055,9.54068]}},{"type":"Feature","id":"node/5693093152","properties":{"name":"San Jos\u00e9","place":"village"},"geometry":{"type":"Point","coordinates":[-66.52805,9.76636]}},{"type":"Feature","id":"node/5693093351","properties":{"name":"Carrizal","place":"village"},"geometry":{"type":"Point","coordinates":[-66.52593,9.74267]}},{"type":"Feature","id":"node/5750026137","properties":{"name":"Los Robles","place":"village"},"geometry":{"type":"Point","coordinates":[-67.29525,9.65374]}},{"type":"Feature","id":"node/5750026143","properties":{"name":"Uverito","place":"village"},"geometry":{"type":"Point","coordinates":[-67.32368,9.73738]}},{"type":"Feature","id":"node/5750026149","properties":{"name":"Juncalito","place":"village"},"geometry":{"type":"Point","coordinates":[-67.3593,9.79276]}},{"type":"Feature","id":"node/5750026150","properties":{"name":"Viboral","place":"village"},"geometry":{"type":"Point","coordinates":[-67.36778,9.79862]}},{"type":"Feature","id":"node/5750026151","properties":{"name":"Los Lucas","place":"village"},"geometry":{"type":"Point","coordinates":[-67.37571,9.80287]}},{"type":"Feature","id":"node/5750026876","properties":{"name":"El Rinc\u00f3n de San Antonio","place":"village"},"geometry":{"type":"Point","coordinates":[-67.46185,9.82355]}},{"type":"Feature","id":"node/5750026878","properties":{"name":"Urbanizacion El PortaL","place":"village"},"geometry":{"type":"Point","coordinates":[-67.38127,9.86194]}},{"type":"Feature","id":"node/5750026879","properties":{"name":"Cartancito","place":"village"},"geometry":{"type":"Point","coordinates":[-67.38552,9.85481]}},{"type":"Feature","id":"node/5750026914","properties":{"name":"Agua Hedionda","place":"village"},"geometry":{"type":"Point","coordinates":[-67.41589,9.78724]}},{"type":"Feature","id":"node/5750026917","properties":{"name":"Cantagallo","place":"town"},"geometry":{"type":"Point","coordinates":[-67.43385,9.78816]}},{"type":"Feature","id":"node/5750027349","properties":{"name":"Las Piedras","place":"village"},"geometry":{"type":"Point","coordinates":[-67.49303,9.80843]}},{"type":"Feature","id":"node/5750027351","properties":{"name":"La Galia","place":"village"},"geometry":{"type":"Point","coordinates":[-67.50286,9.79279]}},{"type":"Feature","id":"node/5750027352","properties":{"name":"Los Onotos","place":"village"},"geometry":{"type":"Point","coordinates":[-67.40004,9.88033]}},{"type":"Feature","id":"node/5750027381","properties":{"name":"Los Bagres","place":"village"},"geometry":{"type":"Point","coordinates":[-67.4043,9.86115]}},{"type":"Feature","id":"node/5750027777","properties":{"name":"Potrerito","place":"village"},"geometry":{"type":"Point","coordinates":[-67.42795,9.85913]}},{"type":"Feature","id":"node/5750028396","properties":{"name":"La Guamita","place":"village"},"geometry":{"type":"Point","coordinates":[-67.40818,9.87033]}},{"type":"Feature","id":"node/5750028399","properties":{"name":"El Castrero","place":"village"},"geometry":{"type":"Point","coordinates":[-67.44835,9.86653]}},{"type":"Feature","id":"node/5750028400","properties":{"name":"Las Callecitas","place":"village"},"geometry":{"type":"Point","coordinates":[-67.46299,9.86856]}},{"type":"Feature","id":"node/5750028401","properties":{"name":"Buenos Aires","place":"village"},"geometry":{"type":"Point","coordinates":[-67.47468,9.86056]}},{"type":"Feature","id":"node/5750028444","properties":{"name":"Quebrada Honda","place":"village"},"geometry":{"type":"Point","coordinates":[-67.41447,9.98281]}},{"type":"Feature","id":"node/5750028654","properties":{"name":"Chacao","place":"village"},"geometry":{"type":"Point","coordinates":[-67.42368,9.93971]}},{"type":"Feature","id":"node/5750028794","properties":{"name":"La Llanada","place":"village"},"geometry":{"type":"Point","coordinates":[-67.47324,9.89158]}},{"type":"Feature","id":"node/5750028795","properties":{"name":"Camburito","place":"village"},"geometry":{"type":"Point","coordinates":[-67.43902,9.89615]}},{"type":"Feature","id":"node/5751745318","properties":{"name":"El Hoyo","place":"village"},"geometry":{"type":"Point","coordinates":[-67.37439,9.8552]}},{"type":"Feature","id":"node/5753798359","properties":{"name":"La Colmena","place":"village"},"geometry":{"type":"Point","coordinates":[-67.21807,9.07818]}},{"type":"Feature","id":"node/5753798375","properties":{"name":"Los Chig\u00fcires","place":"town"},"geometry":{"type":"Point","coordinates":[-67.5169,9.2628]}},{"type":"Feature","id":"node/5753798390","properties":{"name":"Las Lajas","place":"town"},"geometry":{"type":"Point","coordinates":[-67.44041,9.19152]}},{"type":"Feature","id":"node/5758744090","properties":{"name":"San Jos\u00e9","place":"village"},"geometry":{"type":"Point","coordinates":[-67.3566,8.01555]}},{"type":"Feature","id":"node/5758744094","properties":{"name":"Ca\u00f1o del Diablo","place":"village"},"geometry":{"type":"Point","coordinates":[-67.41563,8.0713]}},{"type":"Feature","id":"node/5758744099","properties":{"name":"Guariquito","place":"village"},"geometry":{"type":"Point","coordinates":[-67.46005,8.11168]}},{"type":"Feature","id":"node/5758745259","properties":{"name":"Roblito","place":"village"},"geometry":{"type":"Point","coordinates":[-67.47835,8.09881]}},{"type":"Feature","id":"node/5758745261","properties":{"name":"Menudital","place":"village"},"geometry":{"type":"Point","coordinates":[-67.42895,8.16498]}},{"type":"Feature","id":"node/5758745276","properties":{"name":"Camoruco Espa\u00f1olero","place":"village"},"geometry":{"type":"Point","coordinates":[-67.21623,8.1363]}},{"type":"Feature","id":"node/5758745514","properties":{"name":"Guatarama","place":"village"},"geometry":{"type":"Point","coordinates":[-67.43196,8.18076]}},{"type":"Feature","id":"node/5758745517","properties":{"name":"Rumbero de Camagu\u00e1n","place":"village"},"geometry":{"type":"Point","coordinates":[-67.41877,8.202]}},{"type":"Feature","id":"node/5758745521","properties":{"name":"La Rompida","place":"village"},"geometry":{"type":"Point","coordinates":[-67.50476,8.20588]}},{"type":"Feature","id":"node/5758745575","properties":{"name":"Guasimito","place":"village"},"geometry":{"type":"Point","coordinates":[-67.17651,8.25564]}},{"type":"Feature","id":"node/5758745586","properties":{"name":"Perico","place":"village"},"geometry":{"type":"Point","coordinates":[-67.07762,8.09495]}},{"type":"Feature","id":"node/5758745651","properties":{"name":"Costa de Agua Verde","place":"village"},"geometry":{"type":"Point","coordinates":[-67.08166,7.90377]}},{"type":"Feature","id":"node/5758745737","properties":{"name":"La Lopera","place":"village"},"geometry":{"type":"Point","coordinates":[-67.16131,7.86203]}},{"type":"Feature","id":"node/5758746051","properties":{"name":"La Tigra","place":"village"},"geometry":{"type":"Point","coordinates":[-67.1806,7.83237]}},{"type":"Feature","id":"node/5758746053","properties":{"name":"El Gu\u00e1rico Adentro","place":"village"},"geometry":{"type":"Point","coordinates":[-67.36604,7.92164]}},{"type":"Feature","id":"node/5758746242","properties":{"name":"Camachero Este","place":"village"},"geometry":{"type":"Point","coordinates":[-67.17513,7.78247]}},{"type":"Feature","id":"node/5758746243","properties":{"name":"Camachero Oeste","place":"village"},"geometry":{"type":"Point","coordinates":[-67.19768,7.77728]}},{"type":"Feature","id":"node/5758746247","properties":{"name":"Mangas Coveras","place":"village"},"geometry":{"type":"Point","coordinates":[-67.07449,7.7818]}},{"type":"Feature","id":"node/5758746252","properties":{"name":"El Palito","place":"village"},"geometry":{"type":"Point","coordinates":[-67.12093,7.89726]}},{"type":"Feature","id":"node/5758746253","properties":{"name":"San Jos\u00e9","place":"village"},"geometry":{"type":"Point","coordinates":[-67.15345,7.95817]}},{"type":"Feature","id":"node/5758746261","properties":{"name":"Agua Verde","place":"village"},"geometry":{"type":"Point","coordinates":[-67.15279,7.9054]}},{"type":"Feature","id":"node/5758746269","properties":{"name":"Dividival","place":"village"},"geometry":{"type":"Point","coordinates":[-67.27326,7.92963]}},{"type":"Feature","id":"node/5758746273","properties":{"name":"La Concepci\u00f3n","place":"village"},"geometry":{"type":"Point","coordinates":[-67.31574,7.94372]}},{"type":"Feature","id":"node/5758746277","properties":{"name":"La Yagua","place":"village"},"geometry":{"type":"Point","coordinates":[-67.33596,7.94852]}},{"type":"Feature","id":"node/5758746280","properties":{"name":"Las Esperanza","place":"village"},"geometry":{"type":"Point","coordinates":[-67.41803,8.03437]}},{"type":"Feature","id":"node/5758746583","properties":{"name":"El Lajero","place":"village"},"geometry":{"type":"Point","coordinates":[-67.43437,7.99773]}},{"type":"Feature","id":"node/5758746592","properties":{"name":"La Carita","place":"village"},"geometry":{"type":"Point","coordinates":[-67.49419,7.97432]}},{"type":"Feature","id":"node/5758746593","properties":{"name":"Jarina","place":"village"},"geometry":{"type":"Point","coordinates":[-67.51785,7.94763]}},{"type":"Feature","id":"node/5758921485","properties":{"name":"El Perro","place":"town"},"geometry":{"type":"Point","coordinates":[-67.40171,8.87779]}},{"type":"Feature","id":"node/5758921525","properties":{"name":"Las Flores","place":"town"},"geometry":{"type":"Point","coordinates":[-67.36343,8.94087]}},{"type":"Feature","id":"node/5758921527","properties":{"name":"El Recreo","place":"village"},"geometry":{"type":"Point","coordinates":[-67.34023,8.86434]}},{"type":"Feature","id":"node/5758921528","properties":{"name":"Mocapra","place":"village"},"geometry":{"type":"Point","coordinates":[-67.27927,8.82299]}},{"type":"Feature","id":"node/5758921533","properties":{"name":"Las Lomitas ","place":"village"},"geometry":{"type":"Point","coordinates":[-67.32222,8.96677]}},{"type":"Feature","id":"node/5758921564","properties":{"name":"Venegas","place":"village"},"geometry":{"type":"Point","coordinates":[-67.04444,8.78456]}},{"type":"Feature","id":"node/5758921597","properties":{"name":"La Matica","place":"town"},"geometry":{"type":"Point","coordinates":[-67.39563,8.86423]}},{"type":"Feature","id":"node/5758921599","properties":{"name":"Los Patos","place":"town"},"geometry":{"type":"Point","coordinates":[-67.37434,8.83398]}},{"type":"Feature","id":"node/5758921604","properties":{"name":"Paso del Orituco","place":"town"},"geometry":{"type":"Point","coordinates":[-67.37803,8.81328]}},{"type":"Feature","id":"node/5758921607","properties":{"name":"Las Barbas","place":"village"},"geometry":{"type":"Point","coordinates":[-67.44007,8.75876]}},{"type":"Feature","id":"node/5758921659","properties":{"name":"Los Andreseros","place":"village"},"geometry":{"type":"Point","coordinates":[-67.45851,8.67423]}},{"type":"Feature","id":"node/5758921660","properties":{"name":"Los Lorenzos","place":"village"},"geometry":{"type":"Point","coordinates":[-67.39958,8.70462]}},{"type":"Feature","id":"node/5758921670","properties":{"name":"Herrera","place":"village"},"geometry":{"type":"Point","coordinates":[-67.21084,8.52721]}},{"type":"Feature","id":"node/5758921673","properties":{"name":"Rascamula","place":"town"},"geometry":{"type":"Point","coordinates":[-67.28868,8.65498]}},{"type":"Feature","id":"node/5758921679","properties":{"name":"Los Oripopos","place":"village"},"geometry":{"type":"Point","coordinates":[-67.51635,8.59193]}},{"type":"Feature","id":"node/5761709909","properties":{"name":"La Romere\u00f1a","place":"town"},"geometry":{"type":"Point","coordinates":[-67.62775,8.94861]}},{"type":"Feature","id":"node/5761709978","properties":{"name":"Monte Oscuro","place":"town"},"geometry":{"type":"Point","coordinates":[-67.70958,8.86243]}},{"type":"Feature","id":"node/5761710139","properties":{"name":"Los Caros","place":"town"},"geometry":{"type":"Point","coordinates":[-67.76007,8.83266]}},{"type":"Feature","id":"node/5761710240","properties":{"name":"El Socorro de Portuguesa","place":"town","population":"350"},"geometry":{"type":"Point","coordinates":[-67.97157,8.45644]}},{"type":"Feature","id":"node/5761710245","properties":{"name":"Santo Domingo","place":"village"},"geometry":{"type":"Point","coordinates":[-67.94605,8.39455]}},{"type":"Feature","id":"node/5761710300","properties":{"name":"La Madrina","place":"town"},"geometry":{"type":"Point","coordinates":[-67.63883,8.86574]}},{"type":"Feature","id":"node/5761710301","properties":{"name":"Uverito","place":"town"},"geometry":{"type":"Point","coordinates":[-67.60057,8.85034]}},{"type":"Feature","id":"node/5761710365","properties":{"name":"Los Bancos de San Pedro","place":"town"},"geometry":{"type":"Point","coordinates":[-67.53631,8.74981]}},{"type":"Feature","id":"node/5761710413","properties":{"name":"Corozo Pando","place":"town"},"geometry":{"type":"Point","coordinates":[-67.5872,8.51274]}},{"type":"Feature","id":"node/5761711171","properties":{"name":"La Muerta","place":"village"},"geometry":{"type":"Point","coordinates":[-67.88469,8.34631]}},{"type":"Feature","id":"node/5763505484","properties":{"name":"Banco Bonito","place":"village"},"geometry":{"type":"Point","coordinates":[-67.58619,9.52202]}},{"type":"Feature","id":"node/5763505511","properties":{"name":"Villanueva","place":"village"},"geometry":{"type":"Point","coordinates":[-67.93432,9.55131]}},{"type":"Feature","id":"node/5770476606","properties":{"name":"Terr\u00f3n Colorado","place":"village"},"geometry":{"type":"Point","coordinates":[-67.80306,9.85068]}},{"type":"Feature","id":"node/5770477691","properties":{"name":"El Gu\u00e1simo","place":"village"},"geometry":{"type":"Point","coordinates":[-67.74907,9.85639]}},{"type":"Feature","id":"node/5770477692","properties":{"name":"Santa B\u00e1rbara","place":"village"},"geometry":{"type":"Point","coordinates":[-67.72885,9.84439]}},{"type":"Feature","id":"node/5770477693","properties":{"name":"La Resbalosa","place":"village"},"geometry":{"type":"Point","coordinates":[-67.72673,9.77993]}},{"type":"Feature","id":"node/5770478290","properties":{"name":"Mocundo","place":"village"},"geometry":{"type":"Point","coordinates":[-67.75922,9.80129]}},{"type":"Feature","id":"node/5770479915","properties":{"name":"La Sabanota","place":"village"},"geometry":{"type":"Point","coordinates":[-67.76482,9.74181]}},{"type":"Feature","id":"node/5770479916","properties":{"name":"La Colonera","place":"village"},"geometry":{"type":"Point","coordinates":[-67.76392,9.73432]}},{"type":"Feature","id":"node/5770479937","properties":{"name":"Carutico","place":"village"},"geometry":{"type":"Point","coordinates":[-67.74641,9.73444]}},{"type":"Feature","id":"node/5770479944","properties":{"name":"La Uni\u00f3n de Canuto","place":"town"},"geometry":{"type":"Point","coordinates":[-67.69601,9.76559]}},{"type":"Feature","id":"node/5770479947","properties":{"name":"Las Camazas","place":"village"},"geometry":{"type":"Point","coordinates":[-67.65541,9.76104]}},{"type":"Feature","id":"node/5770479948","properties":{"name":"Las Majadas","place":"village"},"geometry":{"type":"Point","coordinates":[-67.67976,9.77623]}},{"type":"Feature","id":"node/5770480808","properties":{"name":"La Guamita","place":"village"},"geometry":{"type":"Point","coordinates":[-67.64789,9.80697]}},{"type":"Feature","id":"node/5770480809","properties":{"name":"La Cocinera","place":"village"},"geometry":{"type":"Point","coordinates":[-67.62499,9.76066]}},{"type":"Feature","id":"node/5770480810","properties":{"name":"Bersuga","place":"village"},"geometry":{"type":"Point","coordinates":[-67.63372,9.76382]}},{"type":"Feature","id":"node/5770481483","properties":{"name":"La Palma","place":"village"},"geometry":{"type":"Point","coordinates":[-67.5475,9.82396]}},{"type":"Feature","id":"node/5770481484","properties":{"name":"El N\u00edspero","place":"village"},"geometry":{"type":"Point","coordinates":[-67.56758,9.85696]}},{"type":"Feature","id":"node/5770481486","properties":{"name":"El Ch\u00efg\u00fcire","place":"village"},"geometry":{"type":"Point","coordinates":[-67.56697,9.84683]}},{"type":"Feature","id":"node/5770481529","properties":{"name":"Pueblo Nuevo","place":"village"},"geometry":{"type":"Point","coordinates":[-67.6113,9.76274]}},{"type":"Feature","id":"node/5770481531","properties":{"name":"Paradero","place":"village"},"geometry":{"type":"Point","coordinates":[-67.58174,9.76917]}},{"type":"Feature","id":"node/5770481532","properties":{"name":"Carrizales","place":"village"},"geometry":{"type":"Point","coordinates":[-67.56826,9.7703]}},{"type":"Feature","id":"node/5770481534","properties":{"name":"La Tarraya","place":"village"},"geometry":{"type":"Point","coordinates":[-67.5477,9.79709]}},{"type":"Feature","id":"node/5770481535","properties":{"name":"San Jos\u00e9 del Paso","place":"village"},"geometry":{"type":"Point","coordinates":[-67.523,9.79357]}},{"type":"Feature","id":"node/5770481536","properties":{"name":"El Guayabo","place":"village"},"geometry":{"type":"Point","coordinates":[-67.52944,9.78327]}},{"type":"Feature","id":"node/5770481538","properties":{"name":"La Musiuera","place":"village"},"geometry":{"type":"Point","coordinates":[-67.52859,9.7736]}},{"type":"Feature","id":"node/5773378447","properties":{"name":"Sabaneta","place":"village"},"geometry":{"type":"Point","coordinates":[-67.52078,9.94986]}},{"type":"Feature","id":"node/5773378448","properties":{"name":"Las Trincheras","place":"village"},"geometry":{"type":"Point","coordinates":[-67.52221,9.9314]}},{"type":"Feature","id":"node/8047544218","properties":{"name":"Onoto","place":"village"},"geometry":{"type":"Point","coordinates":[-66.41601,9.96096]}},{"type":"Feature","id":"node/8946447047","properties":{"name":"Buena Vista Sur","place":"village"},"geometry":{"type":"Point","coordinates":[-65.61563,9.19526]}},{"type":"Feature","id":"node/8946782081","properties":{"name":"Parcelamiento Santa Rosa","place":"village"},"geometry":{"type":"Point","coordinates":[-66.05534,9.29231]}},{"type":"Feature","id":"node/10143997501","properties":{"name":"Lecherito V","place":"town"},"geometry":{"type":"Point","coordinates":[-67.4579,8.84502]}},{"type":"Feature","id":"node/10167002392","properties":{"name":"Matafrailes","place":"town"},"geometry":{"type":"Point","coordinates":[-67.38082,9.22403]}},{"type":"Feature","id":"node/11116457071","properties":{"name":"El Fr\u00edo","place":"village"},"geometry":{"type":"Point","coordinates":[-67.50767,8.66559]}},{"type":"Feature","id":"node/13240102956","properties":{"name":"URB. DO\u00d1AEVA","place":"village"},"geometry":{"type":"Point","coordinates":[-67.3471,9.92597]}}]}