{"type":"FeatureCollection","features":[{"type":"Feature","properties":{"name":"Caraballeda / Los Corales","note":"Uno de los sectores m\u00e1s devastados por los flujos de la quebrada San Juli\u00e1n.","ref":"Tragedia de Vargas, dic. 1999 \u2014 referencia hist\u00f3rica (localidad afectada, no extensi\u00f3n topografiada)"},"geometry":{"type":"Point","coordinates":[-66.8497,10.6122]}},{"type":"Feature","properties":{"name":"Tanaguarena","note":"Sector residencial costero severamente afectado por aludes.","ref":"Tragedia de Vargas, dic. 1999 \u2014 referencia hist\u00f3rica (localidad afectada, no extensi\u00f3n topografiada)"},"geometry":{"type":"Point","coordinates":[-66.823,10.6135]}},{"type":"Feature","properties":{"name":"Carmen de Uria","note":"Comunidad pr\u00e1cticamente sepultada; una de las mayores p\u00e9rdidas humanas.","ref":"Tragedia de Vargas, dic. 1999 \u2014 referencia hist\u00f3rica (localidad afectada, no extensi\u00f3n topografiada)"},"geometry":{"type":"Point","coordinates":[-66.743,10.608]}},{"type":"Feature","properties":{"name":"Camur\u00ed Chico","note":"Flujos de detritos sobre la zona costera.","ref":"Tragedia de Vargas, dic. 1999 \u2014 referencia hist\u00f3rica (localidad afectada, no extensi\u00f3n topografiada)"},"geometry":{"type":"Point","coordinates":[-66.806,10.609]}},{"type":"Feature","properties":{"name":"Macuto","note":"Da\u00f1os extensos en el casco y frente costero.","ref":"Tragedia de Vargas, dic. 1999 \u2014 referencia hist\u00f3rica (localidad afectada, no extensi\u00f3n topografiada)"},"geometry":{"type":"Point","coordinates":[-66.887,10.602]}},{"type":"Feature","properties":{"name":"Naiguat\u00e1","note":"Desbordamiento de quebradas sobre el poblado.","ref":"Tragedia de Vargas, dic. 1999 \u2014 referencia hist\u00f3rica (localidad afectada, no extensi\u00f3n topografiada)"},"geometry":{"type":"Point","coordinates":[-66.729,10.616]}},{"type":"Feature","properties":{"name":"La Guaira (casco)","note":"Afectaci\u00f3n en el casco hist\u00f3rico y el puerto.","ref":"Tragedia de Vargas, dic. 1999 \u2014 referencia hist\u00f3rica (localidad afectada, no extensi\u00f3n topografiada)"},"geometry":{"type":"Point","coordinates":[-66.931,10.601]}},{"type":"Feature","properties":{"name":"Maiquet\u00eda","note":"Da\u00f1os pr\u00f3ximos al aeropuerto y zonas bajas.","ref":"Tragedia de Vargas, dic. 1999 \u2014 referencia hist\u00f3rica (localidad afectada, no extensi\u00f3n topografiada)"},"geometry":{"type":"Point","coordinates":[-66.962,10.599]}}]}