{"type":"FeatureCollection","features":[{"type":"Feature","properties":{"name":"Puerto de La Guaira","kind":"puerto","note":"Puerto de La Guaira \u2014 principal puerto de la regi\u00f3n central"},"geometry":{"type":"Point","coordinates":[-66.94895,10.59899]}},{"type":"Feature","properties":{"name":"Aeropuerto Internacional de Maiquet\u00eda Sim\u00f3n Bol\u00edvar","kind":"aeropuerto","note":"Aeropuerto Internacional Sim\u00f3n Bol\u00edvar (Maiquet\u00eda) \u2014 principal puerta a\u00e9rea del pa\u00eds"},"geometry":{"type":"Point","coordinates":[-66.9911,10.6018]}}]}