{"type":"FeatureCollection","features":[{"type":"Feature","properties":{"name":"Autopista Caracas - La Guaira","kind":"autopista"},"geometry":{"type":"LineString","coordinates":[[-66.93986,10.50962],[-66.9395,10.50886],[-66.93926,10.50823],[-66.93911,10.50749],[-66.93905,10.5071]]}},{"type":"Feature","properties":{"name":"Autopista Caracas - La Guaira","kind":"autopista"},"geometry":{"type":"LineString","coordinates":[[-66.93855,10.50735],[-66.9387,10.50774],[-66.93977,10.50973]]}},{"type":"Feature","properties":{"name":"Autopista Caracas - La Guaira","kind":"autopista"},"geometry":{"type":"LineString","coordinates":[[-66.93884,10.50735],[-66.93907,10.50831],[-66.93911,10.50847],[-66.93916,10.50865],[-66.93927,10.50895]]}},{"type":"Feature","properties":{"name":"Autopista Caracas - La Guaira","kind":"autopista"},"geometry":{"type":"LineString","coordinates":[[-66.93977,10.50973],[-66.9401,10.51032]]}},{"type":"Feature","properties":{"name":"Autopista Caracas - La Guaira","kind":"autopista"},"geometry":{"type":"LineString","coordinates":[[-66.94228,10.51462],[-66.94224,10.51444],[-66.94224,10.5144],[-66.94214,10.51402],[-66.94192,10.51337],[-66.94144,10.51227]]}},{"type":"Feature","properties":{"name":"Autopista Caracas - La Guaira","kind":"autopista"},"geometry":{"type":"LineString","coordinates":[[-66.94232,10.51494],[-66.94234,10.51481],[-66.94228,10.51462]]}},{"type":"Feature","properties":{"name":"Autopista Caracas - La Guaira","kind":"autopista"},"geometry":{"type":"LineString","coordinates":[[-66.94266,10.51626],[-66.94276,10.51657]]}},{"type":"Feature","properties":{"name":"Autopista Caracas - La Guaira","kind":"autopista"},"geometry":{"type":"LineString","coordinates":[[-66.94272,10.5162],[-66.94232,10.51494]]}},{"type":"Feature","properties":{"name":"Autopista Caracas - La Guaira","kind":"autopista"},"geometry":{"type":"LineString","coordinates":[[-66.9401,10.51032],[-66.94074,10.5115],[-66.94138,10.51269],[-66.94154,10.51304],[-66.9417,10.5134]]}},{"type":"Feature","properties":{"name":"Autopista Caracas - La Guaira","kind":"autopista"},"geometry":{"type":"LineString","coordinates":[[-66.93927,10.50895],[-66.94001,10.51052],[-66.94013,10.51074],[-66.94033,10.5111],[-66.94073,10.51177]]}},{"type":"Feature","properties":{"name":"Autopista Caracas - La Guaira","kind":"autopista"},"geometry":{"type":"LineString","coordinates":[[-66.94189,10.51433],[-66.9422,10.51523],[-66.94224,10.51535],[-66.94237,10.51578]]}},{"type":"Feature","properties":{"name":"Autopista Caracas - La Guaira","kind":"autopista"},"geometry":{"type":"LineString","coordinates":[[-66.94151,10.5133],[-66.94162,10.51357],[-66.94165,10.51365],[-66.94172,10.51385],[-66.94187,10.51426],[-66.94189,10.51433]]}},{"type":"Feature","properties":{"name":"Autopista Caracas - La Guaira","kind":"autopista"},"geometry":{"type":"LineString","coordinates":[[-66.9417,10.5134],[-66.94209,10.51456]]}},{"type":"Feature","properties":{"name":"Autopista Caracas - La Guaira","kind":"autopista"},"geometry":{"type":"LineString","coordinates":[[-66.94209,10.51456],[-66.94238,10.51541]]}},{"type":"Feature","properties":{"name":"Autopista Caracas - La Guaira","kind":"autopista"},"geometry":{"type":"LineString","coordinates":[[-66.94232,10.51494],[-66.94177,10.51329],[-66.94144,10.51258],[-66.94121,10.51217]]}},{"type":"Feature","properties":{"name":"Autopista Caracas - La Guaira","kind":"autopista"},"geometry":{"type":"LineString","coordinates":[[-66.94073,10.51177],[-66.9411,10.51247],[-66.94132,10.51288],[-66.94151,10.5133]]}},{"type":"Feature","properties":{"name":"Autopista Caracas - La Guaira","kind":"autopista"},"geometry":{"type":"LineString","coordinates":[[-66.94238,10.51541],[-66.94266,10.51626]]}},{"type":"Feature","properties":{"name":"Autopista Caracas - La Guaira","kind":"autopista"},"geometry":{"type":"LineString","coordinates":[[-66.94276,10.51657],[-66.94282,10.51675]]}},{"type":"Feature","properties":{"name":"Autopista Caracas - La Guaira","kind":"autopista"},"geometry":{"type":"LineString","coordinates":[[-66.94237,10.51578],[-66.94241,10.51592],[-66.94248,10.51607],[-66.94253,10.51614],[-66.94266,10.51626]]}},{"type":"Feature","properties":{"name":"Autopista Caracas - La Guaira","kind":"autopista"},"geometry":{"type":"LineString","coordinates":[[-66.94007,10.50966],[-66.93978,10.50909],[-66.93933,10.50813],[-66.93896,10.50733]]}},{"type":"Feature","properties":{"name":"Autopista Caracas - La Guaira","kind":"autopista"},"geometry":{"type":"LineString","coordinates":[[-66.93835,10.50695],[-66.93855,10.50735]]}},{"type":"Feature","properties":{"name":"Autopista Caracas - La Guaira","kind":"autopista"},"geometry":{"type":"LineString","coordinates":[[-66.93905,10.5071],[-66.93899,10.50668]]}},{"type":"Feature","properties":{"name":"Viaducto n.\u00b0 3","kind":"viaducto"},"geometry":{"type":"LineString","coordinates":[[-67.00496,10.55178],[-67.005,10.55178],[-67.00502,10.55378],[-67.00497,10.55378],[-67.00488,10.55378],[-67.00483,10.55378],[-67.00482,10.55178],[-67.00487,10.55178],[-67.00496,10.55178]]}},{"type":"Feature","properties":{"name":"Viaducto n.\u00b0 2","kind":"viaducto"},"geometry":{"type":"LineString","coordinates":[[-66.99814,10.54484],[-66.99816,10.54478],[-67.00057,10.54562],[-67.00055,10.54567],[-67.00052,10.54575],[-67.0005,10.54581],[-66.99809,10.54497],[-66.99811,10.54492],[-66.99814,10.54484]]}},{"type":"Feature","properties":{"name":"Viaducto n.\u00b0 1","kind":"viaducto"},"geometry":{"type":"LineString","coordinates":[[-66.96254,10.52355],[-66.96253,10.52357],[-66.9701,10.52537],[-66.97026,10.52541],[-66.97007,10.5255],[-66.97006,10.52554],[-66.96249,10.52374],[-66.9625,10.52369],[-66.96254,10.52355]]}},{"type":"Feature","properties":{"name":"Viaducto Nueva Rep\u00fablica","kind":"viaducto"},"geometry":{"type":"LineString","coordinates":[[-66.92021,10.50656],[-66.92066,10.50802],[-66.92065,10.50806],[-66.92055,10.50808],[-66.92044,10.50809],[-66.91999,10.50662],[-66.9201,10.50659],[-66.91992,10.50566],[-66.92021,10.50656]]}},{"type":"Feature","properties":{"name":"Autopista Caracas - La Guaira","kind":"autopista"},"geometry":{"type":"LineString","coordinates":[[-66.94144,10.51227],[-66.94108,10.51166],[-66.94102,10.51156],[-66.94007,10.50966]]}},{"type":"Feature","properties":{"name":"Autopista Caracas - La Guaira","kind":"autopista"},"geometry":{"type":"LineString","coordinates":[[-66.94121,10.51217],[-66.94101,10.51182],[-66.93986,10.50962]]}}]}