{"type":"FeatureCollection","features":[{"type":"Feature","id":"relation/3399075","properties":{"name":"Dependencias Federales","level":4},"geometry":{"type":"MultiPolygon","coordinates":[[[[-67.56893,11.97345],[-67.57254,11.99212],[-67.58372,12.01409],[-67.59744,12.02772],[-67.61485,12.03667],[-67.61444,12.05422],[-67.61815,12.07012],[-67.62995,12.09605],[-67.64353,12.11106],[-67.6667,12.12424],[-67.69168,12.1272],[-67.71548,12.12049],[-67.73457,12.10481],[-67.74397,12.0882],[-67.74747,12.06951],[-67.74587,12.05312],[-67.73973,12.03773],[-67.74074,12.0231],[-67.73603,12.00285],[-67.73631,11.97755],[-67.72612,11.95469],[-67.6997,11.92698],[-67.68302,11.91742],[-67.6554,11.9107],[-67.62598,11.91009],[-67.60882,11.91397],[-67.59199,11.92304],[-67.57884,11.93711],[-67.57102,11.95448],[-67.56893,11.97345]]],[[[-63.55478,15.65667],[-63.55968,15.68486],[-63.56958,15.70501],[-63.59258,15.73113],[-63.60428,15.73865],[-63.61745,15.74336],[-63.64297,15.74408],[-63.66512,15.7357],[-63.68798,15.7146],[-63.69905,15.69272],[-63.70008,15.66573],[-63.69091,15.64299],[-63.65686,15.60725],[-63.64526,15.59958],[-63.63216,15.59471],[-63.61684,15.59289],[-63.60291,15.59455],[-63.58975,15.59927],[-63.57666,15.60767],[-63.56698,15.61752],[-63.55991,15.62926],[-63.55581,15.64227],[-63.55478,15.65667]]],[[[-62.9808,11.41485],[-62.98461,11.43668],[-62.99455,11.45451],[-63.01055,11.46845],[-63.0297,11.476],[-63.04831,11.47709],[-63.06448,11.4737],[-63.07908,11.46604],[-63.09296,11.45292],[-63.14089,11.45704],[-63.16378,11.45252],[-63.17691,11.44504],[-63.18683,11.43558],[-63.19459,11.42367],[-63.19954,11.40979],[-63.2026,11.39137],[-63.20251,11.35723],[-63.19445,11.3279],[-63.18635,11.31368],[-63.17337,11.30095],[-63.15893,11.29302],[-63.1442,11.28946],[-63.12642,11.28949],[-63.09736,11.29527],[-63.08302,11.30009],[-63.07093,11.30788],[-63.05319,11.30774],[-63.03719,11.31181],[-63.01979,11.32273],[-63.00693,11.33895],[-63.00107,11.3542],[-62.99975,11.37102],[-62.98548,11.39153],[-62.9808,11.41485]]],[[[-63.57929,11.36573],[-63.60349,11.35926],[-63.62179,11.34495],[-63.6337,11.32393],[-63.63611,11.29921],[-63.62818,11.27583],[-63.61208,11.25766],[-63.59148,11.24745],[-63.56661,11.24541],[-63.54336,11.25281],[-63.52513,11.26835],[-63.51418,11.28958],[-63.51236,11.31297],[-63.51957,11.33487],[-63.53568,11.35318],[-63.55643,11.36374],[-63.57929,11.36573]]],[[[-65.48224,10.91712],[-65.47986,10.90107],[-65.47341,10.88674],[-65.46342,10.87468],[-65.44991,10.86531],[-65.43557,10.86024],[-65.39498,10.85411],[-65.35539,10.83784],[-65.33958,10.83509],[-65.32336,10.82849],[-65.30308,10.82516],[-65.24292,10.82923],[-65.21767,10.83818],[-65.19902,10.83849],[-65.17576,10.84518],[-65.16206,10.85428],[-65.1479,10.86973],[-65.14026,10.88569],[-65.13742,10.90345],[-65.13862,10.91836],[-65.14447,10.93744],[-65.15043,10.9497],[-65.15889,10.96008],[-65.16444,10.98147],[-65.17349,10.99511],[-65.19,11.00948],[-65.20245,11.01529],[-65.2173,11.01822],[-65.23409,11.01783],[-65.24853,11.01414],[-65.26963,11.02969],[-65.29151,11.03758],[-65.30921,11.04009],[-65.33579,11.03664],[-65.35703,11.04964],[-65.38338,11.05378],[-65.40026,11.05241],[-65.41691,11.04598],[-65.43423,11.03099],[-65.46522,11.01572],[-65.48675,10.99441],[-65.49578,10.97612],[-65.49802,10.95641],[-65.49403,10.93785],[-65.48224,10.91712]]],[[[-64.49731,11.86016],[-64.50615,11.88435],[-64.524,11.91499],[-64.53417,11.92611],[-64.55352,11.94041],[-64.57384,11.95199],[-64.60175,11.96068],[-64.62118,11.96318],[-64.63757,11.96083],[-64.65498,11.95261],[-64.66796,11.94043],[-64.67715,11.92499],[-64.68598,11.90177],[-64.69705,11.89015],[-64.70429,11.87701],[-64.7084,11.86123],[-64.70887,11.84763],[-64.70493,11.81873],[-64.69814,11.80239],[-64.68195,11.78345],[-64.65453,11.76671],[-64.63379,11.75929],[-64.61258,11.75833],[-64.5983,11.75338],[-64.57859,11.75084],[-64.55446,11.7544],[-64.53284,11.76527],[-64.52046,11.77609],[-64.5017,11.80161],[-64.49018,11.78541],[-64.48171,11.76229],[-64.46587,11.74477],[-64.46737,11.72951],[-64.46547,11.70183],[-64.4603,11.68703],[-64.45136,11.67414],[-64.43465,11.66116],[-64.41502,11.65486],[-64.39347,11.65557],[-64.37433,11.66319],[-64.3535,11.68123],[-64.3431,11.69561],[-64.33804,11.70971],[-64.33095,11.75026],[-64.33586,11.77414],[-64.34364,11.78699],[-64.35498,11.79812],[-64.37545,11.85208],[-64.3859,11.86473],[-64.40607,11.88045],[-64.4213,11.8877],[-64.43621,11.89056],[-64.455,11.88916],[-64.47258,11.88278],[-64.48619,11.87349],[-64.49731,11.86016]]],[[[-70.86829,12.45092],[-70.86008,12.46391],[-70.85587,12.47687],[-70.8548,12.49043],[-70.85707,12.5049],[-70.86287,12.5187],[-70.87175,12.53106],[-70.89606,12.55195],[-70.9208,12.56032],[-70.94898,12.55789],[-70.97181,12.54535],[-70.98698,12.52442],[-70.99083,12.51135],[-70.99139,12.4964],[-70.98816,12.48008],[-70.98174,12.46652],[-70.97304,12.45594],[-70.95101,12.43751],[-70.93868,12.43131],[-70.92469,12.42802],[-70.94369,12.41651],[-70.95672,12.40255],[-70.96504,12.38539],[-70.96807,12.36521],[-70.96593,12.34768],[-70.95817,12.33075],[-70.9445,12.31614],[-70.92821,12.30667],[-70.91491,12.30293],[-70.901,12.30213],[-70.8756,12.30814],[-70.82216,12.34066],[-70.80903,12.354],[-70.80151,12.36701],[-70.79742,12.38281],[-70.79768,12.39973],[-70.80224,12.41542],[-70.81014,12.4282],[-70.82182,12.43922],[-70.83505,12.4466],[-70.85282,12.451],[-70.86829,12.45092]]],[[[-67.54066,11.96745],[-67.53552,11.94239],[-67.52276,11.92247],[-67.51103,11.91296],[-67.49639,11.90644],[-67.47946,11.89115],[-67.45887,11.88346],[-67.43936,11.88153],[-67.40875,11.88492],[-67.38514,11.87669],[-67.36048,11.87868],[-67.34543,11.88548],[-67.3338,11.89509],[-67.32438,11.90851],[-67.31907,11.92396],[-67.31818,11.93889],[-67.32162,11.95485],[-67.3286,11.96814],[-67.33982,11.98013],[-67.35525,11.98914],[-67.37269,11.99321],[-67.3905,12.00497],[-67.40899,12.00992],[-67.43825,12.02852],[-67.45512,12.03453],[-67.49024,12.03564],[-67.50349,12.03176],[-67.51657,12.02415],[-67.52773,12.01303],[-67.53533,12.00008],[-67.53914,11.987],[-67.54066,11.96745]]],[[[-66.26342,11.81713],[-66.25983,11.79537],[-66.24657,11.77247],[-66.23552,11.76033],[-66.212,11.74325],[-66.17774,11.72372],[-66.16,11.7166],[-66.13646,11.71433],[-66.10771,11.71737],[-66.08963,11.72576],[-66.0745,11.73822],[-66.0618,11.75234],[-66.05025,11.76993],[-66.03971,11.79829],[-66.03723,11.81197],[-66.02685,11.83525],[-66.02246,11.8633],[-66.02583,11.88519],[-66.03104,11.89779],[-66.03906,11.90887],[-66.05376,11.92234],[-66.06548,11.92955],[-66.09094,11.93518],[-66.11953,11.92983],[-66.13343,11.9238],[-66.14504,11.9149],[-66.17157,11.87866],[-66.21157,11.87618],[-66.22865,11.87044],[-66.24047,11.86339],[-66.25704,11.84355],[-66.26179,11.83077],[-66.26342,11.81713]]],[[[-66.52048,11.78235],[-66.52421,11.80099],[-66.52385,11.82365],[-66.53231,11.84849],[-66.53361,11.86695],[-66.53729,11.88007],[-66.54737,11.89627],[-66.57215,11.91749],[-66.57913,11.92785],[-66.5714,11.94228],[-66.56812,11.95688],[-66.56855,11.97187],[-66.57333,11.98749],[-66.58511,12.00421],[-66.60937,12.02319],[-66.62268,12.03039],[-66.64001,12.03477],[-66.66088,12.03423],[-66.68492,12.02406],[-66.6992,12.02404],[-66.71263,12.02084],[-66.72971,12.01161],[-66.74216,11.9991],[-66.75893,11.99886],[-66.77692,11.99431],[-66.79014,11.98694],[-66.80162,11.97589],[-66.82043,11.9794],[-66.85361,11.97716],[-66.86663,11.97259],[-66.87908,11.96447],[-66.89811,11.9629],[-66.91141,11.95919],[-66.9329,11.94594],[-66.94963,11.94513],[-66.96532,11.93991],[-66.98094,11.92874],[-66.99262,11.91263],[-66.99791,11.89576],[-66.99816,11.87815],[-67.00797,11.86096],[-67.01229,11.84521],[-67.01234,11.82943],[-67.00873,11.81508],[-67.00045,11.79877],[-66.98765,11.78473],[-66.96387,11.76863],[-66.9401,11.76352],[-66.93008,11.75355],[-66.91466,11.74362],[-66.90786,11.72313],[-66.89372,11.70517],[-66.87026,11.68973],[-66.84905,11.68379],[-66.81119,11.68473],[-66.77521,11.69284],[-66.7476,11.7042],[-66.72663,11.71755],[-66.69533,11.70369],[-66.67066,11.69915],[-66.60293,11.70594],[-66.57154,11.71402],[-66.54991,11.7247],[-66.53509,11.73888],[-66.52341,11.76221],[-66.52048,11.78235]]],[[[-61.91748,10.59738],[-61.89893,10.58367],[-61.87389,10.57707],[-61.86722,10.57701],[-61.8625,10.58861],[-61.82695,10.58878],[-61.82204,10.59187],[-61.81072,10.60184],[-61.80283,10.61294],[-61.80291,10.66892],[-61.80595,10.67385],[-61.81505,10.68476],[-61.82264,10.68458],[-61.88069,10.65734],[-61.89134,10.64792],[-61.9019,10.63372],[-61.91748,10.59738]]],[[[-63.78475,11.15241],[-63.76138,11.1372],[-63.74649,11.13127],[-63.72876,11.12877],[-63.71243,11.1312],[-63.69741,11.13798],[-63.68384,11.14959],[-63.66168,11.1894],[-63.65937,11.20691],[-63.66297,11.22584],[-63.67468,11.24667],[-63.69115,11.26158],[-63.69268,11.27821],[-63.698,11.29222],[-63.71361,11.3112],[-63.73453,11.32201],[-63.74951,11.32431],[-63.76525,11.32264],[-63.77939,11.31725],[-63.79228,11.30796],[-63.80506,11.2903],[-63.80962,11.27603],[-63.81037,11.26099],[-63.81999,11.24862],[-63.8258,11.23495],[-63.8277,11.20858],[-63.78475,11.15241]]]]}}]}