{"type":"FeatureCollection","features":[{"type":"Feature","id":"relation/3473009","properties":{"name":"Archipi\u00e9lago Los Roques","level":6},"geometry":{"type":"Polygon","coordinates":[[[-66.52048,11.78235],[-66.52421,11.80099],[-66.52385,11.82365],[-66.53231,11.84849],[-66.53361,11.86695],[-66.53729,11.88007],[-66.54737,11.89627],[-66.57215,11.91749],[-66.57913,11.92785],[-66.5714,11.94228],[-66.56812,11.95688],[-66.56855,11.97187],[-66.57333,11.98749],[-66.58511,12.00421],[-66.60937,12.02319],[-66.62268,12.03039],[-66.64001,12.03477],[-66.66088,12.03423],[-66.68492,12.02406],[-66.6992,12.02404],[-66.71263,12.02084],[-66.72971,12.01161],[-66.74216,11.9991],[-66.75893,11.99886],[-66.77692,11.99431],[-66.79014,11.98694],[-66.80162,11.97589],[-66.82043,11.9794],[-66.85361,11.97716],[-66.86663,11.97259],[-66.87908,11.96447],[-66.89811,11.9629],[-66.91141,11.95919],[-66.9329,11.94594],[-66.94963,11.94513],[-66.96532,11.93991],[-66.98094,11.92874],[-66.99262,11.91263],[-66.99791,11.89576],[-66.99816,11.87815],[-67.00797,11.86096],[-67.01229,11.84521],[-67.01234,11.82943],[-67.00873,11.81508],[-67.00045,11.79877],[-66.98765,11.78473],[-66.96387,11.76863],[-66.9401,11.76352],[-66.93008,11.75355],[-66.91466,11.74362],[-66.90786,11.72313],[-66.89372,11.70517],[-66.87026,11.68973],[-66.84905,11.68379],[-66.81119,11.68473],[-66.77521,11.69284],[-66.7476,11.7042],[-66.72663,11.71755],[-66.69533,11.70369],[-66.67066,11.69915],[-66.60293,11.70594],[-66.57154,11.71402],[-66.54991,11.7247],[-66.53509,11.73888],[-66.52341,11.76221],[-66.52048,11.78235]]]}},{"type":"Feature","id":"relation/3473014","properties":{"name":"Archipi\u00e9lago Los Hermanos","level":6},"geometry":{"type":"Polygon","coordinates":[[[-64.5017,11.80161],[-64.49018,11.78541],[-64.48171,11.76229],[-64.46587,11.74477],[-64.46737,11.72951],[-64.46432,11.69718],[-64.45647,11.68058],[-64.44279,11.66631],[-64.4191,11.65558],[-64.39212,11.65587],[-64.37089,11.66548],[-64.34815,11.68748],[-64.33945,11.70444],[-64.33675,11.72403],[-64.33215,11.73769],[-64.33099,11.75299],[-64.3331,11.76643],[-64.34119,11.78369],[-64.35498,11.79812],[-64.37545,11.85208],[-64.3849,11.86378],[-64.40266,11.87811],[-64.42262,11.88812],[-64.44403,11.89061],[-64.46294,11.88677],[-64.48305,11.87616],[-64.49731,11.86016],[-64.5017,11.80161]]]}},{"type":"Feature","id":"relation/3473015","properties":{"name":"Isla Blanquilla","level":6},"geometry":{"type":"Polygon","coordinates":[[[-64.5017,11.80161],[-64.49836,11.86481],[-64.50615,11.88435],[-64.51953,11.90801],[-64.53417,11.92611],[-64.57131,11.95088],[-64.61289,11.96265],[-64.62671,11.9629],[-64.64152,11.95955],[-64.65498,11.95261],[-64.66622,11.94255],[-64.67657,11.92623],[-64.68598,11.90177],[-64.70206,11.88199],[-64.70878,11.85826],[-64.70338,11.8135],[-64.69588,11.79895],[-64.68301,11.78433],[-64.65826,11.76849],[-64.63915,11.76066],[-64.61258,11.75833],[-64.58687,11.75135],[-64.57306,11.75113],[-64.55054,11.75574],[-64.53057,11.76683],[-64.51947,11.77726],[-64.5017,11.80161]]]}},{"type":"Feature","id":"relation/3473017","properties":{"name":"Archipi\u00e9lago Los Frailes","level":6},"geometry":{"type":"MultiPolygon","coordinates":[[[[-63.75097,11.2741],[-63.75733,11.27143],[-63.75964,11.26484],[-63.75676,11.25849],[-63.7498,11.25601],[-63.74394,11.25913],[-63.742,11.26547],[-63.74496,11.27155],[-63.75097,11.2741]]],[[[-63.77738,11.21612],[-63.77,11.20459],[-63.76316,11.20279],[-63.75485,11.19304],[-63.74734,11.1916],[-63.73844,11.18223],[-63.73068,11.1791],[-63.72506,11.18015],[-63.72115,11.18428],[-63.72022,11.19129],[-63.72254,11.19772],[-63.71477,11.19805],[-63.71033,11.20436],[-63.7141,11.21489],[-63.7223,11.22146],[-63.7329,11.22293],[-63.73765,11.22078],[-63.74038,11.21603],[-63.74671,11.218],[-63.75092,11.22457],[-63.75154,11.23358],[-63.75813,11.23814],[-63.76449,11.23644],[-63.76761,11.22774],[-63.7747,11.2252],[-63.77738,11.21612]]]]}},{"type":"Feature","id":"relation/3473020","properties":{"name":"Isla de Patos","level":6},"geometry":{"type":"Polygon","coordinates":[[[-61.87983,10.64388],[-61.88226,10.63809],[-61.88077,10.6324],[-61.87141,10.6273],[-61.854,10.63142],[-61.84658,10.63944],[-61.84827,10.64604],[-61.85576,10.6515],[-61.87163,10.64825],[-61.87983,10.64388]]]}}]}