{"type":"FeatureCollection","features":[{"type":"Feature","id":"relation/2267150","properties":{"name":"Anzo\u00e1tegui","level":4},"geometry":{"type":"Polygon","coordinates":[[[-63.39899,8.99054],[-63.40234,8.99368],[-63.4073,8.99375],[-63.40887,8.99792],[-63.41558,8.99771],[-63.4211,9.00262],[-63.42604,9.00255],[-63.42834,9.00527],[-63.42708,9.01148],[-63.43052,9.01408],[-63.43337,9.01374],[-63.439,9.00464],[-63.44345,9.00461],[-63.45023,9.01361],[-63.4502,9.02313],[-63.45281,9.02609],[-63.45607,9.02399],[-63.45606,9.01968],[-63.45969,9.01798],[-63.4586,9.01226],[-63.46584,9.01644],[-63.46861,9.02441],[-63.4721,9.01703],[-63.4752,9.0179],[-63.47638,9.03251],[-63.48431,9.03589],[-63.49068,9.03422],[-63.48812,9.04397],[-63.48275,9.04444],[-63.48538,9.04707],[-63.48204,9.04802],[-63.48485,9.0579],[-63.49376,9.0603],[-63.49053,9.05639],[-63.50225,9.04879],[-63.51301,9.06506],[-63.50997,9.07237],[-63.51268,9.0726],[-63.51382,9.06986],[-63.51785,9.07524],[-63.51649,9.0702],[-63.52052,9.07056],[-63.52071,9.0669],[-63.52735,9.06871],[-63.52239,9.07611],[-63.52613,9.07468],[-63.53107,9.07881],[-63.53405,9.0768],[-63.53317,9.08237],[-63.54086,9.09222],[-63.54537,9.09285],[-63.5442,9.08805],[-63.54644,9.08556],[-63.54913,9.08865],[-63.55594,9.08833],[-63.55945,9.09488],[-63.56421,9.09189],[-63.56933,9.09508],[-63.56658,9.10405],[-63.57946,9.10755],[-63.58238,9.10421],[-63.58879,9.10504],[-63.58809,9.09973],[-63.59268,9.10399],[-63.59672,9.10087],[-63.59699,9.09756],[-63.60065,9.09817],[-63.59851,9.10106],[-63.60225,9.10204],[-63.60202,9.10524],[-63.60564,9.10683],[-63.60462,9.10952],[-63.60765,9.11034],[-63.60728,9.11505],[-63.61004,9.11607],[-63.60626,9.12255],[-63.60334,9.12013],[-63.60101,9.12198],[-63.60304,9.13382],[-63.60851,9.13419],[-63.60662,9.14017],[-63.60809,9.14472],[-63.62488,9.15449],[-63.63096,9.15097],[-63.63371,9.15186],[-63.63589,9.14898],[-63.64154,9.15746],[-63.64687,9.15679],[-63.65179,9.15934],[-63.65242,9.15361],[-63.65401,9.15722],[-63.6599,9.1605],[-63.6665,9.15844],[-63.66909,9.15482],[-63.67037,9.16129],[-63.67435,9.15767],[-63.67508,9.16075],[-63.68076,9.15762],[-63.6771,9.16074],[-63.67632,9.1651],[-63.67959,9.16811],[-63.68547,9.16335],[-63.68584,9.16725],[-63.6887,9.16791],[-63.68804,9.17108],[-63.69686,9.17733],[-63.69509,9.18378],[-63.70923,9.18854],[-63.71603,9.19895],[-63.72124,9.19841],[-63.72296,9.20045],[-63.73392,9.19642],[-63.74297,9.2001],[-63.7423,9.20503],[-63.75078,9.21857],[-63.75746,9.22447],[-63.76478,9.22231],[-63.77073,9.22858],[-63.77504,9.22855],[-63.79184,9.22342],[-63.79781,9.22448],[-63.80664,9.21766],[-63.81993,9.2205],[-63.82749,9.22965],[-63.83777,9.22851],[-63.86119,9.2153],[-63.86831,9.21508],[-63.87277,9.20927],[-63.8862,9.20798],[-63.89043,9.20547],[-63.89071,9.20183],[-63.90219,9.20045],[-63.90611,9.19592],[-63.91189,9.19686],[-63.91548,9.20073],[-63.91513,9.22367],[-63.91161,9.24126],[-63.91728,9.25195],[-63.91946,9.2625],[-63.92228,9.26324],[-63.92757,9.27343],[-63.93504,9.28098],[-63.93946,9.28132],[-63.93883,9.28681],[-63.94428,9.29449],[-63.95495,9.2983],[-63.96246,9.31185],[-63.96116,9.31992],[-63.96419,9.32175],[-63.96695,9.33333],[-63.97174,9.33769],[-63.9789,9.33858],[-63.98197,9.34349],[-63.98993,9.34877],[-63.99158,9.35167],[-63.98885,9.35375],[-63.99949,9.35874],[-63.99972,9.36151],[-64.00227,9.36068],[-64.00759,9.36755],[-64.00792,9.38627],[-64.0185,9.40401],[-64.01186,9.41883],[-64.00202,9.42771],[-64.00821,9.43878],[-64.01165,9.44025],[-64.01229,9.44855],[-63.99526,9.45491],[-63.9983,9.46511],[-63.99376,9.4652],[-63.98744,9.45812],[-63.98411,9.45777],[-63.98587,9.47056],[-63.98359,9.47742],[-63.97974,9.47938],[-63.97338,9.47535],[-63.96307,9.47403],[-63.96654,9.49141],[-63.95387,9.49691],[-63.95039,9.49649],[-63.94439,9.48813],[-63.94075,9.48859],[-63.93302,9.49928],[-63.93252,9.5097],[-63.93015,9.51325],[-63.92487,9.51201],[-63.91596,9.50233],[-63.91205,9.50562],[-63.90764,9.51953],[-63.90435,9.52154],[-63.8995,9.51989],[-63.89256,9.52749],[-63.88455,9.52614],[-63.86964,9.52927],[-63.86931,9.523],[-63.86229,9.5188],[-63.85982,9.52723],[-63.86631,9.53827],[-63.86423,9.54389],[-63.84839,9.5274],[-63.83799,9.53472],[-63.83153,9.53451],[-63.83114,9.54388],[-63.82249,9.54261],[-63.82655,9.54773],[-63.82739,9.55729],[-63.83323,9.5591],[-63.84277,9.55517],[-63.84803,9.56268],[-63.849,9.56903],[-63.85119,9.56745],[-63.8515,9.56973],[-63.86256,9.57394],[-63.86779,9.57989],[-63.86601,9.60096],[-63.86776,9.60934],[-63.8918,9.6269],[-63.89676,9.62523],[-63.89644,9.62837],[-63.91659,9.63011],[-63.92129,9.68606],[-63.91898,9.69536],[-63.92394,9.69793],[-63.92335,9.69992],[-63.93184,9.7005],[-63.9328,9.70345],[-63.93965,9.70301],[-63.94153,9.70574],[-63.94484,9.70256],[-63.94437,9.70665],[-63.94796,9.70633],[-63.94873,9.71119],[-63.9518,9.71235],[-63.95326,9.71905],[-63.95086,9.72236],[-63.95348,9.7262],[-63.95413,9.73488],[-63.95863,9.73608],[-63.96177,9.74578],[-63.95781,9.75554],[-63.96121,9.76042],[-63.96165,9.77161],[-63.95637,9.7803],[-63.95112,9.78232],[-63.95119,9.78713],[-63.94631,9.78933],[-63.94512,9.80094],[-63.95034,9.8074],[-63.95293,9.82033],[-63.95662,9.82247],[-63.96682,9.83783],[-63.97257,9.84363],[-63.97727,9.84329],[-63.98399,9.84792],[-63.98816,9.85492],[-63.99405,9.8567],[-63.98721,9.86708],[-63.99459,9.8757],[-63.99763,9.88828],[-63.98682,9.89197],[-63.97708,9.89901],[-63.97897,9.90509],[-63.98704,9.90701],[-63.98767,9.91164],[-63.98523,9.91618],[-63.98756,9.91598],[-63.99028,9.92039],[-63.98896,9.93168],[-63.98349,9.93456],[-63.9842,9.93797],[-63.98832,9.93841],[-63.99429,9.95032],[-63.99869,9.95106],[-64.00383,9.96114],[-64.00495,9.96966],[-64.00198,9.97417],[-64.00451,9.98879],[-64.00339,9.99124],[-63.99694,9.99003],[-63.99429,9.99479],[-63.9863,9.99422],[-63.97868,9.99789],[-63.97421,9.99677],[-63.96412,10.00469],[-63.95583,10.00548],[-63.95467,10.00814],[-63.96164,10.02273],[-63.97022,10.02085],[-63.97571,10.02768],[-63.97633,10.0389],[-63.97928,10.04617],[-63.97627,10.05041],[-63.9545,10.05643],[-63.95452,10.06169],[-63.95921,10.06562],[-63.95657,10.07502],[-63.96227,10.08933],[-63.9589,10.09673],[-63.96198,10.10673],[-63.98024,10.10903],[-63.98743,10.11375],[-63.99951,10.10948],[-64.0125,10.11006],[-64.01364,10.11641],[-64.01687,10.11894],[-64.04114,10.11895],[-64.0481,10.11487],[-64.05233,10.09864],[-64.0714,10.09546],[-64.07889,10.09564],[-64.08344,10.09889],[-64.09997,10.09041],[-64.10506,10.0909],[-64.11255,10.08644],[-64.1299,10.0847],[-64.15931,10.0768],[-64.19031,10.06372],[-64.20271,10.06119],[-64.21964,10.06625],[-64.2296,10.06253],[-64.24687,10.06335],[-64.26016,10.06061],[-64.26763,10.06385],[-64.27352,10.06183],[-64.27363,10.07904],[-64.28334,10.0883],[-64.28457,10.09398],[-64.29079,10.09559],[-64.30988,10.0957],[-64.31891,10.09348],[-64.33028,10.08367],[-64.34281,10.07999],[-64.34764,10.08011],[-64.35269,10.08631],[-64.36607,10.08477],[-64.3656,10.09601],[-64.38594,10.0972],[-64.38483,10.11491],[-64.38814,10.1161],[-64.39079,10.11364],[-64.39754,10.11351],[-64.39737,10.11807],[-64.40057,10.12123],[-64.40099,10.13461],[-64.41923,10.1383],[-64.44443,10.12676],[-64.44331,10.18985],[-64.45634,10.1933],[-64.472,10.19168],[-64.48484,10.19389],[-64.48743,10.19864],[-64.49329,10.20102],[-64.49281,10.20781],[-64.4989,10.21192],[-64.49822,10.21603],[-64.50998,10.22006],[-64.50785,10.22326],[-64.51056,10.22517],[-64.51165,10.23797],[-64.51591,10.23949],[-64.51953,10.2477],[-64.53159,10.25218],[-64.53159,10.26046],[-64.51777,10.27597],[-64.51837,10.3043],[-64.56518,10.36898],[-64.58287,10.36532],[-64.60376,10.3554],[-64.62744,10.36402],[-64.6978,10.3631],[-64.71698,10.37102],[-64.74303,10.374],[-64.78005,10.36759],[-64.80222,10.35423],[-64.81304,10.34019],[-64.81915,10.3236],[-64.82128,10.29261],[-64.81916,10.2758],[-64.82316,10.26228],[-64.82381,10.24869],[-64.81836,10.22713],[-64.80731,10.20997],[-64.79049,10.19717],[-64.77092,10.1911],[-64.76784,10.18198],[-64.77163,10.16311],[-64.7866,10.15328],[-64.81579,10.14621],[-64.83225,10.15661],[-64.85146,10.16114],[-64.865,10.18685],[-64.88822,10.20647],[-64.91512,10.22062],[-64.93734,10.22857],[-64.97419,10.23315],[-64.99063,10.23218],[-65.00738,10.22612],[-65.02154,10.21539],[-65.0312,10.20218],[-65.03682,10.18685],[-65.03851,10.17059],[-65.03539,10.14922],[-65.02779,10.13045],[-65.07404,10.12088],[-65.10511,10.12764],[-65.16169,10.14807],[-65.20434,10.15945],[-65.23545,10.16489],[-65.2507,10.16504],[-65.33913,10.18037],[-65.4209,10.19854],[-65.43092,10.13297],[-65.43455,10.12297],[-65.44141,10.12199],[-65.43904,10.11747],[-65.44092,10.11611],[-65.44642,10.11564],[-65.44842,10.11931],[-65.45573,10.10611],[-65.45627,10.09429],[-65.46559,10.09053],[-65.46882,10.09186],[-65.47551,10.08523],[-65.48005,10.08624],[-65.49171,10.08101],[-65.4929,10.07802],[-65.4864,10.07481],[-65.49089,10.07394],[-65.48898,10.06814],[-65.49692,10.07276],[-65.49504,10.06319],[-65.49965,10.06884],[-65.50056,10.06544],[-65.50235,10.06721],[-65.50431,10.06484],[-65.50487,10.06708],[-65.50979,10.06469],[-65.50656,10.06219],[-65.50974,10.05884],[-65.51823,10.05543],[-65.52203,10.05717],[-65.52269,10.05291],[-65.52897,10.05376],[-65.53251,10.04697],[-65.53119,10.04454],[-65.5367,10.04174],[-65.53465,10.04082],[-65.53512,10.0369],[-65.53878,10.03703],[-65.53758,10.03292],[-65.54183,10.03243],[-65.53947,10.03061],[-65.54225,10.02992],[-65.54048,10.02769],[-65.54254,10.02403],[-65.54117,10.02052],[-65.54512,10.01909],[-65.54664,10.02107],[-65.54668,10.01788],[-65.54879,10.01888],[-65.55164,10.01486],[-65.55293,10.01592],[-65.55443,10.01076],[-65.55125,10.00958],[-65.55308,10.0026],[-65.56226,10.00461],[-65.56198,10.00732],[-65.56599,10.00772],[-65.56973,10.00501],[-65.57953,10.00819],[-65.58249,10.00605],[-65.58469,10.00846],[-65.59548,10.00187],[-65.60368,10.00175],[-65.60488,9.9941],[-65.59956,9.99057],[-65.60237,9.9882],[-65.60096,9.98469],[-65.60469,9.97414],[-65.60913,9.97013],[-65.61593,9.97113],[-65.62855,9.9672],[-65.62874,9.95656],[-65.6378,9.94951],[-65.66773,9.95403],[-65.66957,9.96758],[-65.67655,9.97191],[-65.67608,9.97816],[-65.6926,9.97988],[-65.7083,9.97604],[-65.71597,9.96517],[-65.71614,9.96173],[-65.74618,9.9576],[-65.7447,9.94854],[-65.7482,9.94688],[-65.74604,9.9416],[-65.7481,9.9396],[-65.74592,9.93794],[-65.75103,9.93344],[-65.74949,9.92877],[-65.74451,9.92748],[-65.74159,9.92225],[-65.7368,9.92144],[-65.73079,9.91561],[-65.71768,9.91307],[-65.71821,9.90283],[-65.72313,9.90209],[-65.72187,9.87558],[-65.71567,9.86406],[-65.70514,9.85819],[-65.70689,9.85393],[-65.70409,9.8424],[-65.71239,9.84017],[-65.71304,9.838],[-65.70063,9.8236],[-65.70469,9.81634],[-65.69852,9.80531],[-65.69577,9.79225],[-65.6784,9.79496],[-65.67595,9.7907],[-65.67955,9.78659],[-65.67622,9.78497],[-65.67644,9.78057],[-65.67102,9.77321],[-65.66849,9.77577],[-65.66419,9.77282],[-65.66512,9.77098],[-65.6614,9.7694],[-65.65756,9.75905],[-65.65829,9.72029],[-65.66249,9.71493],[-65.66689,9.71422],[-65.67049,9.70652],[-65.6758,9.70431],[-65.67665,9.70764],[-65.67947,9.70623],[-65.67995,9.70054],[-65.68846,9.69516],[-65.69081,9.69033],[-65.67559,9.67842],[-65.68082,9.67322],[-65.67805,9.6672],[-65.65326,9.64691],[-65.64872,9.62478],[-65.65091,9.62194],[-65.64391,9.61622],[-65.64719,9.61275],[-65.64786,9.60279],[-65.6385,9.5973],[-65.62877,9.59612],[-65.62663,9.59226],[-65.61473,9.59463],[-65.60306,9.58774],[-65.60735,9.58422],[-65.60246,9.57305],[-65.59484,9.56782],[-65.5929,9.57451],[-65.57688,9.57735],[-65.55293,9.55985],[-65.54656,9.55866],[-65.54693,9.55548],[-65.54392,9.55437],[-65.53532,9.56196],[-65.53396,9.56943],[-65.52608,9.57247],[-65.5112,9.56695],[-65.50735,9.55927],[-65.49679,9.55764],[-65.49359,9.55925],[-65.49148,9.5647],[-65.49351,9.56567],[-65.4925,9.5777],[-65.47676,9.60667],[-65.46899,9.60485],[-65.45308,9.61984],[-65.44672,9.61332],[-65.44732,9.60667],[-65.44114,9.6046],[-65.44045,9.5881],[-65.40109,9.57664],[-65.40061,9.57981],[-65.398,9.57993],[-65.38788,9.57543],[-65.38962,9.5688],[-65.3632,9.55223],[-65.36084,9.55552],[-65.35657,9.55593],[-65.34971,9.54918],[-65.34471,9.54927],[-65.33878,9.53982],[-65.33507,9.53996],[-65.33355,9.53414],[-65.32449,9.53287],[-65.32055,9.52911],[-65.32042,9.52422],[-65.31658,9.52211],[-65.31593,9.51863],[-65.31407,9.52036],[-65.30962,9.51384],[-65.30557,9.5159],[-65.29507,9.51151],[-65.29324,9.51472],[-65.28943,9.51371],[-65.28575,9.51571],[-65.27644,9.51423],[-65.27115,9.51693],[-65.26353,9.51275],[-65.26242,9.51484],[-65.2576,9.51522],[-65.25043,9.5108],[-65.24565,9.51225],[-65.24278,9.50525],[-65.23957,9.50319],[-65.23901,9.49765],[-65.23777,9.49979],[-65.23512,9.49855],[-65.23517,9.50044],[-65.23169,9.49888],[-65.22867,9.50162],[-65.22821,9.49995],[-65.22799,9.50212],[-65.2219,9.50003],[-65.2207,9.48967],[-65.21477,9.48934],[-65.21283,9.48377],[-65.21269,9.46983],[-65.20827,9.46939],[-65.20385,9.47641],[-65.20114,9.47445],[-65.20225,9.47007],[-65.21095,9.46697],[-65.20378,9.46416],[-65.21017,9.4633],[-65.21155,9.4603],[-65.20236,9.4576],[-65.20471,9.44966],[-65.20082,9.43766],[-65.20351,9.43656],[-65.20856,9.4409],[-65.21338,9.43866],[-65.21443,9.43545],[-65.2102,9.43701],[-65.20773,9.43394],[-65.21262,9.42556],[-65.224,9.42911],[-65.23065,9.4162],[-65.23753,9.41477],[-65.2375,9.41116],[-65.23257,9.40854],[-65.23011,9.4026],[-65.23534,9.40315],[-65.23949,9.39653],[-65.24488,9.40222],[-65.25304,9.40055],[-65.24755,9.39421],[-65.24821,9.38944],[-65.2594,9.3947],[-65.26611,9.39059],[-65.273,9.37867],[-65.28439,9.38307],[-65.28637,9.38137],[-65.28587,9.37467],[-65.28999,9.37145],[-65.29861,9.37739],[-65.30321,9.37253],[-65.30839,9.37194],[-65.30811,9.36742],[-65.30118,9.36922],[-65.29547,9.36678],[-65.29309,9.35837],[-65.2871,9.35412],[-65.28721,9.35088],[-65.29058,9.34919],[-65.30227,9.35389],[-65.31424,9.34666],[-65.31236,9.34224],[-65.30089,9.34257],[-65.29475,9.33891],[-65.29398,9.33608],[-65.2969,9.33399],[-65.2951,9.33116],[-65.29184,9.33041],[-65.28797,9.33375],[-65.28907,9.33121],[-65.28653,9.32869],[-65.28515,9.33281],[-65.28376,9.32781],[-65.27855,9.32829],[-65.28028,9.32595],[-65.27902,9.3203],[-65.27651,9.31897],[-65.27706,9.31052],[-65.27066,9.30822],[-65.27574,9.3066],[-65.2747,9.30377],[-65.26837,9.30417],[-65.26639,9.3018],[-65.26742,9.29535],[-65.26175,9.29504],[-65.26884,9.29226],[-65.26803,9.28459],[-65.27064,9.28363],[-65.26963,9.27682],[-65.26538,9.27625],[-65.2628,9.27218],[-65.26488,9.27015],[-65.26374,9.2672],[-65.2611,9.2693],[-65.25922,9.26601],[-65.25484,9.26476],[-65.25733,9.25983],[-65.24904,9.26538],[-65.24669,9.26065],[-65.24226,9.26462],[-65.23835,9.2617],[-65.24052,9.25792],[-65.23425,9.25138],[-65.24009,9.24899],[-65.24097,9.24616],[-65.23978,9.24452],[-65.2351,9.24562],[-65.23385,9.24338],[-65.23795,9.24325],[-65.23545,9.24018],[-65.23749,9.23332],[-65.23455,9.23269],[-65.23413,9.2379],[-65.23114,9.23746],[-65.23009,9.23026],[-65.22668,9.23562],[-65.21801,9.23525],[-65.21793,9.23183],[-65.22086,9.2333],[-65.22356,9.23135],[-65.21936,9.23048],[-65.22176,9.2252],[-65.2181,9.22847],[-65.21528,9.22793],[-65.21271,9.22434],[-65.21642,9.22346],[-65.21736,9.22636],[-65.21826,9.2238],[-65.211,9.21948],[-65.21028,9.21555],[-65.20069,9.21085],[-65.20288,9.207],[-65.20554,9.20965],[-65.2042,9.20353],[-65.20807,9.20262],[-65.20387,9.19349],[-65.20188,9.19596],[-65.19831,9.19287],[-65.19913,9.1853],[-65.19485,9.18758],[-65.192,9.18478],[-65.19302,9.18289],[-65.18998,9.1796],[-65.19111,9.17519],[-65.1872,9.17925],[-65.18853,9.17125],[-65.1808,9.17214],[-65.17893,9.1679],[-65.17567,9.17001],[-65.17552,9.16594],[-65.17287,9.16474],[-65.17222,9.167],[-65.16145,9.1698],[-65.1624,9.16589],[-65.15492,9.16377],[-65.15505,9.16778],[-65.15054,9.1671],[-65.14822,9.17223],[-65.144,9.1736],[-65.13982,9.17067],[-65.13657,9.17197],[-65.13598,9.16815],[-65.13063,9.17106],[-65.12599,9.16567],[-65.12599,9.16894],[-65.12055,9.16691],[-65.1171,9.17093],[-65.11532,9.16607],[-65.10948,9.16615],[-65.10787,9.17062],[-65.10085,9.17027],[-65.10255,9.17352],[-65.09906,9.16951],[-65.09782,9.17356],[-65.09043,9.17054],[-65.08599,9.17194],[-65.08506,9.16593],[-65.08229,9.16751],[-65.08524,9.16303],[-65.08106,9.1626],[-65.07912,9.15956],[-65.07468,9.16066],[-65.07767,9.15367],[-65.07402,9.15639],[-65.07115,9.15563],[-65.06752,9.14799],[-65.06371,9.14995],[-65.0616,9.14811],[-65.06303,9.14458],[-65.05879,9.14185],[-65.05717,9.14468],[-65.05438,9.14021],[-65.04609,9.13683],[-65.04534,9.13415],[-65.04478,9.13721],[-65.04151,9.13451],[-65.03021,9.13629],[-65.02841,9.12964],[-65.02373,9.13069],[-65.02419,9.12354],[-65.02179,9.12037],[-65.01621,9.11951],[-65.01512,9.12245],[-65.01114,9.12329],[-65.01308,9.11931],[-65.0059,9.11476],[-65.00119,9.11459],[-65.00194,9.11961],[-64.99983,9.11636],[-64.99596,9.11898],[-64.99484,9.11401],[-64.98587,9.11638],[-64.9852,9.11209],[-64.98016,9.11],[-64.98024,9.10585],[-64.97659,9.1078],[-64.97635,9.10443],[-64.98063,9.10295],[-64.97836,9.1015],[-64.97573,9.10317],[-64.97718,9.09915],[-64.9709,9.0987],[-64.96745,9.09211],[-64.96968,9.08648],[-64.95967,9.05758],[-64.9466,9.05963],[-64.94518,9.05634],[-64.94918,9.05538],[-64.94614,9.05334],[-64.94747,9.04638],[-64.94508,9.04498],[-64.94308,9.04666],[-64.94144,9.04461],[-64.94987,9.03822],[-64.94699,9.03321],[-64.9519,9.0227],[-64.95754,9.02154],[-64.95887,9.01062],[-64.95088,9.01014],[-64.94973,9.00601],[-64.94734,9.01124],[-64.9431,9.01119],[-64.94602,9.00597],[-64.94243,9.00332],[-64.93973,9.0055],[-64.94145,8.99925],[-64.9346,8.99373],[-64.93523,8.98902],[-64.92812,8.98785],[-64.92661,8.98471],[-64.92495,8.98735],[-64.921,8.98438],[-64.91942,8.98765],[-64.91765,8.98542],[-64.911,8.98555],[-64.90967,8.98274],[-64.90745,8.98389],[-64.9091,8.98619],[-64.90706,8.98646],[-64.90378,8.97861],[-64.89909,8.97947],[-64.90108,8.97581],[-64.89629,8.97344],[-64.89632,8.97099],[-64.88955,8.9731],[-64.89165,8.97],[-64.88723,8.96803],[-64.88893,8.96508],[-64.88707,8.96148],[-64.88366,8.9616],[-64.88552,8.9564],[-64.87592,8.95001],[-64.87831,8.94697],[-64.87406,8.93838],[-64.87025,8.93887],[-64.86796,8.93565],[-64.86752,8.93866],[-64.86549,8.93701],[-64.86432,8.93981],[-64.86102,8.93997],[-64.8582,8.93722],[-64.85954,8.93503],[-64.85508,8.93455],[-64.85719,8.93281],[-64.85339,8.93525],[-64.85193,8.93053],[-64.84652,8.9295],[-64.84767,8.92607],[-64.84142,8.92483],[-64.83979,8.9211],[-64.83207,8.92085],[-64.83255,8.91744],[-64.8281,8.91652],[-64.82899,8.91422],[-64.82038,8.91409],[-64.81714,8.90841],[-64.81225,8.90806],[-64.80894,8.9032],[-64.80993,8.90035],[-64.80498,8.89894],[-64.80434,8.89631],[-64.79925,8.89623],[-64.79308,8.87965],[-64.78847,8.87675],[-64.78475,8.87812],[-64.7849,8.87605],[-64.77743,8.87317],[-64.77711,8.86737],[-64.78081,8.8649],[-64.78124,8.85876],[-64.77803,8.85481],[-64.7795,8.85113],[-64.77704,8.84724],[-64.77343,8.84635],[-64.77593,8.84192],[-64.77352,8.83973],[-64.77771,8.82554],[-64.78428,8.81995],[-64.78117,8.81269],[-64.82142,8.74587],[-64.8477,8.69502],[-64.85578,8.69636],[-64.87246,8.70404],[-64.87473,8.70991],[-64.89648,8.71441],[-64.89687,8.71834],[-64.90527,8.72427],[-64.906,8.73088],[-64.91184,8.73304],[-64.9109,8.74038],[-64.91844,8.7464],[-64.92178,8.74476],[-64.92689,8.74696],[-64.93278,8.74254],[-64.94045,8.74186],[-64.94291,8.74425],[-64.95518,8.74336],[-64.95855,8.74919],[-64.96224,8.74837],[-64.96379,8.75052],[-64.96536,8.74831],[-64.96727,8.75155],[-64.97413,8.74663],[-64.98291,8.75105],[-64.99814,8.74487],[-64.99906,8.74697],[-65.00081,8.74493],[-65.00939,8.74571],[-65.01148,8.74063],[-65.01707,8.74288],[-65.01995,8.73813],[-65.02792,8.74333],[-65.03296,8.74028],[-65.03533,8.74371],[-65.03927,8.74478],[-65.0412,8.7428],[-65.04222,8.74616],[-65.04735,8.74447],[-65.04706,8.74652],[-65.05211,8.74586],[-65.05716,8.74986],[-65.05638,8.75321],[-65.0615,8.75427],[-65.05959,8.75749],[-65.06391,8.75891],[-65.06365,8.76123],[-65.06823,8.75775],[-65.07311,8.76099],[-65.07486,8.7582],[-65.0774,8.75903],[-65.07671,8.76175],[-65.0794,8.76495],[-65.08603,8.76128],[-65.08874,8.76278],[-65.08939,8.75931],[-65.0954,8.75786],[-65.0975,8.75404],[-65.09838,8.75611],[-65.10033,8.75086],[-65.10221,8.752],[-65.10599,8.74723],[-65.11169,8.75037],[-65.11703,8.74613],[-65.12179,8.74675],[-65.12268,8.74955],[-65.12621,8.74991],[-65.12619,8.74701],[-65.13491,8.74952],[-65.13547,8.74565],[-65.13823,8.74617],[-65.14116,8.74313],[-65.14072,8.73919],[-65.14525,8.73792],[-65.14611,8.73282],[-65.15022,8.73571],[-65.14682,8.73063],[-65.1516,8.72564],[-65.14976,8.71963],[-65.15559,8.72066],[-65.15703,8.716],[-65.15944,8.71527],[-65.15616,8.71401],[-65.15705,8.71172],[-65.1623,8.71021],[-65.1641,8.71196],[-65.1633,8.70932],[-65.16828,8.70583],[-65.16809,8.70157],[-65.17123,8.70371],[-65.16733,8.69845],[-65.17002,8.69797],[-65.17057,8.69528],[-65.16759,8.68956],[-65.16877,8.68479],[-65.16596,8.68402],[-65.16959,8.67911],[-65.16797,8.67658],[-65.16234,8.67646],[-65.15958,8.6716],[-65.1669,8.67137],[-65.16546,8.66719],[-65.16908,8.6665],[-65.16723,8.66352],[-65.1716,8.66291],[-65.16956,8.65734],[-65.17219,8.65505],[-65.17036,8.65273],[-65.17288,8.65212],[-65.16939,8.64966],[-65.17043,8.64243],[-65.16829,8.64231],[-65.16292,8.63335],[-65.16508,8.63247],[-65.16469,8.62608],[-65.16179,8.62653],[-65.14816,8.61201],[-65.15043,8.61034],[-65.14727,8.60942],[-65.14707,8.60602],[-65.15007,8.60366],[-65.15238,8.60508],[-65.15423,8.60222],[-65.15164,8.59963],[-65.15053,8.60124],[-65.14902,8.59766],[-65.14491,8.59835],[-65.15157,8.5931],[-65.14911,8.59034],[-65.15214,8.58831],[-65.14417,8.58091],[-65.14367,8.57364],[-65.15139,8.57144],[-65.14589,8.56343],[-65.15027,8.55865],[-65.14662,8.55759],[-65.15542,8.55343],[-65.15146,8.55006],[-65.14879,8.5513],[-65.14841,8.54511],[-65.15101,8.54152],[-65.15821,8.54255],[-65.15427,8.53417],[-65.15103,8.53429],[-65.15226,8.53076],[-65.15491,8.52893],[-65.16067,8.52985],[-65.16291,8.52719],[-65.16363,8.52129],[-65.16021,8.51986],[-65.15759,8.51317],[-65.16972,8.50323],[-65.17091,8.49448],[-65.16852,8.49206],[-65.17461,8.48695],[-65.17804,8.48753],[-65.17504,8.48333],[-65.17617,8.47892],[-65.17951,8.48006],[-65.1823,8.47647],[-65.18244,8.47147],[-65.17937,8.46806],[-65.17576,8.47034],[-65.17817,8.46088],[-65.18293,8.45997],[-65.18433,8.45473],[-65.17788,8.45553],[-65.17816,8.44875],[-65.18191,8.44707],[-65.18111,8.44325],[-65.18837,8.44109],[-65.18164,8.4367],[-65.18043,8.43824],[-65.17904,8.43481],[-65.18058,8.43134],[-65.18653,8.4323],[-65.18778,8.42794],[-65.1957,8.42209],[-65.19512,8.4115],[-65.20085,8.41123],[-65.19859,8.40473],[-65.20371,8.40248],[-65.202,8.39871],[-65.20459,8.3933],[-65.19657,8.39021],[-65.19953,8.38477],[-65.20727,8.38007],[-65.20218,8.37132],[-65.20958,8.36488],[-65.21412,8.3695],[-65.21839,8.35652],[-65.22565,8.35872],[-65.22812,8.34741],[-65.22599,8.34238],[-65.23012,8.33745],[-65.23268,8.33985],[-65.2357,8.33873],[-65.23739,8.33014],[-65.24179,8.33079],[-65.24804,8.32665],[-65.24978,8.32827],[-65.24838,8.33243],[-65.25397,8.32848],[-65.2565,8.33207],[-65.25814,8.32568],[-65.26343,8.32452],[-65.262,8.31924],[-65.26859,8.31865],[-65.26681,8.31362],[-65.27192,8.3167],[-65.27411,8.30841],[-65.27217,8.30496],[-65.26904,8.30461],[-65.27009,8.3015],[-65.26755,8.29771],[-65.27949,8.2988],[-65.28213,8.28497],[-65.28666,8.28197],[-65.28097,8.27999],[-65.28082,8.27674],[-65.28279,8.27548],[-65.28756,8.27837],[-65.29166,8.27357],[-65.28958,8.26971],[-65.29816,8.26503],[-65.29833,8.25701],[-65.30485,8.25722],[-65.30195,8.25252],[-65.30694,8.24824],[-65.31156,8.25026],[-65.31028,8.23954],[-65.30806,8.23799],[-65.31238,8.23212],[-65.31908,8.23477],[-65.32933,8.23206],[-65.32297,8.22642],[-65.32335,8.22461],[-65.32701,8.22505],[-65.32392,8.22159],[-65.32962,8.22178],[-65.33066,8.22494],[-65.33582,8.22557],[-65.33232,8.21973],[-65.33636,8.21966],[-65.33749,8.21469],[-65.34016,8.21706],[-65.34355,8.21596],[-65.34562,8.2099],[-65.34255,8.21034],[-65.34154,8.20785],[-65.35134,8.20641],[-65.34858,8.20332],[-65.34492,8.20395],[-65.34653,8.20091],[-65.35107,8.20312],[-65.35385,8.19863],[-65.35457,8.20555],[-65.35854,8.20447],[-65.35784,8.20798],[-65.36276,8.20626],[-65.36342,8.2019],[-65.36738,8.20044],[-65.36561,8.1951],[-65.36205,8.194],[-65.3635,8.18917],[-65.36589,8.18934],[-65.36588,8.1929],[-65.36783,8.19321],[-65.36986,8.18749],[-65.37391,8.18975],[-65.37709,8.18471],[-65.37623,8.18153],[-65.37127,8.1805],[-65.36797,8.18401],[-65.36449,8.17843],[-65.36915,8.17437],[-65.37653,8.17387],[-65.3763,8.16738],[-65.38188,8.17437],[-65.38114,8.16934],[-65.38372,8.16759],[-65.38465,8.17263],[-65.38785,8.17476],[-65.38773,8.16818],[-65.38258,8.16165],[-65.3753,8.16058],[-65.37485,8.15606],[-65.383,8.14943],[-65.38281,8.1446],[-65.38639,8.14288],[-65.38676,8.13675],[-65.39299,8.13428],[-65.38995,8.1299],[-65.39568,8.13058],[-65.40132,8.12709],[-65.39705,8.12078],[-65.40001,8.11439],[-65.40728,8.11188],[-65.41107,8.10741],[-65.41701,8.10997],[-65.42108,8.10628],[-65.42108,8.09724],[-65.42386,8.09601],[-65.42695,8.08756],[-65.43262,8.08452],[-65.43798,8.06905],[-65.4417,8.06383],[-65.44483,8.06361],[-65.4474,8.05292],[-65.45453,8.05053],[-65.45631,8.04623],[-65.46045,8.05259],[-65.4797,8.04512],[-65.47727,8.03879],[-65.47841,8.03359],[-65.47587,8.03018],[-65.48926,8.02554],[-65.48679,8.02316],[-65.48859,8.02053],[-65.48261,8.01785],[-65.48368,8.01437],[-65.48076,8.00922],[-65.48665,8.00605],[-65.48326,8.00451],[-65.48706,8.0035],[-65.48739,7.99962],[-65.49748,7.99346],[-65.49756,7.98899],[-65.49329,7.98738],[-65.49512,7.98576],[-65.48985,7.97985],[-65.49319,7.98057],[-65.49159,7.97682],[-65.49491,7.97854],[-65.4929,7.97428],[-65.4964,7.97408],[-65.49198,7.97185],[-65.48851,7.97409],[-65.49109,7.96819],[-65.48706,7.96644],[-65.48883,7.96311],[-65.49225,7.96405],[-65.49282,7.96126],[-65.49499,7.96391],[-65.50004,7.96307],[-65.49749,7.9577],[-65.5006,7.95702],[-65.50037,7.95429],[-65.50306,7.95572],[-65.49923,7.95246],[-65.50076,7.94352],[-65.50392,7.94084],[-65.50318,7.93773],[-65.50657,7.9359],[-65.50392,7.93319],[-65.50711,7.93281],[-65.50468,7.92904],[-65.49688,7.9277],[-65.49395,7.92201],[-65.4966,7.91849],[-65.49396,7.91953],[-65.49201,7.91625],[-65.48676,7.91659],[-65.47263,7.92449],[-65.47055,7.92338],[-65.47569,7.91987],[-65.47346,7.91802],[-65.42324,7.91649],[-65.41954,7.91304],[-65.40995,7.9104],[-65.41305,7.90928],[-65.41189,7.90711],[-65.39476,7.90154],[-65.38789,7.89653],[-65.37412,7.87959],[-65.36485,7.87482],[-65.35896,7.85773],[-65.32969,7.86423],[-65.3175,7.86406],[-65.29621,7.85879],[-65.2554,7.83915],[-65.2421,7.83507],[-65.17502,7.83362],[-65.14594,7.82852],[-65.1321,7.82053],[-65.11734,7.80046],[-65.10713,7.7917],[-65.0655,7.78022],[-65.02095,7.75054],[-64.99941,7.73362],[-64.9734,7.70147],[-64.95212,7.69755],[-64.91203,7.67858],[-64.86714,7.66506],[-64.848,7.66217],[-64.82071,7.66217],[-64.80002,7.66693],[-64.7493,7.68871],[-64.71265,7.72069],[-64.68553,7.73965],[-64.67188,7.75335],[-64.65415,7.76389],[-64.62094,7.76436],[-64.58871,7.75836],[-64.55927,7.75658],[-64.53455,7.75683],[-64.51944,7.76117],[-64.51369,7.76806],[-64.5049,7.78877],[-64.49867,7.79332],[-64.49569,7.8007],[-64.4808,7.81141],[-64.47912,7.82072],[-64.48389,7.82776],[-64.49258,7.83303],[-64.5579,7.85564],[-64.56837,7.86245],[-64.57618,7.87154],[-64.58253,7.88821],[-64.58626,7.91469],[-64.5833,7.93548],[-64.57712,7.95367],[-64.56322,7.96565],[-64.51412,7.98775],[-64.48571,8.01011],[-64.46202,8.01848],[-64.44134,8.01776],[-64.43275,8.01249],[-64.42181,8.00093],[-64.4107,7.99608],[-64.39808,7.99498],[-64.38649,7.99753],[-64.33439,8.03917],[-64.32547,8.05154],[-64.31877,8.07929],[-64.31336,8.086],[-64.30658,8.0894],[-64.24418,8.08923],[-64.21989,8.07912],[-64.19337,8.04903],[-64.17423,8.01971],[-64.14574,8.00067],[-64.11218,7.96748],[-64.10106,7.96072],[-64.0836,7.95647],[-64.05072,7.95435],[-64.01648,7.9461],[-63.99313,7.94789],[-63.97236,7.93973],[-63.96412,7.93879],[-63.9503,7.94534],[-63.91674,7.97492],[-63.90532,8.00356],[-63.88867,8.02931],[-63.87627,8.0594],[-63.86704,8.0693],[-63.85168,8.09382],[-63.81735,8.12602],[-63.791,8.14098],[-63.76963,8.14284],[-63.73087,8.1377],[-63.61702,8.14752],[-63.58535,8.14242],[-63.55621,8.15181],[-63.54248,8.15211],[-63.50304,8.16098],[-63.47913,8.15899],[-63.43789,8.16969],[-63.43042,8.17343],[-63.41686,8.19255],[-63.39377,8.20639],[-63.32803,8.23256],[-63.27739,8.26025],[-63.27138,8.26484],[-63.25919,8.28106],[-63.24803,8.28947],[-63.22057,8.30068],[-63.14452,8.32293],[-63.11448,8.32306],[-63.07886,8.31129],[-63.06685,8.30968],[-63.04788,8.31197],[-62.98694,8.32633],[-62.96213,8.30926],[-62.93338,8.30093],[-62.90937,8.2762],[-62.88291,8.27647],[-62.86579,8.28365],[-62.83433,8.3028],[-62.81922,8.31554],[-62.79983,8.34051],[-62.7842,8.38823],[-62.77985,8.39568],[-62.77176,8.40199],[-62.76403,8.40309],[-62.75142,8.39978],[-62.7279,8.38314],[-62.71524,8.3783],[-62.68782,8.38157],[-62.69309,8.3932],[-62.69701,8.39105],[-62.70289,8.39966],[-62.70824,8.39932],[-62.70804,8.39481],[-62.71411,8.391],[-62.71696,8.39605],[-62.71517,8.40001],[-62.72215,8.39984],[-62.72052,8.40383],[-62.72527,8.41122],[-62.72422,8.41804],[-62.72861,8.42717],[-62.73018,8.43969],[-62.7283,8.44413],[-62.73073,8.44984],[-62.72988,8.45357],[-62.7229,8.46022],[-62.721,8.46678],[-62.94801,8.5357],[-63.02732,8.69733],[-63.08597,8.67129],[-63.09031,8.68431],[-63.09638,8.6836],[-63.0975,8.69099],[-63.10161,8.68921],[-63.15781,8.77626],[-63.20906,8.75731],[-63.21274,8.76027],[-63.20835,8.76583],[-63.2121,8.7633],[-63.21887,8.76558],[-63.21981,8.77055],[-63.22657,8.77432],[-63.23,8.77511],[-63.23246,8.77207],[-63.24985,8.76763],[-63.2534,8.76472],[-63.27244,8.76284],[-63.28658,8.76831],[-63.2882,8.77325],[-63.29175,8.77391],[-63.29415,8.78264],[-63.30706,8.78324],[-63.35987,8.90095],[-63.36466,8.94683],[-63.36704,8.94729],[-63.36518,8.94915],[-63.37143,8.94991],[-63.36947,8.95151],[-63.37148,8.95639],[-63.38006,8.96376],[-63.37977,8.96569],[-63.38356,8.96409],[-63.38121,8.96613],[-63.383,8.96854],[-63.38075,8.97417],[-63.38477,8.973],[-63.3852,8.97666],[-63.38916,8.97591],[-63.38622,8.98009],[-63.38587,8.98684],[-63.39235,8.99033],[-63.39396,8.98539],[-63.396,8.98995],[-63.39899,8.99054]]]}}]}