{"type":"FeatureCollection","features":[{"type":"Feature","id":"node/110331573","properties":{"name":"Puerto La Cruz","place":"city","population":"272231"},"geometry":{"type":"Point","coordinates":[-64.63076,10.20286]}},{"type":"Feature","id":"node/333655403","properties":{"name":"Barcelona","place":"city","population":"560122"},"geometry":{"type":"Point","coordinates":[-64.68196,10.1326]}},{"type":"Feature","id":"node/345808512","properties":{"name":"Anaco","place":"city","population":"149380"},"geometry":{"type":"Point","coordinates":[-64.46683,9.43219]}},{"type":"Feature","id":"node/345808670","properties":{"name":"Cantaura","place":"city","population":"89552"},"geometry":{"type":"Point","coordinates":[-64.35212,9.30001]}},{"type":"Feature","id":"node/416823077","properties":{"name":"El Tigre","place":"city","population":"236566"},"geometry":{"type":"Point","coordinates":[-64.24888,8.88621]}},{"type":"Feature","id":"node/416824261","properties":{"name":"San Jos\u00e9 de Guanipa","place":"city","population":"85300"},"geometry":{"type":"Point","coordinates":[-64.16235,8.8854]}},{"type":"Feature","id":"node/416826688","properties":{"name":"San Mateo","place":"town"},"geometry":{"type":"Point","coordinates":[-64.55245,9.74003]}},{"type":"Feature","id":"node/670352874","properties":{"name":"Soledad","place":"city"},"geometry":{"type":"Point","coordinates":[-63.56646,8.17095]}},{"type":"Feature","id":"node/1402655587","properties":{"name":"Lecher\u00eda","place":"city","population":"78784"},"geometry":{"type":"Point","coordinates":[-64.68455,10.19105]}},{"type":"Feature","id":"node/2174324500","properties":{"name":"El Pica Pica","place":"village"},"geometry":{"type":"Point","coordinates":[-64.05654,8.59894]}},{"type":"Feature","id":"node/2242595697","properties":{"name":"Aragua de Barcelona","place":"town","population":"27025"},"geometry":{"type":"Point","coordinates":[-64.82615,9.45838]}},{"type":"Feature","id":"node/2242835498","properties":{"name":"Clarines","place":"town","population":"32000"},"geometry":{"type":"Point","coordinates":[-65.16461,9.94263]}},{"type":"Feature","id":"node/2242835499","properties":{"name":"Puerto P\u00edritu","place":"city","population":"11000"},"geometry":{"type":"Point","coordinates":[-65.03826,10.05672]}},{"type":"Feature","id":"node/2293161450","properties":{"name":"Barbacoas","place":"town"},"geometry":{"type":"Point","coordinates":[-64.63887,10.0156]}},{"type":"Feature","id":"node/2293161458","properties":{"name":"La Ceiba","place":"village"},"geometry":{"type":"Point","coordinates":[-64.24103,9.69571]}},{"type":"Feature","id":"node/2302005964","properties":{"name":"Valle de Guanape","place":"town","population":"14600"},"geometry":{"type":"Point","coordinates":[-65.67593,9.91119]}},{"type":"Feature","id":"node/2302011694","properties":{"name":"El Chaparro","place":"town","population":"8949"},"geometry":{"type":"Point","coordinates":[-65.01579,9.15191]}},{"type":"Feature","id":"node/2302015395","properties":{"name":"Guanta","place":"city","population":"74015"},"geometry":{"type":"Point","coordinates":[-64.59317,10.23377]}},{"type":"Feature","id":"node/2302419608","properties":{"name":"Onoto","place":"town","population":"15000"},"geometry":{"type":"Point","coordinates":[-65.19018,9.59854]}},{"type":"Feature","id":"node/2308155811","properties":{"name":"Boca de Uchire","place":"town","population":"8270"},"geometry":{"type":"Point","coordinates":[-65.4206,10.13088]}},{"type":"Feature","id":"node/2315015208","properties":{"name":"Santa Ana","place":"town","population":"16000"},"geometry":{"type":"Point","coordinates":[-64.65543,9.30633]}},{"type":"Feature","id":"node/3126232986","properties":{"name":"Santa Clara","place":"town"},"geometry":{"type":"Point","coordinates":[-64.61188,8.4992]}},{"type":"Feature","id":"node/3126236150","properties":{"name":"San Diego de Cabrutica","place":"town"},"geometry":{"type":"Point","coordinates":[-64.89168,8.41502]}},{"type":"Feature","id":"node/3440152205","properties":{"name":"Pariagu\u00e1n","place":"city","population":"69618"},"geometry":{"type":"Point","coordinates":[-64.7141,8.84449]}},{"type":"Feature","id":"node/3440163937","properties":{"name":"Barbonero","place":"village"},"geometry":{"type":"Point","coordinates":[-64.1909,9.13981]}},{"type":"Feature","id":"node/3638119900","properties":{"name":"La Fragua","place":"village"},"geometry":{"type":"Point","coordinates":[-65.09494,9.35172]}},{"type":"Feature","id":"node/3638316626","properties":{"name":"Zuata","place":"town"},"geometry":{"type":"Point","coordinates":[-65.19433,8.36057]}},{"type":"Feature","id":"node/3713676279","properties":{"name":"San Tom\u00e9","place":"town"},"geometry":{"type":"Point","coordinates":[-64.13212,8.9385]}},{"type":"Feature","id":"node/5216793947","properties":{"name":"Mapire","place":"town"},"geometry":{"type":"Point","coordinates":[-64.71054,7.74258]}},{"type":"Feature","id":"node/9946134210","properties":{"name":"P\u00edritu","place":"town"},"geometry":{"type":"Point","coordinates":[-65.02977,10.04562]}},{"type":"Feature","id":"node/4682613459","properties":{"name":"Santa Rosa de Ocopia","place":"town"},"geometry":{"type":"Point","coordinates":[-64.29963,9.57984]}},{"type":"Feature","id":"node/4740549399","properties":{"name":"Buena Vista","place":"town"},"geometry":{"type":"Point","coordinates":[-64.50725,9.3795]}},{"type":"Feature","id":"node/5194374080","properties":{"name":"Macapaima","place":"village"},"geometry":{"type":"Point","coordinates":[-62.84223,8.33222]}},{"type":"Feature","id":"node/5194374081","properties":{"name":"Palital","place":"town"},"geometry":{"type":"Point","coordinates":[-62.92254,8.31813]}},{"type":"Feature","id":"node/5194374082","properties":{"name":"Mamo Arriba","place":"village"},"geometry":{"type":"Point","coordinates":[-63.02657,8.45908]}},{"type":"Feature","id":"node/5194374083","properties":{"name":"Mamo Abajo","place":"village"},"geometry":{"type":"Point","coordinates":[-63.02625,8.44819]}},{"type":"Feature","id":"node/5194376275","properties":{"name":"Botal\u00f3n","place":"village"},"geometry":{"type":"Point","coordinates":[-63.26176,8.33471]}},{"type":"Feature","id":"node/5194376276","properties":{"name":"Carapa","place":"village"},"geometry":{"type":"Point","coordinates":[-63.28502,8.32871]}},{"type":"Feature","id":"node/5194376308","properties":{"name":"Los Algodones","place":"village"},"geometry":{"type":"Point","coordinates":[-63.23191,8.40382]}},{"type":"Feature","id":"node/5194376483","properties":{"name":"La Pe\u00f1a","place":"village"},"geometry":{"type":"Point","coordinates":[-63.53495,8.18101]}},{"type":"Feature","id":"node/5204346818","properties":{"name":"La Mata","place":"village"},"geometry":{"type":"Point","coordinates":[-64.09013,9.05869]}},{"type":"Feature","id":"node/5204368989","properties":{"name":"El Pao de Barcelona","place":"town"},"geometry":{"type":"Point","coordinates":[-64.62813,8.78895]}},{"type":"Feature","id":"node/5204455352","properties":{"name":"Cachipo","place":"town"},"geometry":{"type":"Point","coordinates":[-64.63311,8.96932]}},{"type":"Feature","id":"node/5204455528","properties":{"name":"Tascaba\u00f1a","place":"village"},"geometry":{"type":"Point","coordinates":[-64.36373,9.0807]}},{"type":"Feature","id":"node/5204455592","properties":{"name":"Bajo Hondo","place":"village"},"geometry":{"type":"Point","coordinates":[-64.30451,9.04618]}},{"type":"Feature","id":"node/5216296358","properties":{"name":"Kashama","place":"village"},"geometry":{"type":"Point","coordinates":[-64.3172,9.08406]}},{"type":"Feature","id":"node/5216331361","properties":{"name":"Las Margaritas","place":"village"},"geometry":{"type":"Point","coordinates":[-64.96243,9.67152]}},{"type":"Feature","id":"node/5216331861","properties":{"name":"Manapoco","place":"village"},"geometry":{"type":"Point","coordinates":[-65.03768,9.37354]}},{"type":"Feature","id":"node/5216331903","properties":{"name":"San Pablo","place":"town"},"geometry":{"type":"Point","coordinates":[-65.053,9.77667]}},{"type":"Feature","id":"node/5216332062","properties":{"name":"Paraulata","place":"village"},"geometry":{"type":"Point","coordinates":[-64.98597,9.60529]}},{"type":"Feature","id":"node/5216377641","properties":{"name":"El Carito","place":"town"},"geometry":{"type":"Point","coordinates":[-64.73925,9.78735]}},{"type":"Feature","id":"node/5216380104","properties":{"name":"El Pilar","place":"town"},"geometry":{"type":"Point","coordinates":[-64.78485,9.94125]}},{"type":"Feature","id":"node/5216380105","properties":{"name":"Caigua","place":"town"},"geometry":{"type":"Point","coordinates":[-64.8487,9.9508]}},{"type":"Feature","id":"node/5216385341","properties":{"name":"San Miguel","place":"town"},"geometry":{"type":"Point","coordinates":[-64.9919,9.90589]}},{"type":"Feature","id":"node/5216421038","properties":{"name":"Las Trincheras","place":"village"},"geometry":{"type":"Point","coordinates":[-65.53069,9.65287]}},{"type":"Feature","id":"node/5216694893","properties":{"name":"Urica","place":"town"},"geometry":{"type":"Point","coordinates":[-64.00685,9.7094]}},{"type":"Feature","id":"node/5216696061","properties":{"name":"Guayabal","place":"village"},"geometry":{"type":"Point","coordinates":[-64.03013,9.7365]}},{"type":"Feature","id":"node/5216696077","properties":{"name":"El Sam\u00e1n","place":"town"},"geometry":{"type":"Point","coordinates":[-64.13554,9.80372]}},{"type":"Feature","id":"node/5216716508","properties":{"name":"Santa In\u00e9s","place":"town"},"geometry":{"type":"Point","coordinates":[-64.35544,9.90869]}},{"type":"Feature","id":"node/5216716667","properties":{"name":"Bergant\u00edn","place":"town"},"geometry":{"type":"Point","coordinates":[-64.37393,10.01458]}},{"type":"Feature","id":"node/5216716668","properties":{"name":"Carapita","place":"village"},"geometry":{"type":"Point","coordinates":[-64.42652,9.93449]}},{"type":"Feature","id":"node/5216716669","properties":{"name":"Querecual","place":"village"},"geometry":{"type":"Point","coordinates":[-64.51727,9.9548]}},{"type":"Feature","id":"node/5216749276","properties":{"name":"Mundo Nuevo","place":"town"},"geometry":{"type":"Point","coordinates":[-64.06148,9.94636]}},{"type":"Feature","id":"node/5216793955","properties":{"name":"Uverito","place":"town"},"geometry":{"type":"Point","coordinates":[-64.68926,8.11225]}},{"type":"Feature","id":"node/5216794241","properties":{"name":"Santa Cruz del Orinoco","place":"town"},"geometry":{"type":"Point","coordinates":[-64.4495,8.05008]}},{"type":"Feature","id":"node/5216794355","properties":{"name":"Boca del Pao","place":"town"},"geometry":{"type":"Point","coordinates":[-64.30788,8.12483]}},{"type":"Feature","id":"node/5219946461","properties":{"name":"Atapirire","place":"town"},"geometry":{"type":"Point","coordinates":[-64.36868,8.43486]}},{"type":"Feature","id":"node/5219946487","properties":{"name":"El Caris","place":"village"},"geometry":{"type":"Point","coordinates":[-64.26418,8.78684]}},{"type":"Feature","id":"node/5250383436","properties":{"name":"Campo Mata","place":"village"},"geometry":{"type":"Point","coordinates":[-64.0549,9.21534]}},{"type":"Feature","id":"node/5250424358","properties":{"name":"El Aceite","place":"village"},"geometry":{"type":"Point","coordinates":[-64.03956,9.16137]}},{"type":"Feature","id":"node/5250424665","properties":{"name":"Campo La Leona","place":"village"},"geometry":{"type":"Point","coordinates":[-63.84145,9.00084]}},{"type":"Feature","id":"node/5250446214","properties":{"name":"La Colmena","place":"village"},"geometry":{"type":"Point","coordinates":[-63.6924,9.00182]}},{"type":"Feature","id":"node/5250488830","properties":{"name":"G\u00fcico","place":"village"},"geometry":{"type":"Point","coordinates":[-64.131,9.00722]}},{"type":"Feature","id":"node/5250612384","properties":{"name":"Guanape","place":"town"},"geometry":{"type":"Point","coordinates":[-65.50966,9.91572]}},{"type":"Feature","id":"node/5250612385","properties":{"name":"Sabana de Uchire","place":"town"},"geometry":{"type":"Point","coordinates":[-65.52085,10.02048]}},{"type":"Feature","id":"node/5250967770","properties":{"name":"San Miguel","place":"village"},"geometry":{"type":"Point","coordinates":[-64.13799,9.35174]}},{"type":"Feature","id":"node/5253021362","properties":{"name":"El Amparo","place":"village"},"geometry":{"type":"Point","coordinates":[-62.99748,8.43696]}},{"type":"Feature","id":"node/5253021363","properties":{"name":"Juasjuillal","place":"village"},"geometry":{"type":"Point","coordinates":[-63.04726,8.44823]}},{"type":"Feature","id":"node/5253021364","properties":{"name":"Paso de Mamo","place":"village"},"geometry":{"type":"Point","coordinates":[-63.06641,8.45185]}},{"type":"Feature","id":"node/5253021365","properties":{"name":"La Tigra","place":"village"},"geometry":{"type":"Point","coordinates":[-63.14549,8.44358]}},{"type":"Feature","id":"node/5407243499","properties":{"name":"San Joaqu\u00edn","place":"town"},"geometry":{"type":"Point","coordinates":[-64.48456,9.31]}},{"type":"Feature","id":"node/5467586187","properties":{"name":"Caratal","place":"village"},"geometry":{"type":"Point","coordinates":[-64.49987,10.1684]}},{"type":"Feature","id":"node/5467587514","properties":{"name":"San Isidro","place":"village"},"geometry":{"type":"Point","coordinates":[-64.45372,10.08866]}},{"type":"Feature","id":"node/5467587533","properties":{"name":"Carinagua","place":"village"},"geometry":{"type":"Point","coordinates":[-64.48346,10.07273]}},{"type":"Feature","id":"node/5467587534","properties":{"name":"El Franc\u00e9s","place":"village"},"geometry":{"type":"Point","coordinates":[-64.49478,10.06185]}},{"type":"Feature","id":"node/5467587540","properties":{"name":"La Monta\u00f1a","place":"village"},"geometry":{"type":"Point","coordinates":[-64.35038,10.06097]}},{"type":"Feature","id":"node/5467587545","properties":{"name":"Las Carutas","place":"village"},"geometry":{"type":"Point","coordinates":[-64.41688,9.99831]}},{"type":"Feature","id":"node/5467587559","properties":{"name":"El Zamuro","place":"village"},"geometry":{"type":"Point","coordinates":[-64.28655,10.0292]}},{"type":"Feature","id":"node/5467587563","properties":{"name":"Cerro Negro","place":"village"},"geometry":{"type":"Point","coordinates":[-64.2468,10.03133]}},{"type":"Feature","id":"node/5467587564","properties":{"name":"El Gallo","place":"village"},"geometry":{"type":"Point","coordinates":[-64.2364,10.04057]}},{"type":"Feature","id":"node/5467587585","properties":{"name":"El Blanco","place":"village"},"geometry":{"type":"Point","coordinates":[-64.10615,10.05999]}},{"type":"Feature","id":"node/5467587590","properties":{"name":"Ranguele\u00f1o","place":"village"},"geometry":{"type":"Point","coordinates":[-64.04467,10.03337]}},{"type":"Feature","id":"node/5467587592","properties":{"name":"Chaguaramas","place":"village"},"geometry":{"type":"Point","coordinates":[-64.03949,9.99638]}},{"type":"Feature","id":"node/5467587596","properties":{"name":"Mata Redonda","place":"village"},"geometry":{"type":"Point","coordinates":[-64.09426,10.00581]}},{"type":"Feature","id":"node/5467587597","properties":{"name":"Alto Barrie\u00f1o","place":"village"},"geometry":{"type":"Point","coordinates":[-64.08742,10.01846]}},{"type":"Feature","id":"node/5467587611","properties":{"name":"Buenos Aires","place":"village"},"geometry":{"type":"Point","coordinates":[-64.22429,10.0296]}},{"type":"Feature","id":"node/5467587623","properties":{"name":"El Tigre","place":"village"},"geometry":{"type":"Point","coordinates":[-64.32363,10.00614]}},{"type":"Feature","id":"node/5467587628","properties":{"name":"Las Minas","place":"village"},"geometry":{"type":"Point","coordinates":[-64.33937,10.03989]}},{"type":"Feature","id":"node/5467587632","properties":{"name":"Los Bejuqueros","place":"village"},"geometry":{"type":"Point","coordinates":[-64.30135,10.07376]}},{"type":"Feature","id":"node/5488815369","properties":{"name":"Conoma","place":"village"},"geometry":{"type":"Point","coordinates":[-64.53323,10.24172]}},{"type":"Feature","id":"node/5488815370","properties":{"name":"Valle Seco","place":"village"},"geometry":{"type":"Point","coordinates":[-64.52525,10.2446]}},{"type":"Feature","id":"node/5488815371","properties":{"name":"El Cumbre","place":"village"},"geometry":{"type":"Point","coordinates":[-64.51902,10.23545]}},{"type":"Feature","id":"node/5488815372","properties":{"name":"La Laguna","place":"village"},"geometry":{"type":"Point","coordinates":[-64.53035,10.23047]}},{"type":"Feature","id":"node/5488815373","properties":{"name":"El Chaparro","place":"town"},"geometry":{"type":"Point","coordinates":[-64.53404,10.22346]}},{"type":"Feature","id":"node/5488815376","properties":{"name":"Guayuta","place":"village"},"geometry":{"type":"Point","coordinates":[-64.50735,10.21608]}},{"type":"Feature","id":"node/5488815377","properties":{"name":"Guayabal","place":"village"},"geometry":{"type":"Point","coordinates":[-64.51219,10.21161]}},{"type":"Feature","id":"node/5488815381","properties":{"name":"El Retumbo","place":"village"},"geometry":{"type":"Point","coordinates":[-64.55166,10.19717]}},{"type":"Feature","id":"node/5488815382","properties":{"name":"La Caraque\u00f1a","place":"village"},"geometry":{"type":"Point","coordinates":[-64.56076,10.19321]}},{"type":"Feature","id":"node/5488815383","properties":{"name":"Punta Arena","place":"village"},"geometry":{"type":"Point","coordinates":[-64.7403,10.27884]}},{"type":"Feature","id":"node/5488815395","properties":{"name":"Peon\u00eda","place":"village"},"geometry":{"type":"Point","coordinates":[-64.54118,10.17952]}},{"type":"Feature","id":"node/5488815396","properties":{"name":"Tucupido","place":"village"},"geometry":{"type":"Point","coordinates":[-64.52105,10.15434]}},{"type":"Feature","id":"node/5488815397","properties":{"name":"La Adjunta","place":"village"},"geometry":{"type":"Point","coordinates":[-64.51626,10.16089]}},{"type":"Feature","id":"node/5488815398","properties":{"name":"Carrasposo","place":"village"},"geometry":{"type":"Point","coordinates":[-64.50607,10.16413]}},{"type":"Feature","id":"node/5488815399","properties":{"name":"Pek\u00edn","place":"village"},"geometry":{"type":"Point","coordinates":[-64.51002,10.15257]}},{"type":"Feature","id":"node/5488815401","properties":{"name":"El Salto","place":"village"},"geometry":{"type":"Point","coordinates":[-64.53463,10.1535]}},{"type":"Feature","id":"node/5488815402","properties":{"name":"Cambural","place":"village"},"geometry":{"type":"Point","coordinates":[-64.54468,10.14479]}},{"type":"Feature","id":"node/5488815403","properties":{"name":"Guaricaita","place":"village"},"geometry":{"type":"Point","coordinates":[-64.55375,10.1385]}},{"type":"Feature","id":"node/5488815404","properties":{"name":"Boquer\u00f3n","place":"village"},"geometry":{"type":"Point","coordinates":[-64.55208,10.1442]}},{"type":"Feature","id":"node/5488815406","properties":{"name":"Putucual","place":"town"},"geometry":{"type":"Point","coordinates":[-64.61172,10.14023]}},{"type":"Feature","id":"node/5488815407","properties":{"name":"Provisor","place":"village"},"geometry":{"type":"Point","coordinates":[-64.59376,10.16591]}},{"type":"Feature","id":"node/5488815408","properties":{"name":"El Lim\u00f3n","place":"village"},"geometry":{"type":"Point","coordinates":[-64.57951,10.18007]}},{"type":"Feature","id":"node/5488815409","properties":{"name":"San Pedro","place":"village"},"geometry":{"type":"Point","coordinates":[-64.56668,10.1694]}},{"type":"Feature","id":"node/5488815415","properties":{"name":"El Cacao","place":"village"},"geometry":{"type":"Point","coordinates":[-64.52859,10.12417]}},{"type":"Feature","id":"node/5488815416","properties":{"name":"Carrizal","place":"village"},"geometry":{"type":"Point","coordinates":[-64.5406,10.13083]}},{"type":"Feature","id":"node/5488815417","properties":{"name":"Curaguaro","place":"village"},"geometry":{"type":"Point","coordinates":[-64.56511,10.13245]}},{"type":"Feature","id":"node/5488815418","properties":{"name":"El Rinc\u00f3n","place":"town"},"geometry":{"type":"Point","coordinates":[-64.59439,10.12839]}},{"type":"Feature","id":"node/5488816224","properties":{"name":"Portugual","place":"town"},"geometry":{"type":"Point","coordinates":[-64.56593,10.10569]}},{"type":"Feature","id":"node/5488816225","properties":{"name":"San Diego","place":"town"},"geometry":{"type":"Point","coordinates":[-64.58058,10.11533]}},{"type":"Feature","id":"node/5488816226","properties":{"name":"Sabana Larga","place":"village"},"geometry":{"type":"Point","coordinates":[-64.55226,10.10227]}},{"type":"Feature","id":"node/5488816227","properties":{"name":"Las Lajas","place":"village"},"geometry":{"type":"Point","coordinates":[-64.53633,10.10079]}},{"type":"Feature","id":"node/5488816230","properties":{"name":"El Tigre","place":"village"},"geometry":{"type":"Point","coordinates":[-64.52267,10.10976]}},{"type":"Feature","id":"node/5488816256","properties":{"name":"Cerro de Piedra","place":"village"},"geometry":{"type":"Point","coordinates":[-64.66392,9.9996]}},{"type":"Feature","id":"node/5488816268","properties":{"name":"Los Aguacates","place":"village"},"geometry":{"type":"Point","coordinates":[-64.56557,10.08772]}},{"type":"Feature","id":"node/5488816270","properties":{"name":"Tabera","place":"village"},"geometry":{"type":"Point","coordinates":[-64.59732,10.08183]}},{"type":"Feature","id":"node/5488816271","properties":{"name":"Angostura","place":"village"},"geometry":{"type":"Point","coordinates":[-64.58229,10.0741]}},{"type":"Feature","id":"node/5488816272","properties":{"name":"Arag\u00fcita","place":"village"},"geometry":{"type":"Point","coordinates":[-64.57042,10.07801]}},{"type":"Feature","id":"node/5488816274","properties":{"name":"San Antonio","place":"village"},"geometry":{"type":"Point","coordinates":[-64.59138,10.05809]}},{"type":"Feature","id":"node/5488816276","properties":{"name":"Las Minas","place":"village"},"geometry":{"type":"Point","coordinates":[-64.58024,10.04957]}},{"type":"Feature","id":"node/5488816279","properties":{"name":"El Hatico","place":"village"},"geometry":{"type":"Point","coordinates":[-64.54567,10.0714]}},{"type":"Feature","id":"node/5488816280","properties":{"name":"Sabana Blanca","place":"village"},"geometry":{"type":"Point","coordinates":[-64.53259,10.06414]}},{"type":"Feature","id":"node/5488816281","properties":{"name":"Sabana de Libertad","place":"village"},"geometry":{"type":"Point","coordinates":[-64.51165,10.0505]}},{"type":"Feature","id":"node/5488816290","properties":{"name":"Carabobo","place":"village"},"geometry":{"type":"Point","coordinates":[-64.59832,10.02429]}},{"type":"Feature","id":"node/5488816291","properties":{"name":"La Almita","place":"village"},"geometry":{"type":"Point","coordinates":[-64.58145,10.01301]}},{"type":"Feature","id":"node/5488816293","properties":{"name":"Los Linderos","place":"village"},"geometry":{"type":"Point","coordinates":[-64.55336,10.00716]}},{"type":"Feature","id":"node/5488816294","properties":{"name":"San Rafael","place":"village"},"geometry":{"type":"Point","coordinates":[-64.52884,10.00305]}},{"type":"Feature","id":"node/5488816295","properties":{"name":"Tocoropo","place":"village"},"geometry":{"type":"Point","coordinates":[-64.50957,9.99995]}},{"type":"Feature","id":"node/5497070635","properties":{"name":"Paracual","place":"village"},"geometry":{"type":"Point","coordinates":[-64.71857,9.97851]}},{"type":"Feature","id":"node/5497070636","properties":{"name":"Botal\u00f3n","place":"village"},"geometry":{"type":"Point","coordinates":[-64.69249,9.97535]}},{"type":"Feature","id":"node/5497070637","properties":{"name":"Paraguatey","place":"village"},"geometry":{"type":"Point","coordinates":[-64.68,9.9773]}},{"type":"Feature","id":"node/5497070638","properties":{"name":"Campo Alegre","place":"village"},"geometry":{"type":"Point","coordinates":[-64.6897,9.95765]}},{"type":"Feature","id":"node/5497070646","properties":{"name":"El Alto","place":"village"},"geometry":{"type":"Point","coordinates":[-64.72202,9.95222]}},{"type":"Feature","id":"node/5497070648","properties":{"name":"San Bernardino","place":"village"},"geometry":{"type":"Point","coordinates":[-64.73962,9.96397]}},{"type":"Feature","id":"node/5497070650","properties":{"name":"La Esperanza","place":"village"},"geometry":{"type":"Point","coordinates":[-64.75386,9.97137]}},{"type":"Feature","id":"node/5497070652","properties":{"name":"El Vig\u00eda","place":"village"},"geometry":{"type":"Point","coordinates":[-64.76902,9.95581]}},{"type":"Feature","id":"node/5497070658","properties":{"name":"Guarimata","place":"village"},"geometry":{"type":"Point","coordinates":[-64.73238,9.89907]}},{"type":"Feature","id":"node/5497070663","properties":{"name":"Moreno","place":"village"},"geometry":{"type":"Point","coordinates":[-64.65584,9.82001]}},{"type":"Feature","id":"node/5497070679","properties":{"name":"La Caler\u00eda","place":"village"},"geometry":{"type":"Point","coordinates":[-64.76119,9.86829]}},{"type":"Feature","id":"node/5497070680","properties":{"name":"El Gu\u00e1rico","place":"village"},"geometry":{"type":"Point","coordinates":[-64.78088,9.87333]}},{"type":"Feature","id":"node/5497070684","properties":{"name":"Quebrada Honda","place":"village"},"geometry":{"type":"Point","coordinates":[-64.76874,9.91761]}},{"type":"Feature","id":"node/5497070689","properties":{"name":"Urucual","place":"village"},"geometry":{"type":"Point","coordinates":[-64.87997,9.98067]}},{"type":"Feature","id":"node/5497070690","properties":{"name":"Palosanal","place":"village"},"geometry":{"type":"Point","coordinates":[-64.80802,9.99569]}},{"type":"Feature","id":"node/5497070691","properties":{"name":"Cerro Blanco","place":"village"},"geometry":{"type":"Point","coordinates":[-64.82239,9.97465]}},{"type":"Feature","id":"node/5497070700","properties":{"name":"La Riquera","place":"village"},"geometry":{"type":"Point","coordinates":[-64.8191,9.82995]}},{"type":"Feature","id":"node/5497070705","properties":{"name":"San Juan","place":"village"},"geometry":{"type":"Point","coordinates":[-64.90506,9.85428]}},{"type":"Feature","id":"node/5497070714","properties":{"name":"Palotal","place":"village"},"geometry":{"type":"Point","coordinates":[-64.87925,9.90755]}},{"type":"Feature","id":"node/5497070717","properties":{"name":"Guariquero","place":"village"},"geometry":{"type":"Point","coordinates":[-64.89341,9.91467]}},{"type":"Feature","id":"node/5497070719","properties":{"name":"La Curbatera","place":"village"},"geometry":{"type":"Point","coordinates":[-64.86657,9.94796]}},{"type":"Feature","id":"node/5497070720","properties":{"name":"Tamarindo","place":"village"},"geometry":{"type":"Point","coordinates":[-64.87963,9.94445]}},{"type":"Feature","id":"node/5497071421","properties":{"name":"Panamayal","place":"village"},"geometry":{"type":"Point","coordinates":[-64.89064,9.93992]}},{"type":"Feature","id":"node/5497071422","properties":{"name":"La China","place":"village"},"geometry":{"type":"Point","coordinates":[-64.92868,9.93442]}},{"type":"Feature","id":"node/5497071425","properties":{"name":"Trompillar","place":"village"},"geometry":{"type":"Point","coordinates":[-64.98938,9.98641]}},{"type":"Feature","id":"node/5497071426","properties":{"name":"Merey","place":"village"},"geometry":{"type":"Point","coordinates":[-64.99705,9.98796]}},{"type":"Feature","id":"node/5497071427","properties":{"name":"Tocomicho","place":"village"},"geometry":{"type":"Point","coordinates":[-64.99661,9.96591]}},{"type":"Feature","id":"node/5497071430","properties":{"name":"Pedregal","place":"village"},"geometry":{"type":"Point","coordinates":[-64.94674,9.92269]}},{"type":"Feature","id":"node/5497071431","properties":{"name":"La Ganza","place":"village"},"geometry":{"type":"Point","coordinates":[-64.9641,9.9204]}},{"type":"Feature","id":"node/5497071457","properties":{"name":"La Romere\u00f1a","place":"village"},"geometry":{"type":"Point","coordinates":[-64.61295,9.73219]}},{"type":"Feature","id":"node/5497071472","properties":{"name":"Quiamare","place":"village"},"geometry":{"type":"Point","coordinates":[-64.53708,9.88096]}},{"type":"Feature","id":"node/5497071925","properties":{"name":"Curataquiche","place":"town"},"geometry":{"type":"Point","coordinates":[-64.57455,9.95277]}},{"type":"Feature","id":"node/5587002513","properties":{"name":"Las Delicias","place":"village"},"geometry":{"type":"Point","coordinates":[-64.13917,9.98244]}},{"type":"Feature","id":"node/5587002514","properties":{"name":"La Piedra","place":"village"},"geometry":{"type":"Point","coordinates":[-64.12357,9.9791]}},{"type":"Feature","id":"node/5587002516","properties":{"name":"El Bucar\u00e9","place":"village"},"geometry":{"type":"Point","coordinates":[-64.09299,9.98434]}},{"type":"Feature","id":"node/5587002517","properties":{"name":"El Arenal","place":"village"},"geometry":{"type":"Point","coordinates":[-64.04724,9.99136]}},{"type":"Feature","id":"node/5587002520","properties":{"name":"Cambural","place":"village"},"geometry":{"type":"Point","coordinates":[-64.08729,9.93964]}},{"type":"Feature","id":"node/5587004421","properties":{"name":"La Cruz","place":"village"},"geometry":{"type":"Point","coordinates":[-64.0379,9.95055]}},{"type":"Feature","id":"node/5587004423","properties":{"name":"El Guayabo","place":"village"},"geometry":{"type":"Point","coordinates":[-64.01321,9.9474]}},{"type":"Feature","id":"node/5587004426","properties":{"name":"El Amparo","place":"village"},"geometry":{"type":"Point","coordinates":[-64.131,9.84219]}},{"type":"Feature","id":"node/5587004429","properties":{"name":"El Rosario","place":"village"},"geometry":{"type":"Point","coordinates":[-63.97646,9.75419]}},{"type":"Feature","id":"node/5587004434","properties":{"name":"El Laberinto","place":"village"},"geometry":{"type":"Point","coordinates":[-64.04554,9.74835]}},{"type":"Feature","id":"node/5587004439","properties":{"name":"La Florida","place":"village"},"geometry":{"type":"Point","coordinates":[-64.0936,9.77039]}},{"type":"Feature","id":"node/5587004450","properties":{"name":"Bajo de la Cruz","place":"village"},"geometry":{"type":"Point","coordinates":[-64.11554,9.77801]}},{"type":"Feature","id":"node/5587004461","properties":{"name":"Piripire","place":"village"},"geometry":{"type":"Point","coordinates":[-64.24908,9.72644]}},{"type":"Feature","id":"node/5587004477","properties":{"name":"Oriju\u00e1n","place":"village"},"geometry":{"type":"Point","coordinates":[-64.39076,9.71917]}},{"type":"Feature","id":"node/5587004504","properties":{"name":"San Rafael","place":"village"},"geometry":{"type":"Point","coordinates":[-64.3987,9.96471]}},{"type":"Feature","id":"node/5587004506","properties":{"name":"Capaya","place":"village"},"geometry":{"type":"Point","coordinates":[-64.39357,9.96631]}},{"type":"Feature","id":"node/5587004509","properties":{"name":"Las Tablillas","place":"village"},"geometry":{"type":"Point","coordinates":[-64.43568,9.93534]}},{"type":"Feature","id":"node/5587004512","properties":{"name":"Los Botalones","place":"village"},"geometry":{"type":"Point","coordinates":[-64.45,9.93366]}},{"type":"Feature","id":"node/5599448934","properties":{"name":"Trapiche","place":"village"},"geometry":{"type":"Point","coordinates":[-63.99352,9.59728]}},{"type":"Feature","id":"node/5599449005","properties":{"name":"San Vicente","place":"village"},"geometry":{"type":"Point","coordinates":[-63.97829,9.58424]}},{"type":"Feature","id":"node/5599449025","properties":{"name":"Param\u00e1n","place":"village"},"geometry":{"type":"Point","coordinates":[-63.93471,9.57815]}},{"type":"Feature","id":"node/5599449120","properties":{"name":"Capachito","place":"village"},"geometry":{"type":"Point","coordinates":[-63.86849,9.56983]}},{"type":"Feature","id":"node/5599987081","properties":{"name":"El Carutico","place":"village"},"geometry":{"type":"Point","coordinates":[-64.39955,9.5924]}},{"type":"Feature","id":"node/5599987087","properties":{"name":"Guario","place":"village"},"geometry":{"type":"Point","coordinates":[-64.46842,9.38496]}},{"type":"Feature","id":"node/5599987091","properties":{"name":"Cruz Pilones","place":"village"},"geometry":{"type":"Point","coordinates":[-64.40585,9.4635]}},{"type":"Feature","id":"node/5599987118","properties":{"name":"La Leona","place":"village"},"geometry":{"type":"Point","coordinates":[-64.05113,9.63884]}},{"type":"Feature","id":"node/5599987137","properties":{"name":"La Isla","place":"village"},"geometry":{"type":"Point","coordinates":[-64.05664,9.60073]}},{"type":"Feature","id":"node/5601016036","properties":{"name":"Guanipa","place":"village"},"geometry":{"type":"Point","coordinates":[-64.40559,9.09735]}},{"type":"Feature","id":"node/5601016455","properties":{"name":"Pirara","place":"village"},"geometry":{"type":"Point","coordinates":[-64.44397,9.18614]}},{"type":"Feature","id":"node/5601016463","properties":{"name":"Parcelamiento San Joaqu\u00edn","place":"village"},"geometry":{"type":"Point","coordinates":[-64.43661,9.3149]}},{"type":"Feature","id":"node/5601016468","properties":{"name":"Las Potocas","place":"village"},"geometry":{"type":"Point","coordinates":[-64.26301,9.09968]}},{"type":"Feature","id":"node/5601016630","properties":{"name":"Maremare","place":"village"},"geometry":{"type":"Point","coordinates":[-64.28846,9.20438]}},{"type":"Feature","id":"node/5601016653","properties":{"name":"Santa Luc\u00eda","place":"village"},"geometry":{"type":"Point","coordinates":[-64.17762,9.23312]}},{"type":"Feature","id":"node/5601016655","properties":{"name":"San Antonio","place":"village"},"geometry":{"type":"Point","coordinates":[-64.17153,9.20111]}},{"type":"Feature","id":"node/5601016656","properties":{"name":"Araibel","place":"village"},"geometry":{"type":"Point","coordinates":[-64.17959,9.18703]}},{"type":"Feature","id":"node/5601016670","properties":{"name":"Chupururo","place":"village"},"geometry":{"type":"Point","coordinates":[-64.06544,9.20323]}},{"type":"Feature","id":"node/5601016678","properties":{"name":"Chig\u00fcita","place":"village"},"geometry":{"type":"Point","coordinates":[-64.06358,9.13527]}},{"type":"Feature","id":"node/5601016679","properties":{"name":"Santa Rita","place":"village"},"geometry":{"type":"Point","coordinates":[-64.08108,9.11817]}},{"type":"Feature","id":"node/5606757238","properties":{"name":"Los Mangos","place":"village"},"geometry":{"type":"Point","coordinates":[-63.78656,9.17548]}},{"type":"Feature","id":"node/5606757244","properties":{"name":"Nardo","place":"village"},"geometry":{"type":"Point","coordinates":[-63.98291,9.10418]}},{"type":"Feature","id":"node/5606757259","properties":{"name":"La Pistola","place":"village"},"geometry":{"type":"Point","coordinates":[-63.68856,8.98845]}},{"type":"Feature","id":"node/5606757266","properties":{"name":"Morichalote","place":"village"},"geometry":{"type":"Point","coordinates":[-63.47093,9.01575]}},{"type":"Feature","id":"node/5609909498","properties":{"name":"Las Bombitas","place":"village"},"geometry":{"type":"Point","coordinates":[-63.51619,8.73802]}},{"type":"Feature","id":"node/5609910785","properties":{"name":"Coloradito","place":"village"},"geometry":{"type":"Point","coordinates":[-63.48988,8.75301]}},{"type":"Feature","id":"node/5609910805","properties":{"name":"La Pe\u00f1a","place":"village"},"geometry":{"type":"Point","coordinates":[-63.37595,8.92944]}},{"type":"Feature","id":"node/5609910808","properties":{"name":"Corozal","place":"village"},"geometry":{"type":"Point","coordinates":[-63.36622,8.93285]}},{"type":"Feature","id":"node/5609981002","properties":{"name":"Castillito","place":"village"},"geometry":{"type":"Point","coordinates":[-63.39118,8.3348]}},{"type":"Feature","id":"node/5609981018","properties":{"name":"Las Mayitas","place":"village"},"geometry":{"type":"Point","coordinates":[-63.23585,8.3632]}},{"type":"Feature","id":"node/5610571080","properties":{"name":"La Cariba","place":"village"},"geometry":{"type":"Point","coordinates":[-63.53176,8.16118]}},{"type":"Feature","id":"node/5612098196","properties":{"name":"Tabare","place":"village"},"geometry":{"type":"Point","coordinates":[-63.88439,8.42629]}},{"type":"Feature","id":"node/5612098546","properties":{"name":"La Canoa","place":"village"},"geometry":{"type":"Point","coordinates":[-63.87469,8.6019]}},{"type":"Feature","id":"node/5612162825","properties":{"name":"El Merey","place":"village"},"geometry":{"type":"Point","coordinates":[-63.64097,8.81111]}},{"type":"Feature","id":"node/5612162866","properties":{"name":"El Burro","place":"village"},"geometry":{"type":"Point","coordinates":[-63.80439,8.83709]}},{"type":"Feature","id":"node/5612162875","properties":{"name":"Buena Vista","place":"village"},"geometry":{"type":"Point","coordinates":[-63.98476,8.87102]}},{"type":"Feature","id":"node/5612162974","properties":{"name":"La Concordia","place":"village"},"geometry":{"type":"Point","coordinates":[-63.93504,8.9414]}},{"type":"Feature","id":"node/5612162976","properties":{"name":"El Aisme","place":"village"},"geometry":{"type":"Point","coordinates":[-63.89438,8.96124]}},{"type":"Feature","id":"node/5612163074","properties":{"name":"Santa Fe","place":"village"},"geometry":{"type":"Point","coordinates":[-63.54622,8.96471]}},{"type":"Feature","id":"node/5613516822","properties":{"name":"Los Ca\u00f1os","place":"village"},"geometry":{"type":"Point","coordinates":[-64.26212,8.8068]}},{"type":"Feature","id":"node/5613516923","properties":{"name":"Las Piedras","place":"village"},"geometry":{"type":"Point","coordinates":[-64.17405,8.70396]}},{"type":"Feature","id":"node/5613516930","properties":{"name":"La Aventaz\u00f3n","place":"village"},"geometry":{"type":"Point","coordinates":[-64.20129,8.81097]}},{"type":"Feature","id":"node/5613668255","properties":{"name":"San Miguel","place":"village"},"geometry":{"type":"Point","coordinates":[-64.4787,8.25037]}},{"type":"Feature","id":"node/5613668281","properties":{"name":"M\u00facura","place":"village"},"geometry":{"type":"Point","coordinates":[-64.29345,8.3265]}},{"type":"Feature","id":"node/5613668468","properties":{"name":"Pueblo Viejo","place":"village"},"geometry":{"type":"Point","coordinates":[-64.31072,8.17148]}},{"type":"Feature","id":"node/5613668469","properties":{"name":"Mulatalito","place":"village"},"geometry":{"type":"Point","coordinates":[-64.27405,8.1451]}},{"type":"Feature","id":"node/5613668773","properties":{"name":"La Bocaina","place":"village"},"geometry":{"type":"Point","coordinates":[-64.11601,8.02912]}},{"type":"Feature","id":"node/5624304812","properties":{"name":"El Corozo","place":"village"},"geometry":{"type":"Point","coordinates":[-64.32959,8.62078]}},{"type":"Feature","id":"node/5628836480","properties":{"name":"La Reforma","place":"village"},"geometry":{"type":"Point","coordinates":[-64.95073,8.5155]}},{"type":"Feature","id":"node/5628837362","properties":{"name":"Cogollal","place":"village"},"geometry":{"type":"Point","coordinates":[-65.07658,8.57908]}},{"type":"Feature","id":"node/5628837442","properties":{"name":"El Puyazo Oeste","place":"village"},"geometry":{"type":"Point","coordinates":[-64.57534,7.98807]}},{"type":"Feature","id":"node/5628837652","properties":{"name":"El Puyazo","place":"village"},"geometry":{"type":"Point","coordinates":[-64.55844,8.0021]}},{"type":"Feature","id":"node/5628838095","properties":{"name":"El Catalinero","place":"village"},"geometry":{"type":"Point","coordinates":[-64.74554,8.34926]}},{"type":"Feature","id":"node/5628838224","properties":{"name":"El Guasey","place":"village"},"geometry":{"type":"Point","coordinates":[-64.54791,8.33593]}},{"type":"Feature","id":"node/5628838235","properties":{"name":"El Manguito","place":"village"},"geometry":{"type":"Point","coordinates":[-64.87551,8.67273]}},{"type":"Feature","id":"node/5628838243","properties":{"name":"Bello Monte","place":"village"},"geometry":{"type":"Point","coordinates":[-64.88562,8.66079]}},{"type":"Feature","id":"node/5628838259","properties":{"name":"Paradero","place":"village"},"geometry":{"type":"Point","coordinates":[-64.92853,8.51514]}},{"type":"Feature","id":"node/5628838375","properties":{"name":"Matapalo","place":"village"},"geometry":{"type":"Point","coordinates":[-64.79642,8.58601]}},{"type":"Feature","id":"node/5628838376","properties":{"name":"Arib\u00ed","place":"village"},"geometry":{"type":"Point","coordinates":[-64.77815,8.57629]}},{"type":"Feature","id":"node/5628838457","properties":{"name":"Rabanal","place":"village"},"geometry":{"type":"Point","coordinates":[-64.64053,8.61047]}},{"type":"Feature","id":"node/5628989368","properties":{"name":"La Violeta","place":"village"},"geometry":{"type":"Point","coordinates":[-64.59509,7.89552]}},{"type":"Feature","id":"node/5628989436","properties":{"name":"Cerro Quemado","place":"village"},"geometry":{"type":"Point","coordinates":[-64.59094,7.93214]}},{"type":"Feature","id":"node/5632870130","properties":{"name":"Guastrantal","place":"village"},"geometry":{"type":"Point","coordinates":[-64.98151,9.56118]}},{"type":"Feature","id":"node/5632870131","properties":{"name":"Uverito","place":"village"},"geometry":{"type":"Point","coordinates":[-64.98542,9.54893]}},{"type":"Feature","id":"node/5632870132","properties":{"name":"San Jos\u00e9","place":"village"},"geometry":{"type":"Point","coordinates":[-64.9807,9.59059]}},{"type":"Feature","id":"node/5632870137","properties":{"name":"Guatacaro","place":"village"},"geometry":{"type":"Point","coordinates":[-64.99915,9.50572]}},{"type":"Feature","id":"node/5632870163","properties":{"name":"El Cant\u00f3n","place":"village"},"geometry":{"type":"Point","coordinates":[-64.93319,9.47105]}},{"type":"Feature","id":"node/5632870169","properties":{"name":"Los Conejos","place":"village"},"geometry":{"type":"Point","coordinates":[-64.85747,9.49067]}},{"type":"Feature","id":"node/5632870172","properties":{"name":"Boquer\u00f3n","place":"village"},"geometry":{"type":"Point","coordinates":[-64.86169,9.47852]}},{"type":"Feature","id":"node/5632871037","properties":{"name":"El Caro","place":"village"},"geometry":{"type":"Point","coordinates":[-64.65447,9.53353]}},{"type":"Feature","id":"node/5632871041","properties":{"name":"Los Dividives","place":"village"},"geometry":{"type":"Point","coordinates":[-64.73565,9.50221]}},{"type":"Feature","id":"node/5632871065","properties":{"name":"Lechozal","place":"village"},"geometry":{"type":"Point","coordinates":[-64.60875,9.37932]}},{"type":"Feature","id":"node/5632871066","properties":{"name":"Los Cerritos","place":"village"},"geometry":{"type":"Point","coordinates":[-64.62995,9.36985]}},{"type":"Feature","id":"node/5632871147","properties":{"name":"Santa Fe","place":"village"},"geometry":{"type":"Point","coordinates":[-64.77605,9.35373]}},{"type":"Feature","id":"node/5632871230","properties":{"name":"Bajo Grande","place":"village"},"geometry":{"type":"Point","coordinates":[-64.80629,9.42855]}},{"type":"Feature","id":"node/5632871231","properties":{"name":"Ventorrillo","place":"village"},"geometry":{"type":"Point","coordinates":[-64.82125,9.42212]}},{"type":"Feature","id":"node/5632871301","properties":{"name":"Chaparral","place":"village"},"geometry":{"type":"Point","coordinates":[-64.89553,9.2594]}},{"type":"Feature","id":"node/5632871302","properties":{"name":"Manzanares","place":"village"},"geometry":{"type":"Point","coordinates":[-64.93682,9.25637]}},{"type":"Feature","id":"node/5632871303","properties":{"name":"Barrio Blanco","place":"village"},"geometry":{"type":"Point","coordinates":[-64.93455,9.23669]}},{"type":"Feature","id":"node/5632871424","properties":{"name":"San Luis","place":"village"},"geometry":{"type":"Point","coordinates":[-64.86925,9.2045]}},{"type":"Feature","id":"node/5632871464","properties":{"name":"Chorochoro Arriba","place":"village"},"geometry":{"type":"Point","coordinates":[-64.55813,9.33142]}},{"type":"Feature","id":"node/5632871472","properties":{"name":"Pueblo Nuevo","place":"village"},"geometry":{"type":"Point","coordinates":[-64.59716,9.29875]}},{"type":"Feature","id":"node/5632871681","properties":{"name":"Las Piedritas","place":"village"},"geometry":{"type":"Point","coordinates":[-64.67622,8.91002]}},{"type":"Feature","id":"node/5632872025","properties":{"name":"Cabeceras del Pao","place":"village"},"geometry":{"type":"Point","coordinates":[-64.5212,8.90432]}},{"type":"Feature","id":"node/5632872162","properties":{"name":"Las Matas","place":"town"},"geometry":{"type":"Point","coordinates":[-64.66422,8.78629]}},{"type":"Feature","id":"node/5632872165","properties":{"name":"Las Nieves","place":"village"},"geometry":{"type":"Point","coordinates":[-64.64098,8.80009]}},{"type":"Feature","id":"node/5632872166","properties":{"name":"El Manguito","place":"village"},"geometry":{"type":"Point","coordinates":[-64.6201,8.80021]}},{"type":"Feature","id":"node/5644366428","properties":{"name":"El Cuj\u00ed","place":"village"},"geometry":{"type":"Point","coordinates":[-65.06543,9.25144]}},{"type":"Feature","id":"node/5644366434","properties":{"name":"Fernandero","place":"village"},"geometry":{"type":"Point","coordinates":[-65.07496,9.28594]}},{"type":"Feature","id":"node/5644366485","properties":{"name":"La Ceiba","place":"village"},"geometry":{"type":"Point","coordinates":[-65.08307,9.61927]}},{"type":"Feature","id":"node/5644366505","properties":{"name":"San Juan","place":"village"},"geometry":{"type":"Point","coordinates":[-65.03373,9.46697]}},{"type":"Feature","id":"node/5644366508","properties":{"name":"Caricare","place":"village"},"geometry":{"type":"Point","coordinates":[-64.96249,9.432]}},{"type":"Feature","id":"node/5644366511","properties":{"name":"La Ceiba","place":"village"},"geometry":{"type":"Point","coordinates":[-65.06549,9.36107]}},{"type":"Feature","id":"node/5644366523","properties":{"name":"La Palmita","place":"village"},"geometry":{"type":"Point","coordinates":[-65.05836,9.42605]}},{"type":"Feature","id":"node/5644366628","properties":{"name":"La Paulinera","place":"village"},"geometry":{"type":"Point","coordinates":[-65.11613,9.39467]}},{"type":"Feature","id":"node/5644366647","properties":{"name":"Guamachito","place":"village"},"geometry":{"type":"Point","coordinates":[-65.01411,9.89747]}},{"type":"Feature","id":"node/5644366678","properties":{"name":"El Sapo","place":"village"},"geometry":{"type":"Point","coordinates":[-65.01935,9.91045]}},{"type":"Feature","id":"node/5644366694","properties":{"name":"Los Barrancones","place":"village"},"geometry":{"type":"Point","coordinates":[-65.12252,9.77467]}},{"type":"Feature","id":"node/5644366702","properties":{"name":"La Busca","place":"village"},"geometry":{"type":"Point","coordinates":[-65.01977,9.74906]}},{"type":"Feature","id":"node/5644366703","properties":{"name":"San Lorenzo","place":"village"},"geometry":{"type":"Point","coordinates":[-65.01638,9.74838]}},{"type":"Feature","id":"node/5644366743","properties":{"name":"San Francisco","place":"village"},"geometry":{"type":"Point","coordinates":[-65.05117,9.83329]}},{"type":"Feature","id":"node/5644366751","properties":{"name":"El Paradero (Salistral)","place":"village"},"geometry":{"type":"Point","coordinates":[-65.06361,9.7635]}},{"type":"Feature","id":"node/5644366753","properties":{"name":"Rabanal","place":"village"},"geometry":{"type":"Point","coordinates":[-65.05747,9.74586]}},{"type":"Feature","id":"node/5644366754","properties":{"name":"Terronal","place":"village"},"geometry":{"type":"Point","coordinates":[-65.05203,9.73408]}},{"type":"Feature","id":"node/5644366853","properties":{"name":"La Encantada","place":"town"},"geometry":{"type":"Point","coordinates":[-65.16843,9.69786]}},{"type":"Feature","id":"node/5644366862","properties":{"name":"Mapurite","place":"village"},"geometry":{"type":"Point","coordinates":[-65.1864,9.60544]}},{"type":"Feature","id":"node/5644366922","properties":{"name":"Santa Teresa","place":"village"},"geometry":{"type":"Point","coordinates":[-65.30496,9.58673]}},{"type":"Feature","id":"node/5644366923","properties":{"name":"Granadillo","place":"village"},"geometry":{"type":"Point","coordinates":[-65.3034,9.62358]}},{"type":"Feature","id":"node/5644366924","properties":{"name":"La Villa","place":"village"},"geometry":{"type":"Point","coordinates":[-65.30414,9.64919]}},{"type":"Feature","id":"node/5644366926","properties":{"name":"Los Lechozos","place":"village"},"geometry":{"type":"Point","coordinates":[-65.30901,9.66661]}},{"type":"Feature","id":"node/5644367011","properties":{"name":"Turmero","place":"village"},"geometry":{"type":"Point","coordinates":[-65.32649,9.69359]}},{"type":"Feature","id":"node/5644367299","properties":{"name":"Palo Sano","place":"village"},"geometry":{"type":"Point","coordinates":[-65.39636,9.58985]}},{"type":"Feature","id":"node/5644368662","properties":{"name":"Los Caros","place":"village"},"geometry":{"type":"Point","coordinates":[-65.52948,9.89169]}},{"type":"Feature","id":"node/5644368663","properties":{"name":"Manzano","place":"village"},"geometry":{"type":"Point","coordinates":[-65.47658,9.89141]}},{"type":"Feature","id":"node/5644368664","properties":{"name":"El Quisando","place":"village"},"geometry":{"type":"Point","coordinates":[-65.47744,9.86014]}},{"type":"Feature","id":"node/5644368666","properties":{"name":"El Mamey","place":"village"},"geometry":{"type":"Point","coordinates":[-65.5232,9.86742]}},{"type":"Feature","id":"node/5644368668","properties":{"name":"La Cirilera","place":"village"},"geometry":{"type":"Point","coordinates":[-65.49997,9.83698]}},{"type":"Feature","id":"node/5644368669","properties":{"name":"La Esperanza","place":"village"},"geometry":{"type":"Point","coordinates":[-65.4986,9.80493]}},{"type":"Feature","id":"node/5644368714","properties":{"name":"El Salado","place":"village"},"geometry":{"type":"Point","coordinates":[-65.52396,9.75675]}},{"type":"Feature","id":"node/5644368800","properties":{"name":"Las Palomas","place":"village"},"geometry":{"type":"Point","coordinates":[-65.54907,9.7094]}},{"type":"Feature","id":"node/5644368801","properties":{"name":"La Granza","place":"village"},"geometry":{"type":"Point","coordinates":[-65.52279,9.71349]}},{"type":"Feature","id":"node/5644368802","properties":{"name":"La Pintera","place":"village"},"geometry":{"type":"Point","coordinates":[-65.50998,9.73526]}},{"type":"Feature","id":"node/5644368943","properties":{"name":"Basura","place":"village"},"geometry":{"type":"Point","coordinates":[-65.43622,9.8566]}},{"type":"Feature","id":"node/5644368951","properties":{"name":"Guanapito","place":"village"},"geometry":{"type":"Point","coordinates":[-65.36423,9.84105]}},{"type":"Feature","id":"node/5644368952","properties":{"name":"Corcovado","place":"village"},"geometry":{"type":"Point","coordinates":[-65.37232,9.79307]}},{"type":"Feature","id":"node/5644368953","properties":{"name":"La Esperanza","place":"village"},"geometry":{"type":"Point","coordinates":[-65.3602,9.82486]}},{"type":"Feature","id":"node/5644369325","properties":{"name":"Guaribe","place":"town"},"geometry":{"type":"Point","coordinates":[-65.48632,9.75853]}},{"type":"Feature","id":"node/5644369327","properties":{"name":"Cambural","place":"village"},"geometry":{"type":"Point","coordinates":[-65.36134,9.76486]}},{"type":"Feature","id":"node/5644369507","properties":{"name":"Las Flores","place":"village"},"geometry":{"type":"Point","coordinates":[-65.43815,9.6759]}},{"type":"Feature","id":"node/5644369508","properties":{"name":"El Lim\u00f3n","place":"village"},"geometry":{"type":"Point","coordinates":[-65.41929,9.68241]}},{"type":"Feature","id":"node/5644369509","properties":{"name":"Los Raizones","place":"village"},"geometry":{"type":"Point","coordinates":[-65.40222,9.69425]}},{"type":"Feature","id":"node/5644369510","properties":{"name":"Palosano","place":"village"},"geometry":{"type":"Point","coordinates":[-65.35216,9.71986]}},{"type":"Feature","id":"node/5644370194","properties":{"name":"La Verdosa","place":"village"},"geometry":{"type":"Point","coordinates":[-65.34069,9.67715]}},{"type":"Feature","id":"node/5644370195","properties":{"name":"Crucero Granadillo","place":"village"},"geometry":{"type":"Point","coordinates":[-65.35391,9.73516]}},{"type":"Feature","id":"node/5644370202","properties":{"name":"Herrera","place":"village"},"geometry":{"type":"Point","coordinates":[-65.28193,9.76879]}},{"type":"Feature","id":"node/5644370203","properties":{"name":"Carrizalito","place":"village"},"geometry":{"type":"Point","coordinates":[-65.26858,9.77736]}},{"type":"Feature","id":"node/5644370216","properties":{"name":"Boca de Guaribe","place":"village"},"geometry":{"type":"Point","coordinates":[-65.17634,9.88831]}},{"type":"Feature","id":"node/5644370440","properties":{"name":"Maparaca","place":"village"},"geometry":{"type":"Point","coordinates":[-65.17312,9.89688]}},{"type":"Feature","id":"node/5644370459","properties":{"name":"San Jos\u00e9","place":"village"},"geometry":{"type":"Point","coordinates":[-65.14679,9.89497]}},{"type":"Feature","id":"node/5644370460","properties":{"name":"Carutico","place":"village"},"geometry":{"type":"Point","coordinates":[-65.15962,9.88663]}},{"type":"Feature","id":"node/5644370483","properties":{"name":"Puente Unare","place":"village"},"geometry":{"type":"Point","coordinates":[-65.14971,9.85212]}},{"type":"Feature","id":"node/5644370497","properties":{"name":"Santa Fe","place":"village"},"geometry":{"type":"Point","coordinates":[-65.07112,9.86849]}},{"type":"Feature","id":"node/5644370500","properties":{"name":"Capachal","place":"village"},"geometry":{"type":"Point","coordinates":[-65.06527,9.91077]}},{"type":"Feature","id":"node/5644370504","properties":{"name":"Taquecito","place":"village"},"geometry":{"type":"Point","coordinates":[-65.05494,9.93685]}},{"type":"Feature","id":"node/5644370505","properties":{"name":"El Tigre","place":"village"},"geometry":{"type":"Point","coordinates":[-65.08913,9.92455]}},{"type":"Feature","id":"node/5644370506","properties":{"name":"Guayabal","place":"village"},"geometry":{"type":"Point","coordinates":[-65.06008,9.92532]}},{"type":"Feature","id":"node/5644370508","properties":{"name":"Los Dos Caminos","place":"village"},"geometry":{"type":"Point","coordinates":[-65.08706,9.941]}},{"type":"Feature","id":"node/5644370510","properties":{"name":"Pajarito","place":"village"},"geometry":{"type":"Point","coordinates":[-65.0643,9.98849]}},{"type":"Feature","id":"node/5644370627","properties":{"name":"La Requenera","place":"village"},"geometry":{"type":"Point","coordinates":[-65.05884,9.94645]}},{"type":"Feature","id":"node/5644370628","properties":{"name":"El Rinc\u00f3n","place":"village"},"geometry":{"type":"Point","coordinates":[-65.0146,9.9671]}},{"type":"Feature","id":"node/5644370631","properties":{"name":"Pirital","place":"village"},"geometry":{"type":"Point","coordinates":[-65.04056,9.95934]}},{"type":"Feature","id":"node/5644370632","properties":{"name":"Pozo Hondo","place":"village"},"geometry":{"type":"Point","coordinates":[-65.05267,9.9527]}},{"type":"Feature","id":"node/5644370633","properties":{"name":"Cardoncito","place":"village"},"geometry":{"type":"Point","coordinates":[-65.05129,9.96443]}},{"type":"Feature","id":"node/5644370635","properties":{"name":"San Antonio","place":"village"},"geometry":{"type":"Point","coordinates":[-65.04831,9.98502]}},{"type":"Feature","id":"node/5644370657","properties":{"name":"Chavito","place":"village"},"geometry":{"type":"Point","coordinates":[-65.435,10.04378]}},{"type":"Feature","id":"node/5644370661","properties":{"name":"Caracolito","place":"village"},"geometry":{"type":"Point","coordinates":[-65.45789,10.02124]}},{"type":"Feature","id":"node/5644370675","properties":{"name":"El Lim\u00f3n","place":"village"},"geometry":{"type":"Point","coordinates":[-65.48339,10.02548]}},{"type":"Feature","id":"node/5644370676","properties":{"name":"La Victoria","place":"village"},"geometry":{"type":"Point","coordinates":[-65.47334,10.03491]}},{"type":"Feature","id":"node/5644370699","properties":{"name":"Murgua","place":"village"},"geometry":{"type":"Point","coordinates":[-65.45426,9.96694]}},{"type":"Feature","id":"node/5644370707","properties":{"name":"La Guasimita","place":"village"},"geometry":{"type":"Point","coordinates":[-65.42616,9.91726]}},{"type":"Feature","id":"node/5644370708","properties":{"name":"El Guamo","place":"village"},"geometry":{"type":"Point","coordinates":[-65.44392,9.923]}},{"type":"Feature","id":"node/5644370709","properties":{"name":"San Ram\u00f3n","place":"village"},"geometry":{"type":"Point","coordinates":[-65.3718,9.91739]}},{"type":"Feature","id":"node/5644370858","properties":{"name":"Maracual","place":"village"},"geometry":{"type":"Point","coordinates":[-65.35569,9.92783]}},{"type":"Feature","id":"node/5644370860","properties":{"name":"Ca\u00f1o Amarillo","place":"village"},"geometry":{"type":"Point","coordinates":[-65.34426,9.97468]}},{"type":"Feature","id":"node/5644370864","properties":{"name":"El Alambre","place":"village"},"geometry":{"type":"Point","coordinates":[-65.31735,9.99485]}},{"type":"Feature","id":"node/5644370868","properties":{"name":"Santa Cruz","place":"village"},"geometry":{"type":"Point","coordinates":[-65.27157,9.95633]}},{"type":"Feature","id":"node/5644370875","properties":{"name":"La Mascota","place":"village"},"geometry":{"type":"Point","coordinates":[-65.02395,10.01179]}},{"type":"Feature","id":"node/5644370876","properties":{"name":"Pueblo Viejo","place":"town"},"geometry":{"type":"Point","coordinates":[-65.03727,10.00744]}},{"type":"Feature","id":"node/5644370877","properties":{"name":"La Median\u00eda","place":"village"},"geometry":{"type":"Point","coordinates":[-65.07131,9.99689]}},{"type":"Feature","id":"node/5644370878","properties":{"name":"Santa Clara","place":"village"},"geometry":{"type":"Point","coordinates":[-65.1224,9.92671]}},{"type":"Feature","id":"node/5644370879","properties":{"name":"El Cuatro","place":"village"},"geometry":{"type":"Point","coordinates":[-65.13472,9.93939]}},{"type":"Feature","id":"node/5644370902","properties":{"name":"Pachaquito","place":"town"},"geometry":{"type":"Point","coordinates":[-65.10148,9.9783]}},{"type":"Feature","id":"node/5644370917","properties":{"name":"Las Pe\u00f1itas","place":"village"},"geometry":{"type":"Point","coordinates":[-65.13058,9.96262]}},{"type":"Feature","id":"node/5644370918","properties":{"name":"Maraca","place":"village"},"geometry":{"type":"Point","coordinates":[-65.13142,9.97111]}},{"type":"Feature","id":"node/5644370945","properties":{"name":"La Cerca","place":"village"},"geometry":{"type":"Point","coordinates":[-65.20985,10.09889]}},{"type":"Feature","id":"node/5644370953","properties":{"name":"Puerto Unare","place":"village"},"geometry":{"type":"Point","coordinates":[-65.20602,10.0801]}},{"type":"Feature","id":"node/5644370956","properties":{"name":"El Hatillo","place":"town"},"geometry":{"type":"Point","coordinates":[-65.23248,10.10311]}},{"type":"Feature","id":"node/5644370960","properties":{"name":"El Cuj\u00ed","place":"village"},"geometry":{"type":"Point","coordinates":[-65.34477,10.12009]}},{"type":"Feature","id":"node/5644370961","properties":{"name":"Parcelamiento Marlago","place":"village"},"geometry":{"type":"Point","coordinates":[-65.36146,10.12345]}},{"type":"Feature","id":"node/5644370962","properties":{"name":"Parcelamiento Mata Sol","place":"village"},"geometry":{"type":"Point","coordinates":[-65.3317,10.11758]}},{"type":"Feature","id":"node/5644370963","properties":{"name":"Parcelamiento Boca Nueva","place":"village"},"geometry":{"type":"Point","coordinates":[-65.3061,10.11289]}},{"type":"Feature","id":"node/5644370964","properties":{"name":"Boca de Ch\u00e1vez","place":"village"},"geometry":{"type":"Point","coordinates":[-65.37294,10.09053]}},{"type":"Feature","id":"node/5644370966","properties":{"name":"Cautaro","place":"village"},"geometry":{"type":"Point","coordinates":[-65.35777,10.0688]}},{"type":"Feature","id":"node/5644370968","properties":{"name":"San Juan","place":"village"},"geometry":{"type":"Point","coordinates":[-65.34853,10.05718]}},{"type":"Feature","id":"node/5644371012","properties":{"name":"Agua Calientica","place":"village"},"geometry":{"type":"Point","coordinates":[-65.32069,10.03244]}},{"type":"Feature","id":"node/5644371013","properties":{"name":"Agua Caliente","place":"village"},"geometry":{"type":"Point","coordinates":[-65.33156,10.03083]}},{"type":"Feature","id":"node/5651349626","properties":{"name":"Mamonal","place":"village"},"geometry":{"type":"Point","coordinates":[-65.60469,9.84661]}},{"type":"Feature","id":"node/5651349628","properties":{"name":"Arenas","place":"village"},"geometry":{"type":"Point","coordinates":[-65.54703,9.79381]}},{"type":"Feature","id":"node/5651349629","properties":{"name":"Picadero","place":"village"},"geometry":{"type":"Point","coordinates":[-65.57946,9.79958]}},{"type":"Feature","id":"node/5651349644","properties":{"name":"Kil\u00f3metro 128","place":"village"},"geometry":{"type":"Point","coordinates":[-65.6083,9.60462]}},{"type":"Feature","id":"node/5651349645","properties":{"name":"Kil\u00f3metro 127","place":"village"},"geometry":{"type":"Point","coordinates":[-65.59638,9.61308]}},{"type":"Feature","id":"node/5651349646","properties":{"name":"El Caribe","place":"village"},"geometry":{"type":"Point","coordinates":[-65.56861,9.62755]}},{"type":"Feature","id":"node/5651349656","properties":{"name":"Las Cocuizas","place":"village"},"geometry":{"type":"Point","coordinates":[-65.65678,9.79156]}},{"type":"Feature","id":"node/5651349657","properties":{"name":"Los Raizones","place":"village"},"geometry":{"type":"Point","coordinates":[-65.66335,9.7967]}},{"type":"Feature","id":"node/5651349737","properties":{"name":"Santa Cruz","place":"village"},"geometry":{"type":"Point","coordinates":[-65.69685,9.81541]}},{"type":"Feature","id":"node/5651351947","properties":{"name":"Santa B\u00e1rbara de Uchire","place":"village"},"geometry":{"type":"Point","coordinates":[-65.58771,9.9917]}},{"type":"Feature","id":"node/5651351961","properties":{"name":"Las Chaguaramas","place":"village"},"geometry":{"type":"Point","coordinates":[-65.56531,9.9869]}},{"type":"Feature","id":"node/5651351967","properties":{"name":"Mayares","place":"village"},"geometry":{"type":"Point","coordinates":[-65.54702,9.91041]}},{"type":"Feature","id":"node/5651351969","properties":{"name":"Canillar","place":"village"},"geometry":{"type":"Point","coordinates":[-65.57829,9.88707]}},{"type":"Feature","id":"node/5651352805","properties":{"name":"Tequename","place":"village"},"geometry":{"type":"Point","coordinates":[-65.60004,9.93573]}},{"type":"Feature","id":"node/5651352806","properties":{"name":"Granadillo","place":"village"},"geometry":{"type":"Point","coordinates":[-65.60124,9.94872]}},{"type":"Feature","id":"node/5651352810","properties":{"name":"Las Chaguaramas","place":"town"},"geometry":{"type":"Point","coordinates":[-65.6211,9.89661]}},{"type":"Feature","id":"node/5651352997","properties":{"name":"Jabillar","place":"village"},"geometry":{"type":"Point","coordinates":[-65.63181,9.9333]}},{"type":"Feature","id":"node/5651353370","properties":{"name":"Pe\u00f1as Blancas","place":"village"},"geometry":{"type":"Point","coordinates":[-65.66606,9.94653]}},{"type":"Feature","id":"node/5651353377","properties":{"name":"Porsiacaso (El Rinc\u00f3n)","place":"village"},"geometry":{"type":"Point","coordinates":[-65.68418,9.94036]}},{"type":"Feature","id":"node/5651354134","properties":{"name":"Santa B\u00e1rbara","place":"town"},"geometry":{"type":"Point","coordinates":[-65.69148,9.9732]}},{"type":"Feature","id":"node/5651354135","properties":{"name":"La Caridad","place":"village"},"geometry":{"type":"Point","coordinates":[-65.70832,9.97209]}},{"type":"Feature","id":"node/5694871628","properties":{"name":"El Chucuto","place":"village"},"geometry":{"type":"Point","coordinates":[-62.79446,8.44431]}},{"type":"Feature","id":"node/8395683661","properties":{"name":"Tascaba\u00f1a II","place":"village"},"geometry":{"type":"Point","coordinates":[-64.37821,9.09181]}},{"type":"Feature","id":"node/8429634211","properties":{"name":"La Florida","place":"village"},"geometry":{"type":"Point","coordinates":[-64.28973,8.99925]}},{"type":"Feature","id":"node/8429634212","properties":{"name":"Los Mangos","place":"village"},"geometry":{"type":"Point","coordinates":[-64.29227,9.00591]}},{"type":"Feature","id":"node/8433572782","properties":{"name":"Santa Rosa de Las Magnolias","place":"village"},"geometry":{"type":"Point","coordinates":[-64.28106,8.95174]}},{"type":"Feature","id":"node/8692003296","properties":{"name":"San Andr\u00e9s","place":"village"},"geometry":{"type":"Point","coordinates":[-63.91632,9.1888]}},{"type":"Feature","id":"node/8693861697","properties":{"name":"Sombrerito","place":"village"},"geometry":{"type":"Point","coordinates":[-64.2045,9.08913]}},{"type":"Feature","id":"node/8693861698","properties":{"name":"Mapiricurito","place":"village"},"geometry":{"type":"Point","coordinates":[-64.18798,9.0892]}},{"type":"Feature","id":"node/10635088855","properties":{"name":"Guarapera Sur","place":"village"},"geometry":{"type":"Point","coordinates":[-64.16462,8.81606]}},{"type":"Feature","id":"node/10647750152","properties":{"name":"Las Delicias","place":"village"},"geometry":{"type":"Point","coordinates":[-64.24869,8.82831]}}]}