{"type":"FeatureCollection","features":[{"type":"Feature","id":"relation/2269770","properties":{"name":"Nueva Esparta","level":4},"geometry":{"type":"Polygon","coordinates":[[[-63.78475,11.15241],[-63.84073,11.22393],[-63.86092,11.23547],[-63.88406,11.23843],[-63.89892,11.2355],[-63.91369,11.2282],[-63.93005,11.21535],[-63.95787,11.18726],[-63.97201,11.18786],[-63.9861,11.1851],[-63.99944,11.17897],[-64.01078,11.16992],[-64.01984,11.15793],[-64.03898,11.11986],[-64.05443,11.10789],[-64.06576,11.09197],[-64.07113,11.07747],[-64.07497,11.04704],[-64.07758,11.04145],[-64.11096,11.05045],[-64.1354,11.06542],[-64.13688,11.09464],[-64.14591,11.11588],[-64.16369,11.13277],[-64.18928,11.14246],[-64.22474,11.14361],[-64.27139,11.12541],[-64.29096,11.12945],[-64.3061,11.12898],[-64.32085,11.12493],[-64.34105,11.11506],[-64.37643,11.10942],[-64.41469,11.09309],[-64.42539,11.08453],[-64.4345,11.07258],[-64.44219,11.05088],[-64.44253,11.03044],[-64.45812,11.01048],[-64.4661,10.98743],[-64.46801,10.97123],[-64.46572,10.95644],[-64.4604,10.94388],[-64.45136,10.93189],[-64.43953,10.92255],[-64.42624,10.91656],[-64.34977,10.89813],[-64.33061,10.8974],[-64.30568,10.88718],[-64.27316,10.88577],[-64.24223,10.88074],[-64.26505,10.86169],[-64.274,10.85135],[-64.28185,10.83513],[-64.28458,10.81768],[-64.28025,10.79547],[-64.26583,10.76988],[-64.25455,10.75645],[-64.24083,10.74739],[-64.22363,10.74212],[-64.19482,10.74061],[-64.17213,10.74244],[-64.13415,10.75011],[-64.11958,10.75686],[-64.10708,10.76751],[-64.09316,10.78535],[-64.08364,10.80611],[-64.07023,10.80297],[-64.0552,10.80299],[-64.05938,10.7833],[-64.05765,10.76573],[-64.0507,10.74946],[-64.03846,10.73504],[-64.02721,10.72721],[-64.01014,10.71982],[-63.9852,10.7209],[-63.95978,10.71496],[-63.94009,10.70453],[-63.92354,10.69031],[-63.9003,10.70992],[-63.85314,10.73175],[-63.82949,10.76388],[-63.83575,10.78884],[-63.8544,10.82047],[-63.86496,10.83299],[-63.85036,10.8436],[-63.83867,10.85882],[-63.83209,10.87229],[-63.82915,10.88726],[-63.80975,10.88621],[-63.79249,10.89078],[-63.77951,10.89848],[-63.76849,10.90976],[-63.75133,10.92003],[-63.73737,10.93763],[-63.73092,10.96004],[-63.72059,10.97943],[-63.71769,10.99939],[-63.72144,11.01908],[-63.74036,11.05003],[-63.75697,11.07175],[-63.77558,11.10714],[-63.77961,11.11872],[-63.78032,11.13955],[-63.78475,11.15241]]]}}]}