{"type":"FeatureCollection","features":[{"type":"Feature","id":"relation/8150242","properties":{"name":"Municipio Marcano","level":6,"population":"35691"},"geometry":{"type":"Polygon","coordinates":[[[-63.97682,11.11089],[-63.98202,11.11997],[-63.99046,11.1048],[-63.99073,11.09664],[-63.98574,11.08068],[-63.99678,11.07692],[-64.00289,11.07804],[-64.01525,11.07539],[-64.0211,11.06782],[-64.02285,11.05642],[-64.01531,11.05091],[-64.01202,11.05133],[-63.99579,11.03544],[-63.99339,11.03021],[-63.97886,11.02249],[-63.96838,11.03016],[-63.95797,11.031],[-63.95387,11.03854],[-63.95145,11.05221],[-63.94473,11.05311],[-63.94392,11.05693],[-63.96161,11.08252],[-63.97682,11.11089]]]}},{"type":"Feature","id":"relation/8150243","properties":{"name":"Municipio G\u00f3mez","level":6,"population":"40409"},"geometry":{"type":"Polygon","coordinates":[[[-63.91613,11.14785],[-63.92916,11.13393],[-63.93675,11.13354],[-63.94219,11.12622],[-63.95342,11.12133],[-63.9617,11.12271],[-63.95879,11.1292],[-63.96134,11.13532],[-63.97091,11.13715],[-63.97663,11.12942],[-63.97229,11.12151],[-63.98202,11.11997],[-63.96161,11.08252],[-63.94392,11.05693],[-63.94473,11.05311],[-63.95145,11.05221],[-63.95387,11.03854],[-63.94269,11.03304],[-63.93913,11.03571],[-63.92839,11.03712],[-63.91579,11.02503],[-63.90229,11.02171],[-63.90101,11.01901],[-63.89695,11.02302],[-63.8951,11.03042],[-63.88666,11.03579],[-63.88493,11.04229],[-63.88705,11.06747],[-63.88489,11.08123],[-63.88811,11.08414],[-63.89312,11.08105],[-63.90162,11.08601],[-63.90286,11.09404],[-63.88491,11.10841],[-63.88541,11.12856],[-63.89344,11.13594],[-63.89901,11.13216],[-63.90308,11.13296],[-63.91249,11.13937],[-63.91613,11.14785]]]}},{"type":"Feature","id":"relation/8150244","properties":{"name":"Municipio Antol\u00edn del Campo","level":6,"population":"28294"},"geometry":{"type":"Polygon","coordinates":[[[-63.91613,11.14785],[-63.91249,11.13937],[-63.90308,11.13296],[-63.89901,11.13216],[-63.89344,11.13594],[-63.88554,11.12893],[-63.88491,11.10841],[-63.90286,11.09404],[-63.90162,11.08601],[-63.89264,11.08092],[-63.88936,11.08396],[-63.88545,11.08245],[-63.88705,11.06514],[-63.8852,11.06193],[-63.86354,11.05948],[-63.85782,11.06268],[-63.85015,11.06037],[-63.84276,11.06339],[-63.83662,11.06303],[-63.83243,11.06007],[-63.82376,11.06608],[-63.81271,11.06741],[-63.82754,11.10182],[-63.83537,11.11369],[-63.83508,11.11943],[-63.83015,11.12495],[-63.83077,11.13101],[-63.83429,11.13461],[-63.84147,11.13655],[-63.86162,11.15614],[-63.86155,11.16146],[-63.86494,11.16611],[-63.86462,11.17326],[-63.87437,11.18625],[-63.88323,11.1877],[-63.89445,11.17948],[-63.90082,11.17057],[-63.90114,11.16433],[-63.91137,11.16183],[-63.91639,11.15819],[-63.91797,11.15319],[-63.91613,11.14785]]]}},{"type":"Feature","id":"relation/8150245","properties":{"name":"Municipio Arismendi","level":6,"population":"28309"},"geometry":{"type":"Polygon","coordinates":[[[-63.79764,11.04129],[-63.81271,11.06741],[-63.82376,11.06608],[-63.83243,11.06007],[-63.83662,11.06303],[-63.84276,11.06339],[-63.85015,11.06037],[-63.85782,11.06268],[-63.86354,11.05948],[-63.8852,11.06193],[-63.88666,11.03579],[-63.8951,11.03042],[-63.89695,11.02302],[-63.90101,11.01901],[-63.90137,11.01269],[-63.90086,11.01106],[-63.89351,11.01134],[-63.88379,11.01553],[-63.88703,11.00815],[-63.88645,11.00232],[-63.88341,10.99871],[-63.87962,10.99697],[-63.87534,10.99931],[-63.86386,10.99648],[-63.85754,10.99945],[-63.85625,10.99788],[-63.85312,10.99925],[-63.84816,11.01594],[-63.83541,11.01913],[-63.83145,11.02285],[-63.83175,11.02778],[-63.80992,11.0322],[-63.79764,11.04129]]]}},{"type":"Feature","id":"relation/8150246","properties":{"name":"Municipio Maneiro","level":6,"population":"48952"},"geometry":{"type":"MultiPolygon","coordinates":[[[[-63.80038,10.9671],[-63.80009,10.95962],[-63.79446,10.95544],[-63.78589,10.95708],[-63.78171,10.96296],[-63.78298,10.96915],[-63.78838,10.97288],[-63.79626,10.9715],[-63.80038,10.9671]]],[[[-63.80436,11.03616],[-63.81013,11.03213],[-63.83175,11.02778],[-63.83145,11.02285],[-63.83541,11.01913],[-63.84899,11.01518],[-63.85312,10.99925],[-63.85636,10.99733],[-63.85641,10.98992],[-63.85346,10.98646],[-63.85024,10.98442],[-63.84557,10.98577],[-63.84063,10.9824],[-63.83573,10.98739],[-63.83297,10.98508],[-63.81829,10.98363],[-63.80795,10.97125],[-63.79821,10.97576],[-63.79276,10.98646],[-63.77958,10.98634],[-63.77141,10.99054],[-63.76869,10.99614],[-63.76924,11.00195],[-63.78337,11.02319],[-63.79764,11.04129],[-63.80436,11.03616]]]]}},{"type":"Feature","id":"relation/8150247","properties":{"name":"Municipio Mari\u00f1o","level":6,"population":"97667"},"geometry":{"type":"Polygon","coordinates":[[[-63.89358,10.88531],[-63.89148,10.87662],[-63.88628,10.87914],[-63.88062,10.88736],[-63.88114,10.90797],[-63.87799,10.92504],[-63.87628,10.93054],[-63.86839,10.93692],[-63.85976,10.93656],[-63.8534,10.9405],[-63.84695,10.94],[-63.83595,10.94775],[-63.82581,10.93825],[-63.81543,10.93613],[-63.80945,10.9395],[-63.80742,10.94913],[-63.81054,10.96663],[-63.80795,10.97125],[-63.8156,10.98167],[-63.83573,10.98739],[-63.84063,10.9824],[-63.84557,10.98577],[-63.85024,10.98442],[-63.85423,10.98727],[-63.86343,10.97922],[-63.86389,10.96702],[-63.86108,10.96368],[-63.86947,10.9584],[-63.87858,10.96577],[-63.88029,10.97045],[-63.88702,10.97295],[-63.89247,10.97208],[-63.89625,10.95797],[-63.90296,10.95072],[-63.90256,10.9465],[-63.89908,10.94623],[-63.89883,10.93854],[-63.9041,10.9369],[-63.89358,10.88531]]]}},{"type":"Feature","id":"relation/8150248","properties":{"name":"Municipio Garc\u00eda","level":6,"population":"68490"},"geometry":{"type":"Polygon","coordinates":[[[-63.95418,10.88937],[-63.91189,10.87846],[-63.90672,10.87476],[-63.89185,10.87661],[-63.9041,10.9369],[-63.89883,10.93854],[-63.89908,10.94623],[-63.90256,10.9465],[-63.90296,10.95072],[-63.89625,10.95797],[-63.89247,10.97208],[-63.88702,10.97295],[-63.88029,10.97045],[-63.87858,10.96577],[-63.86947,10.9584],[-63.86108,10.96368],[-63.86389,10.96702],[-63.86463,10.97378],[-63.8629,10.97405],[-63.8623,10.98098],[-63.85423,10.98727],[-63.85754,10.99945],[-63.86386,10.99648],[-63.87534,10.99931],[-63.87962,10.99697],[-63.88341,10.99871],[-63.88645,11.00232],[-63.88703,11.00815],[-63.88379,11.01553],[-63.90331,11.00971],[-63.91488,10.99609],[-63.93787,10.99175],[-63.93732,10.98635],[-63.94082,10.98301],[-63.94444,10.96977],[-63.94398,10.96564],[-63.93582,10.96636],[-63.94028,10.94771],[-63.94034,10.90967],[-63.94352,10.90681],[-63.94333,10.90143],[-63.95418,10.89757],[-63.95418,10.88937]]]}},{"type":"Feature","id":"relation/8150249","properties":{"name":"Municipio D\u00edaz","level":6,"population":"71446"},"geometry":{"type":"Polygon","coordinates":[[[-63.95432,10.89724],[-63.94333,10.90143],[-63.94352,10.90681],[-63.94034,10.90967],[-63.94028,10.94771],[-63.93582,10.96636],[-63.94398,10.96564],[-63.94444,10.96977],[-63.94082,10.98301],[-63.93732,10.98635],[-63.93787,10.99175],[-63.91385,10.99675],[-63.90086,11.01106],[-63.90187,11.02132],[-63.91579,11.02503],[-63.92839,11.03712],[-63.93913,11.03571],[-63.94269,11.03304],[-63.95387,11.03854],[-63.95797,11.031],[-63.96786,11.03037],[-63.97918,11.0225],[-63.99339,11.03021],[-63.99579,11.03544],[-64.01202,11.05133],[-64.02267,11.05501],[-64.02418,11.04956],[-64.02246,11.0336],[-64.03085,11.02103],[-64.03172,11.01036],[-64.0296,11.00558],[-64.03946,10.99582],[-64.03421,10.98892],[-63.98469,10.8855],[-63.95418,10.88937],[-63.95432,10.89724]]]}},{"type":"Feature","id":"relation/8150250","properties":{"name":"Municipio Tubores","level":6,"population":"36924"},"geometry":{"type":"MultiPolygon","coordinates":[[[[-64.08066,10.88791],[-64.07354,10.88836],[-64.06171,10.87926],[-64.06227,10.87492],[-64.07097,10.86987],[-64.07323,10.86198],[-64.07051,10.85572],[-64.06316,10.85281],[-64.02946,10.86461],[-64.02303,10.86215],[-64.00995,10.86487],[-63.99515,10.8729],[-63.98469,10.8855],[-64.03421,10.98892],[-64.03946,10.99582],[-64.05356,10.9915],[-64.06997,10.99038],[-64.09456,10.99329],[-64.11875,10.99948],[-64.14652,11.01181],[-64.17496,11.03245],[-64.18393,11.02221],[-64.17527,11.00614],[-64.17263,10.98989],[-64.16722,10.9768],[-64.17346,10.96496],[-64.17094,10.9555],[-64.16267,10.94921],[-64.1537,10.949],[-64.14017,10.93885],[-64.12752,10.92448],[-64.11741,10.89772],[-64.11075,10.89136],[-64.08066,10.88791]]],[[[-64.18174,10.84006],[-64.19632,10.84058],[-64.20345,10.837],[-64.21347,10.839],[-64.23122,10.82412],[-64.23333,10.81487],[-64.22071,10.79392],[-64.21129,10.79143],[-64.18139,10.79187],[-64.15409,10.79683],[-64.14541,10.80048],[-64.14255,10.80712],[-64.13671,10.81123],[-64.132,10.82346],[-64.13463,10.82906],[-64.14287,10.83395],[-64.15023,10.84749],[-64.15546,10.84995],[-64.16107,10.84851],[-64.1675,10.83531],[-64.18174,10.84006]]]]}},{"type":"Feature","id":"relation/8150251","properties":{"name":"Municipio Macanao","level":6,"population":"26423"},"geometry":{"type":"Polygon","coordinates":[[[-64.17346,10.96496],[-64.16722,10.9768],[-64.17263,10.98989],[-64.17527,11.00614],[-64.18393,11.02221],[-64.17496,11.03245],[-64.19571,11.05299],[-64.18685,11.06637],[-64.18676,11.08512],[-64.19199,11.09083],[-64.21314,11.09433],[-64.22122,11.09229],[-64.22969,11.08569],[-64.24761,11.08098],[-64.25411,11.07491],[-64.26537,11.07551],[-64.2718,11.07097],[-64.29881,11.07923],[-64.30394,11.07701],[-64.30681,11.07143],[-64.31653,11.07104],[-64.32103,11.06603],[-64.33776,11.0647],[-64.34837,11.05728],[-64.36281,11.06103],[-64.38751,11.05064],[-64.39203,11.04372],[-64.3916,11.0298],[-64.38523,11.02159],[-64.38929,11.01557],[-64.39067,11.00766],[-64.41321,10.98694],[-64.41718,10.97305],[-64.41548,10.96758],[-64.41095,10.96425],[-64.40234,10.96501],[-64.36917,10.95348],[-64.35833,10.95394],[-64.33943,10.94731],[-64.33139,10.94945],[-64.31763,10.94859],[-64.29617,10.93653],[-64.26788,10.93608],[-64.24107,10.93095],[-64.2334,10.93341],[-64.2233,10.93208],[-64.20938,10.92611],[-64.20043,10.93083],[-64.192,10.93214],[-64.17753,10.94408],[-64.17094,10.9555],[-64.17346,10.96496]]]}},{"type":"Feature","id":"relation/8150252","properties":{"name":"Municipio Villalba","level":6,"population":"8985"},"geometry":{"type":"Polygon","coordinates":[[[-63.94741,10.81077],[-63.9606,10.81448],[-63.97134,10.82095],[-63.98334,10.82028],[-63.99341,10.82481],[-63.99902,10.82341],[-64.00285,10.81564],[-63.99586,10.79974],[-64.00791,10.78463],[-64.00685,10.77496],[-63.98742,10.7651],[-63.96808,10.76213],[-63.96761,10.75526],[-63.96281,10.74877],[-63.94183,10.74151],[-63.93243,10.7333],[-63.92026,10.72821],[-63.9075,10.72888],[-63.88724,10.73491],[-63.88069,10.75308],[-63.88043,10.76359],[-63.89753,10.79378],[-63.90506,10.80134],[-63.91748,10.80684],[-63.94741,10.81077]]]}}]}