{"type":"FeatureCollection","features":[{"type":"Feature","id":"node/264393062","properties":{"name":"Juan Griego","place":"city"},"geometry":{"type":"Point","coordinates":[-63.9652,11.07207]}},{"type":"Feature","id":"node/264393063","properties":{"name":"Playa El Agua","place":"town"},"geometry":{"type":"Point","coordinates":[-63.86844,11.14613]}},{"type":"Feature","id":"node/264393689","properties":{"name":"Porlamar","place":"city","population":"103496"},"geometry":{"type":"Point","coordinates":[-63.84645,10.96358]}},{"type":"Feature","id":"node/264393690","properties":{"name":"Pampatar","place":"city"},"geometry":{"type":"Point","coordinates":[-63.80508,10.99573]}},{"type":"Feature","id":"node/264393692","properties":{"name":"Manzanillo","place":"town"},"geometry":{"type":"Point","coordinates":[-63.88559,11.15423]}},{"type":"Feature","id":"node/264393693","properties":{"name":"La Asunci\u00f3n","place":"city"},"geometry":{"type":"Point","coordinates":[-63.86315,11.034]}},{"type":"Feature","id":"node/264785616","properties":{"name":"Santa Ana","place":"town"},"geometry":{"type":"Point","coordinates":[-63.92335,11.06911]}},{"type":"Feature","id":"node/431144385","properties":{"name":"El Yaque","place":"village"},"geometry":{"type":"Point","coordinates":[-63.96285,10.90006]}},{"type":"Feature","id":"node/861388859","properties":{"name":"La Guardia","place":"town"},"geometry":{"type":"Point","coordinates":[-64.01752,10.99528]}},{"type":"Feature","id":"node/1025448815","properties":{"name":"Pedro Gonz\u00e1lez","place":"town"},"geometry":{"type":"Point","coordinates":[-63.91956,11.11132]}},{"type":"Feature","id":"node/1722751725","properties":{"name":"Los Bagres","place":"town"},"geometry":{"type":"Point","coordinates":[-63.97979,10.94669]}},{"type":"Feature","id":"node/1808340798","properties":{"name":"Sabana de Guacuco","place":"town"},"geometry":{"type":"Point","coordinates":[-63.82414,11.04075]}},{"type":"Feature","id":"node/1808358419","properties":{"name":"Atamo Sur","place":"village"},"geometry":{"type":"Point","coordinates":[-63.8417,11.02381]}},{"type":"Feature","id":"node/1808358481","properties":{"name":"El Card\u00f3n","place":"town"},"geometry":{"type":"Point","coordinates":[-63.84651,11.10359]}},{"type":"Feature","id":"node/1808358522","properties":{"name":"El Espinal","place":"town"},"geometry":{"type":"Point","coordinates":[-63.98397,10.97435]}},{"type":"Feature","id":"node/1808358542","properties":{"name":"El Tirano","place":"town"},"geometry":{"type":"Point","coordinates":[-63.85151,11.11559]}},{"type":"Feature","id":"node/1808358594","properties":{"name":"Las Guevaras","place":"town"},"geometry":{"type":"Point","coordinates":[-64.00426,10.95617]}},{"type":"Feature","id":"node/1808358597","properties":{"name":"Las Barrancas","place":"village"},"geometry":{"type":"Point","coordinates":[-63.97731,10.99022]}},{"type":"Feature","id":"node/1808358640","properties":{"name":"El Valle del Esp\u00edritu Santo","place":"town"},"geometry":{"type":"Point","coordinates":[-63.88587,10.98529]}},{"type":"Feature","id":"node/1808358671","properties":{"name":"La Plaza Paraguach\u00ed","place":"town"},"geometry":{"type":"Point","coordinates":[-63.86299,11.09643]}},{"type":"Feature","id":"node/1808358694","properties":{"name":"San Antonio","place":"town"},"geometry":{"type":"Point","coordinates":[-63.92109,10.95627]}},{"type":"Feature","id":"node/1808358696","properties":{"name":"La Isleta","place":"village"},"geometry":{"type":"Point","coordinates":[-63.92822,10.89465]}},{"type":"Feature","id":"node/1808358745","properties":{"name":"Atamo Norte","place":"village"},"geometry":{"type":"Point","coordinates":[-63.8393,11.03064]}},{"type":"Feature","id":"node/1808358778","properties":{"name":"San Juan Bautista","place":"city"},"geometry":{"type":"Point","coordinates":[-63.95151,11.01386]}},{"type":"Feature","id":"node/1808358832","properties":{"name":"La Polvorosa","place":"village"},"geometry":{"type":"Point","coordinates":[-63.85522,11.07957]}},{"type":"Feature","id":"node/1808388201","properties":{"name":"Apostadero","place":"town"},"geometry":{"type":"Point","coordinates":[-63.81319,11.01239]}},{"type":"Feature","id":"node/1808388425","properties":{"name":"El Piache","place":"town"},"geometry":{"type":"Point","coordinates":[-63.87795,10.95529]}},{"type":"Feature","id":"node/1808388427","properties":{"name":"Los Robles","place":"town"},"geometry":{"type":"Point","coordinates":[-63.8337,10.99632]}},{"type":"Feature","id":"node/1808388447","properties":{"name":"Macho Muerto","place":"town"},"geometry":{"type":"Point","coordinates":[-63.88775,10.94257]}},{"type":"Feature","id":"node/1808388522","properties":{"name":"Agua de Vaca","place":"town"},"geometry":{"type":"Point","coordinates":[-63.81902,11.02226]}},{"type":"Feature","id":"node/1808388567","properties":{"name":"El Silguero","place":"village"},"geometry":{"type":"Point","coordinates":[-63.88743,10.9228]}},{"type":"Feature","id":"node/1808388579","properties":{"name":"Los Chacos","place":"village"},"geometry":{"type":"Point","coordinates":[-63.83372,11.01228]}},{"type":"Feature","id":"node/1808403491","properties":{"name":"G\u00fcinima","place":"town"},"geometry":{"type":"Point","coordinates":[-63.92109,10.74026]}},{"type":"Feature","id":"node/1808403561","properties":{"name":"El Guamache","place":"town"},"geometry":{"type":"Point","coordinates":[-63.89967,10.74228]}},{"type":"Feature","id":"node/1808403636","properties":{"name":"El Manglillo","place":"town"},"geometry":{"type":"Point","coordinates":[-64.31514,10.95867]}},{"type":"Feature","id":"node/1808403692","properties":{"name":"El Mag\u00fcey","place":"village"},"geometry":{"type":"Point","coordinates":[-64.19681,11.07315]}},{"type":"Feature","id":"node/1808403722","properties":{"name":"Boca del R\u00edo","place":"town"},"geometry":{"type":"Point","coordinates":[-64.18314,10.96225]}},{"type":"Feature","id":"node/1808403743","properties":{"name":"Curichicual","place":"village"},"geometry":{"type":"Point","coordinates":[-64.33595,10.95721]}},{"type":"Feature","id":"node/1808403797","properties":{"name":"El Tunal","place":"village"},"geometry":{"type":"Point","coordinates":[-64.29687,11.06796]}},{"type":"Feature","id":"node/1808403880","properties":{"name":"Arenas","place":"village"},"geometry":{"type":"Point","coordinates":[-64.24743,11.0676]}},{"type":"Feature","id":"node/1808403929","properties":{"name":"San Pedro de Coche","place":"town"},"geometry":{"type":"Point","coordinates":[-63.9941,10.78204]}},{"type":"Feature","id":"node/1808403937","properties":{"name":"El Bichar","place":"village"},"geometry":{"type":"Point","coordinates":[-63.95501,10.77053]}},{"type":"Feature","id":"node/1808403949","properties":{"name":"San Francisco de Macanao","place":"town"},"geometry":{"type":"Point","coordinates":[-64.29331,11.02601]}},{"type":"Feature","id":"node/1808404009","properties":{"name":"Punta Arenas","place":"village"},"geometry":{"type":"Point","coordinates":[-64.39906,10.97461]}},{"type":"Feature","id":"node/1808404015","properties":{"name":"Boca del Pozo","place":"town"},"geometry":{"type":"Point","coordinates":[-64.37664,11.01055]}},{"type":"Feature","id":"node/1808404209","properties":{"name":"El Robledal","place":"town"},"geometry":{"type":"Point","coordinates":[-64.37233,11.02757]}},{"type":"Feature","id":"node/1808404314","properties":{"name":"La Uva","place":"village"},"geometry":{"type":"Point","coordinates":[-63.93409,10.79814]}},{"type":"Feature","id":"node/1808407428","properties":{"name":"Guayac\u00e1n","place":"town"},"geometry":{"type":"Point","coordinates":[-63.91192,11.13616]}},{"type":"Feature","id":"node/1808407446","properties":{"name":"El Maco","place":"town"},"geometry":{"type":"Point","coordinates":[-63.94275,11.04837]}},{"type":"Feature","id":"node/1808407462","properties":{"name":"Altagracia","place":"town"},"geometry":{"type":"Point","coordinates":[-63.94883,11.0952]}},{"type":"Feature","id":"node/1808407500","properties":{"name":"Tacarigua","place":"town"},"geometry":{"type":"Point","coordinates":[-63.90235,11.05229]}},{"type":"Feature","id":"node/1808407511","properties":{"name":"San Sebasti\u00e1n","place":"town"},"geometry":{"type":"Point","coordinates":[-63.90865,11.04628]}},{"type":"Feature","id":"node/1808407525","properties":{"name":"La Tagua","place":"town"},"geometry":{"type":"Point","coordinates":[-63.92836,11.05714]}},{"type":"Feature","id":"node/2333180176","properties":{"name":"Punta de Piedras","place":"town"},"geometry":{"type":"Point","coordinates":[-64.09427,10.90145]}},{"type":"Feature","id":"node/2361721439","properties":{"name":"La Mira","place":"town"},"geometry":{"type":"Point","coordinates":[-63.8692,11.13883]}},{"type":"Feature","id":"node/5349406641","properties":{"name":"El Horc\u00f3n","place":"village"},"geometry":{"type":"Point","coordinates":[-64.29335,10.9475]}},{"type":"Feature","id":"node/5350138668","properties":{"name":"Guayacancito","place":"town"},"geometry":{"type":"Point","coordinates":[-64.21472,10.94069]}},{"type":"Feature","id":"node/5352755146","properties":{"name":"Comejenes","place":"village"},"geometry":{"type":"Point","coordinates":[-64.22055,11.02675]}},{"type":"Feature","id":"node/5353764914","properties":{"name":"La Pared","place":"village"},"geometry":{"type":"Point","coordinates":[-64.31224,11.05948]}},{"type":"Feature","id":"node/5356931356","properties":{"name":"Chacachacare","place":"town"},"geometry":{"type":"Point","coordinates":[-64.15239,10.96117]}},{"type":"Feature","id":"node/5489136032","properties":{"name":"La Salineta","place":"village"},"geometry":{"type":"Point","coordinates":[-64.01385,11.04508]}},{"type":"Feature","id":"node/5489136033","properties":{"name":"Punta Sabita","place":"village"},"geometry":{"type":"Point","coordinates":[-64.01373,11.03968]}},{"type":"Feature","id":"node/5489136053","properties":{"name":"El Salado","place":"town"},"geometry":{"type":"Point","coordinates":[-63.86392,11.082]}},{"type":"Feature","id":"node/5489136054","properties":{"name":"Guarame","place":"town"},"geometry":{"type":"Point","coordinates":[-63.83599,11.07648]}},{"type":"Feature","id":"node/5489136055","properties":{"name":"La Fuente","place":"village"},"geometry":{"type":"Point","coordinates":[-63.85963,11.07122]}},{"type":"Feature","id":"node/5489136056","properties":{"name":"La Aguada","place":"village"},"geometry":{"type":"Point","coordinates":[-63.86417,11.00201]}},{"type":"Feature","id":"node/5489136057","properties":{"name":"La Sierra","place":"village"},"geometry":{"type":"Point","coordinates":[-63.88525,11.00845]}},{"type":"Feature","id":"node/5489136061","properties":{"name":"Los Cerritos","place":"village"},"geometry":{"type":"Point","coordinates":[-63.82862,11.01988]}},{"type":"Feature","id":"node/5489136075","properties":{"name":"El Hato","place":"village"},"geometry":{"type":"Point","coordinates":[-63.91173,10.89222]}},{"type":"Feature","id":"node/5489136079","properties":{"name":"Los Villaroel","place":"village"},"geometry":{"type":"Point","coordinates":[-63.98515,10.98943]}},{"type":"Feature","id":"node/5489136080","properties":{"name":"El D\u00e1til","place":"town"},"geometry":{"type":"Point","coordinates":[-63.96826,10.96066]}},{"type":"Feature","id":"node/5489136082","properties":{"name":"La Giles","place":"town"},"geometry":{"type":"Point","coordinates":[-64.03124,10.95234]}},{"type":"Feature","id":"node/5489136083","properties":{"name":"Las Berm\u00fadez","place":"village"},"geometry":{"type":"Point","coordinates":[-63.98473,10.93862]}},{"type":"Feature","id":"node/5489136084","properties":{"name":"Las V\u00e1squez","place":"village"},"geometry":{"type":"Point","coordinates":[-64.0244,10.93312]}},{"type":"Feature","id":"node/5489136085","properties":{"name":"El Manglillo","place":"village"},"geometry":{"type":"Point","coordinates":[-63.99144,10.89158]}},{"type":"Feature","id":"node/5489136089","properties":{"name":"Punta de Mangle","place":"village"},"geometry":{"type":"Point","coordinates":[-64.04422,10.87678]}},{"type":"Feature","id":"node/5489136090","properties":{"name":"Orinoco","place":"village"},"geometry":{"type":"Point","coordinates":[-64.03149,10.91374]}},{"type":"Feature","id":"node/5489136091","properties":{"name":"Las Cuibas","place":"village"},"geometry":{"type":"Point","coordinates":[-64.04187,10.91742]}},{"type":"Feature","id":"node/5489136093","properties":{"name":"Las Mariales","place":"village"},"geometry":{"type":"Point","coordinates":[-64.04203,10.92313]}},{"type":"Feature","id":"node/5489136107","properties":{"name":"P\u00e1rate Bueno","place":"village"},"geometry":{"type":"Point","coordinates":[-64.36466,10.97873]}},{"type":"Feature","id":"node/5489136108","properties":{"name":"Boca Chica","place":"village"},"geometry":{"type":"Point","coordinates":[-64.36428,10.96302]}},{"type":"Feature","id":"node/5489136109","properties":{"name":"Las Lares","place":"village"},"geometry":{"type":"Point","coordinates":[-64.07651,10.93833]}},{"type":"Feature","id":"node/5489136110","properties":{"name":"Las Hern\u00e1ndez","place":"town"},"geometry":{"type":"Point","coordinates":[-64.05144,10.93828]}},{"type":"Feature","id":"node/5489136111","properties":{"name":"Los G\u00f3mez","place":"town"},"geometry":{"type":"Point","coordinates":[-64.08353,10.95287]}},{"type":"Feature","id":"node/5489136112","properties":{"name":"Santa Mar\u00eda","place":"town"},"geometry":{"type":"Point","coordinates":[-64.10054,10.95208]}},{"type":"Feature","id":"node/5489136113","properties":{"name":"Palo Sano","place":"village"},"geometry":{"type":"Point","coordinates":[-64.10373,10.9435]}},{"type":"Feature","id":"node/5489136114","properties":{"name":"Mata Redonda","place":"village"},"geometry":{"type":"Point","coordinates":[-64.11925,10.94215]}},{"type":"Feature","id":"node/5489136115","properties":{"name":"Laguna de Raya","place":"town"},"geometry":{"type":"Point","coordinates":[-64.11144,10.93169]}},{"type":"Feature","id":"node/5489137530","properties":{"name":"La Restinga","place":"village"},"geometry":{"type":"Point","coordinates":[-64.15207,11.0047]}},{"type":"Feature","id":"node/5489137531","properties":{"name":"El Guamache","place":"town"},"geometry":{"type":"Point","coordinates":[-64.06478,10.89551]}},{"type":"Feature","id":"node/5489137538","properties":{"name":"Cotoper\u00edz","place":"town"},"geometry":{"type":"Point","coordinates":[-63.96728,10.94449]}},{"type":"Feature","id":"node/5515541994","properties":{"name":"El Sur","place":"village"},"geometry":{"type":"Point","coordinates":[-64.08,10.9499]}},{"type":"Feature","id":"node/5519479181","properties":{"name":"Las Marvales","place":"town"},"geometry":{"type":"Point","coordinates":[-64.0384,10.94081]}},{"type":"Feature","id":"node/5536548063","properties":{"name":"Aricagua","place":"town"},"geometry":{"type":"Point","coordinates":[-63.86155,11.12275]}},{"type":"Feature","id":"node/5536548087","properties":{"name":"El Conchal","place":"village"},"geometry":{"type":"Point","coordinates":[-63.8205,11.06048]}},{"type":"Feature","id":"node/5536548093","properties":{"name":"Las Piedras","place":"town"},"geometry":{"type":"Point","coordinates":[-63.86448,10.99133]}},{"type":"Feature","id":"node/5536548094","properties":{"name":"El Chorro","place":"village"},"geometry":{"type":"Point","coordinates":[-63.87623,11.01098]}},{"type":"Feature","id":"node/5536548114","properties":{"name":"Guatacaral","place":"village"},"geometry":{"type":"Point","coordinates":[-63.97452,10.99538]}},{"type":"Feature","id":"node/5536548115","properties":{"name":"Los Narvales","place":"village"},"geometry":{"type":"Point","coordinates":[-64.06157,10.93261]}},{"type":"Feature","id":"node/5543019574","properties":{"name":"Do\u00f1a Elisa","place":"town"},"geometry":{"type":"Point","coordinates":[-63.90332,10.94022]}},{"type":"Feature","id":"node/5543453471","properties":{"name":"La Cruz del Pastel","place":"town"},"geometry":{"type":"Point","coordinates":[-63.95333,10.94325]}},{"type":"Feature","id":"node/5586731969","properties":{"name":"El Cercado","place":"town"},"geometry":{"type":"Point","coordinates":[-63.92087,11.04937]}},{"type":"Feature","id":"node/6389258797","properties":{"name":"Navio Quebrao","place":"village"},"geometry":{"type":"Point","coordinates":[-64.38577,10.96895]}},{"type":"Feature","id":"node/8714745698","properties":{"name":"Conuco Viejo","place":"town"},"geometry":{"type":"Point","coordinates":[-63.92878,10.94352]}},{"type":"Feature","id":"node/8791530386","properties":{"name":"El Rinc\u00f3n","place":"village"},"geometry":{"type":"Point","coordinates":[-63.85831,11.06633]}},{"type":"Feature","id":"node/8791530387","properties":{"name":"Los Colorados","place":"village"},"geometry":{"type":"Point","coordinates":[-63.88009,11.16794]}},{"type":"Feature","id":"node/8791530392","properties":{"name":"Playa Parguito","place":"village"},"geometry":{"type":"Point","coordinates":[-63.84725,11.12752]}},{"type":"Feature","id":"node/8791530396","properties":{"name":"Viento Fresco","place":"town"},"geometry":{"type":"Point","coordinates":[-63.86483,11.13053]}},{"type":"Feature","id":"node/8791530397","properties":{"name":"Las Flandes","place":"village"},"geometry":{"type":"Point","coordinates":[-63.85474,11.08674]}},{"type":"Feature","id":"node/10250056394","properties":{"name":"Campo Arriba","place":"village"},"geometry":{"type":"Point","coordinates":[-64.35085,11.02248]}}]}