{"type":"FeatureCollection","features":[{"type":"Feature","id":"relation/2269792","properties":{"name":"Falc\u00f3n","level":4},"geometry":{"type":"Polygon","coordinates":[[[-70.88051,10.45006],[-70.87586,10.44872],[-70.87311,10.45169],[-70.8686,10.45182],[-70.8634,10.45993],[-70.85924,10.46087],[-70.8505,10.45852],[-70.84265,10.45233],[-70.83663,10.46162],[-70.83218,10.46012],[-70.82828,10.46338],[-70.82283,10.46374],[-70.81153,10.46153],[-70.80616,10.46981],[-70.80337,10.47155],[-70.79961,10.46897],[-70.78969,10.44425],[-70.7791,10.42578],[-70.77325,10.42176],[-70.77463,10.41848],[-70.77198,10.4077],[-70.75739,10.39512],[-70.75921,10.38888],[-70.75793,10.37865],[-70.76874,10.36063],[-70.76467,10.35286],[-70.76704,10.34778],[-70.76283,10.32644],[-70.75366,10.31775],[-70.75031,10.31783],[-70.74159,10.3051],[-70.72525,10.29806],[-70.71631,10.30292],[-70.71307,10.3002],[-70.69734,10.30211],[-70.69069,10.29286],[-70.68849,10.29327],[-70.6829,10.30385],[-70.66752,10.31788],[-70.66006,10.31861],[-70.65304,10.31592],[-70.64795,10.32235],[-70.63258,10.32337],[-70.63202,10.32776],[-70.62426,10.33199],[-70.61744,10.33264],[-70.61357,10.32991],[-70.6078,10.33303],[-70.6005,10.33047],[-70.59021,10.33227],[-70.57264,10.32375],[-70.56402,10.33665],[-70.55348,10.34597],[-70.55494,10.35465],[-70.54462,10.36316],[-70.53638,10.39094],[-70.53784,10.39313],[-70.53439,10.39971],[-70.53432,10.40429],[-70.53886,10.40955],[-70.53561,10.41104],[-70.53098,10.41949],[-70.52742,10.42054],[-70.52117,10.44404],[-70.51688,10.4453],[-70.51622,10.44829],[-70.51235,10.44813],[-70.51158,10.45268],[-70.50893,10.45393],[-70.5057,10.45153],[-70.49728,10.45747],[-70.49609,10.46166],[-70.48819,10.46413],[-70.48137,10.45817],[-70.47545,10.46483],[-70.46042,10.47013],[-70.45851,10.46988],[-70.45871,10.46589],[-70.45385,10.45933],[-70.43814,10.45306],[-70.43055,10.45403],[-70.42562,10.46232],[-70.42082,10.46419],[-70.4129,10.47464],[-70.39914,10.48289],[-70.39787,10.49827],[-70.39073,10.50898],[-70.39146,10.5162],[-70.39673,10.52162],[-70.3955,10.52757],[-70.39121,10.52765],[-70.38818,10.53247],[-70.38334,10.53366],[-70.38194,10.53178],[-70.37428,10.5352],[-70.36928,10.54556],[-70.36442,10.54403],[-70.35885,10.5466],[-70.3424,10.54801],[-70.3403,10.55373],[-70.34278,10.55714],[-70.34097,10.5621],[-70.34421,10.56601],[-70.34306,10.5676],[-70.33232,10.56559],[-70.32066,10.57321],[-70.32152,10.57674],[-70.31805,10.58102],[-70.31389,10.58136],[-70.31164,10.58095],[-70.31109,10.57593],[-70.30687,10.57239],[-70.2962,10.5716],[-70.28474,10.56426],[-70.27986,10.56452],[-70.27802,10.56133],[-70.26268,10.56788],[-70.25412,10.57236],[-70.25153,10.57842],[-70.24621,10.57959],[-70.24546,10.58433],[-70.24042,10.5888],[-70.23502,10.58987],[-70.23214,10.58678],[-70.22989,10.58736],[-70.22285,10.59375],[-70.21818,10.59391],[-70.21064,10.5996],[-70.20596,10.60022],[-70.20312,10.60405],[-70.20472,10.60627],[-70.19764,10.61086],[-70.19119,10.60939],[-70.18098,10.61615],[-70.17579,10.61701],[-70.17402,10.61949],[-70.18217,10.62382],[-70.17834,10.63297],[-70.17835,10.64061],[-70.16062,10.64973],[-70.15772,10.65598],[-70.14685,10.65755],[-70.14198,10.6641],[-70.13404,10.66524],[-70.13134,10.66022],[-70.12465,10.65817],[-70.11622,10.65035],[-70.11186,10.65477],[-70.10397,10.65229],[-70.0982,10.65541],[-70.09581,10.65372],[-70.08546,10.65546],[-70.08034,10.65016],[-70.08055,10.64096],[-70.0706,10.63878],[-70.06617,10.64088],[-70.05949,10.64016],[-70.05039,10.64541],[-70.04225,10.65595],[-70.03196,10.6547],[-70.01612,10.66597],[-70.01567,10.67119],[-69.98982,10.67706],[-69.97996,10.68217],[-69.9731,10.69095],[-69.96194,10.69781],[-69.95158,10.70123],[-69.94139,10.68863],[-69.93639,10.68804],[-69.92566,10.69313],[-69.92134,10.68936],[-69.90375,10.69766],[-69.89386,10.70715],[-69.88964,10.70407],[-69.86926,10.7086],[-69.86621,10.71227],[-69.8673,10.72096],[-69.85628,10.72197],[-69.85269,10.72883],[-69.85524,10.73177],[-69.8522,10.73522],[-69.83849,10.7331],[-69.84165,10.72343],[-69.83185,10.71643],[-69.82367,10.70461],[-69.81781,10.70431],[-69.80358,10.71129],[-69.79791,10.71172],[-69.79787,10.71391],[-69.79335,10.71218],[-69.78759,10.7141],[-69.77816,10.72526],[-69.77568,10.7234],[-69.7679,10.73086],[-69.7534,10.73835],[-69.75045,10.73729],[-69.74013,10.74605],[-69.73299,10.74697],[-69.72507,10.7448],[-69.71324,10.74667],[-69.70014,10.75388],[-69.69545,10.7523],[-69.69377,10.74817],[-69.6965,10.74616],[-69.69889,10.73737],[-69.69649,10.727],[-69.69031,10.7205],[-69.67774,10.72242],[-69.64651,10.74298],[-69.6341,10.74363],[-69.62871,10.73812],[-69.61432,10.73861],[-69.60782,10.73167],[-69.60419,10.73256],[-69.59857,10.72931],[-69.60099,10.71648],[-69.59601,10.71211],[-69.5976,10.70295],[-69.58513,10.70799],[-69.58456,10.71334],[-69.57746,10.71876],[-69.56463,10.72134],[-69.55584,10.71812],[-69.54797,10.7241],[-69.54682,10.72998],[-69.55459,10.73706],[-69.54542,10.74523],[-69.52129,10.73952],[-69.51698,10.74203],[-69.51479,10.73833],[-69.5182,10.73278],[-69.51378,10.72972],[-69.51844,10.72475],[-69.51743,10.72349],[-69.52081,10.72324],[-69.5246,10.71863],[-69.52018,10.71199],[-69.52144,10.70955],[-69.51717,10.70681],[-69.51925,10.70418],[-69.51728,10.70179],[-69.51732,10.69219],[-69.52209,10.68943],[-69.52069,10.68798],[-69.52625,10.68245],[-69.52117,10.67615],[-69.51883,10.67697],[-69.51815,10.68571],[-69.51446,10.6906],[-69.50495,10.6941],[-69.46223,10.69011],[-69.45356,10.70012],[-69.44915,10.69884],[-69.44485,10.70159],[-69.44122,10.69906],[-69.43468,10.70365],[-69.42371,10.70102],[-69.42124,10.70403],[-69.41105,10.70416],[-69.40834,10.70791],[-69.40126,10.71051],[-69.39684,10.70907],[-69.39338,10.70439],[-69.38184,10.70617],[-69.38064,10.71225],[-69.37575,10.70709],[-69.36527,10.70585],[-69.35801,10.70213],[-69.35364,10.70534],[-69.34975,10.70192],[-69.34448,10.70662],[-69.33768,10.7006],[-69.33398,10.70277],[-69.33438,10.69891],[-69.33214,10.69676],[-69.33077,10.70095],[-69.32469,10.70439],[-69.32322,10.69925],[-69.31919,10.69884],[-69.31575,10.70217],[-69.31041,10.69977],[-69.30682,10.69474],[-69.30691,10.70077],[-69.30335,10.7025],[-69.29626,10.70299],[-69.29197,10.69746],[-69.28658,10.70098],[-69.28068,10.69806],[-69.27753,10.70082],[-69.27328,10.69697],[-69.25793,10.7016],[-69.2535,10.6982],[-69.25486,10.69303],[-69.24555,10.69176],[-69.24116,10.69806],[-69.2331,10.68976],[-69.23009,10.69315],[-69.23367,10.6976],[-69.22384,10.69516],[-69.22242,10.70098],[-69.21651,10.7042],[-69.21162,10.69994],[-69.21099,10.69305],[-69.19976,10.69181],[-69.19784,10.69597],[-69.19164,10.69179],[-69.18654,10.69553],[-69.18601,10.68892],[-69.1833,10.68539],[-69.17823,10.68799],[-69.1771,10.69118],[-69.17141,10.68879],[-69.17024,10.69444],[-69.16755,10.69207],[-69.17092,10.68547],[-69.16959,10.68406],[-69.16062,10.69037],[-69.15901,10.68535],[-69.15345,10.6837],[-69.15123,10.69071],[-69.14753,10.68906],[-69.14916,10.68535],[-69.14644,10.6838],[-69.13624,10.68642],[-69.13454,10.69315],[-69.13006,10.68376],[-69.12682,10.68512],[-69.12908,10.68869],[-69.12692,10.69197],[-69.12416,10.68463],[-69.11902,10.68611],[-69.11989,10.68092],[-69.11303,10.68188],[-69.10731,10.68569],[-69.10356,10.68285],[-69.10437,10.67973],[-69.10178,10.6794],[-69.09817,10.68154],[-69.10073,10.68562],[-69.09827,10.68822],[-69.09542,10.68274],[-69.0905,10.68589],[-69.09021,10.68042],[-69.08349,10.68284],[-69.08301,10.67597],[-69.08715,10.6775],[-69.08837,10.67287],[-69.08225,10.67395],[-69.08497,10.66605],[-69.07995,10.6657],[-69.08063,10.66165],[-69.07496,10.66027],[-69.06746,10.66189],[-69.07198,10.66817],[-69.06474,10.6681],[-69.06289,10.67584],[-69.05775,10.6735],[-69.05643,10.6755],[-69.05983,10.67737],[-69.05882,10.67917],[-69.05465,10.67639],[-69.05172,10.67928],[-69.04682,10.67838],[-69.04686,10.68155],[-69.04403,10.68094],[-69.04147,10.68365],[-69.03436,10.68246],[-69.03554,10.68832],[-69.03014,10.68534],[-69.03038,10.69168],[-69.02555,10.68529],[-69.02525,10.69221],[-69.01924,10.68682],[-69.01765,10.68878],[-69.01905,10.69343],[-69.01135,10.69402],[-69.00915,10.69945],[-69.00691,10.69472],[-68.99945,10.698],[-68.99481,10.69296],[-68.98866,10.69679],[-68.98593,10.69298],[-68.98262,10.69699],[-68.97613,10.69408],[-68.9698,10.6981],[-68.97163,10.69185],[-68.96642,10.69359],[-68.96213,10.6909],[-68.96218,10.69684],[-68.95633,10.69565],[-68.95149,10.69932],[-68.94518,10.69687],[-68.94098,10.69823],[-68.93861,10.69489],[-68.93046,10.6933],[-68.91919,10.69806],[-68.91272,10.69399],[-68.90347,10.69413],[-68.9017,10.68906],[-68.89923,10.6893],[-68.89964,10.68713],[-68.89438,10.68398],[-68.89651,10.68293],[-68.89523,10.68075],[-68.89282,10.68168],[-68.89029,10.66925],[-68.89318,10.66816],[-68.89346,10.66366],[-68.89031,10.66267],[-68.8928,10.65244],[-68.88622,10.64959],[-68.87171,10.64898],[-68.85488,10.65222],[-68.85347,10.65045],[-68.84266,10.65115],[-68.83666,10.65955],[-68.8326,10.65981],[-68.82807,10.67048],[-68.82272,10.67578],[-68.82199,10.68156],[-68.81545,10.68377],[-68.81074,10.69347],[-68.80237,10.69519],[-68.79682,10.69123],[-68.79306,10.69257],[-68.79299,10.70069],[-68.79539,10.70022],[-68.79907,10.70705],[-68.78116,10.71195],[-68.77327,10.71755],[-68.77923,10.72074],[-68.78104,10.72912],[-68.77196,10.72697],[-68.76712,10.7282],[-68.75876,10.72445],[-68.74612,10.72277],[-68.73795,10.72459],[-68.72947,10.73018],[-68.7229,10.7262],[-68.71283,10.72966],[-68.69862,10.72752],[-68.69441,10.72403],[-68.69022,10.73059],[-68.67873,10.73128],[-68.67697,10.73085],[-68.67653,10.72317],[-68.67358,10.72218],[-68.65551,10.73302],[-68.64069,10.75731],[-68.62625,10.77073],[-68.61793,10.77388],[-68.61587,10.72545],[-68.61856,10.72611],[-68.62189,10.72022],[-68.61956,10.71372],[-68.61632,10.71342],[-68.61641,10.7094],[-68.61131,10.70694],[-68.60996,10.70316],[-68.61299,10.69726],[-68.61299,10.68851],[-68.61755,10.68808],[-68.6212,10.68206],[-68.61755,10.62146],[-68.61774,10.61876],[-68.62313,10.61947],[-68.62292,10.61494],[-68.62085,10.6146],[-68.6216,10.61226],[-68.61854,10.60844],[-68.60781,10.60592],[-68.60177,10.60125],[-68.59219,10.60589],[-68.58415,10.59686],[-68.58091,10.60036],[-68.5835,10.6006],[-68.58245,10.60244],[-68.58039,10.60106],[-68.57927,10.60313],[-68.5783,10.59935],[-68.57362,10.60147],[-68.57186,10.59736],[-68.56605,10.60133],[-68.56465,10.60558],[-68.56086,10.6061],[-68.55919,10.60335],[-68.56115,10.60249],[-68.55392,10.60163],[-68.5548,10.59997],[-68.55298,10.60123],[-68.54903,10.59591],[-68.5432,10.59896],[-68.5383,10.59716],[-68.53128,10.60006],[-68.52687,10.59543],[-68.52295,10.60498],[-68.52024,10.60396],[-68.51622,10.60974],[-68.51755,10.61198],[-68.51339,10.61327],[-68.50832,10.60878],[-68.50354,10.6145],[-68.48621,10.60061],[-68.47587,10.60352],[-68.47339,10.61349],[-68.41302,10.60043],[-68.40977,10.61309],[-68.39256,10.6175],[-68.38112,10.61685],[-68.37673,10.61192],[-68.38396,10.60773],[-68.24578,10.58351],[-68.24524,10.58182],[-68.23985,10.58258],[-68.19162,10.61711],[-68.21103,10.64488],[-68.22602,10.67192],[-68.21099,10.67875],[-68.19872,10.68886],[-68.18335,10.70979],[-68.17609,10.72487],[-68.15323,10.74141],[-68.14016,10.76388],[-68.13743,10.7827],[-68.14049,10.8001],[-68.14865,10.81581],[-68.16197,10.82898],[-68.15257,10.83941],[-68.14559,10.85268],[-68.14226,10.86637],[-68.14252,10.88232],[-68.14989,10.90687],[-68.15915,10.92235],[-68.17262,10.9353],[-68.19261,10.94547],[-68.18609,10.95999],[-68.18304,10.97927],[-68.18546,10.99635],[-68.1922,11.01153],[-68.2074,11.02827],[-68.22673,11.03897],[-68.24708,11.04212],[-68.26766,11.03806],[-68.28097,11.08901],[-68.29026,11.10459],[-68.3075,11.12291],[-68.30281,11.14732],[-68.30859,11.17205],[-68.31835,11.18673],[-68.33226,11.19836],[-68.35684,11.2262],[-68.36994,11.23744],[-68.39458,11.25264],[-68.40557,11.26558],[-68.41913,11.27491],[-68.44188,11.28161],[-68.46491,11.27935],[-68.47583,11.29362],[-68.50215,11.31541],[-68.53975,11.3303],[-68.56378,11.33331],[-68.57446,11.33802],[-68.60857,11.37865],[-68.63631,11.40029],[-68.67794,11.41261],[-68.69313,11.41372],[-68.70737,11.41146],[-68.73217,11.42323],[-68.7524,11.44038],[-68.78855,11.48512],[-68.80675,11.49729],[-68.85947,11.50914],[-68.92428,11.50438],[-68.93854,11.50821],[-68.95234,11.50854],[-68.98879,11.49756],[-69.00467,11.50099],[-69.02537,11.49899],[-69.03446,11.50067],[-69.05675,11.52867],[-69.08432,11.54697],[-69.10565,11.55202],[-69.1348,11.54992],[-69.15127,11.56173],[-69.17273,11.56895],[-69.21152,11.56874],[-69.24056,11.58764],[-69.26324,11.59315],[-69.29041,11.59237],[-69.30638,11.58811],[-69.33077,11.57195],[-69.34674,11.57007],[-69.36201,11.56381],[-69.37379,11.5548],[-69.38322,11.54269],[-69.45019,11.55841],[-69.51989,11.56434],[-69.55204,11.55601],[-69.58636,11.53951],[-69.60151,11.52668],[-69.62081,11.54886],[-69.63432,11.56853],[-69.66117,11.61397],[-69.70224,11.71084],[-69.73224,11.79798],[-69.75134,11.8827],[-69.75344,11.89884],[-69.74241,11.91489],[-69.73734,11.93323],[-69.73753,11.94684],[-69.74243,11.97348],[-69.75455,11.99462],[-69.76725,12.02885],[-69.78106,12.05759],[-69.8073,12.09909],[-69.82262,12.12965],[-69.83267,12.14283],[-69.84258,12.1666],[-69.8526,12.18043],[-69.86624,12.19369],[-69.89496,12.21703],[-69.90902,12.22537],[-69.93472,12.23311],[-69.95456,12.23367],[-69.97211,12.24659],[-69.98901,12.25282],[-70.01673,12.25545],[-70.03277,12.25451],[-70.04859,12.24963],[-70.06639,12.23886],[-70.10279,12.22204],[-70.11865,12.20684],[-70.1517,12.18358],[-70.16854,12.16624],[-70.17505,12.16301],[-70.19576,12.16442],[-70.22086,12.15851],[-70.24149,12.14835],[-70.25491,12.137],[-70.26717,12.12156],[-70.27568,12.09951],[-70.278,12.08336],[-70.27568,12.06711],[-70.31143,12.00663],[-70.3178,11.97929],[-70.33663,11.94755],[-70.34891,11.91582],[-70.35114,11.8882],[-70.35797,11.87467],[-70.36142,11.86007],[-70.35926,11.8358],[-70.35148,11.81989],[-70.33482,11.80383],[-70.32674,11.78514],[-70.3013,11.75342],[-70.29449,11.73653],[-70.29139,11.719],[-70.2849,11.70579],[-70.28509,11.69065],[-70.28106,11.67512],[-70.29202,11.65598],[-70.29667,11.64175],[-70.29726,11.62256],[-70.29359,11.60619],[-70.28225,11.5849],[-70.2664,11.56572],[-70.25033,11.55523],[-70.22563,11.5477],[-70.21331,11.52786],[-70.19427,11.51397],[-70.21657,11.49484],[-70.22912,11.47167],[-70.23171,11.44322],[-70.2284,11.43001],[-70.22222,11.4181],[-70.22748,11.4111],[-70.23937,11.40617],[-70.27331,11.41413],[-70.29952,11.41171],[-70.33706,11.39197],[-70.36372,11.37238],[-70.41412,11.35796],[-70.44024,11.33976],[-70.47167,11.35035],[-70.48545,11.35054],[-70.49891,11.34759],[-70.5287,11.33385],[-70.54886,11.31988],[-70.5663,11.30361],[-70.5765,11.29058],[-70.62207,11.2836],[-70.6632,11.28891],[-70.68376,11.28549],[-70.7217,11.28397],[-70.75339,11.27274],[-70.77755,11.26833],[-70.79462,11.26026],[-70.86544,11.24952],[-70.89843,11.23285],[-70.9994,11.17269],[-71.09882,11.12092],[-71.11336,11.10973],[-71.17968,11.08057],[-71.20376,11.06337],[-71.28009,11.0356],[-71.26005,10.97888],[-71.26339,10.97549],[-71.26369,10.96642],[-71.26932,10.9638],[-71.27144,10.95646],[-71.28127,10.95174],[-71.27069,10.94555],[-71.27223,10.93254],[-71.26763,10.92998],[-71.26594,10.92553],[-71.26076,10.92357],[-71.25927,10.91961],[-71.2521,10.92379],[-71.24422,10.9226],[-71.2437,10.91629],[-71.23966,10.91271],[-71.23808,10.90694],[-71.23348,10.90831],[-71.21426,10.90015],[-71.2104,10.87096],[-71.20036,10.86628],[-71.19899,10.85708],[-71.19682,10.85715],[-71.19446,10.84871],[-71.18995,10.84651],[-71.18844,10.83793],[-71.18299,10.83336],[-71.18233,10.83002],[-71.17642,10.82808],[-71.17293,10.8225],[-71.16846,10.8235],[-71.16108,10.81444],[-71.15878,10.81598],[-71.15247,10.81399],[-71.14822,10.80746],[-71.14588,10.81],[-71.14359,10.80839],[-71.14238,10.81125],[-71.13643,10.80541],[-71.13264,10.80512],[-71.13062,10.79658],[-71.12294,10.79307],[-71.11249,10.77974],[-71.10935,10.78123],[-71.10459,10.7767],[-71.10064,10.77798],[-71.09891,10.77488],[-71.10125,10.77271],[-71.09666,10.77103],[-71.09482,10.7662],[-71.09259,10.76738],[-71.08802,10.76365],[-71.08718,10.75828],[-71.09083,10.75029],[-71.08651,10.74486],[-71.08535,10.73258],[-71.08816,10.7222],[-71.08659,10.71381],[-71.08825,10.70593],[-71.0857,10.70081],[-71.0897,10.69814],[-71.09062,10.69371],[-71.09602,10.69151],[-71.09509,10.68367],[-71.09847,10.68004],[-71.08646,10.67235],[-71.08805,10.66795],[-71.08379,10.66187],[-71.08522,10.65735],[-71.08323,10.65598],[-71.0852,10.65385],[-71.07735,10.64535],[-71.08033,10.63492],[-71.0881,10.63318],[-71.08815,10.6257],[-71.08423,10.62283],[-71.08564,10.62095],[-71.08353,10.61651],[-71.0784,10.6165],[-71.07424,10.61286],[-71.07001,10.61625],[-71.05526,10.60435],[-71.05308,10.60013],[-71.05668,10.59689],[-71.05071,10.59128],[-71.05138,10.58748],[-71.04692,10.57988],[-71.04158,10.58058],[-71.03761,10.57839],[-71.03133,10.58182],[-71.02766,10.57922],[-71.025,10.56992],[-71.03035,10.5652],[-71.02492,10.56159],[-71.02358,10.55615],[-71.02594,10.55159],[-71.02399,10.55236],[-71.02416,10.54697],[-71.02162,10.54552],[-71.02639,10.54012],[-71.02095,10.53254],[-71.02338,10.52924],[-71.02037,10.52322],[-71.02208,10.51687],[-71.02013,10.5121],[-71.01812,10.51205],[-71.01834,10.50924],[-71.02227,10.50793],[-71.02079,10.5038],[-71.01799,10.50233],[-71.01405,10.50706],[-71.00914,10.50365],[-71.00916,10.50682],[-71.00665,10.50834],[-70.99845,10.50193],[-70.99452,10.50706],[-70.9908,10.50486],[-70.99061,10.50215],[-70.98682,10.50201],[-70.98763,10.49747],[-70.98456,10.49774],[-70.98322,10.49496],[-70.9805,10.49863],[-70.97785,10.49672],[-70.97893,10.49515],[-70.97646,10.49544],[-70.97604,10.49824],[-70.96846,10.49647],[-70.96681,10.49196],[-70.96897,10.48941],[-70.96575,10.48814],[-70.9695,10.48508],[-70.96188,10.48399],[-70.96359,10.48302],[-70.96215,10.47984],[-70.95667,10.48027],[-70.95428,10.47525],[-70.95662,10.46673],[-70.94981,10.46527],[-70.95116,10.46215],[-70.93658,10.46617],[-70.93631,10.46352],[-70.9329,10.463],[-70.92501,10.46833],[-70.92423,10.46462],[-70.91484,10.46744],[-70.90902,10.46299],[-70.90075,10.46575],[-70.89229,10.46228],[-70.88051,10.45006]]]}}]}