{"type":"FeatureCollection","features":[{"type":"Feature","id":"node/359171386","properties":{"name":"Yaracal","place":"town","population":"11299"},"geometry":{"type":"Point","coordinates":[-68.54573,10.97273]}},{"type":"Feature","id":"node/792183738","properties":{"name":"Punto Fijo","place":"city","population":"277017"},"geometry":{"type":"Point","coordinates":[-70.19172,11.69317]}},{"type":"Feature","id":"node/793836769","properties":{"name":"Moruy","place":"town"},"geometry":{"type":"Point","coordinates":[-69.98265,11.82191]}},{"type":"Feature","id":"node/793839384","properties":{"name":"Buena Vista","place":"town"},"geometry":{"type":"Point","coordinates":[-69.94222,11.87422]}},{"type":"Feature","id":"node/793857883","properties":{"name":"Pueblo Nuevo","place":"town"},"geometry":{"type":"Point","coordinates":[-69.92136,11.94819]}},{"type":"Feature","id":"node/793860538","properties":{"name":"El Hato","place":"town"},"geometry":{"type":"Point","coordinates":[-69.83956,11.94875]}},{"type":"Feature","id":"node/793862134","properties":{"name":"Buchuaco","place":"town"},"geometry":{"type":"Point","coordinates":[-69.82144,11.98452]}},{"type":"Feature","id":"node/793862858","properties":{"name":"El Sup\u00ed","place":"town"},"geometry":{"type":"Point","coordinates":[-69.83414,12.01032]}},{"type":"Feature","id":"node/793875451","properties":{"name":"El V\u00ednculo","place":"town"},"geometry":{"type":"Point","coordinates":[-69.95032,12.06853]}},{"type":"Feature","id":"node/967998523","properties":{"name":"Amuay","place":"town"},"geometry":{"type":"Point","coordinates":[-70.24082,11.77491]}},{"type":"Feature","id":"node/1122776369","properties":{"name":"La Vela de Coro","place":"town"},"geometry":{"type":"Point","coordinates":[-69.56783,11.45702]}},{"type":"Feature","id":"node/1187278446","properties":{"name":"Los Taques","place":"town"},"geometry":{"type":"Point","coordinates":[-70.25179,11.82458]}},{"type":"Feature","id":"node/1189266362","properties":{"name":"Tacuato","place":"town"},"geometry":{"type":"Point","coordinates":[-69.84114,11.70762]}},{"type":"Feature","id":"node/1610966963","properties":{"name":"La Taza","place":"village","population":"1000"},"geometry":{"type":"Point","coordinates":[-69.17254,10.84445]}},{"type":"Feature","id":"node/1610966971","properties":{"name":"Santa Cruz de Bucaral","place":"town","population":"15000"},"geometry":{"type":"Point","coordinates":[-69.27773,10.81979]}},{"type":"Feature","id":"node/1616158444","properties":{"name":"Churuguara","place":"town","population":"15000"},"geometry":{"type":"Point","coordinates":[-69.53826,10.81167]}},{"type":"Feature","id":"node/1922652170","properties":{"name":"Pueblo Nuevo","place":"town"},"geometry":{"type":"Point","coordinates":[-69.52436,11.1951]}},{"type":"Feature","id":"node/2418327937","properties":{"name":"Dabajuro","place":"town","population":"24000"},"geometry":{"type":"Point","coordinates":[-70.67762,11.02392]}},{"type":"Feature","id":"node/3054633239","properties":{"name":"Las Cieneguitas","place":"village"},"geometry":{"type":"Point","coordinates":[-69.22997,11.45959]}},{"type":"Feature","id":"node/3054633240","properties":{"name":"Ci\u00e9naga Lejos","place":"town"},"geometry":{"type":"Point","coordinates":[-69.27371,11.51378]}},{"type":"Feature","id":"node/3054633242","properties":{"name":"Taratara","place":"town"},"geometry":{"type":"Point","coordinates":[-69.50187,11.48591]}},{"type":"Feature","id":"node/3054633246","properties":{"name":"Guamacho","place":"town"},"geometry":{"type":"Point","coordinates":[-69.07824,11.35614]}},{"type":"Feature","id":"node/3054633250","properties":{"name":"La Aguada","place":"town"},"geometry":{"type":"Point","coordinates":[-69.49267,11.48294]}},{"type":"Feature","id":"node/3054633252","properties":{"name":"Puente de Piedra","place":"village"},"geometry":{"type":"Point","coordinates":[-69.45174,11.49224]}},{"type":"Feature","id":"node/3054633253","properties":{"name":"Puerto Cumarebo","place":"city"},"geometry":{"type":"Point","coordinates":[-69.35035,11.48644]}},{"type":"Feature","id":"node/3054633254","properties":{"name":"Quebrada de Huto","place":"town"},"geometry":{"type":"Point","coordinates":[-69.38032,11.4765]}},{"type":"Feature","id":"node/3054633257","properties":{"name":"San Juan de Los Cayos","place":"town"},"geometry":{"type":"Point","coordinates":[-68.41068,11.17326]}},{"type":"Feature","id":"node/3054633258","properties":{"name":"Santa Rosa","place":"village"},"geometry":{"type":"Point","coordinates":[-69.30289,11.51287]}},{"type":"Feature","id":"node/3054633259","properties":{"name":"Toc\u00f3pero","place":"town"},"geometry":{"type":"Point","coordinates":[-69.2584,11.50113]}},{"type":"Feature","id":"node/3054633260","properties":{"name":"Tucupido","place":"town"},"geometry":{"type":"Point","coordinates":[-69.31396,11.50749]}},{"type":"Feature","id":"node/3073397548","properties":{"name":"Carazao","place":"village"},"geometry":{"type":"Point","coordinates":[-70.10896,11.237]}},{"type":"Feature","id":"node/3073397549","properties":{"name":"El Per\u00fa","place":"village"},"geometry":{"type":"Point","coordinates":[-69.25375,11.47307]}},{"type":"Feature","id":"node/3073397557","properties":{"name":"La Florida","place":"village"},"geometry":{"type":"Point","coordinates":[-70.08366,11.23767]}},{"type":"Feature","id":"node/3073397559","properties":{"name":"Sabaneta","place":"town"},"geometry":{"type":"Point","coordinates":[-69.9914,11.25786]}},{"type":"Feature","id":"node/3073397560","properties":{"name":"San Agustin","place":"village"},"geometry":{"type":"Point","coordinates":[-69.73823,11.38057]}},{"type":"Feature","id":"node/3145911812","properties":{"name":"Puerto Escondido","place":"village"},"geometry":{"type":"Point","coordinates":[-69.95961,12.17401]}},{"type":"Feature","id":"node/3709831859","properties":{"name":"Guanadito","place":"town"},"geometry":{"type":"Point","coordinates":[-70.18105,11.77787]}},{"type":"Feature","id":"node/3942824345","properties":{"name":"Acurigua","place":"village"},"geometry":{"type":"Point","coordinates":[-69.46136,11.30491]}},{"type":"Feature","id":"node/3942826671","properties":{"name":"Murucusa","place":"village"},"geometry":{"type":"Point","coordinates":[-69.58307,11.04998]}},{"type":"Feature","id":"node/3948587118","properties":{"name":"Guaibacoa","place":"town"},"geometry":{"type":"Point","coordinates":[-69.47935,11.417]}},{"type":"Feature","id":"node/3948661657","properties":{"name":"Boroj\u00f3","place":"village"},"geometry":{"type":"Point","coordinates":[-70.8043,11.06629]}},{"type":"Feature","id":"node/3948661658","properties":{"name":"Capat\u00e1rida","place":"town"},"geometry":{"type":"Point","coordinates":[-70.61945,11.17297]}},{"type":"Feature","id":"node/3948661659","properties":{"name":"Casigua","place":"village"},"geometry":{"type":"Point","coordinates":[-71.01401,11.0196]}},{"type":"Feature","id":"node/3948666957","properties":{"name":"Pedregal","place":"town"},"geometry":{"type":"Point","coordinates":[-70.1166,11.02375]}},{"type":"Feature","id":"node/3948667760","properties":{"name":"Pecaya","place":"village"},"geometry":{"type":"Point","coordinates":[-69.86493,11.07696]}},{"type":"Feature","id":"node/3948667761","properties":{"name":"Zaz\u00e1rida","place":"village"},"geometry":{"type":"Point","coordinates":[-70.4823,11.24242]}},{"type":"Feature","id":"node/3948744958","properties":{"name":"Mitare","place":"village"},"geometry":{"type":"Point","coordinates":[-70.0327,11.34992]}},{"type":"Feature","id":"node/3948750457","properties":{"name":"Jacura","place":"town"},"geometry":{"type":"Point","coordinates":[-68.85591,11.07463]}},{"type":"Feature","id":"node/3949321557","properties":{"name":"San F\u00e9lix","place":"village"},"geometry":{"type":"Point","coordinates":[-71.1863,10.92349]}},{"type":"Feature","id":"node/3949331057","properties":{"name":"Agua Larga","place":"village"},"geometry":{"type":"Point","coordinates":[-69.7311,10.88795]}},{"type":"Feature","id":"node/3949333857","properties":{"name":"Curimagua","place":"town"},"geometry":{"type":"Point","coordinates":[-69.67488,11.17021]}},{"type":"Feature","id":"node/3949334658","properties":{"name":"P\u00edritu","place":"town"},"geometry":{"type":"Point","coordinates":[-69.13739,11.36649]}},{"type":"Feature","id":"node/3949334659","properties":{"name":"Pueblo Cumarebo","place":"village"},"geometry":{"type":"Point","coordinates":[-69.31693,11.45976]}},{"type":"Feature","id":"node/3949335757","properties":{"name":"Jadacaquiva","place":"village"},"geometry":{"type":"Point","coordinates":[-70.09364,11.9001]}},{"type":"Feature","id":"node/4097270640","properties":{"name":"Tiraya","place":"town"},"geometry":{"type":"Point","coordinates":[-69.8538,12.0464]}},{"type":"Feature","id":"node/4097307300","properties":{"name":"Asubure","place":"village"},"geometry":{"type":"Point","coordinates":[-69.85554,12.05798]}},{"type":"Feature","id":"node/5300912919","properties":{"name":"Mene de Mauroa","place":"town"},"geometry":{"type":"Point","coordinates":[-71.03642,10.67895]}},{"type":"Feature","id":"node/5314764020","properties":{"name":"Urumaco","place":"town"},"geometry":{"type":"Point","coordinates":[-70.25634,11.20228]}},{"type":"Feature","id":"node/5327484734","properties":{"name":"La Cruz de Taratara","place":"town"},"geometry":{"type":"Point","coordinates":[-69.71471,11.06329]}},{"type":"Feature","id":"node/5327484731","properties":{"name":"San Luis","place":"town"},"geometry":{"type":"Point","coordinates":[-69.68432,11.12033]}},{"type":"Feature","id":"node/5327527901","properties":{"name":"Cabure","place":"town"},"geometry":{"type":"Point","coordinates":[-69.6122,11.14578]}},{"type":"Feature","id":"node/5331209059","properties":{"name":"Palma Sola","place":"village"},"geometry":{"type":"Point","coordinates":[-68.54965,10.60343]}},{"type":"Feature","id":"node/5331153176","properties":{"name":"Tucacas","place":"city"},"geometry":{"type":"Point","coordinates":[-68.31779,10.7933]}},{"type":"Feature","id":"node/5331087876","properties":{"name":"Mirimire","place":"town"},"geometry":{"type":"Point","coordinates":[-68.72692,11.16065]}},{"type":"Feature","id":"node/5331124404","properties":{"name":"Chichiriviche","place":"city","population":"5000"},"geometry":{"type":"Point","coordinates":[-68.2828,10.93309]}},{"type":"Feature","id":"node/4415327350","properties":{"name":"Coro","place":"city","population":"211266"},"geometry":{"type":"Point","coordinates":[-69.66791,11.40558]}},{"type":"Feature","id":"node/4406329998","properties":{"name":"Santa Ana","place":"town"},"geometry":{"type":"Point","coordinates":[-69.94703,11.78159]}},{"type":"Feature","id":"node/4406807523","properties":{"name":"Baraived","place":"town"},"geometry":{"type":"Point","coordinates":[-69.85273,11.88721]}},{"type":"Feature","id":"node/4406850987","properties":{"name":"Villa Marina","place":"town"},"geometry":{"type":"Point","coordinates":[-70.27418,11.82137]}},{"type":"Feature","id":"node/4470188813","properties":{"name":"Judibana","place":"town"},"geometry":{"type":"Point","coordinates":[-70.18386,11.7589]}},{"type":"Feature","id":"node/4787409050","properties":{"name":"Los Olivos","place":"village"},"geometry":{"type":"Point","coordinates":[-70.12047,11.83663]}},{"type":"Feature","id":"node/4834769480","properties":{"name":"La Guadalupe","place":"village"},"geometry":{"type":"Point","coordinates":[-70.11655,11.94125]}},{"type":"Feature","id":"node/4834772826","properties":{"name":"La Ca\u00f1ada","place":"village"},"geometry":{"type":"Point","coordinates":[-70.12298,11.82766]}},{"type":"Feature","id":"node/5311977245","properties":{"name":"Corralito","place":"village"},"geometry":{"type":"Point","coordinates":[-71.12243,10.88141]}},{"type":"Feature","id":"node/5311977258","properties":{"name":"El Llanito","place":"village"},"geometry":{"type":"Point","coordinates":[-71.09183,10.83517]}},{"type":"Feature","id":"node/5312521837","properties":{"name":"Los Pedros","place":"village"},"geometry":{"type":"Point","coordinates":[-70.96181,10.78882]}},{"type":"Feature","id":"node/5312521849","properties":{"name":"Jadagua","place":"village"},"geometry":{"type":"Point","coordinates":[-70.99843,10.82353]}},{"type":"Feature","id":"node/5312521858","properties":{"name":"Guaguana","place":"village"},"geometry":{"type":"Point","coordinates":[-71.01402,10.83106]}},{"type":"Feature","id":"node/5312521874","properties":{"name":"Las Crucecitas","place":"village"},"geometry":{"type":"Point","coordinates":[-71.04099,10.88062]}},{"type":"Feature","id":"node/5314686605","properties":{"name":"Bariro","place":"village"},"geometry":{"type":"Point","coordinates":[-70.7404,10.77419]}},{"type":"Feature","id":"node/5314686607","properties":{"name":"Guajiro","place":"village"},"geometry":{"type":"Point","coordinates":[-70.72087,10.62302]}},{"type":"Feature","id":"node/5314693511","properties":{"name":"San Jos\u00e9 de Seque","place":"village"},"geometry":{"type":"Point","coordinates":[-70.82836,11.01753]}},{"type":"Feature","id":"node/5314694136","properties":{"name":"La Cuchara","place":"village"},"geometry":{"type":"Point","coordinates":[-70.90135,10.87356]}},{"type":"Feature","id":"node/5314708024","properties":{"name":"Pajuizal","place":"village"},"geometry":{"type":"Point","coordinates":[-70.72104,10.98473]}},{"type":"Feature","id":"node/5314708159","properties":{"name":"Santa Rosa","place":"village"},"geometry":{"type":"Point","coordinates":[-70.65136,11.11617]}},{"type":"Feature","id":"node/5314708160","properties":{"name":"Miramar","place":"village"},"geometry":{"type":"Point","coordinates":[-70.60641,11.22208]}},{"type":"Feature","id":"node/5314761617","properties":{"name":"La Quietud","place":"village"},"geometry":{"type":"Point","coordinates":[-70.53876,11.09637]}},{"type":"Feature","id":"node/5314763863","properties":{"name":"San Gregorio","place":"village"},"geometry":{"type":"Point","coordinates":[-70.48212,11.16916]}},{"type":"Feature","id":"node/5314763867","properties":{"name":"Puerto Zaz\u00e1rida","place":"village"},"geometry":{"type":"Point","coordinates":[-70.51231,11.2388]}},{"type":"Feature","id":"node/5314763868","properties":{"name":"Tarana","place":"village"},"geometry":{"type":"Point","coordinates":[-70.40934,11.1417]}},{"type":"Feature","id":"node/5314763879","properties":{"name":"Llano Grande","place":"village"},"geometry":{"type":"Point","coordinates":[-70.30671,11.17873]}},{"type":"Feature","id":"node/5314763999","properties":{"name":"San Jos\u00e9 de Bruzual","place":"village"},"geometry":{"type":"Point","coordinates":[-70.33172,11.07792]}},{"type":"Feature","id":"node/5314764122","properties":{"name":"La Represa","place":"village"},"geometry":{"type":"Point","coordinates":[-70.23801,11.15809]}},{"type":"Feature","id":"node/5314764123","properties":{"name":"El Tamarindo","place":"village"},"geometry":{"type":"Point","coordinates":[-70.22314,11.14098]}},{"type":"Feature","id":"node/5314764124","properties":{"name":"Corralito","place":"village"},"geometry":{"type":"Point","coordinates":[-70.21709,11.11763]}},{"type":"Feature","id":"node/5314764125","properties":{"name":"La Curva","place":"village"},"geometry":{"type":"Point","coordinates":[-70.23803,11.06391]}},{"type":"Feature","id":"node/5314764170","properties":{"name":"Las Cruces","place":"village"},"geometry":{"type":"Point","coordinates":[-70.22458,11.05932]}},{"type":"Feature","id":"node/5314764190","properties":{"name":"San Fernando","place":"village"},"geometry":{"type":"Point","coordinates":[-70.19118,11.05112]}},{"type":"Feature","id":"node/5314764202","properties":{"name":"El Cuj\u00ed","place":"village"},"geometry":{"type":"Point","coordinates":[-70.18868,11.23252]}},{"type":"Feature","id":"node/5314764203","properties":{"name":"El Lindero","place":"village"},"geometry":{"type":"Point","coordinates":[-70.15857,11.23771]}},{"type":"Feature","id":"node/5314764205","properties":{"name":"R\u00edo Seco","place":"town"},"geometry":{"type":"Point","coordinates":[-70.20649,11.35258]}},{"type":"Feature","id":"node/5314764206","properties":{"name":"Acorote","place":"village"},"geometry":{"type":"Point","coordinates":[-70.23664,11.34034]}},{"type":"Feature","id":"node/5314797060","properties":{"name":"Santa Rita","place":"village"},"geometry":{"type":"Point","coordinates":[-69.89566,11.32104]}},{"type":"Feature","id":"node/5314797188","properties":{"name":"El Recreo","place":"village"},"geometry":{"type":"Point","coordinates":[-69.81506,11.35066]}},{"type":"Feature","id":"node/5327483594","properties":{"name":"La Tabla","place":"village"},"geometry":{"type":"Point","coordinates":[-69.73895,11.15258]}},{"type":"Feature","id":"node/5327483617","properties":{"name":"Los Quemados","place":"village"},"geometry":{"type":"Point","coordinates":[-69.70854,11.27668]}},{"type":"Feature","id":"node/5327483618","properties":{"name":"Guate","place":"village"},"geometry":{"type":"Point","coordinates":[-69.67753,11.30467]}},{"type":"Feature","id":"node/5327483619","properties":{"name":"Arenales","place":"village"},"geometry":{"type":"Point","coordinates":[-69.66933,11.32354]}},{"type":"Feature","id":"node/5327484439","properties":{"name":"La Toma","place":"village"},"geometry":{"type":"Point","coordinates":[-69.6596,11.34721]}},{"type":"Feature","id":"node/5327484440","properties":{"name":"La Negrita","place":"town"},"geometry":{"type":"Point","coordinates":[-69.6342,11.31003]}},{"type":"Feature","id":"node/5327484464","properties":{"name":"Zambrano","place":"town"},"geometry":{"type":"Point","coordinates":[-69.56165,11.33221]}},{"type":"Feature","id":"node/5327484563","properties":{"name":"Macuquita","place":"village"},"geometry":{"type":"Point","coordinates":[-69.58111,11.28209]}},{"type":"Feature","id":"node/5327484564","properties":{"name":"Santa Mar\u00eda de la Sierra","place":"village"},"geometry":{"type":"Point","coordinates":[-69.59729,11.26214]}},{"type":"Feature","id":"node/5327484582","properties":{"name":"La Chapa","place":"town"},"geometry":{"type":"Point","coordinates":[-69.60931,11.25579]}},{"type":"Feature","id":"node/5327484583","properties":{"name":"La Ci\u00e9naga","place":"village"},"geometry":{"type":"Point","coordinates":[-69.61312,11.24004]}},{"type":"Feature","id":"node/5327484584","properties":{"name":"Ur\u00eda","place":"village"},"geometry":{"type":"Point","coordinates":[-69.61499,11.22032]}},{"type":"Feature","id":"node/5327484585","properties":{"name":"San Joaqu\u00edn","place":"village"},"geometry":{"type":"Point","coordinates":[-69.61624,11.21266]}},{"type":"Feature","id":"node/5327484586","properties":{"name":"San Diego","place":"village"},"geometry":{"type":"Point","coordinates":[-69.62712,11.20833]}},{"type":"Feature","id":"node/5327484587","properties":{"name":"Macanillas","place":"village"},"geometry":{"type":"Point","coordinates":[-69.65042,11.19292]}},{"type":"Feature","id":"node/5327484628","properties":{"name":"Camino de los Espa\u00f1oles","place":"village"},"geometry":{"type":"Point","coordinates":[-69.63437,11.18521]}},{"type":"Feature","id":"node/5327484647","properties":{"name":"La Soledad","place":"village"},"geometry":{"type":"Point","coordinates":[-69.64008,11.19911]}},{"type":"Feature","id":"node/5327484663","properties":{"name":"San Vicente","place":"village"},"geometry":{"type":"Point","coordinates":[-69.65801,11.19048]}},{"type":"Feature","id":"node/5327484702","properties":{"name":"El Trapichito","place":"village"},"geometry":{"type":"Point","coordinates":[-69.65432,11.17667]}},{"type":"Feature","id":"node/5327484732","properties":{"name":"La Pe\u00f1a","place":"village"},"geometry":{"type":"Point","coordinates":[-69.74127,11.10416]}},{"type":"Feature","id":"node/5327484733","properties":{"name":"Cuicare","place":"village"},"geometry":{"type":"Point","coordinates":[-69.75266,11.133]}},{"type":"Feature","id":"node/5327484742","properties":{"name":"El Horc\u00f3n","place":"village"},"geometry":{"type":"Point","coordinates":[-69.73037,11.05935]}},{"type":"Feature","id":"node/5327484756","properties":{"name":"Caram\u00f3n","place":"village"},"geometry":{"type":"Point","coordinates":[-69.75208,11.05305]}},{"type":"Feature","id":"node/5327505956","properties":{"name":"La Goya","place":"village"},"geometry":{"type":"Point","coordinates":[-69.70738,10.99477]}},{"type":"Feature","id":"node/5327506785","properties":{"name":"Aracua","place":"town"},"geometry":{"type":"Point","coordinates":[-69.5855,10.9831]}},{"type":"Feature","id":"node/5327506786","properties":{"name":"Mar\u00eda D\u00edaz","place":"village"},"geometry":{"type":"Point","coordinates":[-69.68411,10.88645]}},{"type":"Feature","id":"node/5327506948","properties":{"name":"Juan Gil","place":"village"},"geometry":{"type":"Point","coordinates":[-69.76461,10.88441]}},{"type":"Feature","id":"node/5327506949","properties":{"name":"El Pauj\u00ed","place":"village"},"geometry":{"type":"Point","coordinates":[-69.62247,10.81179]}},{"type":"Feature","id":"node/5327527855","properties":{"name":"Ara\u00edn","place":"village"},"geometry":{"type":"Point","coordinates":[-69.55219,10.8514]}},{"type":"Feature","id":"node/5327527902","properties":{"name":"La Ci\u00e9naga","place":"village"},"geometry":{"type":"Point","coordinates":[-69.54978,11.17991]}},{"type":"Feature","id":"node/5327527903","properties":{"name":"San Pablo","place":"village"},"geometry":{"type":"Point","coordinates":[-69.49385,11.20316]}},{"type":"Feature","id":"node/5327529021","properties":{"name":"Camarito","place":"village"},"geometry":{"type":"Point","coordinates":[-69.48255,11.21365]}},{"type":"Feature","id":"node/5327529022","properties":{"name":"El Moyepo","place":"town"},"geometry":{"type":"Point","coordinates":[-69.45296,11.24781]}},{"type":"Feature","id":"node/5327529023","properties":{"name":"R\u00edo Chico","place":"village"},"geometry":{"type":"Point","coordinates":[-69.40698,11.26668]}},{"type":"Feature","id":"node/5327529039","properties":{"name":"Ricoa","place":"village"},"geometry":{"type":"Point","coordinates":[-69.41719,11.29819]}},{"type":"Feature","id":"node/5327529061","properties":{"name":"El Paso","place":"village"},"geometry":{"type":"Point","coordinates":[-69.44781,11.33006]}},{"type":"Feature","id":"node/5327529110","properties":{"name":"Mataruca","place":"town"},"geometry":{"type":"Point","coordinates":[-69.53804,11.45972]}},{"type":"Feature","id":"node/5327529111","properties":{"name":"El Carrizal","place":"village"},"geometry":{"type":"Point","coordinates":[-69.54518,11.46568]}},{"type":"Feature","id":"node/5327529112","properties":{"name":"Sabana Larga","place":"town"},"geometry":{"type":"Point","coordinates":[-69.59631,11.44227]}},{"type":"Feature","id":"node/5327549246","properties":{"name":"Duvis\u00ed","place":"village"},"geometry":{"type":"Point","coordinates":[-69.38131,10.78151]}},{"type":"Feature","id":"node/5327549247","properties":{"name":"Maparar\u00ed","place":"town"},"geometry":{"type":"Point","coordinates":[-69.43832,10.79678]}},{"type":"Feature","id":"node/5327549248","properties":{"name":"El Roble","place":"village"},"geometry":{"type":"Point","coordinates":[-69.47568,10.8062]}},{"type":"Feature","id":"node/5327549249","properties":{"name":"El Cacuro","place":"village"},"geometry":{"type":"Point","coordinates":[-69.51185,10.79802]}},{"type":"Feature","id":"node/5327549250","properties":{"name":"La Danta","place":"village"},"geometry":{"type":"Point","coordinates":[-69.25883,10.83747]}},{"type":"Feature","id":"node/5327549251","properties":{"name":"San Gabriel","place":"village"},"geometry":{"type":"Point","coordinates":[-69.22134,10.842]}},{"type":"Feature","id":"node/5327549257","properties":{"name":"El Charal","place":"town"},"geometry":{"type":"Point","coordinates":[-69.2021,10.85001]}},{"type":"Feature","id":"node/5327549258","properties":{"name":"El Torito","place":"village"},"geometry":{"type":"Point","coordinates":[-69.19375,10.86475]}},{"type":"Feature","id":"node/5327549727","properties":{"name":"La Monta\u00f1a","place":"village"},"geometry":{"type":"Point","coordinates":[-69.08358,10.88036]}},{"type":"Feature","id":"node/5327549728","properties":{"name":"Tacamire","place":"village"},"geometry":{"type":"Point","coordinates":[-69.07052,10.92794]}},{"type":"Feature","id":"node/5327549729","properties":{"name":"Agua Linda","place":"village"},"geometry":{"type":"Point","coordinates":[-68.98816,10.95089]}},{"type":"Feature","id":"node/5327549730","properties":{"name":"La Ci\u00e9naga","place":"village"},"geometry":{"type":"Point","coordinates":[-68.96975,10.96831]}},{"type":"Feature","id":"node/5327549734","properties":{"name":"Pueblo Nuevo","place":"town"},"geometry":{"type":"Point","coordinates":[-68.84032,11.1053]}},{"type":"Feature","id":"node/5327549738","properties":{"name":"Marcillal de la Costa","place":"town"},"geometry":{"type":"Point","coordinates":[-68.8395,11.20027]}},{"type":"Feature","id":"node/5327570753","properties":{"name":"Guamachito","place":"village"},"geometry":{"type":"Point","coordinates":[-68.84679,11.21347]}},{"type":"Feature","id":"node/5327570754","properties":{"name":"Aragu\u00e1n","place":"village"},"geometry":{"type":"Point","coordinates":[-68.93266,11.27292]}},{"type":"Feature","id":"node/5327570783","properties":{"name":"La Piedra","place":"village"},"geometry":{"type":"Point","coordinates":[-68.8596,11.33489]}},{"type":"Feature","id":"node/5327570810","properties":{"name":"El Encanto","place":"village"},"geometry":{"type":"Point","coordinates":[-68.79731,11.35563]}},{"type":"Feature","id":"node/5327570816","properties":{"name":"El Isidro","place":"village"},"geometry":{"type":"Point","coordinates":[-68.77354,11.36185]}},{"type":"Feature","id":"node/5327570964","properties":{"name":"San Jos\u00e9 de La Costa","place":"village"},"geometry":{"type":"Point","coordinates":[-68.83727,11.43498]}},{"type":"Feature","id":"node/5327570993","properties":{"name":"Sauca","place":"village"},"geometry":{"type":"Point","coordinates":[-68.88241,11.44679]}},{"type":"Feature","id":"node/5327571034","properties":{"name":"Campechano","place":"village"},"geometry":{"type":"Point","coordinates":[-68.94053,11.43767]}},{"type":"Feature","id":"node/5329267040","properties":{"name":"Curar\u00ed Norte","place":"village"},"geometry":{"type":"Point","coordinates":[-68.97119,11.31888]}},{"type":"Feature","id":"node/5329267041","properties":{"name":"Huequito","place":"village"},"geometry":{"type":"Point","coordinates":[-69.0206,11.3382]}},{"type":"Feature","id":"node/5329267042","properties":{"name":"El Vizca\u00edno","place":"village"},"geometry":{"type":"Point","coordinates":[-69.04402,11.3423]}},{"type":"Feature","id":"node/5329267043","properties":{"name":"Chimpire","place":"town"},"geometry":{"type":"Point","coordinates":[-69.11768,11.35139]}},{"type":"Feature","id":"node/5329267044","properties":{"name":"Taguaqui","place":"village"},"geometry":{"type":"Point","coordinates":[-69.16308,11.38095]}},{"type":"Feature","id":"node/5329284101","properties":{"name":"Sabanas Altas","place":"town"},"geometry":{"type":"Point","coordinates":[-69.10883,11.48815]}},{"type":"Feature","id":"node/5331043776","properties":{"name":"Barranquita","place":"village"},"geometry":{"type":"Point","coordinates":[-69.28599,11.52518]}},{"type":"Feature","id":"node/5331044261","properties":{"name":"La Ci\u00e9naga","place":"town"},"geometry":{"type":"Point","coordinates":[-69.36506,11.45624]}},{"type":"Feature","id":"node/5331044283","properties":{"name":"Los Bosteros","place":"village"},"geometry":{"type":"Point","coordinates":[-69.51717,11.4701]}},{"type":"Feature","id":"node/5331087874","properties":{"name":"Caidi\u00e9","place":"village"},"geometry":{"type":"Point","coordinates":[-68.76975,11.1725]}},{"type":"Feature","id":"node/5331087875","properties":{"name":"El Bigote","place":"village"},"geometry":{"type":"Point","coordinates":[-68.75544,11.16557]}},{"type":"Feature","id":"node/5331088757","properties":{"name":"Hicacales","place":"village"},"geometry":{"type":"Point","coordinates":[-68.67051,11.32552]}},{"type":"Feature","id":"node/5331088758","properties":{"name":"El Caujaro","place":"village"},"geometry":{"type":"Point","coordinates":[-68.70138,11.24208]}},{"type":"Feature","id":"node/5331088829","properties":{"name":"Ag\u00fcide","place":"town"},"geometry":{"type":"Point","coordinates":[-68.68573,11.35022]}},{"type":"Feature","id":"node/5331088831","properties":{"name":"Yucumacara","place":"village"},"geometry":{"type":"Point","coordinates":[-68.70252,11.16854]}},{"type":"Feature","id":"node/5331088873","properties":{"name":"Los Cedritos","place":"village"},"geometry":{"type":"Point","coordinates":[-68.69471,11.17094]}},{"type":"Feature","id":"node/5331088874","properties":{"name":"El Candado","place":"village"},"geometry":{"type":"Point","coordinates":[-68.67726,11.17369]}},{"type":"Feature","id":"node/5331088875","properties":{"name":"Camachina","place":"village"},"geometry":{"type":"Point","coordinates":[-68.62664,11.16567]}},{"type":"Feature","id":"node/5331088876","properties":{"name":"Capadare","place":"town"},"geometry":{"type":"Point","coordinates":[-68.57315,11.15889]}},{"type":"Feature","id":"node/5331088954","properties":{"name":"Curamichate","place":"village"},"geometry":{"type":"Point","coordinates":[-68.53709,11.26158]}},{"type":"Feature","id":"node/5331089015","properties":{"name":"San Juancito","place":"village"},"geometry":{"type":"Point","coordinates":[-68.58503,11.1709]}},{"type":"Feature","id":"node/5331089016","properties":{"name":"El Cayude","place":"village"},"geometry":{"type":"Point","coordinates":[-68.60892,11.18852]}},{"type":"Feature","id":"node/5331089054","properties":{"name":"La Pastora","place":"village"},"geometry":{"type":"Point","coordinates":[-68.61923,11.19091]}},{"type":"Feature","id":"node/5331089112","properties":{"name":"Viento Suave","place":"village"},"geometry":{"type":"Point","coordinates":[-68.60461,11.26314]}},{"type":"Feature","id":"node/5331124080","properties":{"name":"Quebrada Honda","place":"town"},"geometry":{"type":"Point","coordinates":[-68.54683,11.17355]}},{"type":"Feature","id":"node/5331124081","properties":{"name":"Los Boquerones","place":"village"},"geometry":{"type":"Point","coordinates":[-68.4703,11.19148]}},{"type":"Feature","id":"node/5331124086","properties":{"name":"Boca de Mangle","place":"town"},"geometry":{"type":"Point","coordinates":[-68.39682,11.14702]}},{"type":"Feature","id":"node/5331124087","properties":{"name":"Boca del Tocuyo","place":"town"},"geometry":{"type":"Point","coordinates":[-68.34102,11.051]}},{"type":"Feature","id":"node/5331124088","properties":{"name":"La Villa","place":"village"},"geometry":{"type":"Point","coordinates":[-68.4017,11.10607]}},{"type":"Feature","id":"node/5331124177","properties":{"name":"San Lorenzo","place":"town"},"geometry":{"type":"Point","coordinates":[-68.48992,11.0429]}},{"type":"Feature","id":"node/5331124374","properties":{"name":"Tocuyo de La Costa","place":"town"},"geometry":{"type":"Point","coordinates":[-68.37429,11.03616]}},{"type":"Feature","id":"node/5331124405","properties":{"name":"Tibana","place":"village"},"geometry":{"type":"Point","coordinates":[-68.38191,10.90829]}},{"type":"Feature","id":"node/5331124406","properties":{"name":"Sanare","place":"village"},"geometry":{"type":"Point","coordinates":[-68.38354,10.87198]}},{"type":"Feature","id":"node/5331152784","properties":{"name":"El Alto","place":"town"},"geometry":{"type":"Point","coordinates":[-68.47477,10.94293]}},{"type":"Feature","id":"node/5331153124","properties":{"name":"La Guacharaca","place":"village"},"geometry":{"type":"Point","coordinates":[-68.66194,11.02856]}},{"type":"Feature","id":"node/5331153125","properties":{"name":"Agua Blanca","place":"village"},"geometry":{"type":"Point","coordinates":[-68.72332,11.11523]}},{"type":"Feature","id":"node/5331153127","properties":{"name":"La Soledad","place":"village"},"geometry":{"type":"Point","coordinates":[-68.34152,10.861]}},{"type":"Feature","id":"node/5331153128","properties":{"name":"La Luisa","place":"village"},"geometry":{"type":"Point","coordinates":[-68.30712,10.86163]}},{"type":"Feature","id":"node/5331153140","properties":{"name":"Morrocoy","place":"town"},"geometry":{"type":"Point","coordinates":[-68.27505,10.85852]}},{"type":"Feature","id":"node/5331153174","properties":{"name":"Lizardo","place":"village"},"geometry":{"type":"Point","coordinates":[-68.24567,10.85673]}},{"type":"Feature","id":"node/5331153211","properties":{"name":"Las Lapas","place":"town"},"geometry":{"type":"Point","coordinates":[-68.40105,10.77653]}},{"type":"Feature","id":"node/5331153251","properties":{"name":"Felipito","place":"village"},"geometry":{"type":"Point","coordinates":[-68.44074,10.75006]}},{"type":"Feature","id":"node/5331153296","properties":{"name":"Agua Linda","place":"town"},"geometry":{"type":"Point","coordinates":[-68.44,10.71691]}},{"type":"Feature","id":"node/5331208685","properties":{"name":"Zona C","place":"town"},"geometry":{"type":"Point","coordinates":[-68.4831,10.68712]}},{"type":"Feature","id":"node/5331209196","properties":{"name":"Kil\u00f3metro 26","place":"village"},"geometry":{"type":"Point","coordinates":[-68.46749,10.63455]}},{"type":"Feature","id":"node/5331209309","properties":{"name":"La Caracara","place":"village"},"geometry":{"type":"Point","coordinates":[-68.38486,10.6723]}},{"type":"Feature","id":"node/5331209328","properties":{"name":"Anselmito","place":"village"},"geometry":{"type":"Point","coordinates":[-68.31713,10.6666]}},{"type":"Feature","id":"node/5331209394","properties":{"name":"San Jos\u00e9","place":"village"},"geometry":{"type":"Point","coordinates":[-68.43973,10.65673]}},{"type":"Feature","id":"node/5331209395","properties":{"name":"Las Brujitas","place":"village"},"geometry":{"type":"Point","coordinates":[-68.41169,10.67178]}},{"type":"Feature","id":"node/5331209492","properties":{"name":"Las Delicias","place":"town"},"geometry":{"type":"Point","coordinates":[-68.29667,10.67776]}},{"type":"Feature","id":"node/5331209493","properties":{"name":"Boca de Aroa","place":"town"},"geometry":{"type":"Point","coordinates":[-68.30231,10.69488]}},{"type":"Feature","id":"node/5333106002","properties":{"name":"Las Vegas del Tuy","place":"town"},"geometry":{"type":"Point","coordinates":[-69.16353,10.70762]}},{"type":"Feature","id":"node/5367138105","properties":{"name":"Poblado 22","place":"village"},"geometry":{"type":"Point","coordinates":[-68.58124,10.63318]}},{"type":"Feature","id":"node/5506060131","properties":{"name":"Iticuna","place":"village"},"geometry":{"type":"Point","coordinates":[-70.12673,11.93959]}},{"type":"Feature","id":"node/5506060707","properties":{"name":"La Sabaneta","place":"village"},"geometry":{"type":"Point","coordinates":[-70.18292,11.88745]}},{"type":"Feature","id":"node/5506060713","properties":{"name":"Coduto","place":"village"},"geometry":{"type":"Point","coordinates":[-70.21328,11.81737]}},{"type":"Feature","id":"node/5506060714","properties":{"name":"Jayana","place":"village"},"geometry":{"type":"Point","coordinates":[-70.20712,11.80535]}},{"type":"Feature","id":"node/5506060716","properties":{"name":"El Tacal","place":"village"},"geometry":{"type":"Point","coordinates":[-70.20554,11.85241]}},{"type":"Feature","id":"node/5506060719","properties":{"name":"Las Tres Mar\u00edas","place":"village"},"geometry":{"type":"Point","coordinates":[-70.21198,11.90958]}},{"type":"Feature","id":"node/5506060720","properties":{"name":"El Hoyito","place":"village"},"geometry":{"type":"Point","coordinates":[-70.22525,11.90318]}},{"type":"Feature","id":"node/5506060723","properties":{"name":"El Pico","place":"village"},"geometry":{"type":"Point","coordinates":[-70.28793,11.86216]}},{"type":"Feature","id":"node/5506060725","properties":{"name":"Punta de Cocuy","place":"village"},"geometry":{"type":"Point","coordinates":[-70.27016,11.93952]}},{"type":"Feature","id":"node/5506060727","properties":{"name":"Punta de Barco","place":"village"},"geometry":{"type":"Point","coordinates":[-69.90515,12.14756]}},{"type":"Feature","id":"node/5506060820","properties":{"name":"El Silencio","place":"village"},"geometry":{"type":"Point","coordinates":[-70.04664,12.01206]}},{"type":"Feature","id":"node/5506060928","properties":{"name":"Cayerua","place":"village"},"geometry":{"type":"Point","coordinates":[-69.95917,11.98644]}},{"type":"Feature","id":"node/5506060929","properties":{"name":"Las Delicias","place":"village"},"geometry":{"type":"Point","coordinates":[-69.97747,12.01268]}},{"type":"Feature","id":"node/5506060930","properties":{"name":"Los Pozos","place":"village"},"geometry":{"type":"Point","coordinates":[-69.98699,12.01194]}},{"type":"Feature","id":"node/5506060946","properties":{"name":"El Doral","place":"village"},"geometry":{"type":"Point","coordinates":[-69.96832,12.03836]}},{"type":"Feature","id":"node/5506060950","properties":{"name":"Las Carmelitas","place":"village"},"geometry":{"type":"Point","coordinates":[-69.99562,12.06946]}},{"type":"Feature","id":"node/5506060953","properties":{"name":"Santa Elena","place":"village"},"geometry":{"type":"Point","coordinates":[-69.98986,12.08605]}},{"type":"Feature","id":"node/5506060954","properties":{"name":"La Loma","place":"village"},"geometry":{"type":"Point","coordinates":[-69.98491,12.08196]}},{"type":"Feature","id":"node/5506060956","properties":{"name":"San Juan","place":"village"},"geometry":{"type":"Point","coordinates":[-69.96673,12.0819]}},{"type":"Feature","id":"node/5506060957","properties":{"name":"Santa Mar\u00eda","place":"village"},"geometry":{"type":"Point","coordinates":[-69.95653,12.08309]}},{"type":"Feature","id":"node/5506060963","properties":{"name":"Las Cumaraguas","place":"village"},"geometry":{"type":"Point","coordinates":[-69.89397,12.10309]}},{"type":"Feature","id":"node/5506060964","properties":{"name":"Mata Gorda","place":"village"},"geometry":{"type":"Point","coordinates":[-69.88505,12.1061]}},{"type":"Feature","id":"node/5506060966","properties":{"name":"Yaima","place":"village"},"geometry":{"type":"Point","coordinates":[-69.87242,12.08417]}},{"type":"Feature","id":"node/5506060982","properties":{"name":"Jurujurebo","place":"village"},"geometry":{"type":"Point","coordinates":[-69.94021,12.04882]}},{"type":"Feature","id":"node/5506060983","properties":{"name":"Barrialito","place":"village"},"geometry":{"type":"Point","coordinates":[-69.93121,12.05607]}},{"type":"Feature","id":"node/5506060984","properties":{"name":"Conejalito","place":"village"},"geometry":{"type":"Point","coordinates":[-69.93466,12.04136]}},{"type":"Feature","id":"node/5506060986","properties":{"name":"Cerro Pel\u00f3n","place":"village"},"geometry":{"type":"Point","coordinates":[-69.92993,12.02621]}},{"type":"Feature","id":"node/5506060987","properties":{"name":"Miramar","place":"village"},"geometry":{"type":"Point","coordinates":[-69.9209,12.01191]}},{"type":"Feature","id":"node/5506060989","properties":{"name":"Santa Rita","place":"village"},"geometry":{"type":"Point","coordinates":[-69.86361,12.03244]}},{"type":"Feature","id":"node/5506061138","properties":{"name":"San Pedro","place":"village"},"geometry":{"type":"Point","coordinates":[-69.86455,11.99397]}},{"type":"Feature","id":"node/5506061140","properties":{"name":"Santa Cruz","place":"village"},"geometry":{"type":"Point","coordinates":[-69.88687,11.9748]}},{"type":"Feature","id":"node/5506061141","properties":{"name":"Buchal","place":"village"},"geometry":{"type":"Point","coordinates":[-69.84202,11.95967]}},{"type":"Feature","id":"node/5506061142","properties":{"name":"Guaquira Arriba","place":"village"},"geometry":{"type":"Point","coordinates":[-69.88665,11.94044]}},{"type":"Feature","id":"node/5506061143","properties":{"name":"Guaquira Abajo","place":"village"},"geometry":{"type":"Point","coordinates":[-69.89322,11.93193]}},{"type":"Feature","id":"node/5506061146","properties":{"name":"El Pauj\u00ed","place":"village"},"geometry":{"type":"Point","coordinates":[-69.86315,11.93244]}},{"type":"Feature","id":"node/5506061147","properties":{"name":"La Idea","place":"village"},"geometry":{"type":"Point","coordinates":[-69.86383,11.92086]}},{"type":"Feature","id":"node/5506061151","properties":{"name":"Charaima","place":"village"},"geometry":{"type":"Point","coordinates":[-69.8509,11.90496]}},{"type":"Feature","id":"node/5506061153","properties":{"name":"Miraca","place":"village"},"geometry":{"type":"Point","coordinates":[-69.86486,11.8765]}},{"type":"Feature","id":"node/5506061154","properties":{"name":"Maquigua","place":"village"},"geometry":{"type":"Point","coordinates":[-69.85749,11.84975]}},{"type":"Feature","id":"node/5506061157","properties":{"name":"Punta Prudencio","place":"village"},"geometry":{"type":"Point","coordinates":[-69.87397,11.66823]}},{"type":"Feature","id":"node/5506061158","properties":{"name":"Punta La Huesa","place":"village"},"geometry":{"type":"Point","coordinates":[-69.85258,11.68466]}},{"type":"Feature","id":"node/5506061174","properties":{"name":"El Rodeo","place":"village"},"geometry":{"type":"Point","coordinates":[-69.89998,11.7621]}},{"type":"Feature","id":"node/5506061175","properties":{"name":"El Cerrito","place":"village"},"geometry":{"type":"Point","coordinates":[-69.92429,11.76973]}},{"type":"Feature","id":"node/5506061176","properties":{"name":"Divacoa","place":"village"},"geometry":{"type":"Point","coordinates":[-69.93624,11.78303]}},{"type":"Feature","id":"node/5506061177","properties":{"name":"El Cujisal","place":"village"},"geometry":{"type":"Point","coordinates":[-69.92502,11.78399]}},{"type":"Feature","id":"node/5506061178","properties":{"name":"Portachuelo","place":"village"},"geometry":{"type":"Point","coordinates":[-69.91524,11.79214]}},{"type":"Feature","id":"node/5506061180","properties":{"name":"Cruz Verde","place":"village"},"geometry":{"type":"Point","coordinates":[-69.90063,11.81371]}},{"type":"Feature","id":"node/5506061181","properties":{"name":"Machuruca","place":"village"},"geometry":{"type":"Point","coordinates":[-69.90693,11.80626]}},{"type":"Feature","id":"node/5506061182","properties":{"name":"Maitiruma","place":"village"},"geometry":{"type":"Point","coordinates":[-69.89047,11.82267]}},{"type":"Feature","id":"node/5506061261","properties":{"name":"Pilanc\u00f3n","place":"village"},"geometry":{"type":"Point","coordinates":[-69.92708,11.83272]}},{"type":"Feature","id":"node/5506061262","properties":{"name":"Misaray","place":"village"},"geometry":{"type":"Point","coordinates":[-69.9265,11.84254]}},{"type":"Feature","id":"node/5506061263","properties":{"name":"Cujisal","place":"village"},"geometry":{"type":"Point","coordinates":[-69.93887,11.85243]}},{"type":"Feature","id":"node/5506061279","properties":{"name":"Matividiro","place":"village"},"geometry":{"type":"Point","coordinates":[-69.90089,11.85722]}},{"type":"Feature","id":"node/5506061280","properties":{"name":"La Pitahaya","place":"village"},"geometry":{"type":"Point","coordinates":[-69.92262,11.87021]}},{"type":"Feature","id":"node/5506061282","properties":{"name":"Maicara","place":"village"},"geometry":{"type":"Point","coordinates":[-69.89135,11.86764]}},{"type":"Feature","id":"node/5506061283","properties":{"name":"La Ci\u00e9naga","place":"village"},"geometry":{"type":"Point","coordinates":[-69.93903,11.91237]}},{"type":"Feature","id":"node/5506061284","properties":{"name":"Sacuragua","place":"village"},"geometry":{"type":"Point","coordinates":[-69.92375,11.9152]}},{"type":"Feature","id":"node/5506061288","properties":{"name":"La Florida","place":"village"},"geometry":{"type":"Point","coordinates":[-69.98274,11.98423]}},{"type":"Feature","id":"node/5506061289","properties":{"name":"Buenevara","place":"village"},"geometry":{"type":"Point","coordinates":[-69.98815,11.97753]}},{"type":"Feature","id":"node/5506061290","properties":{"name":"Azaro","place":"village"},"geometry":{"type":"Point","coordinates":[-69.96019,11.96926]}},{"type":"Feature","id":"node/5506061293","properties":{"name":"San Jos\u00e9 de Cocodite","place":"village"},"geometry":{"type":"Point","coordinates":[-69.98763,11.93437]}},{"type":"Feature","id":"node/5506061294","properties":{"name":"San Carlos","place":"village"},"geometry":{"type":"Point","coordinates":[-70.00387,11.92539]}},{"type":"Feature","id":"node/5506061295","properties":{"name":"El Barbasco","place":"village"},"geometry":{"type":"Point","coordinates":[-70.00136,11.9445]}},{"type":"Feature","id":"node/5506061298","properties":{"name":"La Trinidad","place":"village"},"geometry":{"type":"Point","coordinates":[-70.04625,11.94412]}},{"type":"Feature","id":"node/5506061299","properties":{"name":"Montalb\u00e1n","place":"village"},"geometry":{"type":"Point","coordinates":[-70.05873,11.94267]}},{"type":"Feature","id":"node/5506061300","properties":{"name":"El Socorro","place":"village"},"geometry":{"type":"Point","coordinates":[-70.07598,11.93222]}},{"type":"Feature","id":"node/5506061303","properties":{"name":"Amaraya","place":"village"},"geometry":{"type":"Point","coordinates":[-70.0671,11.88299]}},{"type":"Feature","id":"node/5506061304","properties":{"name":"Adaure","place":"town"},"geometry":{"type":"Point","coordinates":[-69.98772,11.87218]}},{"type":"Feature","id":"node/5506061305","properties":{"name":"Balsamar","place":"village"},"geometry":{"type":"Point","coordinates":[-69.96615,11.85649]}},{"type":"Feature","id":"node/5506061306","properties":{"name":"Guacurebo","place":"village"},"geometry":{"type":"Point","coordinates":[-69.95366,11.84269]}},{"type":"Feature","id":"node/5506061307","properties":{"name":"La Poza","place":"village"},"geometry":{"type":"Point","coordinates":[-69.96575,11.84069]}},{"type":"Feature","id":"node/5506061308","properties":{"name":"La Bomba","place":"village"},"geometry":{"type":"Point","coordinates":[-69.97191,11.83494]}},{"type":"Feature","id":"node/5506061309","properties":{"name":"Los Llanitos","place":"village"},"geometry":{"type":"Point","coordinates":[-69.99025,11.84179]}},{"type":"Feature","id":"node/5506061313","properties":{"name":"El Rom\u00e1n","place":"village"},"geometry":{"type":"Point","coordinates":[-70.07987,11.85611]}},{"type":"Feature","id":"node/5506061314","properties":{"name":"Mamonal","place":"village"},"geometry":{"type":"Point","coordinates":[-70.07402,11.83746]}},{"type":"Feature","id":"node/5506061315","properties":{"name":"Barun\u00fa","place":"village"},"geometry":{"type":"Point","coordinates":[-70.02061,11.85591]}},{"type":"Feature","id":"node/5506061317","properties":{"name":"Tacaduto","place":"village"},"geometry":{"type":"Point","coordinates":[-70.04263,11.84131]}},{"type":"Feature","id":"node/5506061318","properties":{"name":"La Miraba","place":"village"},"geometry":{"type":"Point","coordinates":[-70.05398,11.83363]}},{"type":"Feature","id":"node/5506061319","properties":{"name":"Guacuj\u00fan","place":"village"},"geometry":{"type":"Point","coordinates":[-70.0732,11.82686]}},{"type":"Feature","id":"node/5506061322","properties":{"name":"Jarayadito","place":"village"},"geometry":{"type":"Point","coordinates":[-69.99542,11.81636]}},{"type":"Feature","id":"node/5506061323","properties":{"name":"Tumarusa","place":"village"},"geometry":{"type":"Point","coordinates":[-69.98767,11.79488]}},{"type":"Feature","id":"node/5506061324","properties":{"name":"Varacara","place":"village"},"geometry":{"type":"Point","coordinates":[-69.97437,11.79828]}},{"type":"Feature","id":"node/5506061327","properties":{"name":"La Rinconada","place":"village"},"geometry":{"type":"Point","coordinates":[-69.95549,11.75679]}},{"type":"Feature","id":"node/5506061330","properties":{"name":"Davaduvare","place":"village"},"geometry":{"type":"Point","coordinates":[-70.01709,11.78326]}},{"type":"Feature","id":"node/5506061332","properties":{"name":"Caseto","place":"village"},"geometry":{"type":"Point","coordinates":[-70.01731,11.76211]}},{"type":"Feature","id":"node/5506061333","properties":{"name":"Santa Fe","place":"village"},"geometry":{"type":"Point","coordinates":[-70.02131,11.7316]}},{"type":"Feature","id":"node/5506061337","properties":{"name":"Santa Rita","place":"village"},"geometry":{"type":"Point","coordinates":[-70.10573,11.7622]}},{"type":"Feature","id":"node/5506061338","properties":{"name":"Quitaire","place":"village"},"geometry":{"type":"Point","coordinates":[-70.10675,11.74705]}},{"type":"Feature","id":"node/5506061419","properties":{"name":"La Trinidad","place":"village"},"geometry":{"type":"Point","coordinates":[-70.12515,11.73496]}},{"type":"Feature","id":"node/5506061420","properties":{"name":"San Antonio","place":"village"},"geometry":{"type":"Point","coordinates":[-70.12228,11.72356]}},{"type":"Feature","id":"node/5506061421","properties":{"name":"Sarinao","place":"village"},"geometry":{"type":"Point","coordinates":[-70.07945,11.74318]}},{"type":"Feature","id":"node/5506061493","properties":{"name":"Cerro Atravesado","place":"village"},"geometry":{"type":"Point","coordinates":[-70.08024,11.72727]}},{"type":"Feature","id":"node/5506061496","properties":{"name":"Tiguadare","place":"village"},"geometry":{"type":"Point","coordinates":[-70.14138,11.62267]}},{"type":"Feature","id":"node/5506061503","properties":{"name":"El Cayude","place":"town"},"geometry":{"type":"Point","coordinates":[-69.95677,11.70063]}},{"type":"Feature","id":"node/5801215277","properties":{"name":"San Rafael","place":"village"},"geometry":{"type":"Point","coordinates":[-68.28181,10.87196]}},{"type":"Feature","id":"node/5801215285","properties":{"name":"El Pasadero","place":"town"},"geometry":{"type":"Point","coordinates":[-68.30917,10.94306]}},{"type":"Feature","id":"node/5801215292","properties":{"name":"El Pu\u00f1al","place":"village"},"geometry":{"type":"Point","coordinates":[-68.43154,10.89806]}},{"type":"Feature","id":"node/5801215296","properties":{"name":"Campeche","place":"village"},"geometry":{"type":"Point","coordinates":[-68.46193,10.9623]}},{"type":"Feature","id":"node/5801215297","properties":{"name":"Blanquillo","place":"village"},"geometry":{"type":"Point","coordinates":[-68.41935,10.98811]}},{"type":"Feature","id":"node/5868294129","properties":{"name":"Camururia","place":"village"},"geometry":{"type":"Point","coordinates":[-68.85137,11.08028]}},{"type":"Feature","id":"node/5868294223","properties":{"name":"La Vaca","place":"town"},"geometry":{"type":"Point","coordinates":[-68.85404,11.09408]}},{"type":"Feature","id":"node/5868294238","properties":{"name":"San Nicol\u00e1s","place":"village"},"geometry":{"type":"Point","coordinates":[-68.82417,11.09079]}},{"type":"Feature","id":"node/5868294239","properties":{"name":"Guamure","place":"village"},"geometry":{"type":"Point","coordinates":[-68.82715,11.08716]}},{"type":"Feature","id":"node/5868294240","properties":{"name":"Origuasa","place":"village"},"geometry":{"type":"Point","coordinates":[-68.81805,11.09008]}},{"type":"Feature","id":"node/5868294242","properties":{"name":"El Piojo","place":"village"},"geometry":{"type":"Point","coordinates":[-68.79967,11.08362]}},{"type":"Feature","id":"node/5868294954","properties":{"name":"Piritupano","place":"village"},"geometry":{"type":"Point","coordinates":[-68.8116,11.07823]}},{"type":"Feature","id":"node/5868295111","properties":{"name":"Queparo","place":"village"},"geometry":{"type":"Point","coordinates":[-68.81677,11.06563]}},{"type":"Feature","id":"node/5868295112","properties":{"name":"Guayabal","place":"village"},"geometry":{"type":"Point","coordinates":[-68.7922,11.05119]}},{"type":"Feature","id":"node/5868295472","properties":{"name":"Rinconcito","place":"village"},"geometry":{"type":"Point","coordinates":[-68.81033,11.04508]}},{"type":"Feature","id":"node/5868295919","properties":{"name":"Palo Quemado","place":"village"},"geometry":{"type":"Point","coordinates":[-68.80882,11.03721]}},{"type":"Feature","id":"node/5868295922","properties":{"name":"Marsillalito","place":"village"},"geometry":{"type":"Point","coordinates":[-68.80623,11.01131]}},{"type":"Feature","id":"node/5868295923","properties":{"name":"La Loma","place":"village"},"geometry":{"type":"Point","coordinates":[-68.80393,11.00546]}},{"type":"Feature","id":"node/5868295939","properties":{"name":"La Tabla","place":"village"},"geometry":{"type":"Point","coordinates":[-68.69942,11.01705]}},{"type":"Feature","id":"node/5868295957","properties":{"name":"El Crucecito","place":"village"},"geometry":{"type":"Point","coordinates":[-68.74485,11.14462]}},{"type":"Feature","id":"node/5868295971","properties":{"name":"Campo Alegre","place":"village"},"geometry":{"type":"Point","coordinates":[-68.7304,11.1261]}},{"type":"Feature","id":"node/5868295974","properties":{"name":"Arenas","place":"village"},"geometry":{"type":"Point","coordinates":[-68.69004,11.07951]}},{"type":"Feature","id":"node/5868295975","properties":{"name":"Tucurere","place":"village"},"geometry":{"type":"Point","coordinates":[-68.67993,11.06466]}},{"type":"Feature","id":"node/5868295976","properties":{"name":"Zamuro","place":"village"},"geometry":{"type":"Point","coordinates":[-68.6684,11.04923]}},{"type":"Feature","id":"node/5868295978","properties":{"name":"El Caim\u00e1n","place":"village"},"geometry":{"type":"Point","coordinates":[-68.63092,11.01968]}},{"type":"Feature","id":"node/5868296186","properties":{"name":"Togogo","place":"village"},"geometry":{"type":"Point","coordinates":[-68.87606,11.22738]}},{"type":"Feature","id":"node/5868296280","properties":{"name":"Marcillal de La Vaca","place":"village"},"geometry":{"type":"Point","coordinates":[-68.85034,11.18741]}},{"type":"Feature","id":"node/5868296282","properties":{"name":"Caidi\u00e9 Abajo","place":"village"},"geometry":{"type":"Point","coordinates":[-68.79012,11.18197]}},{"type":"Feature","id":"node/5868296284","properties":{"name":"La Palmita","place":"village"},"geometry":{"type":"Point","coordinates":[-68.65206,11.17167]}},{"type":"Feature","id":"node/5868296490","properties":{"name":"San Pedrito","place":"village"},"geometry":{"type":"Point","coordinates":[-68.64347,11.10778]}},{"type":"Feature","id":"node/5868297738","properties":{"name":"Santa Rosa","place":"village"},"geometry":{"type":"Point","coordinates":[-68.69502,11.15786]}},{"type":"Feature","id":"node/5868297740","properties":{"name":"Mirimito","place":"village"},"geometry":{"type":"Point","coordinates":[-68.73075,11.14308]}},{"type":"Feature","id":"node/5868297741","properties":{"name":"La Soledad","place":"village"},"geometry":{"type":"Point","coordinates":[-68.71232,11.14678]}},{"type":"Feature","id":"node/5868297742","properties":{"name":"El Guay","place":"village"},"geometry":{"type":"Point","coordinates":[-68.71592,11.13891]}},{"type":"Feature","id":"node/5868297743","properties":{"name":"Cubecito","place":"village"},"geometry":{"type":"Point","coordinates":[-68.69623,11.13903]}},{"type":"Feature","id":"node/5868297745","properties":{"name":"El Candado","place":"village"},"geometry":{"type":"Point","coordinates":[-68.6827,11.14298]}},{"type":"Feature","id":"node/5868297746","properties":{"name":"El Cerey","place":"village"},"geometry":{"type":"Point","coordinates":[-68.65863,11.13979]}},{"type":"Feature","id":"node/5868297747","properties":{"name":"Bel\u00e9n","place":"village"},"geometry":{"type":"Point","coordinates":[-68.64247,11.14261]}},{"type":"Feature","id":"node/5868297748","properties":{"name":"Agua Blanca","place":"village"},"geometry":{"type":"Point","coordinates":[-68.62689,11.14016]}},{"type":"Feature","id":"node/5868297749","properties":{"name":"San Gregorio","place":"village"},"geometry":{"type":"Point","coordinates":[-68.60646,11.13552]}},{"type":"Feature","id":"node/5868297750","properties":{"name":"Chipuro","place":"village"},"geometry":{"type":"Point","coordinates":[-68.59369,11.15218]}},{"type":"Feature","id":"node/5868297751","properties":{"name":"San Nicol\u00e1s","place":"village"},"geometry":{"type":"Point","coordinates":[-68.61558,11.16239]}},{"type":"Feature","id":"node/5868297752","properties":{"name":"Yaravaco","place":"village"},"geometry":{"type":"Point","coordinates":[-68.60374,11.15676]}},{"type":"Feature","id":"node/5868297910","properties":{"name":"Santa Cruz","place":"village"},"geometry":{"type":"Point","coordinates":[-68.58833,11.14407]}},{"type":"Feature","id":"node/5868297911","properties":{"name":"La Paloma","place":"village"},"geometry":{"type":"Point","coordinates":[-68.58479,11.15516]}},{"type":"Feature","id":"node/5868297912","properties":{"name":"Guarabao","place":"village"},"geometry":{"type":"Point","coordinates":[-68.52181,11.1705]}},{"type":"Feature","id":"node/5868297934","properties":{"name":"La Bajura","place":"village"},"geometry":{"type":"Point","coordinates":[-68.56376,11.19473]}},{"type":"Feature","id":"node/5868297941","properties":{"name":"El Taparito","place":"village"},"geometry":{"type":"Point","coordinates":[-68.6219,11.2003]}},{"type":"Feature","id":"node/5868297942","properties":{"name":"Santa Rosa","place":"village"},"geometry":{"type":"Point","coordinates":[-68.59184,11.17998]}},{"type":"Feature","id":"node/5868298264","properties":{"name":"Santa Ana","place":"village"},"geometry":{"type":"Point","coordinates":[-68.63923,11.19558]}},{"type":"Feature","id":"node/5868299211","properties":{"name":"Curaricito","place":"village"},"geometry":{"type":"Point","coordinates":[-68.78851,11.2339]}},{"type":"Feature","id":"node/5868299212","properties":{"name":"El Cant\u00f3n","place":"village"},"geometry":{"type":"Point","coordinates":[-68.71151,11.20411]}},{"type":"Feature","id":"node/5868299218","properties":{"name":"El Pilanc\u00f3n","place":"village"},"geometry":{"type":"Point","coordinates":[-68.67622,11.32106]}},{"type":"Feature","id":"node/5868299237","properties":{"name":"Curar\u00ed Sur","place":"village"},"geometry":{"type":"Point","coordinates":[-68.95547,11.3067]}},{"type":"Feature","id":"node/5868299240","properties":{"name":"Machiconga","place":"village"},"geometry":{"type":"Point","coordinates":[-68.90801,11.28846]}},{"type":"Feature","id":"node/5868299243","properties":{"name":"La Escardilla","place":"village"},"geometry":{"type":"Point","coordinates":[-68.87367,11.31236]}},{"type":"Feature","id":"node/5868299248","properties":{"name":"La Negrita","place":"village"},"geometry":{"type":"Point","coordinates":[-68.82866,11.38112]}},{"type":"Feature","id":"node/5868354325","properties":{"name":"El Cardoncito","place":"village"},"geometry":{"type":"Point","coordinates":[-68.85734,11.04408]}},{"type":"Feature","id":"node/5868354326","properties":{"name":"P\u00edritu de Jacura","place":"village"},"geometry":{"type":"Point","coordinates":[-68.85434,11.06167]}},{"type":"Feature","id":"node/5868354327","properties":{"name":"Toronal","place":"village"},"geometry":{"type":"Point","coordinates":[-68.85836,11.05914]}},{"type":"Feature","id":"node/5868354328","properties":{"name":"Buena Vista","place":"village"},"geometry":{"type":"Point","coordinates":[-68.8589,11.05292]}},{"type":"Feature","id":"node/5871983921","properties":{"name":"Poblado 18 Norte","place":"village"},"geometry":{"type":"Point","coordinates":[-68.60456,10.65491]}},{"type":"Feature","id":"node/5871983922","properties":{"name":"Poblado 38","place":"village"},"geometry":{"type":"Point","coordinates":[-68.50621,10.65836]}},{"type":"Feature","id":"node/5871983923","properties":{"name":"Poblado 30","place":"village"},"geometry":{"type":"Point","coordinates":[-68.53836,10.65006]}},{"type":"Feature","id":"node/5871983924","properties":{"name":"Poblado 36","place":"village"},"geometry":{"type":"Point","coordinates":[-68.51475,10.63423]}},{"type":"Feature","id":"node/5871983925","properties":{"name":"Poblado 34","place":"village"},"geometry":{"type":"Point","coordinates":[-68.5248,10.63591]}},{"type":"Feature","id":"node/5871983926","properties":{"name":"Poblado 28","place":"village"},"geometry":{"type":"Point","coordinates":[-68.55393,10.63225]}},{"type":"Feature","id":"node/5871983927","properties":{"name":"Poblado 24","place":"village"},"geometry":{"type":"Point","coordinates":[-68.57319,10.63259]}},{"type":"Feature","id":"node/5871983928","properties":{"name":"Poblado 20","place":"village"},"geometry":{"type":"Point","coordinates":[-68.59213,10.63686]}},{"type":"Feature","id":"node/5871983931","properties":{"name":"Poblado 16","place":"village"},"geometry":{"type":"Point","coordinates":[-68.61241,10.64007]}},{"type":"Feature","id":"node/5871983932","properties":{"name":"Poblado 18 Sur","place":"village"},"geometry":{"type":"Point","coordinates":[-68.60363,10.63912]}},{"type":"Feature","id":"node/5871983935","properties":{"name":"El Tigre","place":"village"},"geometry":{"type":"Point","coordinates":[-68.53908,10.88958]}},{"type":"Feature","id":"node/5871985270","properties":{"name":"Carpita","place":"village"},"geometry":{"type":"Point","coordinates":[-68.93043,10.87911]}},{"type":"Feature","id":"node/5871985271","properties":{"name":"Panela","place":"village"},"geometry":{"type":"Point","coordinates":[-68.9442,10.87375]}},{"type":"Feature","id":"node/5871985574","properties":{"name":"El Mene del Rio","place":"village"},"geometry":{"type":"Point","coordinates":[-68.84321,10.93953]}},{"type":"Feature","id":"node/5871986371","properties":{"name":"Las Pulgas","place":"village"},"geometry":{"type":"Point","coordinates":[-68.77918,10.85343]}},{"type":"Feature","id":"node/5871986372","properties":{"name":"Cogollal","place":"village"},"geometry":{"type":"Point","coordinates":[-68.82625,10.91511]}},{"type":"Feature","id":"node/5871986376","properties":{"name":"El Juso","place":"village"},"geometry":{"type":"Point","coordinates":[-68.72811,10.97347]}},{"type":"Feature","id":"node/5871986676","properties":{"name":"El Poz\u00f3n","place":"village"},"geometry":{"type":"Point","coordinates":[-68.70688,10.97636]}},{"type":"Feature","id":"node/5871986677","properties":{"name":"Ojo de Agua","place":"village"},"geometry":{"type":"Point","coordinates":[-68.67515,10.96323]}},{"type":"Feature","id":"node/5871986678","properties":{"name":"Kil\u00f3metro 12","place":"village"},"geometry":{"type":"Point","coordinates":[-68.58675,10.95665]}},{"type":"Feature","id":"node/5871986687","properties":{"name":"Araurima","place":"town"},"geometry":{"type":"Point","coordinates":[-68.66648,10.93909]}},{"type":"Feature","id":"node/5871986688","properties":{"name":"Agua Salada","place":"village"},"geometry":{"type":"Point","coordinates":[-68.6809,10.94305]}},{"type":"Feature","id":"node/5871986715","properties":{"name":"Las Eneas","place":"village"},"geometry":{"type":"Point","coordinates":[-68.74066,10.94237]}},{"type":"Feature","id":"node/5871986716","properties":{"name":"Santa Luc\u00eda","place":"village"},"geometry":{"type":"Point","coordinates":[-68.7726,10.9257]}},{"type":"Feature","id":"node/5871987203","properties":{"name":"Riecito","place":"village"},"geometry":{"type":"Point","coordinates":[-68.76222,10.90489]}},{"type":"Feature","id":"node/5873304620","properties":{"name":"El Candado","place":"village"},"geometry":{"type":"Point","coordinates":[-69.46674,11.30053]}},{"type":"Feature","id":"node/5873304623","properties":{"name":"Las Curvas","place":"village"},"geometry":{"type":"Point","coordinates":[-69.41093,11.31991]}},{"type":"Feature","id":"node/5873304680","properties":{"name":"Las Dos Bocas","place":"village"},"geometry":{"type":"Point","coordinates":[-69.40933,11.30268]}},{"type":"Feature","id":"node/5873304681","properties":{"name":"El Permiso","place":"village"},"geometry":{"type":"Point","coordinates":[-69.4084,11.27556]}},{"type":"Feature","id":"node/5873307388","properties":{"name":"El Tambor","place":"village"},"geometry":{"type":"Point","coordinates":[-69.43066,11.25825]}},{"type":"Feature","id":"node/5873307389","properties":{"name":"El Calvario","place":"village"},"geometry":{"type":"Point","coordinates":[-69.43884,11.25356]}},{"type":"Feature","id":"node/5873307479","properties":{"name":"San Joaqu\u00edn","place":"village"},"geometry":{"type":"Point","coordinates":[-69.49403,11.22329]}},{"type":"Feature","id":"node/5873307489","properties":{"name":"Cariag\u00fcita","place":"village"},"geometry":{"type":"Point","coordinates":[-69.491,11.19773]}},{"type":"Feature","id":"node/5873307490","properties":{"name":"La Encrucijada","place":"village"},"geometry":{"type":"Point","coordinates":[-69.48795,11.18621]}},{"type":"Feature","id":"node/5873307905","properties":{"name":"La Guadalupe","place":"village"},"geometry":{"type":"Point","coordinates":[-69.40543,11.21693]}},{"type":"Feature","id":"node/5873309008","properties":{"name":"La Monta\u00f1ita","place":"village"},"geometry":{"type":"Point","coordinates":[-69.47165,11.17087]}},{"type":"Feature","id":"node/5873309009","properties":{"name":"El Dividive","place":"village"},"geometry":{"type":"Point","coordinates":[-69.44341,11.16926]}},{"type":"Feature","id":"node/5873309625","properties":{"name":"Hueque","place":"village"},"geometry":{"type":"Point","coordinates":[-69.46529,11.12868]}},{"type":"Feature","id":"node/5873309626","properties":{"name":"Las Tres Mar\u00edas","place":"village"},"geometry":{"type":"Point","coordinates":[-69.45424,11.10785]}},{"type":"Feature","id":"node/5873309629","properties":{"name":"Sabana de Humoria","place":"village"},"geometry":{"type":"Point","coordinates":[-69.41266,11.10039]}},{"type":"Feature","id":"node/5873309631","properties":{"name":"Humoria","place":"village"},"geometry":{"type":"Point","coordinates":[-69.38917,11.08073]}},{"type":"Feature","id":"node/5873309676","properties":{"name":"Tierra Amarilla","place":"village"},"geometry":{"type":"Point","coordinates":[-69.2441,11.1636]}},{"type":"Feature","id":"node/5873310007","properties":{"name":"Caobal","place":"village"},"geometry":{"type":"Point","coordinates":[-69.04088,10.98929]}},{"type":"Feature","id":"node/5873310038","properties":{"name":"Santo Tom\u00e1s","place":"village"},"geometry":{"type":"Point","coordinates":[-69.25968,11.51548]}},{"type":"Feature","id":"node/5873310084","properties":{"name":"El Ojito","place":"village"},"geometry":{"type":"Point","coordinates":[-69.24883,11.50634]}},{"type":"Feature","id":"node/5873310381","properties":{"name":"La Monta\u00f1a","place":"village"},"geometry":{"type":"Point","coordinates":[-69.25642,11.49024]}},{"type":"Feature","id":"node/5873310382","properties":{"name":"San Antonio","place":"village"},"geometry":{"type":"Point","coordinates":[-69.26678,11.486]}},{"type":"Feature","id":"node/5873310611","properties":{"name":"El Caballo","place":"village"},"geometry":{"type":"Point","coordinates":[-69.21502,11.42875]}},{"type":"Feature","id":"node/5873310612","properties":{"name":"La Isla","place":"village"},"geometry":{"type":"Point","coordinates":[-69.21901,11.43563]}},{"type":"Feature","id":"node/5873310613","properties":{"name":"La Ceibita","place":"village"},"geometry":{"type":"Point","coordinates":[-69.17773,11.42772]}},{"type":"Feature","id":"node/5873310620","properties":{"name":"Boca de Ricoa","place":"village"},"geometry":{"type":"Point","coordinates":[-69.19604,11.50374]}},{"type":"Feature","id":"node/5873310691","properties":{"name":"Las Cruces","place":"village"},"geometry":{"type":"Point","coordinates":[-69.08232,11.45279]}},{"type":"Feature","id":"node/5873310701","properties":{"name":"La Monta\u00f1a de Hueque","place":"village"},"geometry":{"type":"Point","coordinates":[-69.02148,11.43207]}},{"type":"Feature","id":"node/5873310703","properties":{"name":"Loma Grande","place":"village"},"geometry":{"type":"Point","coordinates":[-69.04362,11.40802]}},{"type":"Feature","id":"node/5873310704","properties":{"name":"El Roble","place":"village"},"geometry":{"type":"Point","coordinates":[-69.05261,11.39994]}},{"type":"Feature","id":"node/5873310709","properties":{"name":"Viana","place":"village"},"geometry":{"type":"Point","coordinates":[-69.06894,11.43113]}},{"type":"Feature","id":"node/5873310755","properties":{"name":"San Pedrito","place":"village"},"geometry":{"type":"Point","coordinates":[-69.0995,11.44924]}},{"type":"Feature","id":"node/5873310756","properties":{"name":"El Empuj\u00f3n","place":"village"},"geometry":{"type":"Point","coordinates":[-69.09986,11.43311]}},{"type":"Feature","id":"node/5873310757","properties":{"name":"El Mam\u00f3n","place":"village"},"geometry":{"type":"Point","coordinates":[-69.10182,11.42525]}},{"type":"Feature","id":"node/5873310758","properties":{"name":"Tutanal","place":"village"},"geometry":{"type":"Point","coordinates":[-69.10077,11.41448]}},{"type":"Feature","id":"node/5873310759","properties":{"name":"Santa Rosa","place":"village"},"geometry":{"type":"Point","coordinates":[-69.08607,11.38816]}},{"type":"Feature","id":"node/5873310760","properties":{"name":"Papayal","place":"village"},"geometry":{"type":"Point","coordinates":[-69.07522,11.39216]}},{"type":"Feature","id":"node/5873310761","properties":{"name":"La Madera","place":"village"},"geometry":{"type":"Point","coordinates":[-69.09171,11.36828]}},{"type":"Feature","id":"node/5873310762","properties":{"name":"La Comunidad","place":"village"},"geometry":{"type":"Point","coordinates":[-69.10309,11.38487]}},{"type":"Feature","id":"node/5873310764","properties":{"name":"Cerro Largo","place":"village"},"geometry":{"type":"Point","coordinates":[-69.10907,11.37589]}},{"type":"Feature","id":"node/5873310765","properties":{"name":"Guasimal","place":"village"},"geometry":{"type":"Point","coordinates":[-69.11879,11.36883]}},{"type":"Feature","id":"node/5873310766","properties":{"name":"La Luz","place":"village"},"geometry":{"type":"Point","coordinates":[-69.12252,11.36539]}},{"type":"Feature","id":"node/5873310771","properties":{"name":"San Antonio","place":"village"},"geometry":{"type":"Point","coordinates":[-69.12932,11.35639]}},{"type":"Feature","id":"node/5873310772","properties":{"name":"San Juancito","place":"village"},"geometry":{"type":"Point","coordinates":[-69.11735,11.3605]}},{"type":"Feature","id":"node/5873310773","properties":{"name":"San Jos\u00e9 de P\u00edritu","place":"village"},"geometry":{"type":"Point","coordinates":[-69.10134,11.35539]}},{"type":"Feature","id":"node/5873310774","properties":{"name":"Los Hierbales","place":"village"},"geometry":{"type":"Point","coordinates":[-69.10634,11.34578]}},{"type":"Feature","id":"node/5873310778","properties":{"name":"La Vaquita","place":"village"},"geometry":{"type":"Point","coordinates":[-69.06096,11.34912]}},{"type":"Feature","id":"node/5878371283","properties":{"name":"Moturo","place":"village"},"geometry":{"type":"Point","coordinates":[-69.23427,11.40275]}},{"type":"Feature","id":"node/5878371298","properties":{"name":"Los Tablones","place":"town"},"geometry":{"type":"Point","coordinates":[-69.36208,11.29374]}},{"type":"Feature","id":"node/5878371609","properties":{"name":"El Guan\u00e1bano","place":"village"},"geometry":{"type":"Point","coordinates":[-69.29957,11.25102]}},{"type":"Feature","id":"node/5878372647","properties":{"name":"La Monta\u00f1ita","place":"village"},"geometry":{"type":"Point","coordinates":[-69.16729,11.3363]}},{"type":"Feature","id":"node/5878372648","properties":{"name":"Los Mecocos","place":"village"},"geometry":{"type":"Point","coordinates":[-69.20569,11.29233]}},{"type":"Feature","id":"node/5878372649","properties":{"name":"Guarecal","place":"village"},"geometry":{"type":"Point","coordinates":[-69.20519,11.31126]}},{"type":"Feature","id":"node/5878372652","properties":{"name":"Corozalito","place":"village"},"geometry":{"type":"Point","coordinates":[-69.28933,11.28904]}},{"type":"Feature","id":"node/5878372661","properties":{"name":"Zaz\u00e1rida de Cumarebo","place":"village"},"geometry":{"type":"Point","coordinates":[-69.28813,11.31809]}},{"type":"Feature","id":"node/5878373319","properties":{"name":"La Cuchilla","place":"village"},"geometry":{"type":"Point","coordinates":[-69.27352,11.312]}},{"type":"Feature","id":"node/5878373324","properties":{"name":"El Pauj\u00ed","place":"village"},"geometry":{"type":"Point","coordinates":[-69.29872,11.5043]}},{"type":"Feature","id":"node/5878373327","properties":{"name":"Santa Rita","place":"village"},"geometry":{"type":"Point","coordinates":[-69.30502,11.47239]}},{"type":"Feature","id":"node/5878373329","properties":{"name":"Turupia","place":"village"},"geometry":{"type":"Point","coordinates":[-69.26911,11.45698]}},{"type":"Feature","id":"node/5878373330","properties":{"name":"San Francisco","place":"town"},"geometry":{"type":"Point","coordinates":[-69.27397,11.44675]}},{"type":"Feature","id":"node/5878373380","properties":{"name":"San Miguel","place":"village"},"geometry":{"type":"Point","coordinates":[-69.29221,11.43752]}},{"type":"Feature","id":"node/5878373382","properties":{"name":"San Pablo","place":"village"},"geometry":{"type":"Point","coordinates":[-69.30654,11.45815]}},{"type":"Feature","id":"node/5878373383","properties":{"name":"Curumiana","place":"village"},"geometry":{"type":"Point","coordinates":[-69.30807,11.46501]}},{"type":"Feature","id":"node/5878373384","properties":{"name":"San Vicente","place":"village"},"geometry":{"type":"Point","coordinates":[-69.30382,11.44579]}},{"type":"Feature","id":"node/5878373885","properties":{"name":"San Nicol\u00e1s","place":"village"},"geometry":{"type":"Point","coordinates":[-69.30699,11.43969]}},{"type":"Feature","id":"node/5878373886","properties":{"name":"San Rafael","place":"village"},"geometry":{"type":"Point","coordinates":[-69.31407,11.43357]}},{"type":"Feature","id":"node/5878373888","properties":{"name":"La Trinidad","place":"town"},"geometry":{"type":"Point","coordinates":[-69.33106,11.42814]}},{"type":"Feature","id":"node/5878373890","properties":{"name":"Santa Elena","place":"village"},"geometry":{"type":"Point","coordinates":[-69.35654,11.46455]}},{"type":"Feature","id":"node/5878373891","properties":{"name":"San Pedro","place":"village"},"geometry":{"type":"Point","coordinates":[-69.34959,11.45656]}},{"type":"Feature","id":"node/5878373892","properties":{"name":"Cumarebito","place":"village"},"geometry":{"type":"Point","coordinates":[-69.33166,11.45544]}},{"type":"Feature","id":"node/5878373894","properties":{"name":"Quiragua","place":"village"},"geometry":{"type":"Point","coordinates":[-69.34486,11.44386]}},{"type":"Feature","id":"node/5878373895","properties":{"name":"Bariquis","place":"town"},"geometry":{"type":"Point","coordinates":[-69.35465,11.43386]}},{"type":"Feature","id":"node/5878373897","properties":{"name":"La Monta\u00f1ita","place":"village"},"geometry":{"type":"Point","coordinates":[-69.37761,11.45023]}},{"type":"Feature","id":"node/5878373899","properties":{"name":"San Ignacio","place":"town"},"geometry":{"type":"Point","coordinates":[-69.38516,11.44995]}},{"type":"Feature","id":"node/5878373900","properties":{"name":"La Ensenada","place":"village"},"geometry":{"type":"Point","coordinates":[-69.41636,11.48806]}},{"type":"Feature","id":"node/5878373901","properties":{"name":"El Estanque","place":"village"},"geometry":{"type":"Point","coordinates":[-69.38439,11.46303]}},{"type":"Feature","id":"node/5878373902","properties":{"name":"La Soledad","place":"village"},"geometry":{"type":"Point","coordinates":[-69.39079,11.43967]}},{"type":"Feature","id":"node/5878373903","properties":{"name":"El Dividive","place":"village"},"geometry":{"type":"Point","coordinates":[-69.39405,11.43477]}},{"type":"Feature","id":"node/5878373944","properties":{"name":"Pueblo Nuevo","place":"village"},"geometry":{"type":"Point","coordinates":[-69.49179,11.46663]}},{"type":"Feature","id":"node/5878374643","properties":{"name":"El Cerro","place":"village"},"geometry":{"type":"Point","coordinates":[-69.44589,11.45371]}},{"type":"Feature","id":"node/5878374946","properties":{"name":"Chipare","place":"village"},"geometry":{"type":"Point","coordinates":[-69.43999,11.42537]}},{"type":"Feature","id":"node/5878374949","properties":{"name":"Los Dos Caminos","place":"village"},"geometry":{"type":"Point","coordinates":[-69.49903,11.42772]}},{"type":"Feature","id":"node/5878906132","properties":{"name":"San Miguel","place":"village"},"geometry":{"type":"Point","coordinates":[-69.15369,10.88661]}},{"type":"Feature","id":"node/5878906136","properties":{"name":"Palmichal","place":"village"},"geometry":{"type":"Point","coordinates":[-69.17548,10.87248]}},{"type":"Feature","id":"node/5878906139","properties":{"name":"La Carretera","place":"village"},"geometry":{"type":"Point","coordinates":[-69.18428,10.8755]}},{"type":"Feature","id":"node/5878906149","properties":{"name":"Cabeza de Toro","place":"village"},"geometry":{"type":"Point","coordinates":[-69.21816,10.86816]}},{"type":"Feature","id":"node/5878906295","properties":{"name":"Clavelito","place":"village"},"geometry":{"type":"Point","coordinates":[-69.27946,10.84761]}},{"type":"Feature","id":"node/5878906329","properties":{"name":"La Sabana","place":"village"},"geometry":{"type":"Point","coordinates":[-69.2898,10.83912]}},{"type":"Feature","id":"node/5878906340","properties":{"name":"La Florida","place":"village"},"geometry":{"type":"Point","coordinates":[-69.30424,10.82262]}},{"type":"Feature","id":"node/5878906665","properties":{"name":"Santa Rosa","place":"village"},"geometry":{"type":"Point","coordinates":[-69.35896,10.81567]}},{"type":"Feature","id":"node/5878907000","properties":{"name":"Paracote","place":"village"},"geometry":{"type":"Point","coordinates":[-69.39701,10.81337]}},{"type":"Feature","id":"node/5878907002","properties":{"name":"El Chambique","place":"village"},"geometry":{"type":"Point","coordinates":[-69.39829,10.8257]}},{"type":"Feature","id":"node/5878907054","properties":{"name":"El Real","place":"village"},"geometry":{"type":"Point","coordinates":[-69.37641,10.81564]}},{"type":"Feature","id":"node/5878907199","properties":{"name":"La Garza Arriba","place":"village"},"geometry":{"type":"Point","coordinates":[-69.39748,10.79114]}},{"type":"Feature","id":"node/5878907200","properties":{"name":"La Florida","place":"village"},"geometry":{"type":"Point","coordinates":[-69.39332,10.80354]}},{"type":"Feature","id":"node/5878908020","properties":{"name":"Pozo Negro","place":"village"},"geometry":{"type":"Point","coordinates":[-69.46391,10.9412]}},{"type":"Feature","id":"node/5878908455","properties":{"name":"Las Colinas","place":"village"},"geometry":{"type":"Point","coordinates":[-69.49938,10.88196]}},{"type":"Feature","id":"node/5878908972","properties":{"name":"El Paramito","place":"village"},"geometry":{"type":"Point","coordinates":[-69.4982,10.84158]}},{"type":"Feature","id":"node/5878908984","properties":{"name":"Las Tibureias","place":"village"},"geometry":{"type":"Point","coordinates":[-69.4581,10.82205]}},{"type":"Feature","id":"node/5878909188","properties":{"name":"La Garza","place":"village"},"geometry":{"type":"Point","coordinates":[-69.39579,10.78253]}},{"type":"Feature","id":"node/5878909190","properties":{"name":"Las Crucecitas","place":"village"},"geometry":{"type":"Point","coordinates":[-69.42371,10.78786]}},{"type":"Feature","id":"node/5878909220","properties":{"name":"Santa Rita","place":"village"},"geometry":{"type":"Point","coordinates":[-69.4187,10.79724]}},{"type":"Feature","id":"node/5878909246","properties":{"name":"Docore","place":"village"},"geometry":{"type":"Point","coordinates":[-69.45507,10.78908]}},{"type":"Feature","id":"node/5878909248","properties":{"name":"La Plaza","place":"town"},"geometry":{"type":"Point","coordinates":[-69.44996,10.79582]}},{"type":"Feature","id":"node/5878909250","properties":{"name":"Sabana Alta","place":"village"},"geometry":{"type":"Point","coordinates":[-69.46286,10.80268]}},{"type":"Feature","id":"node/5878909268","properties":{"name":"Mapure","place":"village"},"geometry":{"type":"Point","coordinates":[-69.49823,10.80911]}},{"type":"Feature","id":"node/5878909494","properties":{"name":"Villa Adela","place":"village"},"geometry":{"type":"Point","coordinates":[-69.48532,10.80264]}},{"type":"Feature","id":"node/5878909581","properties":{"name":"El Guamo","place":"village"},"geometry":{"type":"Point","coordinates":[-69.49487,10.79263]}},{"type":"Feature","id":"node/5878909822","properties":{"name":"La Turagua","place":"village"},"geometry":{"type":"Point","coordinates":[-69.48012,10.77973]}},{"type":"Feature","id":"node/5878910170","properties":{"name":"Marfilito","place":"village"},"geometry":{"type":"Point","coordinates":[-69.50809,10.77903]}},{"type":"Feature","id":"node/5878910171","properties":{"name":"Cinco Pesos","place":"village"},"geometry":{"type":"Point","coordinates":[-69.50385,10.77001]}},{"type":"Feature","id":"node/5878910172","properties":{"name":"La Veguita","place":"village"},"geometry":{"type":"Point","coordinates":[-69.49021,10.77141]}},{"type":"Feature","id":"node/5878911932","properties":{"name":"Pueblo Nuevo","place":"village"},"geometry":{"type":"Point","coordinates":[-69.38035,10.77527]}},{"type":"Feature","id":"node/5878911934","properties":{"name":"Los Botalones","place":"village"},"geometry":{"type":"Point","coordinates":[-69.35283,10.78264]}},{"type":"Feature","id":"node/5878911936","properties":{"name":"Santa Elena","place":"village"},"geometry":{"type":"Point","coordinates":[-69.24144,10.77576]}},{"type":"Feature","id":"node/5878911943","properties":{"name":"Cabulloncito","place":"village"},"geometry":{"type":"Point","coordinates":[-69.34869,10.76677]}},{"type":"Feature","id":"node/5878911944","properties":{"name":"Cambull\u00f3n","place":"village"},"geometry":{"type":"Point","coordinates":[-69.33481,10.75715]}},{"type":"Feature","id":"node/5878912602","properties":{"name":"El Cristalino","place":"village"},"geometry":{"type":"Point","coordinates":[-69.23277,10.74971]}},{"type":"Feature","id":"node/5878912684","properties":{"name":"Samaria Abajo","place":"village"},"geometry":{"type":"Point","coordinates":[-69.21503,10.71725]}},{"type":"Feature","id":"node/5878912987","properties":{"name":"Monterrey","place":"village"},"geometry":{"type":"Point","coordinates":[-69.19993,10.71582]}},{"type":"Feature","id":"node/5878914134","properties":{"name":"Tapatapa Arriba","place":"village"},"geometry":{"type":"Point","coordinates":[-69.12208,10.77379]}},{"type":"Feature","id":"node/5878914135","properties":{"name":"Tapatapa","place":"village"},"geometry":{"type":"Point","coordinates":[-69.12817,10.7607]}},{"type":"Feature","id":"node/5878914570","properties":{"name":"Taparito","place":"village"},"geometry":{"type":"Point","coordinates":[-69.07352,10.77025]}},{"type":"Feature","id":"node/5878914610","properties":{"name":"Los Valles","place":"village"},"geometry":{"type":"Point","coordinates":[-69.28889,10.81097]}},{"type":"Feature","id":"node/5878914671","properties":{"name":"Cerro Verde","place":"village"},"geometry":{"type":"Point","coordinates":[-69.28605,10.79067]}},{"type":"Feature","id":"node/5878914808","properties":{"name":"Guarataro","place":"village"},"geometry":{"type":"Point","coordinates":[-69.26966,10.80423]}},{"type":"Feature","id":"node/5878914812","properties":{"name":"Agua Dulce","place":"village"},"geometry":{"type":"Point","coordinates":[-69.2464,10.8513]}},{"type":"Feature","id":"node/5878914813","properties":{"name":"Areguito","place":"village"},"geometry":{"type":"Point","coordinates":[-69.24262,10.84471]}},{"type":"Feature","id":"node/5878914817","properties":{"name":"Cantarrana","place":"village"},"geometry":{"type":"Point","coordinates":[-69.18434,10.84953]}},{"type":"Feature","id":"node/5878915218","properties":{"name":"Los Chucos","place":"village"},"geometry":{"type":"Point","coordinates":[-69.22535,10.81444]}},{"type":"Feature","id":"node/5878915564","properties":{"name":"El Chicle","place":"village"},"geometry":{"type":"Point","coordinates":[-69.21767,10.78913]}},{"type":"Feature","id":"node/5878915565","properties":{"name":"Carpa","place":"village"},"geometry":{"type":"Point","coordinates":[-69.21307,10.80395]}},{"type":"Feature","id":"node/5878915567","properties":{"name":"El Pirital","place":"village"},"geometry":{"type":"Point","coordinates":[-69.20211,10.8054]}},{"type":"Feature","id":"node/5878915796","properties":{"name":"El Chinchorro","place":"village"},"geometry":{"type":"Point","coordinates":[-69.08776,10.87262]}},{"type":"Feature","id":"node/5878915797","properties":{"name":"La Mata de Cambur","place":"village"},"geometry":{"type":"Point","coordinates":[-69.12319,10.87097]}},{"type":"Feature","id":"node/5878915799","properties":{"name":"Palma Sola","place":"village"},"geometry":{"type":"Point","coordinates":[-69.13904,10.86677]}},{"type":"Feature","id":"node/5878915800","properties":{"name":"El Tigrito","place":"village"},"geometry":{"type":"Point","coordinates":[-69.15116,10.85985]}},{"type":"Feature","id":"node/6590135945","properties":{"name":"Bocaina","place":"village"},"geometry":{"type":"Point","coordinates":[-69.80832,11.85329]}},{"type":"Feature","id":"node/7262668353","properties":{"name":"Ad\u00edcora","place":"town"},"geometry":{"type":"Point","coordinates":[-69.80871,11.94026]}},{"type":"Feature","id":"node/9087364629","properties":{"name":"Purureche","place":"village"},"geometry":{"type":"Point","coordinates":[-70.05378,10.84643]}},{"type":"Feature","id":"node/9087415629","properties":{"name":"Tupere","place":"village"},"geometry":{"type":"Point","coordinates":[-70.42347,10.83705]}},{"type":"Feature","id":"node/9737732088","properties":{"name":"Nueva Jayama","place":"village"},"geometry":{"type":"Point","coordinates":[-70.1984,11.79376]}},{"type":"Feature","id":"node/9856565748","properties":{"name":"Barrio Nuevo","place":"village"},"geometry":{"type":"Point","coordinates":[-69.63622,10.75821]}},{"type":"Feature","id":"node/9976689040","properties":{"name":"El Tup\u00ed","place":"village"},"geometry":{"type":"Point","coordinates":[-69.77446,10.77646]}},{"type":"Feature","id":"node/10122762788","properties":{"name":"Maracara","place":"village"},"geometry":{"type":"Point","coordinates":[-68.64949,11.32671]}},{"type":"Feature","id":"node/10759729900","properties":{"name":"Tunape","place":"village"},"geometry":{"type":"Point","coordinates":[-69.47046,11.35719]}},{"type":"Feature","id":"node/11160832683","properties":{"name":"Los Chucos","place":"village"},"geometry":{"type":"Point","coordinates":[-70.56108,11.01834]}},{"type":"Feature","id":"node/12105696035","properties":{"name":"Soledad","place":"town"},"geometry":{"type":"Point","coordinates":[-70.2288,11.0447]}},{"type":"Feature","id":"node/12356994092","properties":{"name":"Los Taparos","place":"village"},"geometry":{"type":"Point","coordinates":[-68.46107,11.18187]}}]}