{"type": "FeatureCollection", "features": [{"type": "Feature", "id": "node/922792493", "properties": {"name": "La Guaira", "place": "town", "population": "60792"}, "geometry": {"type": "Point", "coordinates": [-66.9296405, 10.6000384]}}, {"type": "Feature", "id": "node/922792875", "properties": {"name": "Maiquet\u00eda", "place": "city", "population": "87909"}, "geometry": {"type": "Point", "coordinates": [-66.9597542, 10.5966074]}}, {"type": "Feature", "id": "node/922793109", "properties": {"name": "Catia La Mar", "place": "city", "population": "661897"}, "geometry": {"type": "Point", "coordinates": [-67.0145106, 10.5992669]}}, {"type": "Feature", "id": "node/922793743", "properties": {"name": "Week-End", "place": "suburb", "population": null}, "geometry": {"type": "Point", "coordinates": [-67.0143829, 10.5952414]}}, {"type": "Feature", "id": "node/922794029", "properties": {"name": "Guaracarumbo", "place": "neighbourhood", "population": null}, "geometry": {"type": "Point", "coordinates": [-67.0145973, 10.5930082]}}, {"type": "Feature", "id": "node/922826732", "properties": {"name": "Los Corales", "place": "suburb", "population": null}, "geometry": {"type": "Point", "coordinates": [-66.8565287, 10.6135241]}}, {"type": "Feature", "id": "node/922827134", "properties": {"name": "Caraballeda", "place": "city", "population": null}, "geometry": {"type": "Point", "coordinates": [-66.8498125, 10.6128387]}}, {"type": "Feature", "id": "node/922827498", "properties": {"name": "Urbanizaci\u00f3n Caribe", "place": "suburb", "population": null}, "geometry": {"type": "Point", "coordinates": [-66.8389126, 10.613203]}}, {"type": "Feature", "id": "node/922827873", "properties": {"name": "Tanaguarena", "place": "suburb", "population": null}, "geometry": {"type": "Point", "coordinates": [-66.8268559, 10.611929]}}, {"type": "Feature", "id": "node/922859238", "properties": {"name": "Naiguat\u00e1", "place": "town", "population": null}, "geometry": {"type": "Point", "coordinates": [-66.7394524, 10.6204787]}}, {"type": "Feature", "id": "node/922889361", "properties": {"name": "Los Caracas", "place": "village", "population": null}, "geometry": {"type": "Point", "coordinates": [-66.5717391, 10.624528]}}, {"type": "Feature", "id": "node/924559348", "properties": {"name": "El Palmar Oeste", "place": "suburb", "population": null}, "geometry": {"type": "Point", "coordinates": [-66.8616679, 10.6110249]}}, {"type": "Feature", "id": "node/924629548", "properties": {"name": "El Palmar Este", "place": "suburb", "population": null}, "geometry": {"type": "Point", "coordinates": [-66.8489119, 10.6096176]}}, {"type": "Feature", "id": "node/925984786", "properties": {"name": "Guamacho", "place": "suburb", "population": null}, "geometry": {"type": "Point", "coordinates": [-66.867226, 10.608542]}}, {"type": "Feature", "id": "node/925996101", "properties": {"name": "Osma", "place": "village", "population": null}, "geometry": {"type": "Point", "coordinates": [-66.5119728, 10.6237798]}}, {"type": "Feature", "id": "node/925996270", "properties": {"name": "Oritapo", "place": "town", "population": null}, "geometry": {"type": "Point", "coordinates": [-66.4804961, 10.6221637]}}, {"type": "Feature", "id": "node/925996286", "properties": {"name": "La Virginia", "place": "village", "population": null}, "geometry": {"type": "Point", "coordinates": [-66.3790833, 10.611779]}}, {"type": "Feature", "id": "node/925996385", "properties": {"name": "Caruao", "place": "town", "population": null}, "geometry": {"type": "Point", "coordinates": [-66.351986, 10.6058858]}}, {"type": "Feature", "id": "node/925996386", "properties": {"name": "Chuspa", "place": "town", "population": null}, "geometry": {"type": "Point", "coordinates": [-66.3136941, 10.615699]}}, {"type": "Feature", "id": "node/926004640", "properties": {"name": "Negro Primero", "place": "suburb", "population": null}, "geometry": {"type": "Point", "coordinates": [-67.0358511, 10.5937991]}}, {"type": "Feature", "id": "node/1757127585", "properties": {"name": "Puerto Cruz", "place": "village", "population": null}, "geometry": {"type": "Point", "coordinates": [-67.3407903, 10.5317278]}}, {"type": "Feature", "id": "node/1757127586", "properties": {"name": "Puerto Maya", "place": "village", "population": null}, "geometry": {"type": "Point", "coordinates": [-67.4016148, 10.5272822]}}, {"type": "Feature", "id": "node/1757127589", "properties": {"name": "Chichiriviche de la Costa", "place": "village", "population": null}, "geometry": {"type": "Point", "coordinates": [-67.2420265, 10.5466317]}}, {"type": "Feature", "id": "node/1844528697", "properties": {"name": "La Sabana", "place": "town", "population": null}, "geometry": {"type": "Point", "coordinates": [-66.3824282, 10.6182428]}}, {"type": "Feature", "id": "node/2103744319", "properties": {"name": "San Antonio de Galip\u00e1n", "place": "village", "population": null}, "geometry": {"type": "Point", "coordinates": [-66.888348, 10.5531387]}}, {"type": "Feature", "id": "node/2391095652", "properties": {"name": "Playa Grande", "place": "suburb", "population": null}, "geometry": {"type": "Point", "coordinates": [-67.0159933, 10.6088372]}}, {"type": "Feature", "id": "node/2746120091", "properties": {"name": "Mamo", "place": "suburb", "population": null}, "geometry": {"type": "Point", "coordinates": [-67.0589854, 10.5898799]}}, {"type": "Feature", "id": "node/2746123103", "properties": {"name": "Las Tunitas", "place": "suburb", "population": null}, "geometry": {"type": "Point", "coordinates": [-67.0637708, 10.5888064]}}, {"type": "Feature", "id": "node/2746128890", "properties": {"name": "San Remo", "place": "suburb", "population": null}, "geometry": {"type": "Point", "coordinates": [-67.0648418, 10.5818042]}}, {"type": "Feature", "id": "node/2746128894", "properties": {"name": "Marapa", "place": "suburb", "population": null}, "geometry": {"type": "Point", "coordinates": [-67.0529271, 10.5808543]}}, {"type": "Feature", "id": "node/2746128898", "properties": {"name": "El Piache", "place": "suburb", "population": null}, "geometry": {"type": "Point", "coordinates": [-67.0510237, 10.576414]}}, {"type": "Feature", "id": "node/2746128901", "properties": {"name": "La Capilla", "place": "suburb", "population": null}, "geometry": {"type": "Point", "coordinates": [-67.0571617, 10.5862183]}}, {"type": "Feature", "id": "node/2746155744", "properties": {"name": "Marapa Marina", "place": "neighbourhood", "population": null}, "geometry": {"type": "Point", "coordinates": [-67.0409718, 10.5962919]}}, {"type": "Feature", "id": "node/2746155749", "properties": {"name": "Catamare", "place": "suburb", "population": null}, "geometry": {"type": "Point", "coordinates": [-67.0439918, 10.5963818]}}, {"type": "Feature", "id": "node/2746155754", "properties": {"name": "Las Colinas", "place": "suburb", "population": null}, "geometry": {"type": "Point", "coordinates": [-67.0351412, 10.6041572]}}, {"type": "Feature", "id": "node/2747341733", "properties": {"name": "Picure", "place": "village", "population": null}, "geometry": {"type": "Point", "coordinates": [-67.0929459, 10.5772033]}}, {"type": "Feature", "id": "node/2747341739", "properties": {"name": "Las Salinas", "place": "town", "population": null}, "geometry": {"type": "Point", "coordinates": [-67.1172728, 10.5721168]}}, {"type": "Feature", "id": "node/2747979048", "properties": {"name": "Macuto", "place": "town", "population": null}, "geometry": {"type": "Point", "coordinates": [-66.8922851, 10.6064747]}}, {"type": "Feature", "id": "node/2748027053", "properties": {"name": "Anare", "place": "village", "population": null}, "geometry": {"type": "Point", "coordinates": [-66.6500596, 10.622391]}}, {"type": "Feature", "id": "node/2775913355", "properties": {"name": "Taguao", "place": "town", "population": null}, "geometry": {"type": "Point", "coordinates": [-67.1041324, 10.5757778]}}, {"type": "Feature", "id": "node/2778213237", "properties": {"name": "Vista al Mar", "place": "suburb", "population": null}, "geometry": {"type": "Point", "coordinates": [-67.0733178, 10.5818547]}}, {"type": "Feature", "id": "node/2778460210", "properties": {"name": "Tarmas", "place": "village", "population": null}, "geometry": {"type": "Point", "coordinates": [-67.140305, 10.5396806]}}, {"type": "Feature", "id": "node/2778687661", "properties": {"name": "La Zorra", "place": "neighbourhood", "population": null}, "geometry": {"type": "Point", "coordinates": [-67.0402357, 10.5989842]}}, {"type": "Feature", "id": "node/2778765925", "properties": {"name": "Carayaca", "place": "town", "population": null}, "geometry": {"type": "Point", "coordinates": [-67.1204136, 10.5293592]}}, {"type": "Feature", "id": "node/2778771871", "properties": {"name": "Punta de Mulatos", "place": "suburb", "population": null}, "geometry": {"type": "Point", "coordinates": [-66.916593, 10.6025935]}}, {"type": "Feature", "id": "node/2780049958", "properties": {"name": "La P\u00e1ez", "place": "suburb", "population": null}, "geometry": {"type": "Point", "coordinates": [-67.0250542, 10.6009322]}}, {"type": "Feature", "id": "node/2780706355", "properties": {"name": "La Soublette", "place": "neighbourhood", "population": null}, "geometry": {"type": "Point", "coordinates": [-67.0378497, 10.5942774]}}, {"type": "Feature", "id": "node/2784602763", "properties": {"name": "10 de Marzo", "place": "neighbourhood", "population": null}, "geometry": {"type": "Point", "coordinates": [-66.9710057, 10.5984372]}}, {"type": "Feature", "id": "node/2848141913", "properties": {"name": "Puerto Carayaca", "place": "town", "population": null}, "geometry": {"type": "Point", "coordinates": [-67.1322469, 10.5673377]}}, {"type": "Feature", "id": "node/3450746518", "properties": {"name": "Antiguo Carmen de Ur\u00eda", "place": "hamlet", "population": null}, "geometry": {"type": "Point", "coordinates": [-66.7814373, 10.6119116]}}, {"type": "Feature", "id": "node/3462600895", "properties": {"name": "La Lucha", "place": "suburb", "population": null}, "geometry": {"type": "Point", "coordinates": [-67.0204603, 10.6025918]}}, {"type": "Feature", "id": "node/3994523057", "properties": {"name": "Corralito", "place": "village", "population": null}, "geometry": {"type": "Point", "coordinates": [-67.1359334, 10.5018693]}}, {"type": "Feature", "id": "node/3994523058", "properties": {"name": "San Rafael de los Molinos", "place": "village", "population": null}, "geometry": {"type": "Point", "coordinates": [-67.1281656, 10.5068906]}}, {"type": "Feature", "id": "node/3994643159", "properties": {"name": "Caoma", "place": "suburb", "population": null}, "geometry": {"type": "Point", "coordinates": [-67.1214923, 10.5210809]}}, {"type": "Feature", "id": "node/3995954761", "properties": {"name": "El Pozo", "place": "village", "population": null}, "geometry": {"type": "Point", "coordinates": [-67.0888801, 10.5471587]}}, {"type": "Feature", "id": "node/4000956160", "properties": {"name": "Pariata", "place": "suburb", "population": null}, "geometry": {"type": "Point", "coordinates": [-66.9671596, 10.5974547]}}, {"type": "Feature", "id": "node/4272436505", "properties": {"name": "Urbanizaci\u00f3n Marina", "place": "neighbourhood", "population": null}, "geometry": {"type": "Point", "coordinates": [-67.0425603, 10.5979268]}}, {"type": "Feature", "id": "node/4317775038", "properties": {"name": "Ciudad Ch\u00e1vez", "place": "neighbourhood", "population": null}, "geometry": {"type": "Point", "coordinates": [-67.0240547, 10.6067725]}}, {"type": "Feature", "id": "node/4652621501", "properties": {"name": "Oricao", "place": "village", "population": null}, "geometry": {"type": "Point", "coordinates": [-67.1841259, 10.5532841]}}, {"type": "Feature", "id": "node/4936775861", "properties": {"name": "La Roraima", "place": "suburb", "population": null}, "geometry": {"type": "Point", "coordinates": [-67.0382781, 10.5900752]}}, {"type": "Feature", "id": "node/5429223709", "properties": {"name": "El Pinar", "place": "village", "population": null}, "geometry": {"type": "Point", "coordinates": [-67.1686793, 10.4345186]}}, {"type": "Feature", "id": "node/5429223710", "properties": {"name": "Petaquire", "place": "village", "population": null}, "geometry": {"type": "Point", "coordinates": [-67.1660615, 10.4505352]}}, {"type": "Feature", "id": "node/5429223711", "properties": {"name": "Tibr\u00f3n Grande", "place": "suburb", "population": null}, "geometry": {"type": "Point", "coordinates": [-67.0820118, 10.4773544]}}, {"type": "Feature", "id": "node/5429224238", "properties": {"name": "Tibroncito", "place": "village", "population": null}, "geometry": {"type": "Point", "coordinates": [-67.1162582, 10.4738518]}}, {"type": "Feature", "id": "node/5429224239", "properties": {"name": "Pericoco", "place": "village", "population": null}, "geometry": {"type": "Point", "coordinates": [-67.1392608, 10.4633437]}}, {"type": "Feature", "id": "node/5429224240", "properties": {"name": "El Junko", "place": "suburb", "population": null}, "geometry": {"type": "Point", "coordinates": [-67.0652748, 10.4796754]}}, {"type": "Feature", "id": "node/5429260337", "properties": {"name": "Las Lapas", "place": "village", "population": null}, "geometry": {"type": "Point", "coordinates": [-67.20603, 10.447695]}}, {"type": "Feature", "id": "node/5429260338", "properties": {"name": "Farall\u00f3n", "place": "village", "population": null}, "geometry": {"type": "Point", "coordinates": [-67.1818258, 10.4631623]}}, {"type": "Feature", "id": "node/5429260339", "properties": {"name": "El Arbolito", "place": "village", "population": null}, "geometry": {"type": "Point", "coordinates": [-67.1638013, 10.4670027]}}, {"type": "Feature", "id": "node/5429260390", "properties": {"name": "La Pe\u00f1ita", "place": "suburb", "population": null}, "geometry": {"type": "Point", "coordinates": [-67.2487522, 10.4640274]}}, {"type": "Feature", "id": "node/5429260672", "properties": {"name": "Tigre", "place": "village", "population": null}, "geometry": {"type": "Point", "coordinates": [-67.2704888, 10.4707797]}}, {"type": "Feature", "id": "node/5429260714", "properties": {"name": "Aguacatal", "place": "village", "population": null}, "geometry": {"type": "Point", "coordinates": [-67.2712399, 10.4546796]}}, {"type": "Feature", "id": "node/5429260715", "properties": {"name": "Las Conchitas", "place": "village", "population": null}, "geometry": {"type": "Point", "coordinates": [-67.2725273, 10.4641329]}}, {"type": "Feature", "id": "node/5429260716", "properties": {"name": "Naranjal", "place": "village", "population": null}, "geometry": {"type": "Point", "coordinates": [-67.282591, 10.4548062]}}, {"type": "Feature", "id": "node/5429260717", "properties": {"name": "El Lim\u00f3n", "place": "village", "population": null}, "geometry": {"type": "Point", "coordinates": [-67.2930623, 10.4715814]}}, {"type": "Feature", "id": "node/5429260845", "properties": {"name": "Los Rastrojos", "place": "village", "population": null}, "geometry": {"type": "Point", "coordinates": [-67.3245944, 10.4988207]}}, {"type": "Feature", "id": "node/5429295324", "properties": {"name": "Los Cedros", "place": "village", "population": null}, "geometry": {"type": "Point", "coordinates": [-67.1887488, 10.4937515]}}, {"type": "Feature", "id": "node/5429295325", "properties": {"name": "La Media Laguna", "place": "village", "population": null}, "geometry": {"type": "Point", "coordinates": [-67.1925254, 10.480691]}}, {"type": "Feature", "id": "node/5429295326", "properties": {"name": "Santa Rosa", "place": "village", "population": null}, "geometry": {"type": "Point", "coordinates": [-67.1824832, 10.5142377]}}, {"type": "Feature", "id": "node/5429295327", "properties": {"name": "El Guaramo", "place": "village", "population": null}, "geometry": {"type": "Point", "coordinates": [-67.1795006, 10.5028449]}}, {"type": "Feature", "id": "node/5429295328", "properties": {"name": "Guasca", "place": "village", "population": null}, "geometry": {"type": "Point", "coordinates": [-67.1472927, 10.5295645]}}, {"type": "Feature", "id": "node/5429295329", "properties": {"name": "Tarma Abajo", "place": "village", "population": null}, "geometry": {"type": "Point", "coordinates": [-67.148387, 10.5486984]}}, {"type": "Feature", "id": "node/5429295340", "properties": {"name": "Zapateral", "place": "suburb", "population": null}, "geometry": {"type": "Point", "coordinates": [-67.1331413, 10.5403552]}}, {"type": "Feature", "id": "node/5429295341", "properties": {"name": "San Miguel", "place": "village", "population": null}, "geometry": {"type": "Point", "coordinates": [-67.2788795, 10.5367331]}}, {"type": "Feature", "id": "node/5429327391", "properties": {"name": "La Macanilla", "place": "village", "population": null}, "geometry": {"type": "Point", "coordinates": [-67.1619323, 10.5040767]}}, {"type": "Feature", "id": "node/5429327392", "properties": {"name": "Altos de Caoma", "place": "suburb", "population": null}, "geometry": {"type": "Point", "coordinates": [-67.1285871, 10.5144145]}}, {"type": "Feature", "id": "node/5429327393", "properties": {"name": "Tirima", "place": "suburb", "population": null}, "geometry": {"type": "Point", "coordinates": [-67.115455, 10.5260179]}}, {"type": "Feature", "id": "node/5429327394", "properties": {"name": "Las Granjas", "place": "suburb", "population": null}, "geometry": {"type": "Point", "coordinates": [-67.1141139, 10.5365132]}}, {"type": "Feature", "id": "node/5429327395", "properties": {"name": "El Topo", "place": "village", "population": null}, "geometry": {"type": "Point", "coordinates": [-67.1001235, 10.5189399]}}, {"type": "Feature", "id": "node/5429327408", "properties": {"name": "La Esperanza", "place": "suburb", "population": null}, "geometry": {"type": "Point", "coordinates": [-67.0755115, 10.566932]}}, {"type": "Feature", "id": "node/5429327409", "properties": {"name": "Tacoa", "place": "suburb", "population": null}, "geometry": {"type": "Point", "coordinates": [-67.0821849, 10.583237]}}, {"type": "Feature", "id": "node/5429356770", "properties": {"name": "Playa Verde", "place": "suburb", "population": null}, "geometry": {"type": "Point", "coordinates": [-66.9988246, 10.6087553]}}, {"type": "Feature", "id": "node/5429356771", "properties": {"name": "Mare", "place": "suburb", "population": null}, "geometry": {"type": "Point", "coordinates": [-66.9797755, 10.6066515]}}, {"type": "Feature", "id": "node/5429356773", "properties": {"name": "La Veguita", "place": "neighbourhood", "population": null}, "geometry": {"type": "Point", "coordinates": [-67.0178359, 10.5983503]}}, {"type": "Feature", "id": "node/5429356774", "properties": {"name": "Los Olivos", "place": "suburb", "population": null}, "geometry": {"type": "Point", "coordinates": [-67.0189277, 10.5852697]}}, {"type": "Feature", "id": "node/5429356775", "properties": {"name": "La Jungla", "place": "suburb", "population": null}, "geometry": {"type": "Point", "coordinates": [-67.0209126, 10.5893616]}}, {"type": "Feature", "id": "node/5429356776", "properties": {"name": "Ezequiel Zamora", "place": "suburb", "population": null}, "geometry": {"type": "Point", "coordinates": [-67.0174042, 10.5827175]}}, {"type": "Feature", "id": "node/5429421450", "properties": {"name": "Brisas del Aeropuerto", "place": "suburb", "population": null}, "geometry": {"type": "Point", "coordinates": [-67.0043153, 10.5927141]}}, {"type": "Feature", "id": "node/5429421451", "properties": {"name": "Santa Eduvigis", "place": "suburb", "population": null}, "geometry": {"type": "Point", "coordinates": [-66.9995302, 10.5931043]}}, {"type": "Feature", "id": "node/5429421452", "properties": {"name": "Solidaridad Vargas", "place": "neighbourhood", "population": null}, "geometry": {"type": "Point", "coordinates": [-67.0113748, 10.5933996]}}, {"type": "Feature", "id": "node/5429464673", "properties": {"name": "Puerto de La Guaira", "place": "neighbourhood", "population": null}, "geometry": {"type": "Point", "coordinates": [-66.9489535, 10.5989882]}}, {"type": "Feature", "id": "node/5429664311", "properties": {"name": "San Juli\u00e1n", "place": "suburb", "population": null}, "geometry": {"type": "Point", "coordinates": [-66.8497735, 10.6001274]}}, {"type": "Feature", "id": "node/5429664987", "properties": {"name": "La Planta", "place": "neighbourhood", "population": null}, "geometry": {"type": "Point", "coordinates": [-66.7387341, 10.6177194]}}, {"type": "Feature", "id": "node/5429664988", "properties": {"name": "Camur\u00ed Grande", "place": "town", "population": null}, "geometry": {"type": "Point", "coordinates": [-66.7151951, 10.6206563]}}, {"type": "Feature", "id": "node/5429664990", "properties": {"name": "Quebrada Seca", "place": "village", "population": null}, "geometry": {"type": "Point", "coordinates": [-66.5569239, 10.6246514]}}, {"type": "Feature", "id": "node/5429664991", "properties": {"name": "Urama", "place": "village", "population": null}, "geometry": {"type": "Point", "coordinates": [-66.435741, 10.6245157]}}, {"type": "Feature", "id": "node/5429664995", "properties": {"name": "San Jorge", "place": "village", "population": null}, "geometry": {"type": "Point", "coordinates": [-66.3495697, 10.5967191]}}, {"type": "Feature", "id": "node/5501491534", "properties": {"name": "Las Angustias", "place": "neighbourhood", "population": null}, "geometry": {"type": "Point", "coordinates": [-67.0246831, 10.6040386]}}, {"type": "Feature", "id": "node/5501505780", "properties": {"name": "Mirabal", "place": "suburb", "population": null}, "geometry": {"type": "Point", "coordinates": [-67.0202977, 10.5938382]}}, {"type": "Feature", "id": "node/5501505784", "properties": {"name": "El Respiro", "place": "suburb", "population": null}, "geometry": {"type": "Point", "coordinates": [-67.0221055, 10.5973974]}}, {"type": "Feature", "id": "node/5501519237", "properties": {"name": "La Aviaci\u00f3n", "place": "neighbourhood", "population": null}, "geometry": {"type": "Point", "coordinates": [-66.983776, 10.5958258]}}, {"type": "Feature", "id": "node/5677447258", "properties": {"name": "El Cura", "place": "village", "population": null}, "geometry": {"type": "Point", "coordinates": [-66.336608, 10.5885019]}}, {"type": "Feature", "id": "node/5706992635", "properties": {"name": "Guaracarumbo", "place": "hamlet", "population": null}, "geometry": {"type": "Point", "coordinates": [-66.9926602, 10.5706415]}}, {"type": "Feature", "id": "node/5706992636", "properties": {"name": "Pedro Garc\u00eda", "place": "hamlet", "population": null}, "geometry": {"type": "Point", "coordinates": [-66.9838035, 10.5733994]}}, {"type": "Feature", "id": "node/5706992637", "properties": {"name": "El Mamonal", "place": "village", "population": null}, "geometry": {"type": "Point", "coordinates": [-66.9731713, 10.5682843]}}, {"type": "Feature", "id": "node/5706992638", "properties": {"name": "Zig Zag", "place": "village", "population": null}, "geometry": {"type": "Point", "coordinates": [-66.9727421, 10.5755906]}}, {"type": "Feature", "id": "node/5706992644", "properties": {"name": "La Atl\u00e1ntida", "place": "suburb", "population": null}, "geometry": {"type": "Point", "coordinates": [-67.0314074, 10.6054913]}}, {"type": "Feature", "id": "node/5706992645", "properties": {"name": "Canaima", "place": "suburb", "population": null}, "geometry": {"type": "Point", "coordinates": [-66.9730425, 10.5944288]}}, {"type": "Feature", "id": "node/5706992668", "properties": {"name": "San Juan de Dios", "place": "hamlet", "population": null}, "geometry": {"type": "Point", "coordinates": [-66.9368434, 10.5848213]}}, {"type": "Feature", "id": "node/5706992675", "properties": {"name": "El Caimito", "place": "suburb", "population": null}, "geometry": {"type": "Point", "coordinates": [-66.8552184, 10.6061135]}}, {"type": "Feature", "id": "node/5706993589", "properties": {"name": "Cariaco", "place": "village", "population": null}, "geometry": {"type": "Point", "coordinates": [-66.9075966, 10.5860341]}}, {"type": "Feature", "id": "node/5706993612", "properties": {"name": "Gato Negro", "place": "village", "population": null}, "geometry": {"type": "Point", "coordinates": [-66.9434095, 10.5500588]}}, {"type": "Feature", "id": "node/5706993613", "properties": {"name": "El Pe\u00f1\u00f3n", "place": "village", "population": null}, "geometry": {"type": "Point", "coordinates": [-66.9342792, 10.5561235]}}, {"type": "Feature", "id": "node/5706993616", "properties": {"name": "San Jos\u00e9 de Galip\u00e1n", "place": "village", "population": null}, "geometry": {"type": "Point", "coordinates": [-66.8965245, 10.5731885]}}, {"type": "Feature", "id": "node/5709882695", "properties": {"name": "El Picure", "place": "village", "population": null}, "geometry": {"type": "Point", "coordinates": [-67.1138049, 10.5608909]}}, {"type": "Feature", "id": "node/5709883540", "properties": {"name": "Chuparal", "place": "village", "population": null}, "geometry": {"type": "Point", "coordinates": [-67.1901512, 10.5363784]}}, {"type": "Feature", "id": "node/5709883541", "properties": {"name": "Curiana", "place": "village", "population": null}, "geometry": {"type": "Point", "coordinates": [-67.1554113, 10.5227502]}}, {"type": "Feature", "id": "node/5709884266", "properties": {"name": "Los Cedritos", "place": "village", "population": null}, "geometry": {"type": "Point", "coordinates": [-67.1738005, 10.4843516]}}, {"type": "Feature", "id": "node/5709885676", "properties": {"name": "Petaquirito", "place": "village", "population": null}, "geometry": {"type": "Point", "coordinates": [-67.2910238, 10.5179612]}}, {"type": "Feature", "id": "node/5709885684", "properties": {"name": "Cag\u00fcita", "place": "village", "population": null}, "geometry": {"type": "Point", "coordinates": [-67.3199701, 10.5138894]}}, {"type": "Feature", "id": "node/5709887200", "properties": {"name": "La Requenera", "place": "village", "population": null}, "geometry": {"type": "Point", "coordinates": [-67.3767686, 10.4732109]}}, {"type": "Feature", "id": "node/5709887201", "properties": {"name": "San Enrique", "place": "village", "population": null}, "geometry": {"type": "Point", "coordinates": [-67.3755241, 10.459812]}}, {"type": "Feature", "id": "node/5709887971", "properties": {"name": "Los Ri\u00edtos", "place": "village", "population": null}, "geometry": {"type": "Point", "coordinates": [-67.2992313, 10.463663]}}, {"type": "Feature", "id": "node/5709888498", "properties": {"name": "La Urbina", "place": "village", "population": null}, "geometry": {"type": "Point", "coordinates": [-67.2341395, 10.4506329]}}, {"type": "Feature", "id": "node/5709888743", "properties": {"name": "El Cedrito", "place": "village", "population": null}, "geometry": {"type": "Point", "coordinates": [-67.2226221, 10.4555021]}}, {"type": "Feature", "id": "node/5709889230", "properties": {"name": "El Raizudo", "place": "village", "population": null}, "geometry": {"type": "Point", "coordinates": [-67.2246873, 10.4773887]}}, {"type": "Feature", "id": "node/5709889654", "properties": {"name": "La Laguna", "place": "suburb", "population": null}, "geometry": {"type": "Point", "coordinates": [-67.2533655, 10.4835076]}}, {"type": "Feature", "id": "node/5709889655", "properties": {"name": "El Portachuelo", "place": "village", "population": null}, "geometry": {"type": "Point", "coordinates": [-67.253387, 10.4532917]}}, {"type": "Feature", "id": "node/5709889656", "properties": {"name": "El Tigre", "place": "town", "population": null}, "geometry": {"type": "Point", "coordinates": [-67.2430444, 10.4674505]}}, {"type": "Feature", "id": "node/5709889658", "properties": {"name": "La Alegr\u00eda", "place": "village", "population": null}, "geometry": {"type": "Point", "coordinates": [-67.2290755, 10.4916097]}}, {"type": "Feature", "id": "node/5709889659", "properties": {"name": "Los Tres Palos", "place": "village", "population": null}, "geometry": {"type": "Point", "coordinates": [-67.2378838, 10.5187523]}}, {"type": "Feature", "id": "node/5709889674", "properties": {"name": "El Fraile", "place": "village", "population": null}, "geometry": {"type": "Point", "coordinates": [-67.2035408, 10.5550372]}}, {"type": "Feature", "id": "node/5709889686", "properties": {"name": "El Sapo", "place": "village", "population": null}, "geometry": {"type": "Point", "coordinates": [-67.1513236, 10.5593193]}}, {"type": "Feature", "id": "node/5709889705", "properties": {"name": "Las Adjuntas", "place": "village", "population": null}, "geometry": {"type": "Point", "coordinates": [-67.130456, 10.5491834]}}, {"type": "Feature", "id": "node/5709889708", "properties": {"name": "El Gu\u00e1ramo", "place": "village", "population": null}, "geometry": {"type": "Point", "coordinates": [-67.1733713, 10.5156299]}}, {"type": "Feature", "id": "node/5709889716", "properties": {"name": "La Pe\u00f1a", "place": "village", "population": null}, "geometry": {"type": "Point", "coordinates": [-67.1544242, 10.4801317]}}, {"type": "Feature", "id": "node/5709889724", "properties": {"name": "Cambural", "place": "village", "population": null}, "geometry": {"type": "Point", "coordinates": [-67.2166622, 10.4409787]}}, {"type": "Feature", "id": "node/5709889956", "properties": {"name": "R\u00edo Arriba", "place": "village", "population": null}, "geometry": {"type": "Point", "coordinates": [-67.1921897, 10.4401874]}}, {"type": "Feature", "id": "node/5709889965", "properties": {"name": "El Hord\u00f3n", "place": "village", "population": null}, "geometry": {"type": "Point", "coordinates": [-67.1507979, 10.451688]}}, {"type": "Feature", "id": "node/5709890363", "properties": {"name": "Yagrumal", "place": "village", "population": null}, "geometry": {"type": "Point", "coordinates": [-67.1166373, 10.4921583]}}, {"type": "Feature", "id": "node/5709890364", "properties": {"name": "La Niebla", "place": "town", "population": null}, "geometry": {"type": "Point", "coordinates": [-67.0927012, 10.4953442]}}, {"type": "Feature", "id": "node/5709890395", "properties": {"name": "La Monta\u00f1a", "place": "neighbourhood", "population": null}, "geometry": {"type": "Point", "coordinates": [-67.0366645, 10.5374121]}}, {"type": "Feature", "id": "node/5709890420", "properties": {"name": "El Banqueo", "place": "neighbourhood", "population": null}, "geometry": {"type": "Point", "coordinates": [-67.0482088, 10.5300285]}}, {"type": "Feature", "id": "node/5709890656", "properties": {"name": "Ciudad Caribia", "place": "suburb", "population": "9000"}, "geometry": {"type": "Point", "coordinates": [-67.0304633, 10.5347435]}}, {"type": "Feature", "id": "node/7066661888", "properties": {"name": "Todasana", "place": "town", "population": null}, "geometry": {"type": "Point", "coordinates": [-66.459638, 10.624948]}}, {"type": "Feature", "id": "node/7326552835", "properties": {"name": "Sotavento I", "place": "neighbourhood", "population": null}, "geometry": {"type": "Point", "coordinates": [-66.9896493, 10.594769]}}, {"type": "Feature", "id": "node/7330098297", "properties": {"name": "Sotavento II", "place": "neighbourhood", "population": null}, "geometry": {"type": "Point", "coordinates": [-66.9910267, 10.5933663]}}, {"type": "Feature", "id": "node/7921991316", "properties": {"name": "El Tr\u00e9bol", "place": "suburb", "population": null}, "geometry": {"type": "Point", "coordinates": [-66.9777343, 10.5934753]}}, {"type": "Feature", "id": "node/8826434050", "properties": {"name": "El Tigrillo", "place": "village", "population": null}, "geometry": {"type": "Point", "coordinates": [-66.7665875, 10.6141332]}}, {"type": "Feature", "id": "node/8826434051", "properties": {"name": "Punta Care", "place": "village", "population": null}, "geometry": {"type": "Point", "coordinates": [-66.6916734, 10.6205869]}}, {"type": "Feature", "id": "node/8883529701", "properties": {"name": "Valle La Cruz", "place": "neighbourhood", "population": null}, "geometry": {"type": "Point", "coordinates": [-67.0157808, 10.5786833]}}, {"type": "Feature", "id": "node/8890309905", "properties": {"name": "Quenepe", "place": "neighbourhood", "population": null}, "geometry": {"type": "Point", "coordinates": [-66.9564182, 10.5886654]}}, {"type": "Feature", "id": "node/8907430103", "properties": {"name": "Descansadero", "place": "hamlet", "population": null}, "geometry": {"type": "Point", "coordinates": [-66.7266655, 10.5913072]}}, {"type": "Feature", "id": "node/9731335289", "properties": {"name": "Montesano", "place": "neighbourhood", "population": null}, "geometry": {"type": "Point", "coordinates": [-66.9781081, 10.5947061]}}, {"type": "Feature", "id": "node/11607970517", "properties": {"name": "Casco Central de Maiquet\u00eda", "place": "neighbourhood", "population": null}, "geometry": {"type": "Point", "coordinates": [-66.9517511, 10.5957734]}}, {"type": "Feature", "id": "node/11918743446", "properties": {"name": "Marlboro", "place": "neighbourhood", "population": null}, "geometry": {"type": "Point", "coordinates": [-66.9834321, 10.5917386]}}, {"type": "Feature", "id": "node/11918743447", "properties": {"name": "La Pedrera", "place": "neighbourhood", "population": null}, "geometry": {"type": "Point", "coordinates": [-66.9784999, 10.591837]}}, {"type": "Feature", "id": "node/12467671031", "properties": {"name": "Colinas de La Sabana", "place": "neighbourhood", "population": null}, "geometry": {"type": "Point", "coordinates": [-66.3902344, 10.6192436]}}, {"type": "Feature", "id": "node/12582451399", "properties": {"name": "Las Casitas de Chuspa", "place": "neighbourhood", "population": null}, "geometry": {"type": "Point", "coordinates": [-66.3118947, 10.6093733]}}, {"type": "Feature", "id": "node/12582455091", "properties": {"name": "Las Casitas", "place": "neighbourhood", "population": null}, "geometry": {"type": "Point", "coordinates": [-66.353256, 10.605926]}}, {"type": "Feature", "id": "node/13155500381", "properties": {"name": "Terrazas de Alto Picure", "place": "town", "population": null}, "geometry": {"type": "Point", "coordinates": [-67.0870954, 10.5717353]}}]}