{"type":"FeatureCollection","features":[{"type":"Feature","id":"relation/272635","properties":{"name":"M\u00e9rida","level":4},"geometry":{"type":"Polygon","coordinates":[[[-70.97431,9.30605],[-70.97932,9.29772],[-70.98308,9.29583],[-70.99169,9.27496],[-70.98663,9.26927],[-70.98472,9.25527],[-70.98305,9.25525],[-70.98479,9.25266],[-70.97844,9.24647],[-70.98185,9.2443],[-70.97836,9.23373],[-70.99279,9.22213],[-70.99113,9.21639],[-70.99479,9.21095],[-70.98833,9.20976],[-70.99406,9.19731],[-71.00033,9.19513],[-70.99259,9.18917],[-70.99221,9.18563],[-70.99613,9.1827],[-70.9973,9.1778],[-71.00955,9.16825],[-71.01236,9.14493],[-71.02088,9.13639],[-71.03408,9.13095],[-71.03698,9.13082],[-71.04055,9.13453],[-71.05145,9.12003],[-71.06712,9.11081],[-71.07933,9.12542],[-71.07914,9.13378],[-71.08254,9.14221],[-71.09337,9.15106],[-71.10838,9.15296],[-71.11074,9.15118],[-71.11531,9.15357],[-71.12405,9.14947],[-71.13359,9.15063],[-71.13395,9.14733],[-71.137,9.15045],[-71.13883,9.14896],[-71.13999,9.15411],[-71.149,9.15867],[-71.16348,9.17849],[-71.19242,9.19956],[-71.20365,9.21611],[-71.20824,9.21597],[-71.25877,9.31604],[-71.29323,9.2991],[-71.22803,9.16997],[-71.2176,9.15418],[-71.20418,9.14047],[-71.20094,9.13118],[-71.18875,9.11876],[-71.17149,9.11605],[-71.16886,9.11876],[-71.16661,9.11546],[-71.16356,9.11712],[-71.1627,9.11396],[-71.15651,9.11114],[-71.16322,9.10433],[-71.16614,9.09438],[-71.17144,9.09374],[-71.17192,9.09692],[-71.17629,9.09571],[-71.17964,9.08845],[-71.18453,9.086],[-71.18384,9.08241],[-71.18102,9.08222],[-71.17993,9.07456],[-71.17701,9.07697],[-71.1713,9.0731],[-71.19693,9.06877],[-71.20171,9.07769],[-71.21952,9.07491],[-71.22097,9.06026],[-71.22567,9.05608],[-71.22797,9.05705],[-71.22848,9.05308],[-71.22899,9.05471],[-71.23511,9.05308],[-71.23427,9.0481],[-71.24336,9.0455],[-71.24576,9.03936],[-71.25047,9.0437],[-71.25249,9.0306],[-71.25523,9.03124],[-71.25679,9.02431],[-71.26418,9.02357],[-71.27006,9.00234],[-71.28,8.99742],[-71.28198,8.99848],[-71.28404,8.99251],[-71.28198,8.98975],[-71.28529,8.98694],[-71.29125,8.98789],[-71.29466,8.99348],[-71.3007,8.99207],[-71.30257,8.99365],[-71.30136,8.99543],[-71.30817,8.99577],[-71.30809,9.00057],[-71.32636,8.9974],[-71.33158,9.00346],[-71.33399,8.999],[-71.33958,9.00006],[-71.34451,8.99643],[-71.34581,8.99836],[-71.34912,8.99659],[-71.34779,8.98904],[-71.34413,8.9848],[-71.35045,8.98164],[-71.34492,8.97551],[-71.34568,8.97177],[-71.35032,8.97446],[-71.35365,8.97149],[-71.36424,8.97352],[-71.36181,8.96853],[-71.36392,8.96611],[-71.35049,8.95393],[-71.35716,8.94583],[-71.36608,8.95059],[-71.37445,8.94569],[-71.37096,8.93755],[-71.37549,8.93772],[-71.38606,8.94839],[-71.38558,8.9509],[-71.3882,8.95087],[-71.3893,8.95539],[-71.39265,8.95398],[-71.39292,8.95821],[-71.39546,8.95921],[-71.40289,8.95147],[-71.4031,8.94532],[-71.41025,8.94521],[-71.40649,8.94031],[-71.40587,8.93759],[-71.40863,8.93539],[-71.40519,8.93331],[-71.4064,8.9295],[-71.40419,8.92733],[-71.40497,8.92541],[-71.40928,8.92678],[-71.40879,8.92061],[-71.41392,8.91746],[-71.4158,8.91119],[-71.40364,8.88883],[-71.40403,8.88548],[-71.40954,8.88429],[-71.41117,8.88824],[-71.42687,8.88741],[-71.42807,8.88932],[-71.4319,8.88461],[-71.43809,8.88657],[-71.44374,8.89344],[-71.44285,8.87177],[-71.44803,8.87056],[-71.45185,8.86667],[-71.46167,8.86478],[-71.46166,8.86214],[-71.47488,8.86399],[-71.47571,8.85824],[-71.47916,8.85939],[-71.48144,8.85746],[-71.48751,8.86075],[-71.50218,8.86107],[-71.5047,8.86227],[-71.50465,8.86655],[-71.5162,8.86457],[-71.51711,8.86152],[-71.51327,8.85835],[-71.51474,8.85458],[-71.51236,8.85336],[-71.51382,8.84973],[-71.52223,8.84555],[-71.5222,8.84163],[-71.51501,8.83263],[-71.51813,8.82898],[-71.52148,8.83006],[-71.53236,8.82551],[-71.53153,8.82009],[-71.53973,8.81847],[-71.53906,8.82106],[-71.54504,8.8185],[-71.54692,8.82063],[-71.55154,8.8184],[-71.54714,8.81173],[-71.54747,8.80211],[-71.55999,8.79659],[-71.56166,8.79103],[-71.55903,8.78679],[-71.55613,8.78665],[-71.55676,8.78446],[-71.5623,8.78482],[-71.57011,8.77956],[-71.57056,8.7714],[-71.57416,8.77337],[-71.58136,8.78773],[-71.58595,8.79132],[-71.59643,8.76567],[-71.6018,8.7667],[-71.60825,8.75948],[-71.60873,8.75331],[-71.61189,8.74896],[-71.6171,8.7507],[-71.61989,8.74848],[-71.61694,8.7431],[-71.62663,8.74213],[-71.62151,8.73687],[-71.62139,8.72811],[-71.61868,8.72904],[-71.61736,8.72705],[-71.6192,8.72499],[-71.62562,8.72331],[-71.6268,8.72489],[-71.63789,8.71815],[-71.63778,8.72156],[-71.64027,8.72031],[-71.64258,8.72218],[-71.63932,8.72456],[-71.6443,8.72224],[-71.64623,8.72532],[-71.64963,8.72351],[-71.6578,8.72434],[-71.67154,8.7138],[-71.67707,8.71756],[-71.67639,8.72147],[-71.68059,8.72168],[-71.68141,8.72481],[-71.68567,8.725],[-71.68996,8.72157],[-71.69215,8.72414],[-71.699,8.71974],[-71.69633,8.71674],[-71.70941,8.70654],[-71.7165,8.71067],[-71.72157,8.70861],[-71.72328,8.7124],[-71.73055,8.70842],[-71.73598,8.71457],[-71.74915,8.70438],[-71.74813,8.70301],[-71.75247,8.70166],[-71.75388,8.70407],[-71.75722,8.70164],[-71.7563,8.69893],[-71.77181,8.68052],[-71.77902,8.68308],[-71.77995,8.67627],[-71.78554,8.67931],[-71.78734,8.67526],[-71.79366,8.67639],[-71.79489,8.68338],[-71.79946,8.68647],[-71.80815,8.68143],[-71.80764,8.67842],[-71.80342,8.67691],[-71.80543,8.6739],[-71.80349,8.67125],[-71.82341,8.67557],[-71.83766,8.6725],[-71.84773,8.67573],[-71.8659,8.67154],[-71.88551,8.65753],[-71.89102,8.64999],[-71.90936,8.64119],[-71.90512,8.64029],[-71.89915,8.63373],[-71.89143,8.63355],[-71.88981,8.63065],[-71.88042,8.62711],[-71.87266,8.62937],[-71.85705,8.62088],[-71.84607,8.61183],[-71.84671,8.59929],[-71.84231,8.60024],[-71.83851,8.59454],[-71.82274,8.5879],[-71.82114,8.58033],[-71.81866,8.57974],[-71.81752,8.57596],[-71.8247,8.57273],[-71.82575,8.5659],[-71.81448,8.56288],[-71.80425,8.55356],[-71.80166,8.54083],[-71.79501,8.53553],[-71.78367,8.51943],[-71.7796,8.50072],[-71.77266,8.48553],[-71.77503,8.47297],[-71.77407,8.46365],[-71.7786,8.45722],[-71.77805,8.45472],[-71.78459,8.44876],[-71.78431,8.44526],[-71.78741,8.44521],[-71.79571,8.43333],[-71.79868,8.43245],[-71.79712,8.4266],[-71.80107,8.42209],[-71.80054,8.41924],[-71.8084,8.41714],[-71.81657,8.40548],[-71.81444,8.40038],[-71.81066,8.39869],[-71.80894,8.38942],[-71.81636,8.38451],[-71.81229,8.37833],[-71.81867,8.37186],[-71.82052,8.36],[-71.81755,8.35821],[-71.8193,8.35155],[-71.81687,8.34982],[-71.81728,8.34648],[-71.80665,8.33236],[-71.81823,8.32329],[-71.81719,8.31945],[-71.8202,8.31513],[-71.82345,8.31807],[-71.82561,8.31632],[-71.82984,8.3204],[-71.83406,8.31572],[-71.83711,8.3167],[-71.83528,8.31219],[-71.83131,8.31011],[-71.83908,8.29884],[-71.8452,8.29591],[-71.85,8.28284],[-71.8563,8.27834],[-71.86156,8.27791],[-71.86087,8.27249],[-71.86511,8.26112],[-71.87352,8.25875],[-71.88182,8.25152],[-71.8832,8.24397],[-71.89174,8.23547],[-71.9001,8.21489],[-71.90871,8.21058],[-71.91211,8.20057],[-71.91147,8.19232],[-71.91363,8.19083],[-71.90378,8.17888],[-71.90426,8.16399],[-71.89915,8.15516],[-71.89297,8.16213],[-71.88751,8.16301],[-71.88512,8.16863],[-71.8758,8.16842],[-71.87423,8.17788],[-71.85778,8.18011],[-71.85093,8.17351],[-71.8499,8.16626],[-71.83864,8.15946],[-71.83426,8.16033],[-71.82541,8.15727],[-71.82167,8.15003],[-71.81726,8.14775],[-71.81327,8.12714],[-71.80861,8.12555],[-71.80534,8.12025],[-71.79941,8.11814],[-71.7968,8.12013],[-71.79538,8.11625],[-71.79365,8.11846],[-71.78965,8.11801],[-71.78832,8.11441],[-71.78555,8.11475],[-71.78343,8.11206],[-71.7841,8.10741],[-71.78193,8.10736],[-71.7794,8.10064],[-71.77067,8.09805],[-71.76556,8.09074],[-71.76727,8.08495],[-71.7642,8.08165],[-71.76595,8.07766],[-71.7596,8.07413],[-71.75952,8.06671],[-71.75462,8.05737],[-71.74525,8.04929],[-71.72157,8.03832],[-71.71317,8.04315],[-71.70352,8.04128],[-71.7025,8.03931],[-71.70736,8.03136],[-71.70601,8.02712],[-71.69546,8.02657],[-71.68862,8.01473],[-71.67533,8.00589],[-71.66717,8.00513],[-71.66834,8.00942],[-71.66045,8.01621],[-71.65984,8.01937],[-71.65548,8.02057],[-71.65185,8.02805],[-71.64828,8.02926],[-71.64866,8.03433],[-71.64441,8.04],[-71.6423,8.0414],[-71.63715,8.03763],[-71.63332,8.04022],[-71.62793,8.03824],[-71.6213,8.04371],[-71.61928,8.04847],[-71.61014,8.05077],[-71.60303,8.05687],[-71.57132,8.0393],[-71.56583,8.01785],[-71.57024,8.00441],[-71.55908,7.99318],[-71.55827,7.98745],[-71.55038,7.97833],[-71.54573,7.97663],[-71.53681,7.97826],[-71.53479,7.97581],[-71.53327,7.96577],[-71.53741,7.96135],[-71.5292,7.95847],[-71.52871,7.95544],[-71.52847,7.95205],[-71.53264,7.94668],[-71.53204,7.93865],[-71.52938,7.93522],[-71.53068,7.93068],[-71.52491,7.92729],[-71.52405,7.92221],[-71.51982,7.92009],[-71.51717,7.91321],[-71.50627,7.91331],[-71.50366,7.90803],[-71.51148,7.89322],[-71.50836,7.89016],[-71.51081,7.88688],[-71.50925,7.87499],[-71.51593,7.87271],[-71.51783,7.86898],[-71.51604,7.85007],[-71.5192,7.8475],[-71.51229,7.83927],[-71.51387,7.8298],[-71.51836,7.82674],[-71.52385,7.81629],[-71.52281,7.80846],[-71.51475,7.7972],[-71.52369,7.78379],[-71.52479,7.77061],[-71.53456,7.75345],[-71.52215,7.74516],[-71.51907,7.73545],[-71.51251,7.7338],[-71.51419,7.73086],[-71.51278,7.72657],[-71.51671,7.72087],[-71.51178,7.7184],[-71.51297,7.71501],[-71.50622,7.71025],[-71.5053,7.70584],[-71.49775,7.7017],[-71.49293,7.68696],[-71.49073,7.68495],[-71.48665,7.68644],[-71.4853,7.68314],[-71.49012,7.68127],[-71.49034,7.67717],[-71.49469,7.67592],[-71.48895,7.66608],[-71.47662,7.66922],[-71.47799,7.67703],[-71.47478,7.68091],[-71.46744,7.68013],[-71.45308,7.69323],[-71.44645,7.69249],[-71.44341,7.69542],[-71.44358,7.69971],[-71.45427,7.71663],[-71.46632,7.72605],[-71.46367,7.74196],[-71.46641,7.74592],[-71.46381,7.75061],[-71.4658,7.75246],[-71.46761,7.77342],[-71.42748,7.79723],[-71.3895,7.83158],[-71.32513,7.87588],[-71.29383,7.90393],[-71.287,7.90154],[-71.26819,7.90793],[-71.26718,7.91812],[-71.26054,7.91708],[-71.26114,7.92179],[-71.25646,7.92284],[-71.25503,7.92634],[-71.25295,7.92485],[-71.25215,7.92904],[-71.24742,7.93155],[-71.2428,7.93848],[-71.23649,7.94033],[-71.2375,7.94707],[-71.23125,7.94396],[-71.22984,7.94937],[-71.23472,7.95184],[-71.23427,7.95769],[-71.23082,7.95668],[-71.22843,7.95938],[-71.22632,7.95749],[-71.21484,7.96896],[-71.19997,7.97524],[-71.19258,7.98449],[-71.18603,7.98727],[-71.18023,7.99418],[-71.17005,7.99439],[-71.1679,7.99967],[-71.17147,8.00479],[-71.16663,8.00771],[-71.16764,8.01131],[-71.16447,8.01139],[-71.16245,8.01473],[-71.16085,8.01163],[-71.15831,8.0118],[-71.15062,8.01979],[-71.13562,8.02199],[-71.1264,8.0394],[-71.12014,8.03865],[-71.11777,8.03395],[-71.11495,8.03887],[-71.10752,8.03677],[-71.11211,8.03884],[-71.10803,8.04367],[-71.10345,8.04263],[-71.10231,8.05473],[-71.09408,8.05899],[-71.09386,8.07367],[-71.08962,8.06959],[-71.08089,8.07292],[-71.07006,8.08739],[-71.07064,8.0911],[-71.06725,8.09011],[-71.06058,8.09668],[-71.06161,8.09896],[-71.05889,8.09889],[-71.05909,8.10187],[-71.05633,8.1007],[-71.05708,8.10649],[-71.0526,8.10627],[-71.05256,8.10954],[-71.04847,8.11025],[-71.0455,8.11569],[-71.04842,8.12422],[-71.04484,8.12484],[-71.04651,8.12966],[-71.04434,8.13181],[-71.04883,8.13737],[-71.04627,8.1488],[-71.04319,8.14893],[-71.04376,8.15493],[-71.01853,8.17645],[-71.01919,8.181],[-71.01335,8.18341],[-71.01529,8.18601],[-71.01428,8.19281],[-71.01018,8.19836],[-71.02317,8.21633],[-71.02047,8.22126],[-71.02819,8.22326],[-71.02618,8.23016],[-71.02316,8.23257],[-71.03484,8.25322],[-71.03014,8.25294],[-71.02682,8.2489],[-71.01359,8.24883],[-71.01206,8.25559],[-70.99254,8.27279],[-70.9858,8.27181],[-70.9771,8.27456],[-70.96908,8.26818],[-70.96441,8.25958],[-70.96648,8.25476],[-70.96177,8.24963],[-70.93968,8.25624],[-70.9372,8.26377],[-70.92881,8.26961],[-70.91944,8.27358],[-70.90945,8.27322],[-70.90604,8.27646],[-70.90644,8.28367],[-70.90917,8.28505],[-70.91061,8.29081],[-70.90411,8.30635],[-70.90666,8.30841],[-70.90591,8.31166],[-70.91173,8.31599],[-70.91038,8.32627],[-70.90608,8.33207],[-70.90685,8.34372],[-70.89997,8.3504],[-70.89249,8.35309],[-70.89268,8.36216],[-70.88922,8.36692],[-70.87755,8.36919],[-70.8632,8.3771],[-70.8603,8.38845],[-70.84624,8.4053],[-70.84552,8.40786],[-70.84938,8.40969],[-70.84558,8.41414],[-70.84091,8.42792],[-70.8364,8.43166],[-70.83756,8.43418],[-70.82866,8.43846],[-70.82516,8.44664],[-70.82845,8.45364],[-70.83133,8.45474],[-70.83445,8.46433],[-70.8326,8.49489],[-70.83321,8.50098],[-70.83868,8.51035],[-70.83806,8.51352],[-70.83424,8.51579],[-70.8384,8.5223],[-70.8391,8.52865],[-70.83691,8.54111],[-70.83861,8.5489],[-70.83535,8.55144],[-70.8393,8.55544],[-70.84219,8.5665],[-70.84294,8.5891],[-70.83447,8.59308],[-70.82663,8.60056],[-70.81857,8.60216],[-70.81483,8.59924],[-70.80688,8.59875],[-70.79465,8.60541],[-70.79012,8.61215],[-70.78155,8.60993],[-70.76959,8.6143],[-70.75692,8.61574],[-70.74293,8.63085],[-70.73702,8.63463],[-70.73335,8.63412],[-70.7277,8.6388],[-70.72751,8.64459],[-70.73042,8.64535],[-70.73572,8.65511],[-70.72993,8.6686],[-70.72226,8.67523],[-70.74085,8.69107],[-70.7619,8.70168],[-70.75847,8.70594],[-70.75744,8.71331],[-70.75244,8.71359],[-70.75853,8.7234],[-70.73363,8.75017],[-70.71807,8.75526],[-70.70466,8.76842],[-70.7034,8.7733],[-70.69294,8.78116],[-70.68476,8.7996],[-70.66561,8.81123],[-70.66305,8.81546],[-70.66522,8.82086],[-70.66037,8.83077],[-70.65146,8.83525],[-70.63985,8.84573],[-70.63254,8.84476],[-70.62488,8.8375],[-70.613,8.83532],[-70.60746,8.84517],[-70.59899,8.84837],[-70.58539,8.84451],[-70.56654,8.85747],[-70.57144,8.86101],[-70.57314,8.86916],[-70.5755,8.86851],[-70.57856,8.87225],[-70.5762,8.87996],[-70.578,8.88719],[-70.57614,8.88946],[-70.57888,8.89566],[-70.57469,8.90712],[-70.56652,8.91331],[-70.56069,8.92458],[-70.55262,8.93056],[-70.54926,8.93691],[-70.55525,8.93936],[-70.55894,8.94524],[-70.55629,8.95032],[-70.55252,8.95206],[-70.55533,8.96575],[-70.54729,8.98014],[-70.54672,8.99174],[-70.54361,8.99921],[-70.54493,9.00248],[-70.56528,9.01168],[-70.57695,9.01113],[-70.58176,9.02726],[-70.58553,9.0271],[-70.60158,9.0162],[-70.61862,9.01297],[-70.62224,9.0063],[-70.62805,9.00459],[-70.63215,8.99847],[-70.64081,8.9983],[-70.64292,8.99122],[-70.66336,8.98188],[-70.67316,8.97436],[-70.68714,8.99541],[-70.70453,8.9976],[-70.71124,9.00773],[-70.7058,9.01436],[-70.72276,9.03275],[-70.73017,9.05619],[-70.73917,9.05485],[-70.74896,9.05752],[-70.75151,9.05266],[-70.76332,9.04909],[-70.76885,9.05353],[-70.77501,9.05454],[-70.77874,9.05902],[-70.78454,9.07477],[-70.78401,9.07876],[-70.78906,9.07236],[-70.80077,9.08011],[-70.80739,9.07433],[-70.82962,9.08794],[-70.84455,9.08917],[-70.8672,9.13902],[-70.86797,9.15162],[-70.88006,9.15073],[-70.88983,9.15397],[-70.89263,9.16058],[-70.89053,9.16519],[-70.89773,9.1786],[-70.8972,9.19193],[-70.89903,9.19691],[-70.90166,9.19778],[-70.89974,9.20116],[-70.90769,9.2161],[-70.9068,9.21894],[-70.89724,9.22336],[-70.89405,9.23029],[-70.90256,9.26429],[-70.91909,9.26627],[-70.93453,9.27746],[-70.9416,9.2774],[-70.95119,9.28409],[-70.96115,9.282],[-70.96276,9.2851],[-70.96114,9.2862],[-70.96705,9.28824],[-70.96447,9.29509],[-70.97431,9.30605]]]}}]}