{"type":"FeatureCollection","features":[{"type":"Feature","id":"relation/3448188","properties":{"name":"Municipio Alberto Adriani","level":6},"geometry":{"type":"Polygon","coordinates":[[[-71.57945,8.53337],[-71.58357,8.54669],[-71.59387,8.56136],[-71.59424,8.56824],[-71.58375,8.5656],[-71.5736,8.55927],[-71.56069,8.5572],[-71.55655,8.55877],[-71.57382,8.61462],[-71.56608,8.63769],[-71.55988,8.63079],[-71.55486,8.63402],[-71.54163,8.63616],[-71.53872,8.64336],[-71.52063,8.65599],[-71.51851,8.6655],[-71.52282,8.67504],[-71.51604,8.68699],[-71.51464,8.70368],[-71.51108,8.70979],[-71.51674,8.71155],[-71.5299,8.72156],[-71.53698,8.73579],[-71.54569,8.74464],[-71.56102,8.74627],[-71.57346,8.75104],[-71.58548,8.74461],[-71.5905,8.74556],[-71.59643,8.76567],[-71.6018,8.7667],[-71.60825,8.75948],[-71.60873,8.75331],[-71.61189,8.74896],[-71.6171,8.7507],[-71.61989,8.74848],[-71.61694,8.7431],[-71.62663,8.74213],[-71.62151,8.73687],[-71.62139,8.72811],[-71.61868,8.72904],[-71.61736,8.72705],[-71.6192,8.72499],[-71.62562,8.72331],[-71.6268,8.72489],[-71.63789,8.71815],[-71.63778,8.72156],[-71.64027,8.72031],[-71.64258,8.72218],[-71.63932,8.72456],[-71.6443,8.72224],[-71.64623,8.72532],[-71.64963,8.72351],[-71.6578,8.72434],[-71.67154,8.7138],[-71.67707,8.71756],[-71.67639,8.72147],[-71.68059,8.72168],[-71.68141,8.72481],[-71.68567,8.725],[-71.68996,8.72157],[-71.69215,8.72414],[-71.699,8.71974],[-71.69633,8.71674],[-71.70941,8.70654],[-71.7165,8.71067],[-71.72157,8.70861],[-71.72328,8.7124],[-71.73055,8.70842],[-71.73598,8.71457],[-71.74915,8.70438],[-71.74813,8.70301],[-71.75247,8.70166],[-71.75388,8.70407],[-71.75722,8.70164],[-71.7563,8.69893],[-71.77181,8.68052],[-71.77902,8.68308],[-71.77995,8.67627],[-71.78554,8.67931],[-71.78734,8.67526],[-71.79366,8.67639],[-71.79489,8.68338],[-71.79946,8.68647],[-71.80815,8.68143],[-71.80764,8.67842],[-71.80342,8.67691],[-71.80543,8.6739],[-71.80349,8.67125],[-71.82341,8.67557],[-71.83766,8.6725],[-71.84773,8.67573],[-71.8659,8.67154],[-71.88551,8.65753],[-71.89102,8.64999],[-71.90936,8.64119],[-71.90512,8.64029],[-71.89915,8.63373],[-71.89143,8.63355],[-71.88981,8.63065],[-71.88042,8.62711],[-71.87203,8.6291],[-71.84714,8.61315],[-71.84671,8.59929],[-71.84231,8.60024],[-71.83851,8.59454],[-71.82274,8.5879],[-71.82114,8.58033],[-71.81757,8.57796],[-71.81752,8.57596],[-71.8247,8.57273],[-71.82575,8.5659],[-71.81448,8.56288],[-71.80732,8.55781],[-71.80375,8.5524],[-71.80166,8.54083],[-71.78633,8.5247],[-71.78332,8.51318],[-71.77671,8.51235],[-71.77168,8.52011],[-71.77713,8.53893],[-71.77687,8.54743],[-71.77485,8.54901],[-71.77193,8.54529],[-71.7688,8.54644],[-71.76467,8.54286],[-71.76899,8.53931],[-71.76717,8.53611],[-71.76933,8.53364],[-71.76512,8.53128],[-71.76438,8.52086],[-71.76062,8.51861],[-71.76085,8.52119],[-71.75792,8.52055],[-71.75892,8.51811],[-71.75614,8.51575],[-71.75842,8.51439],[-71.75466,8.51257],[-71.75524,8.51508],[-71.75186,8.51506],[-71.75197,8.51148],[-71.75507,8.50891],[-71.75218,8.50739],[-71.75157,8.50043],[-71.74887,8.50029],[-71.74854,8.49395],[-71.73117,8.50062],[-71.63556,8.55435],[-71.63324,8.54284],[-71.63539,8.53721],[-71.63229,8.52124],[-71.63472,8.51892],[-71.62916,8.5162],[-71.62599,8.51083],[-71.62043,8.51965],[-71.61129,8.5202],[-71.60232,8.50938],[-71.59655,8.50711],[-71.58441,8.51479],[-71.58534,8.5213],[-71.57899,8.52972],[-71.57945,8.53337]]]}},{"type":"Feature","id":"relation/3448189","properties":{"name":"Municipio Antonio Pinto Salinas","level":6},"geometry":{"type":"Polygon","coordinates":[[[-71.63556,8.55435],[-71.72456,8.50524],[-71.72526,8.50055],[-71.70901,8.48986],[-71.71032,8.48142],[-71.71474,8.48012],[-71.71018,8.47259],[-71.71216,8.46328],[-71.70576,8.45617],[-71.7115,8.44076],[-71.70897,8.43301],[-71.68699,8.41119],[-71.6871,8.4045],[-71.69188,8.39532],[-71.69093,8.39104],[-71.68798,8.39138],[-71.6818,8.40101],[-71.67792,8.402],[-71.67876,8.39537],[-71.6701,8.38073],[-71.68911,8.37045],[-71.68102,8.36377],[-71.68143,8.35836],[-71.67702,8.34862],[-71.67691,8.34473],[-71.68026,8.34075],[-71.67527,8.33103],[-71.67742,8.32526],[-71.67482,8.31259],[-71.67737,8.30076],[-71.65457,8.28875],[-71.6226,8.28755],[-71.59678,8.26807],[-71.58069,8.26358],[-71.57424,8.27629],[-71.5701,8.27845],[-71.57998,8.29534],[-71.58076,8.30074],[-71.57546,8.31115],[-71.578,8.31608],[-71.58434,8.31985],[-71.58649,8.33028],[-71.57625,8.3589],[-71.56302,8.36144],[-71.5527,8.36739],[-71.55372,8.37891],[-71.54791,8.3867],[-71.56214,8.40133],[-71.56396,8.41031],[-71.58242,8.44754],[-71.57152,8.45688],[-71.573,8.47344],[-71.57005,8.48056],[-71.58278,8.50395],[-71.58361,8.51462],[-71.59841,8.5071],[-71.61129,8.5202],[-71.61981,8.52],[-71.62599,8.51083],[-71.62916,8.5162],[-71.63472,8.51892],[-71.63229,8.52124],[-71.63539,8.53721],[-71.63324,8.54284],[-71.63556,8.55435]]]}},{"type":"Feature","id":"relation/3448190","properties":{"name":"Municipio Aricagua","level":6},"geometry":{"type":"Polygon","coordinates":[[[-71.14614,8.3654],[-71.15859,8.36312],[-71.16957,8.35149],[-71.16582,8.33676],[-71.17349,8.32917],[-71.17762,8.33017],[-71.18331,8.32176],[-71.18727,8.30532],[-71.18376,8.29769],[-71.1888,8.28106],[-71.19693,8.26596],[-71.2047,8.26115],[-71.21682,8.24441],[-71.21636,8.23284],[-71.2196,8.22032],[-71.21705,8.21585],[-71.22646,8.20094],[-71.2305,8.17858],[-71.22764,8.16458],[-71.21781,8.15057],[-71.21841,8.14004],[-71.223,8.13867],[-71.21614,8.12987],[-71.22084,8.11532],[-71.22629,8.11011],[-71.22952,8.10145],[-71.23341,8.0831],[-71.23248,8.07261],[-71.2375,8.05458],[-71.24166,8.05281],[-71.2503,8.04102],[-71.26313,8.03278],[-71.26645,8.03416],[-71.26612,8.02944],[-71.27413,8.01284],[-71.27777,7.998],[-71.28296,7.99365],[-71.28681,7.98524],[-71.2879,7.97372],[-71.2855,7.96958],[-71.29066,7.96701],[-71.29394,7.94173],[-71.28818,7.93057],[-71.29161,7.92234],[-71.28898,7.91405],[-71.29288,7.91163],[-71.29383,7.90393],[-71.287,7.90154],[-71.26819,7.90793],[-71.26718,7.91812],[-71.26054,7.91708],[-71.26114,7.92179],[-71.25646,7.92284],[-71.25503,7.92634],[-71.25295,7.92485],[-71.25215,7.92904],[-71.24742,7.93155],[-71.2428,7.93848],[-71.23649,7.94033],[-71.2375,7.94707],[-71.23138,7.94377],[-71.22984,7.94937],[-71.23472,7.95184],[-71.23427,7.95769],[-71.23082,7.95668],[-71.22843,7.95938],[-71.22632,7.95749],[-71.21484,7.96896],[-71.19997,7.97524],[-71.19258,7.98449],[-71.18603,7.98727],[-71.18023,7.99418],[-71.17005,7.99439],[-71.1679,7.99967],[-71.17147,8.00479],[-71.16663,8.00771],[-71.16764,8.01131],[-71.16447,8.01139],[-71.16245,8.01473],[-71.16085,8.01163],[-71.15831,8.0118],[-71.15062,8.01979],[-71.13562,8.02199],[-71.1264,8.0394],[-71.12014,8.03865],[-71.11777,8.03395],[-71.11495,8.03887],[-71.10752,8.03677],[-71.11211,8.03884],[-71.10803,8.04367],[-71.10345,8.04263],[-71.10231,8.05473],[-71.09408,8.05899],[-71.09386,8.07367],[-71.08962,8.06959],[-71.08089,8.07292],[-71.07006,8.08739],[-71.07064,8.0911],[-71.06725,8.09011],[-71.06058,8.09668],[-71.06161,8.09896],[-71.05889,8.09889],[-71.05909,8.10187],[-71.05633,8.1007],[-71.05708,8.10649],[-71.0526,8.10627],[-71.05256,8.10954],[-71.0483,8.11048],[-71.0455,8.11581],[-71.04842,8.12422],[-71.04484,8.12484],[-71.04651,8.12966],[-71.04434,8.13181],[-71.04883,8.13737],[-71.04627,8.1488],[-71.04319,8.14893],[-71.04376,8.15493],[-71.01853,8.17645],[-71.01919,8.181],[-71.01335,8.18341],[-71.01529,8.18601],[-71.01428,8.19281],[-71.01018,8.19836],[-71.02317,8.21633],[-71.02047,8.22126],[-71.02819,8.22326],[-71.02618,8.23016],[-71.02316,8.23257],[-71.03484,8.25322],[-71.03014,8.25294],[-71.02682,8.2489],[-71.01359,8.24883],[-71.01206,8.25559],[-70.99254,8.27279],[-70.9858,8.27181],[-70.9771,8.27456],[-70.96908,8.26818],[-70.96441,8.25958],[-70.96648,8.25476],[-70.96177,8.24963],[-70.93968,8.25624],[-70.9372,8.26377],[-70.92881,8.26961],[-70.91944,8.27358],[-70.90945,8.27322],[-70.90604,8.27646],[-70.90644,8.28367],[-70.90917,8.28505],[-70.91061,8.29081],[-70.90448,8.30773],[-70.90933,8.30539],[-70.91285,8.30705],[-70.91973,8.29809],[-70.9216,8.29901],[-70.92672,8.29347],[-70.93206,8.30004],[-70.93058,8.30397],[-70.93445,8.30531],[-70.93328,8.30811],[-70.93649,8.31117],[-70.94252,8.31111],[-70.95937,8.31804],[-70.96254,8.31672],[-70.96482,8.32105],[-70.97615,8.32075],[-70.97569,8.32864],[-70.98958,8.33319],[-70.98984,8.33752],[-70.99484,8.34055],[-70.99819,8.34911],[-71.00777,8.34253],[-71.01867,8.34733],[-71.0229,8.34449],[-71.02179,8.3484],[-71.02506,8.34553],[-71.02688,8.34989],[-71.03138,8.35054],[-71.04075,8.34693],[-71.04477,8.35442],[-71.06327,8.37141],[-71.0748,8.37403],[-71.08599,8.37323],[-71.09398,8.36967],[-71.10165,8.37047],[-71.10812,8.37373],[-71.11951,8.38573],[-71.13339,8.38279],[-71.13931,8.37884],[-71.14614,8.3654]]]}},{"type":"Feature","id":"relation/3448191","properties":{"name":"Municipio Arzobispo Chac\u00f3n","level":6},"geometry":{"type":"Polygon","coordinates":[[[-71.23243,8.36298],[-71.23706,8.36244],[-71.2513,8.34984],[-71.26639,8.35115],[-71.27233,8.34737],[-71.27906,8.3341],[-71.29786,8.33224],[-71.31252,8.31865],[-71.31772,8.31875],[-71.32593,8.32539],[-71.34596,8.31384],[-71.35004,8.28923],[-71.36636,8.27617],[-71.37989,8.2881],[-71.38838,8.29263],[-71.39691,8.29316],[-71.40472,8.30383],[-71.41113,8.30825],[-71.41886,8.30962],[-71.4307,8.30282],[-71.44365,8.28696],[-71.45219,8.27068],[-71.45206,8.26564],[-71.45474,8.26384],[-71.46357,8.26678],[-71.47301,8.26386],[-71.48563,8.26687],[-71.49445,8.25892],[-71.49711,8.24349],[-71.5048,8.23755],[-71.51494,8.23986],[-71.51616,8.24663],[-71.52439,8.25367],[-71.52776,8.26901],[-71.53342,8.27348],[-71.53587,8.27461],[-71.54219,8.27207],[-71.55276,8.27571],[-71.57193,8.27777],[-71.57948,8.26682],[-71.57972,8.25288],[-71.5852,8.24498],[-71.58399,8.22766],[-71.58691,8.21597],[-71.59383,8.21058],[-71.60486,8.20815],[-71.61115,8.20133],[-71.62207,8.19587],[-71.63683,8.18018],[-71.62808,8.17003],[-71.62095,8.15666],[-71.62404,8.14629],[-71.63259,8.14097],[-71.63618,8.1349],[-71.63719,8.12631],[-71.63586,8.12348],[-71.62305,8.11674],[-71.59955,8.11547],[-71.58647,8.1001],[-71.58419,8.09268],[-71.58525,8.08379],[-71.57669,8.07453],[-71.56145,8.04901],[-71.57132,8.0393],[-71.56583,8.01785],[-71.57024,8.00441],[-71.55908,7.99318],[-71.55827,7.98745],[-71.55038,7.97833],[-71.54573,7.97663],[-71.53681,7.97826],[-71.53479,7.97581],[-71.53327,7.96577],[-71.53741,7.96135],[-71.5292,7.95847],[-71.52871,7.95544],[-71.52847,7.95205],[-71.53264,7.94668],[-71.53204,7.93865],[-71.52938,7.93522],[-71.53068,7.93068],[-71.52491,7.92729],[-71.52405,7.92221],[-71.51982,7.92009],[-71.51717,7.91321],[-71.50563,7.91232],[-71.50378,7.90754],[-71.51148,7.89322],[-71.49506,7.87969],[-71.49098,7.86366],[-71.48628,7.85696],[-71.47467,7.85343],[-71.47132,7.85592],[-71.45888,7.87665],[-71.4488,7.88703],[-71.44469,7.90528],[-71.44212,7.90761],[-71.43439,7.90793],[-71.41184,7.8959],[-71.41133,7.87476],[-71.4037,7.86004],[-71.39977,7.86074],[-71.39157,7.86915],[-71.38762,7.86909],[-71.37379,7.85772],[-71.3755,7.84836],[-71.37195,7.84407],[-71.32513,7.87588],[-71.29383,7.90393],[-71.29288,7.91163],[-71.28898,7.91405],[-71.29161,7.92234],[-71.28818,7.93057],[-71.29376,7.93998],[-71.29319,7.95782],[-71.29043,7.96217],[-71.29066,7.96701],[-71.2855,7.96958],[-71.2879,7.97372],[-71.28681,7.98524],[-71.28296,7.99365],[-71.27777,7.998],[-71.27413,8.01284],[-71.26612,8.02944],[-71.26645,8.03416],[-71.26313,8.03278],[-71.2503,8.04102],[-71.24166,8.05281],[-71.2375,8.05458],[-71.23248,8.07261],[-71.23341,8.0831],[-71.22952,8.10145],[-71.21853,8.12094],[-71.21942,8.12404],[-71.21612,8.13037],[-71.223,8.13867],[-71.21841,8.14004],[-71.21762,8.1499],[-71.22764,8.16458],[-71.2302,8.18309],[-71.22646,8.20094],[-71.21705,8.21585],[-71.2196,8.22032],[-71.21636,8.23284],[-71.21682,8.24441],[-71.2047,8.26115],[-71.19693,8.26596],[-71.1888,8.28106],[-71.18376,8.29769],[-71.1869,8.30803],[-71.18331,8.32176],[-71.17762,8.33017],[-71.20619,8.34857],[-71.21376,8.35927],[-71.23243,8.36298]]]}},{"type":"Feature","id":"relation/3448192","properties":{"name":"Municipio Guaraque","level":6},"geometry":{"type":"Polygon","coordinates":[[[-71.67737,8.30076],[-71.69047,8.29215],[-71.69787,8.26914],[-71.70865,8.25768],[-71.72131,8.26042],[-71.73154,8.25673],[-71.74547,8.2458],[-71.75673,8.2316],[-71.76306,8.22795],[-71.78316,8.2259],[-71.78785,8.22988],[-71.79027,8.22766],[-71.79345,8.21358],[-71.79974,8.20568],[-71.79815,8.201],[-71.80449,8.19542],[-71.81928,8.16351],[-71.82555,8.1569],[-71.82167,8.15003],[-71.81698,8.1471],[-71.81327,8.12714],[-71.80861,8.12555],[-71.80534,8.12025],[-71.79941,8.11814],[-71.7968,8.12013],[-71.79538,8.11625],[-71.79365,8.11846],[-71.78965,8.11801],[-71.78832,8.11441],[-71.78555,8.11475],[-71.78343,8.11206],[-71.7841,8.10741],[-71.78193,8.10736],[-71.7794,8.10064],[-71.77154,8.09872],[-71.76686,8.09282],[-71.76536,8.08849],[-71.76727,8.08495],[-71.7642,8.08165],[-71.76595,8.07766],[-71.7596,8.07413],[-71.75952,8.06671],[-71.75462,8.05737],[-71.74525,8.04929],[-71.72157,8.03832],[-71.71317,8.04315],[-71.70352,8.04128],[-71.7025,8.03931],[-71.70736,8.03136],[-71.70601,8.02712],[-71.69565,8.02669],[-71.688,8.0141],[-71.6826,8.01248],[-71.67533,8.00589],[-71.66876,8.00491],[-71.66693,8.00586],[-71.66834,8.00942],[-71.66045,8.01621],[-71.65984,8.01937],[-71.65548,8.02057],[-71.65185,8.02805],[-71.64828,8.02926],[-71.64866,8.03433],[-71.6423,8.0414],[-71.63715,8.03763],[-71.63332,8.04022],[-71.62793,8.03824],[-71.6213,8.04371],[-71.61928,8.04847],[-71.61014,8.05077],[-71.60221,8.05708],[-71.58497,8.04515],[-71.57132,8.0393],[-71.56145,8.04901],[-71.57669,8.07453],[-71.58525,8.08379],[-71.58419,8.09268],[-71.58647,8.1001],[-71.59955,8.11547],[-71.62305,8.11674],[-71.63586,8.12348],[-71.63719,8.12631],[-71.63618,8.1349],[-71.63259,8.14097],[-71.62404,8.14629],[-71.62095,8.15666],[-71.62808,8.17003],[-71.63683,8.18018],[-71.62207,8.19587],[-71.61115,8.20133],[-71.60486,8.20815],[-71.59383,8.21058],[-71.58691,8.21597],[-71.58399,8.22766],[-71.5852,8.24498],[-71.57972,8.25288],[-71.57958,8.26164],[-71.58666,8.26592],[-71.59678,8.26807],[-71.6226,8.28755],[-71.65457,8.28875],[-71.67737,8.30076]]]}},{"type":"Feature","id":"relation/3448193","properties":{"name":"Municipio Padre Noguera","level":6},"geometry":{"type":"Polygon","coordinates":[[[-71.37195,7.84407],[-71.3755,7.84836],[-71.37379,7.85772],[-71.38762,7.86909],[-71.39157,7.86915],[-71.39977,7.86074],[-71.4037,7.86004],[-71.41133,7.87476],[-71.41184,7.8959],[-71.43439,7.90793],[-71.44212,7.90761],[-71.44469,7.90528],[-71.4488,7.88703],[-71.45888,7.87665],[-71.47467,7.85343],[-71.48851,7.85867],[-71.49506,7.87969],[-71.50836,7.89016],[-71.5102,7.88846],[-71.50925,7.87499],[-71.51593,7.87271],[-71.51767,7.86956],[-71.51604,7.85007],[-71.5192,7.8475],[-71.5121,7.83797],[-71.51387,7.8298],[-71.52192,7.82187],[-71.52386,7.81611],[-71.52281,7.80846],[-71.5146,7.79802],[-71.52369,7.78379],[-71.52479,7.77061],[-71.53456,7.75345],[-71.52215,7.74516],[-71.51907,7.73545],[-71.51251,7.7338],[-71.51419,7.73086],[-71.51278,7.72657],[-71.51671,7.72087],[-71.51178,7.7184],[-71.51297,7.71501],[-71.50622,7.71025],[-71.5053,7.70584],[-71.49775,7.7017],[-71.49293,7.68696],[-71.49073,7.68495],[-71.48665,7.68644],[-71.4853,7.68314],[-71.49012,7.68127],[-71.49034,7.67717],[-71.49469,7.67592],[-71.49004,7.66675],[-71.47688,7.669],[-71.47799,7.67703],[-71.47585,7.68007],[-71.46744,7.68013],[-71.45308,7.69323],[-71.44645,7.69249],[-71.44341,7.69542],[-71.44358,7.69971],[-71.45427,7.71663],[-71.46632,7.72605],[-71.46367,7.74196],[-71.46641,7.74592],[-71.46381,7.75061],[-71.4658,7.75246],[-71.46761,7.77342],[-71.42748,7.79723],[-71.3895,7.83158],[-71.37195,7.84407]]]}},{"type":"Feature","id":"relation/3448194","properties":{"name":"Municipio Rivas D\u00e1vila","level":6},"geometry":{"type":"Polygon","coordinates":[[[-71.75056,8.24339],[-71.76001,8.25581],[-71.7643,8.27586],[-71.77397,8.29002],[-71.76964,8.30644],[-71.78067,8.31859],[-71.79562,8.32401],[-71.80627,8.32115],[-71.80784,8.32759],[-71.81062,8.32881],[-71.81823,8.32329],[-71.81719,8.31945],[-71.8202,8.31513],[-71.82345,8.31807],[-71.82561,8.31632],[-71.82984,8.3204],[-71.83406,8.31572],[-71.83711,8.3167],[-71.83528,8.31219],[-71.83131,8.31011],[-71.83908,8.29884],[-71.8452,8.29591],[-71.85,8.28284],[-71.8563,8.27834],[-71.86156,8.27791],[-71.86087,8.27249],[-71.86511,8.26112],[-71.87352,8.25875],[-71.88182,8.25152],[-71.8832,8.24397],[-71.89174,8.23547],[-71.90001,8.21501],[-71.90871,8.21058],[-71.91098,8.20487],[-71.91106,8.19413],[-71.91363,8.19083],[-71.90378,8.17888],[-71.90466,8.1659],[-71.89968,8.15559],[-71.89297,8.16213],[-71.88775,8.16279],[-71.88512,8.16863],[-71.8758,8.16842],[-71.87423,8.17788],[-71.85778,8.18011],[-71.85093,8.17351],[-71.84974,8.16614],[-71.83864,8.15946],[-71.83426,8.16033],[-71.82541,8.15727],[-71.81928,8.16351],[-71.80449,8.19542],[-71.79815,8.201],[-71.79974,8.20568],[-71.79345,8.21358],[-71.79027,8.22766],[-71.78785,8.22988],[-71.78316,8.2259],[-71.76306,8.22795],[-71.75673,8.2316],[-71.75056,8.24339]]]}},{"type":"Feature","id":"relation/3448195","properties":{"name":"Municipio Tovar","level":6},"geometry":{"type":"Polygon","coordinates":[[[-71.67737,8.30076],[-71.67482,8.31259],[-71.67742,8.32526],[-71.67527,8.33103],[-71.68026,8.34075],[-71.67691,8.34473],[-71.67702,8.34862],[-71.68143,8.35836],[-71.68102,8.36377],[-71.68911,8.37045],[-71.6701,8.38073],[-71.67876,8.39537],[-71.67792,8.402],[-71.6818,8.40101],[-71.68798,8.39138],[-71.69093,8.39104],[-71.69188,8.39532],[-71.6871,8.4045],[-71.68699,8.41119],[-71.71037,8.43601],[-71.72084,8.42833],[-71.7271,8.42839],[-71.7384,8.41609],[-71.74068,8.41229],[-71.74052,8.39857],[-71.74486,8.38686],[-71.75159,8.38107],[-71.75123,8.37528],[-71.80232,8.33299],[-71.80635,8.33271],[-71.81062,8.32881],[-71.80784,8.32759],[-71.80627,8.32115],[-71.79562,8.32401],[-71.78067,8.31859],[-71.76964,8.30644],[-71.77397,8.29002],[-71.7643,8.27586],[-71.76001,8.25581],[-71.75107,8.24528],[-71.7515,8.23944],[-71.73154,8.25673],[-71.72131,8.26042],[-71.70865,8.25768],[-71.69787,8.26914],[-71.69047,8.29215],[-71.67737,8.30076]]]}},{"type":"Feature","id":"relation/3448196","properties":{"name":"Municipio Zea","level":6},"geometry":{"type":"Polygon","coordinates":[[[-71.79847,8.42435],[-71.80107,8.42209],[-71.80061,8.41916],[-71.8084,8.41714],[-71.81657,8.40548],[-71.81444,8.40038],[-71.81066,8.39869],[-71.80894,8.38942],[-71.81636,8.38451],[-71.81229,8.37833],[-71.81867,8.37186],[-71.82052,8.36],[-71.81771,8.35883],[-71.8193,8.35155],[-71.81524,8.34335],[-71.80665,8.33236],[-71.80232,8.33299],[-71.75123,8.37528],[-71.75159,8.38107],[-71.74486,8.38686],[-71.74052,8.39857],[-71.74068,8.41229],[-71.7271,8.42839],[-71.72084,8.42833],[-71.71157,8.43388],[-71.7115,8.44076],[-71.7062,8.45326],[-71.70576,8.45617],[-71.71216,8.46328],[-71.71018,8.47259],[-71.71474,8.48012],[-71.71032,8.48142],[-71.70901,8.48986],[-71.72432,8.4993],[-71.72456,8.50524],[-71.74854,8.49395],[-71.74887,8.50029],[-71.75157,8.50043],[-71.75218,8.50739],[-71.75507,8.50891],[-71.75197,8.51148],[-71.75186,8.51506],[-71.75524,8.51508],[-71.75466,8.51257],[-71.75842,8.51439],[-71.75614,8.51575],[-71.75892,8.51811],[-71.75792,8.52055],[-71.76085,8.52119],[-71.76062,8.51861],[-71.76438,8.52086],[-71.76512,8.53128],[-71.76933,8.53364],[-71.76717,8.53611],[-71.76899,8.53931],[-71.76467,8.54286],[-71.7688,8.54644],[-71.77193,8.54529],[-71.77485,8.54901],[-71.77693,8.54725],[-71.77725,8.53979],[-71.77186,8.51928],[-71.77698,8.51219],[-71.78332,8.51318],[-71.77279,8.48639],[-71.77407,8.46365],[-71.77972,8.4519],[-71.78463,8.44869],[-71.78431,8.44526],[-71.78741,8.44521],[-71.79571,8.43333],[-71.79868,8.43245],[-71.79847,8.42435]]]}},{"type":"Feature","id":"relation/3448252","properties":{"name":"Municipio Andr\u00e9s Bello","level":6},"geometry":{"type":"Polygon","coordinates":[[[-71.21266,8.72195],[-71.23757,8.73002],[-71.26284,8.74786],[-71.28755,8.75996],[-71.28885,8.76455],[-71.30155,8.76706],[-71.31274,8.76404],[-71.32621,8.77341],[-71.33482,8.77479],[-71.35311,8.77267],[-71.36402,8.77568],[-71.40014,8.77765],[-71.40995,8.77387],[-71.41563,8.77964],[-71.4384,8.78588],[-71.45145,8.79984],[-71.46107,8.78],[-71.49397,8.7554],[-71.50205,8.73031],[-71.51464,8.70368],[-71.51604,8.68699],[-71.52235,8.67738],[-71.51851,8.6655],[-71.52063,8.65599],[-71.53872,8.64336],[-71.54163,8.63616],[-71.55486,8.63402],[-71.55855,8.63114],[-71.54314,8.62447],[-71.54009,8.61989],[-71.52421,8.61785],[-71.5169,8.62257],[-71.50055,8.62494],[-71.49205,8.62344],[-71.48029,8.63092],[-71.46757,8.62242],[-71.45772,8.62292],[-71.44679,8.63201],[-71.44013,8.63387],[-71.43003,8.62702],[-71.41458,8.63009],[-71.40132,8.6083],[-71.39547,8.61357],[-71.39445,8.61839],[-71.39937,8.63696],[-71.39102,8.64754],[-71.38921,8.65514],[-71.38087,8.6621],[-71.37942,8.66714],[-71.37409,8.6644],[-71.35727,8.66442],[-71.35433,8.66164],[-71.33586,8.66498],[-71.32439,8.66321],[-71.31698,8.67478],[-71.30984,8.68023],[-71.28678,8.67886],[-71.27838,8.68139],[-71.26372,8.67362],[-71.25273,8.68283],[-71.2527,8.69189],[-71.24913,8.69875],[-71.22694,8.7051],[-71.21266,8.72195]]]}},{"type":"Feature","id":"relation/3448253","properties":{"name":"Municipio Campo Elias","level":6},"geometry":{"type":"Polygon","coordinates":[[[-71.40133,8.60847],[-71.40133,8.59842],[-71.40494,8.58907],[-71.40205,8.57437],[-71.38173,8.55177],[-71.37581,8.55416],[-71.35575,8.54776],[-71.34947,8.56014],[-71.34442,8.55782],[-71.33839,8.55097],[-71.33509,8.53479],[-71.3288,8.52733],[-71.3212,8.49866],[-71.31699,8.4996],[-71.30322,8.49149],[-71.30583,8.48825],[-71.30907,8.4674],[-71.30774,8.45795],[-71.31397,8.45222],[-71.31813,8.43768],[-71.32291,8.43062],[-71.33459,8.4224],[-71.33349,8.4093],[-71.33956,8.40394],[-71.34924,8.40036],[-71.3539,8.40168],[-71.35612,8.39921],[-71.35345,8.39148],[-71.34461,8.38874],[-71.3417,8.3695],[-71.36769,8.34255],[-71.36789,8.33755],[-71.35973,8.32016],[-71.34562,8.31394],[-71.32593,8.32539],[-71.31772,8.31875],[-71.31252,8.31865],[-71.29786,8.33224],[-71.27906,8.3341],[-71.27233,8.34737],[-71.26639,8.35115],[-71.2513,8.34984],[-71.23443,8.36379],[-71.23111,8.36146],[-71.21376,8.35927],[-71.20619,8.34857],[-71.19822,8.34511],[-71.18147,8.3316],[-71.17413,8.32887],[-71.16907,8.3326],[-71.16567,8.33734],[-71.16957,8.35149],[-71.15859,8.36312],[-71.14639,8.36468],[-71.14856,8.37031],[-71.16882,8.38784],[-71.17284,8.38821],[-71.17447,8.39452],[-71.18173,8.40309],[-71.18395,8.40234],[-71.18563,8.40853],[-71.19114,8.41091],[-71.19702,8.42722],[-71.20056,8.42929],[-71.20094,8.43263],[-71.20806,8.43605],[-71.21103,8.44485],[-71.22746,8.45159],[-71.23111,8.45715],[-71.23591,8.45659],[-71.22983,8.47564],[-71.21585,8.48732],[-71.21406,8.49657],[-71.22101,8.50494],[-71.22134,8.51376],[-71.21769,8.51616],[-71.2166,8.52295],[-71.22016,8.5355],[-71.22781,8.54643],[-71.22625,8.55299],[-71.21798,8.55837],[-71.21915,8.56472],[-71.21661,8.57584],[-71.22325,8.61052],[-71.21917,8.62093],[-71.21913,8.62798],[-71.22753,8.6402],[-71.22908,8.65256],[-71.20969,8.68274],[-71.2149,8.69376],[-71.21712,8.71851],[-71.22694,8.7051],[-71.24913,8.69875],[-71.2527,8.69189],[-71.25273,8.68283],[-71.26372,8.67362],[-71.27838,8.68139],[-71.28678,8.67886],[-71.30984,8.68023],[-71.31698,8.67478],[-71.32439,8.66321],[-71.33586,8.66498],[-71.35433,8.66164],[-71.35727,8.66442],[-71.37409,8.6644],[-71.37942,8.66714],[-71.38087,8.6621],[-71.38921,8.65514],[-71.39102,8.64754],[-71.39937,8.63696],[-71.39445,8.61839],[-71.39547,8.61357],[-71.40133,8.60847]]]}},{"type":"Feature","id":"relation/3448254","properties":{"name":"Municipio Caracciolo Parra Olmedo","level":6},"geometry":{"type":"Polygon","coordinates":[[[-71.24561,9.03945],[-71.25047,9.0437],[-71.25249,9.0306],[-71.25523,9.03124],[-71.25679,9.02431],[-71.26418,9.02357],[-71.27006,9.00234],[-71.28,8.99742],[-71.28198,8.99848],[-71.28404,8.99251],[-71.28198,8.98975],[-71.28529,8.98694],[-71.29125,8.98789],[-71.29466,8.99348],[-71.3007,8.99207],[-71.30257,8.99365],[-71.30136,8.99543],[-71.30817,8.99577],[-71.30809,9.00057],[-71.32636,8.9974],[-71.33158,9.00346],[-71.33399,8.999],[-71.33958,9.00006],[-71.34451,8.99643],[-71.34581,8.99836],[-71.34912,8.99659],[-71.34779,8.98904],[-71.34413,8.9848],[-71.35045,8.98164],[-71.34492,8.97551],[-71.34568,8.97177],[-71.35032,8.97446],[-71.35365,8.97149],[-71.36424,8.97352],[-71.36181,8.96853],[-71.36392,8.96611],[-71.35049,8.95393],[-71.35716,8.94583],[-71.36169,8.94964],[-71.36489,8.94892],[-71.36506,8.95082],[-71.37445,8.94569],[-71.37016,8.93284],[-71.36388,8.92483],[-71.35092,8.91583],[-71.35599,8.90734],[-71.35947,8.89461],[-71.35446,8.8859],[-71.35745,8.8727],[-71.35308,8.84468],[-71.34653,8.84657],[-71.33827,8.84292],[-71.33197,8.8343],[-71.33837,8.81655],[-71.32553,8.79355],[-71.29691,8.77354],[-71.28996,8.76626],[-71.28755,8.75996],[-71.26284,8.74786],[-71.23757,8.73002],[-71.21266,8.72195],[-71.20388,8.72453],[-71.19349,8.73434],[-71.18551,8.73387],[-71.17517,8.72779],[-71.16094,8.73688],[-71.14426,8.73396],[-71.13675,8.73941],[-71.13281,8.74619],[-71.1184,8.75268],[-71.09994,8.77424],[-71.09552,8.77338],[-71.0896,8.77584],[-71.07508,8.79757],[-71.06407,8.79766],[-71.05059,8.81139],[-71.03967,8.81142],[-71.03216,8.81705],[-71.02538,8.86489],[-71.03205,8.87364],[-71.0276,8.87857],[-71.02772,8.88505],[-71.03542,8.89338],[-71.06028,8.89356],[-71.06437,8.90119],[-71.07612,8.89967],[-71.08088,8.90472],[-71.10762,8.88201],[-71.11792,8.87959],[-71.13703,8.88872],[-71.14778,8.88673],[-71.14699,8.89145],[-71.1504,8.89712],[-71.15076,8.90552],[-71.15658,8.91007],[-71.15919,8.92024],[-71.1963,8.92822],[-71.20119,8.9258],[-71.21007,8.92743],[-71.22109,8.92609],[-71.23085,8.93158],[-71.23363,8.94225],[-71.23226,8.94662],[-71.24025,8.95464],[-71.24253,8.96104],[-71.24049,8.97002],[-71.24183,8.97476],[-71.23642,8.98443],[-71.2378,8.98937],[-71.23516,9.00045],[-71.23174,9.00103],[-71.23186,9.00417],[-71.22772,9.00677],[-71.22674,9.01598],[-71.22358,9.02176],[-71.21991,9.02235],[-71.22197,9.02714],[-71.21906,9.03066],[-71.22448,9.03526],[-71.22169,9.0448],[-71.22309,9.05749],[-71.22775,9.05723],[-71.22848,9.05308],[-71.22899,9.05471],[-71.23511,9.05308],[-71.23427,9.0481],[-71.24336,9.0455],[-71.24561,9.03945]]]}},{"type":"Feature","id":"relation/3448255","properties":{"name":"Municipio Libertador","level":6},"geometry":{"type":"Polygon","coordinates":[[[-71.21717,8.71856],[-71.2149,8.69376],[-71.20969,8.68274],[-71.22908,8.65256],[-71.22753,8.6402],[-71.21913,8.62798],[-71.21917,8.62093],[-71.22325,8.61052],[-71.21661,8.57584],[-71.21915,8.56472],[-71.21798,8.55837],[-71.22625,8.55299],[-71.22781,8.54643],[-71.22016,8.5355],[-71.2166,8.52295],[-71.21769,8.51616],[-71.22134,8.51376],[-71.22101,8.50494],[-71.21406,8.49657],[-71.21585,8.48732],[-71.22983,8.47564],[-71.23591,8.45659],[-71.23111,8.45715],[-71.22746,8.45159],[-71.21103,8.44485],[-71.20806,8.43605],[-71.20094,8.43263],[-71.20056,8.42929],[-71.19702,8.42722],[-71.19114,8.41091],[-71.18563,8.40853],[-71.18395,8.40234],[-71.18173,8.40309],[-71.17447,8.39452],[-71.17284,8.38821],[-71.16882,8.38784],[-71.16043,8.3786],[-71.14955,8.37153],[-71.14614,8.3654],[-71.13931,8.37884],[-71.13223,8.38318],[-71.11893,8.38559],[-71.10812,8.37373],[-71.10165,8.37047],[-71.09398,8.36967],[-71.08599,8.37323],[-71.0748,8.37403],[-71.06327,8.37141],[-71.04477,8.35442],[-71.04075,8.34693],[-71.03138,8.35054],[-71.02688,8.34989],[-71.02506,8.34553],[-71.02179,8.3484],[-71.0229,8.34449],[-71.01867,8.34733],[-71.00777,8.34253],[-70.99819,8.34911],[-70.99484,8.34055],[-70.98984,8.33752],[-70.98958,8.33319],[-70.97569,8.32864],[-70.97615,8.32075],[-70.96482,8.32105],[-70.96254,8.31672],[-70.95937,8.31804],[-70.94252,8.31111],[-70.93649,8.31117],[-70.93328,8.30811],[-70.93445,8.30531],[-70.93058,8.30397],[-70.93206,8.30004],[-70.92672,8.29347],[-70.9216,8.29901],[-70.91973,8.29809],[-70.91285,8.30705],[-70.90579,8.30668],[-70.90591,8.31166],[-70.91173,8.31599],[-70.91038,8.32627],[-70.90608,8.33207],[-70.90685,8.34372],[-70.89997,8.3504],[-70.89249,8.35309],[-70.89268,8.36216],[-70.88922,8.36692],[-70.87755,8.36919],[-70.8632,8.3771],[-70.8603,8.38845],[-70.84552,8.40786],[-70.85603,8.41116],[-70.86135,8.42036],[-70.86931,8.428],[-70.88828,8.44102],[-70.89476,8.43991],[-70.89473,8.44599],[-70.90954,8.45519],[-70.9133,8.46395],[-70.91974,8.47082],[-70.92733,8.47466],[-70.9307,8.48683],[-70.93524,8.49141],[-70.94323,8.49449],[-70.94737,8.50439],[-70.96137,8.52194],[-70.96888,8.5379],[-70.9842,8.55067],[-70.99907,8.56863],[-71.06535,8.58049],[-71.08918,8.58727],[-71.09633,8.59243],[-71.10484,8.61234],[-71.10809,8.61661],[-71.11046,8.61543],[-71.11589,8.62438],[-71.10613,8.64168],[-71.09588,8.64898],[-71.09058,8.65987],[-71.08568,8.66343],[-71.08232,8.67308],[-71.06849,8.69483],[-71.06305,8.70932],[-71.04929,8.72848],[-71.03755,8.73757],[-71.01498,8.76814],[-71.00474,8.77175],[-71.00235,8.77768],[-70.99172,8.78182],[-70.98754,8.78953],[-70.97758,8.79468],[-70.97425,8.80127],[-70.97427,8.80804],[-70.98823,8.81892],[-71.00208,8.81066],[-71.00641,8.81227],[-71.01375,8.80616],[-71.02325,8.80887],[-71.02974,8.80702],[-71.03328,8.8157],[-71.03967,8.81142],[-71.05059,8.81139],[-71.06407,8.79766],[-71.07508,8.79757],[-71.0896,8.77584],[-71.09552,8.77338],[-71.09994,8.77424],[-71.1184,8.75268],[-71.13281,8.74619],[-71.14135,8.73544],[-71.14798,8.73362],[-71.16094,8.73688],[-71.17517,8.72779],[-71.18551,8.73387],[-71.19416,8.73422],[-71.20388,8.72453],[-71.21717,8.71856]]]}},{"type":"Feature","id":"relation/3448256","properties":{"name":"Municipio Obispo Ramos de Lora","level":6},"geometry":{"type":"Polygon","coordinates":[[[-71.28885,8.76455],[-71.30098,8.77708],[-71.31019,8.78118],[-71.32871,8.79675],[-71.33183,8.80722],[-71.33837,8.81655],[-71.33197,8.8343],[-71.33827,8.84292],[-71.34653,8.84657],[-71.35308,8.84468],[-71.35545,8.85288],[-71.35745,8.8727],[-71.35446,8.8859],[-71.35947,8.89461],[-71.35599,8.90734],[-71.35092,8.91583],[-71.36388,8.92483],[-71.37016,8.93284],[-71.37096,8.93755],[-71.37632,8.93813],[-71.38606,8.94839],[-71.38558,8.9509],[-71.3882,8.95087],[-71.3893,8.95539],[-71.39265,8.95398],[-71.39292,8.95821],[-71.39546,8.95921],[-71.40289,8.95147],[-71.4031,8.94532],[-71.41025,8.94521],[-71.40649,8.94031],[-71.40587,8.93759],[-71.40863,8.93539],[-71.40519,8.93331],[-71.4064,8.9295],[-71.40419,8.92733],[-71.40497,8.92541],[-71.40928,8.92678],[-71.40879,8.92061],[-71.41392,8.91746],[-71.4158,8.91119],[-71.40364,8.88883],[-71.40403,8.88548],[-71.40954,8.88429],[-71.41117,8.88824],[-71.42687,8.88741],[-71.42807,8.88932],[-71.4319,8.88461],[-71.43809,8.88657],[-71.44374,8.89344],[-71.44285,8.87177],[-71.44803,8.87056],[-71.45185,8.86667],[-71.46167,8.86478],[-71.46166,8.86214],[-71.47488,8.86399],[-71.47571,8.85824],[-71.47916,8.85939],[-71.48144,8.85746],[-71.48751,8.86075],[-71.50218,8.86107],[-71.5047,8.86227],[-71.50465,8.86655],[-71.51535,8.86515],[-71.51711,8.86152],[-71.51327,8.85835],[-71.51474,8.85458],[-71.51236,8.85336],[-71.51382,8.84973],[-71.52228,8.84516],[-71.52081,8.83897],[-71.51785,8.83823],[-71.51501,8.83263],[-71.51813,8.82898],[-71.52148,8.83006],[-71.53236,8.82551],[-71.53153,8.82009],[-71.53973,8.81847],[-71.53906,8.82106],[-71.54504,8.8185],[-71.54692,8.82063],[-71.55154,8.8184],[-71.54714,8.81173],[-71.54747,8.80211],[-71.55999,8.79659],[-71.56166,8.79103],[-71.55903,8.78679],[-71.55613,8.78665],[-71.55676,8.78446],[-71.5623,8.78482],[-71.57011,8.77956],[-71.57056,8.7714],[-71.57416,8.77337],[-71.58136,8.78773],[-71.58595,8.79132],[-71.59671,8.76866],[-71.59499,8.75631],[-71.5905,8.74556],[-71.58548,8.74461],[-71.57346,8.75104],[-71.56102,8.74627],[-71.54569,8.74464],[-71.53698,8.73579],[-71.5299,8.72156],[-71.51674,8.71155],[-71.51108,8.70979],[-71.49397,8.7554],[-71.46107,8.78],[-71.45145,8.79984],[-71.4384,8.78588],[-71.41563,8.77964],[-71.40995,8.77387],[-71.40014,8.77765],[-71.36402,8.77568],[-71.35311,8.77267],[-71.33482,8.77479],[-71.32621,8.77341],[-71.31274,8.76404],[-71.30155,8.76706],[-71.28885,8.76455]]]}},{"type":"Feature","id":"relation/3448257","properties":{"name":"Municipio Sucre","level":6},"geometry":{"type":"Polygon","coordinates":[[[-71.59366,8.5693],[-71.59387,8.56136],[-71.58357,8.54669],[-71.57939,8.53654],[-71.57899,8.52972],[-71.58534,8.5213],[-71.58278,8.50395],[-71.57005,8.48056],[-71.573,8.47344],[-71.57152,8.45688],[-71.58242,8.44754],[-71.56396,8.41031],[-71.56214,8.40133],[-71.54791,8.3867],[-71.55372,8.37891],[-71.5527,8.36739],[-71.56302,8.36144],[-71.57625,8.3589],[-71.58649,8.33028],[-71.58434,8.31985],[-71.578,8.31608],[-71.57546,8.31115],[-71.58076,8.30074],[-71.57998,8.29534],[-71.5701,8.27845],[-71.54219,8.27207],[-71.53587,8.27461],[-71.53342,8.27348],[-71.52776,8.26901],[-71.52439,8.25367],[-71.51616,8.24663],[-71.51494,8.23986],[-71.5048,8.23755],[-71.49711,8.24349],[-71.49445,8.25892],[-71.48563,8.26687],[-71.47301,8.26386],[-71.46357,8.26678],[-71.45474,8.26384],[-71.45206,8.26564],[-71.45219,8.27068],[-71.44365,8.28696],[-71.4307,8.30282],[-71.41886,8.30962],[-71.41113,8.30825],[-71.40472,8.30383],[-71.39691,8.29316],[-71.38838,8.29263],[-71.37989,8.2881],[-71.36636,8.27617],[-71.35004,8.28923],[-71.34562,8.31394],[-71.35973,8.32016],[-71.36838,8.34066],[-71.3417,8.3695],[-71.34461,8.38874],[-71.35345,8.39148],[-71.35612,8.39921],[-71.3539,8.40168],[-71.34924,8.40036],[-71.33956,8.40394],[-71.33349,8.4093],[-71.33459,8.4224],[-71.32291,8.43062],[-71.31813,8.43768],[-71.31397,8.45222],[-71.30774,8.45795],[-71.30907,8.4674],[-71.30583,8.48825],[-71.30322,8.49149],[-71.31699,8.4996],[-71.3212,8.49866],[-71.3288,8.52733],[-71.33509,8.53479],[-71.3395,8.55251],[-71.34947,8.56014],[-71.35575,8.54776],[-71.37581,8.55416],[-71.38173,8.55177],[-71.40205,8.57437],[-71.40494,8.58907],[-71.40133,8.59842],[-71.40149,8.61032],[-71.41253,8.62731],[-71.41458,8.63009],[-71.43003,8.62702],[-71.44013,8.63387],[-71.44679,8.63201],[-71.45772,8.62292],[-71.46757,8.62242],[-71.48029,8.63092],[-71.49205,8.62344],[-71.50055,8.62494],[-71.5169,8.62257],[-71.52421,8.61785],[-71.54009,8.61989],[-71.54314,8.62447],[-71.56042,8.63114],[-71.56608,8.63769],[-71.57382,8.61462],[-71.55655,8.55877],[-71.56069,8.5572],[-71.5736,8.55927],[-71.59366,8.5693]]]}},{"type":"Feature","id":"relation/3448342","properties":{"name":"Municipio Cardenal Quintero","level":6},"geometry":{"type":"Polygon","coordinates":[[[-70.6862,8.9005],[-70.69876,8.90725],[-70.70175,8.91395],[-70.70632,8.91576],[-70.72595,8.91086],[-70.73367,8.91148],[-70.74132,8.90599],[-70.73987,8.90121],[-70.74713,8.89241],[-70.76428,8.89093],[-70.76732,8.88645],[-70.7684,8.87322],[-70.77508,8.86547],[-70.78105,8.86461],[-70.79063,8.85667],[-70.81218,8.85158],[-70.80936,8.84559],[-70.81255,8.83167],[-70.79341,8.81375],[-70.80021,8.81374],[-70.80742,8.80344],[-70.80861,8.79047],[-70.80093,8.7727],[-70.80188,8.75839],[-70.79272,8.75908],[-70.78269,8.77095],[-70.76859,8.78088],[-70.76053,8.78027],[-70.74947,8.78355],[-70.74547,8.77114],[-70.74948,8.75811],[-70.73363,8.75017],[-70.72632,8.75407],[-70.72188,8.75279],[-70.70466,8.76842],[-70.7034,8.7733],[-70.69294,8.78116],[-70.68476,8.7996],[-70.67773,8.80531],[-70.66711,8.80946],[-70.66305,8.81546],[-70.66522,8.82086],[-70.66056,8.83054],[-70.64885,8.83728],[-70.64366,8.8442],[-70.63277,8.84487],[-70.62488,8.8375],[-70.613,8.83532],[-70.60746,8.84517],[-70.59899,8.84837],[-70.58539,8.84451],[-70.56657,8.8574],[-70.57144,8.86101],[-70.57314,8.86916],[-70.5755,8.86851],[-70.57856,8.87225],[-70.5762,8.87996],[-70.578,8.88719],[-70.57614,8.88946],[-70.57888,8.89566],[-70.57469,8.90712],[-70.56652,8.91331],[-70.56069,8.92458],[-70.55262,8.93056],[-70.54926,8.93691],[-70.55525,8.93936],[-70.55894,8.94524],[-70.55629,8.95032],[-70.55252,8.95206],[-70.55508,8.9673],[-70.54839,8.97633],[-70.54672,8.99174],[-70.54361,8.99921],[-70.54493,9.00248],[-70.555,9.00843],[-70.56707,9.01204],[-70.58259,9.01049],[-70.59868,8.99684],[-70.6134,8.97351],[-70.61349,8.96042],[-70.6244,8.95518],[-70.63267,8.94804],[-70.63429,8.94046],[-70.64004,8.93559],[-70.63855,8.91548],[-70.65166,8.89851],[-70.6645,8.89444],[-70.67215,8.89959],[-70.68047,8.89709],[-70.6862,8.9005]]]}},{"type":"Feature","id":"relation/3448343","properties":{"name":"Municipio Julio C\u00e9sar Salas","level":6},"geometry":{"type":"Polygon","coordinates":[[[-70.9346,9.13153],[-70.93039,9.12764],[-70.91837,9.1296],[-70.91303,9.13536],[-70.89885,9.12741],[-70.88584,9.11389],[-70.88183,9.10643],[-70.8666,9.09733],[-70.86099,9.08019],[-70.85219,9.0719],[-70.85173,9.06208],[-70.84839,9.05622],[-70.83897,9.05624],[-70.82923,9.0602],[-70.81856,9.05457],[-70.81136,9.06436],[-70.80303,9.06693],[-70.7959,9.07629],[-70.80077,9.08011],[-70.80739,9.07433],[-70.82962,9.08794],[-70.84455,9.08917],[-70.8672,9.13902],[-70.86797,9.15162],[-70.88006,9.15073],[-70.89043,9.15457],[-70.89284,9.1624],[-70.89053,9.16519],[-70.89773,9.1786],[-70.8972,9.19193],[-70.89903,9.19691],[-70.90166,9.19778],[-70.89974,9.20116],[-70.90769,9.2161],[-70.9068,9.21894],[-70.89724,9.22336],[-70.89405,9.23029],[-70.90256,9.26429],[-70.91909,9.26627],[-70.93453,9.27746],[-70.9416,9.2774],[-70.95119,9.28409],[-70.96115,9.282],[-70.96276,9.2851],[-70.96114,9.2862],[-70.96705,9.28824],[-70.96447,9.29509],[-70.97431,9.30605],[-70.97932,9.29772],[-70.98308,9.29583],[-70.99169,9.27496],[-70.98663,9.26927],[-70.98472,9.25527],[-70.98305,9.25525],[-70.98479,9.25266],[-70.97844,9.24647],[-70.98185,9.2443],[-70.97836,9.23373],[-70.99279,9.22213],[-70.99113,9.21639],[-70.99479,9.21095],[-70.98833,9.20976],[-70.99406,9.19731],[-71.00033,9.19513],[-70.99259,9.18917],[-70.98985,9.18315],[-70.98396,9.18175],[-70.97948,9.16846],[-70.96874,9.15],[-70.95324,9.13708],[-70.9346,9.13153]]]}},{"type":"Feature","id":"relation/3448344","properties":{"name":"Municipio Justo Brice\u00f1o","level":6},"geometry":{"type":"Polygon","coordinates":[[[-71.09718,9.0527],[-71.09152,9.04635],[-71.08799,9.0456],[-71.0834,9.0387],[-71.06852,9.03216],[-71.06469,9.02316],[-71.05389,9.02327],[-71.04758,9.01803],[-71.03589,9.01579],[-71.02939,9.01062],[-71.02132,8.99729],[-71.02426,8.99441],[-71.02324,8.9877],[-71.0161,8.98041],[-71.02002,8.97002],[-71.02597,8.96504],[-71.03037,8.95109],[-71.0357,8.94349],[-71.03707,8.93537],[-71.03103,8.9119],[-71.03684,8.8982],[-71.03542,8.89338],[-71.02772,8.88505],[-71.0276,8.87857],[-71.03205,8.87364],[-71.0254,8.86731],[-71.02824,8.8364],[-71.03328,8.8157],[-71.03145,8.80887],[-71.02974,8.80702],[-71.02325,8.80887],[-71.01375,8.80616],[-71.00641,8.81227],[-71.00208,8.81066],[-70.98823,8.81892],[-70.97471,8.80824],[-70.96843,8.80961],[-70.9614,8.81626],[-70.96224,8.8194],[-70.95899,8.82276],[-70.94103,8.83244],[-70.93518,8.84453],[-70.92906,8.84704],[-70.92251,8.84297],[-70.91139,8.8502],[-70.91142,8.86006],[-70.9176,8.86509],[-70.90228,8.87623],[-70.90153,8.88063],[-70.89454,8.88878],[-70.89299,8.89011],[-70.88452,8.88744],[-70.8751,8.89376],[-70.8751,8.90728],[-70.86796,8.9193],[-70.86777,8.92408],[-70.87089,8.93717],[-70.87444,8.94133],[-70.87496,8.95794],[-70.87965,8.96827],[-70.88845,8.97473],[-70.89748,8.99243],[-70.89825,9.0],[-70.90543,9.01506],[-70.90351,9.02878],[-70.90981,9.05209],[-70.91648,9.05772],[-70.93018,9.06138],[-70.93197,9.06622],[-70.92972,9.07209],[-70.93194,9.07599],[-70.91333,9.08002],[-70.8865,9.09154],[-70.88109,9.09016],[-70.87359,9.09672],[-70.8666,9.09733],[-70.88183,9.10643],[-70.89587,9.12463],[-70.91052,9.13462],[-70.91303,9.13536],[-70.91837,9.1296],[-70.93039,9.12764],[-70.93673,9.13158],[-70.94335,9.12923],[-70.9546,9.11876],[-70.96276,9.09065],[-70.96471,9.09086],[-70.96724,9.0849],[-70.9684,9.07021],[-70.98884,9.10204],[-70.99703,9.10367],[-71.00325,9.11036],[-71.01418,9.10374],[-71.01853,9.10455],[-71.03398,9.08711],[-71.04508,9.08109],[-71.04193,9.06249],[-71.0383,9.05582],[-71.03931,9.04452],[-71.0525,9.0583],[-71.0806,9.05896],[-71.09718,9.0527]]]}},{"type":"Feature","id":"relation/3448345","properties":{"name":"Municipio Miranda","level":6},"geometry":{"type":"Polygon","coordinates":[[[-70.7959,9.07629],[-70.80303,9.06693],[-70.81136,9.06436],[-70.81856,9.05457],[-70.82923,9.0602],[-70.83897,9.05624],[-70.84839,9.05622],[-70.85173,9.06208],[-70.85219,9.0719],[-70.86099,9.08019],[-70.8666,9.09733],[-70.87359,9.09672],[-70.88109,9.09016],[-70.8865,9.09154],[-70.91333,9.08002],[-70.93185,9.07716],[-70.92972,9.07209],[-70.93197,9.06622],[-70.93018,9.06138],[-70.91648,9.05772],[-70.90981,9.05209],[-70.90351,9.02878],[-70.90543,9.01506],[-70.89825,9.0],[-70.89748,8.99243],[-70.88845,8.97473],[-70.87965,8.96827],[-70.87496,8.95794],[-70.87444,8.94133],[-70.87089,8.93717],[-70.86777,8.92408],[-70.86796,8.9193],[-70.8751,8.90728],[-70.8751,8.89376],[-70.86513,8.88179],[-70.85939,8.88163],[-70.85073,8.87728],[-70.84056,8.86316],[-70.82659,8.85878],[-70.822,8.84998],[-70.81893,8.84871],[-70.79063,8.85667],[-70.78105,8.86461],[-70.77508,8.86547],[-70.7684,8.87322],[-70.76732,8.88645],[-70.76428,8.89093],[-70.74713,8.89241],[-70.73987,8.90121],[-70.74132,8.90599],[-70.73049,8.91299],[-70.72702,8.933],[-70.72402,8.93839],[-70.71576,8.93897],[-70.7138,8.94764],[-70.70187,8.94592],[-70.69691,8.9554],[-70.6904,8.95688],[-70.68309,8.96257],[-70.68353,8.96686],[-70.67725,8.96877],[-70.67316,8.97436],[-70.68714,8.99541],[-70.70453,8.9976],[-70.71124,9.00773],[-70.7058,9.01436],[-70.72276,9.03275],[-70.73017,9.05619],[-70.73917,9.05485],[-70.74896,9.05752],[-70.75151,9.05266],[-70.76332,9.04909],[-70.76885,9.05353],[-70.77501,9.05454],[-70.77874,9.05902],[-70.78454,9.07477],[-70.78401,9.07876],[-70.78906,9.07236],[-70.7959,9.07629]]]}},{"type":"Feature","id":"relation/3448346","properties":{"name":"Municipio Pueblo Llano","level":6},"geometry":{"type":"Polygon","coordinates":[[[-70.67316,8.97436],[-70.67725,8.96877],[-70.68353,8.96686],[-70.68309,8.96257],[-70.6904,8.95688],[-70.69691,8.9554],[-70.70187,8.94592],[-70.7138,8.94764],[-70.71576,8.93897],[-70.72402,8.93839],[-70.73177,8.91134],[-70.70632,8.91576],[-70.70175,8.91395],[-70.69876,8.90725],[-70.68817,8.90271],[-70.68269,8.89757],[-70.67215,8.89959],[-70.66379,8.89443],[-70.65166,8.89851],[-70.63855,8.91548],[-70.63828,8.92787],[-70.6405,8.93435],[-70.63429,8.94046],[-70.63267,8.94804],[-70.6244,8.95518],[-70.61349,8.96042],[-70.6134,8.97351],[-70.59868,8.99684],[-70.58707,9.00755],[-70.57695,9.01113],[-70.58176,9.02726],[-70.59155,9.02429],[-70.60158,9.0162],[-70.61862,9.01297],[-70.62224,9.0063],[-70.62805,9.00459],[-70.63215,8.99847],[-70.64081,8.9983],[-70.64292,8.99122],[-70.66336,8.98188],[-70.67316,8.97436]]]}},{"type":"Feature","id":"relation/3448347","properties":{"name":"Municipio Rangel","level":6},"geometry":{"type":"Polygon","coordinates":[[[-70.84323,8.58788],[-70.82663,8.60056],[-70.81857,8.60216],[-70.81483,8.59924],[-70.80688,8.59875],[-70.7943,8.6057],[-70.79149,8.61172],[-70.78155,8.60993],[-70.76959,8.6143],[-70.75692,8.61574],[-70.74293,8.63085],[-70.73702,8.63463],[-70.73335,8.63412],[-70.72761,8.63893],[-70.72759,8.64475],[-70.73042,8.64535],[-70.73572,8.65511],[-70.72993,8.6686],[-70.72224,8.6751],[-70.74085,8.69107],[-70.7619,8.70168],[-70.75847,8.70594],[-70.75744,8.71331],[-70.75244,8.71359],[-70.75237,8.71626],[-70.75843,8.7214],[-70.75746,8.72594],[-70.73363,8.75017],[-70.74948,8.75811],[-70.74547,8.77114],[-70.74947,8.78355],[-70.76053,8.78027],[-70.76859,8.78088],[-70.78269,8.77095],[-70.79272,8.75908],[-70.80188,8.75839],[-70.80093,8.7727],[-70.80861,8.79047],[-70.80742,8.80344],[-70.80021,8.81374],[-70.79341,8.81375],[-70.81255,8.83167],[-70.80961,8.84947],[-70.81218,8.85158],[-70.81501,8.84898],[-70.82088,8.84914],[-70.82659,8.85878],[-70.84056,8.86316],[-70.84864,8.87546],[-70.85939,8.88163],[-70.86513,8.88179],[-70.8751,8.89376],[-70.88452,8.88744],[-70.89299,8.89011],[-70.89454,8.88878],[-70.90153,8.88063],[-70.90228,8.87623],[-70.9176,8.86509],[-70.91142,8.86006],[-70.91139,8.8502],[-70.92251,8.84297],[-70.92906,8.84704],[-70.93518,8.84453],[-70.94103,8.83244],[-70.95899,8.82276],[-70.96374,8.8132],[-70.97427,8.80804],[-70.97425,8.80127],[-70.97758,8.79468],[-70.98754,8.78953],[-70.99172,8.78182],[-71.00235,8.77768],[-71.00474,8.77175],[-71.01498,8.76814],[-71.02904,8.75122],[-71.03993,8.7328],[-71.03454,8.72782],[-71.03619,8.71386],[-71.02908,8.67525],[-71.03052,8.66722],[-71.01813,8.65069],[-71.00116,8.65178],[-70.99718,8.65516],[-70.98691,8.64956],[-70.98054,8.6497],[-70.96392,8.64445],[-70.95022,8.64594],[-70.94972,8.64065],[-70.92802,8.62454],[-70.92166,8.61338],[-70.91187,8.6062],[-70.90675,8.60712],[-70.89141,8.61819],[-70.86605,8.61532],[-70.86059,8.61028],[-70.85608,8.59824],[-70.85741,8.58854],[-70.85049,8.58567],[-70.84323,8.58788]]]}},{"type":"Feature","id":"relation/3448348","properties":{"name":"Municipio Santos Marquina","level":6},"geometry":{"type":"Polygon","coordinates":[[[-71.03915,8.73628],[-71.04929,8.72848],[-71.06305,8.70932],[-71.06849,8.69483],[-71.08232,8.67308],[-71.08568,8.66343],[-71.09058,8.65987],[-71.09588,8.64898],[-71.11065,8.63566],[-71.1156,8.62313],[-71.11046,8.61543],[-71.10809,8.61661],[-71.10484,8.61234],[-71.09633,8.59243],[-71.08918,8.58727],[-71.06535,8.58049],[-70.99907,8.56863],[-70.9842,8.55067],[-70.96888,8.5379],[-70.96137,8.52194],[-70.94737,8.50439],[-70.94323,8.49449],[-70.93524,8.49141],[-70.9307,8.48683],[-70.92733,8.47466],[-70.91974,8.47082],[-70.9133,8.46395],[-70.90954,8.45519],[-70.89473,8.44599],[-70.89476,8.43991],[-70.88828,8.44102],[-70.86931,8.428],[-70.86135,8.42036],[-70.85603,8.41116],[-70.84893,8.40952],[-70.84091,8.42792],[-70.8364,8.43166],[-70.83756,8.43418],[-70.82866,8.43846],[-70.82516,8.44664],[-70.82845,8.45364],[-70.83133,8.45474],[-70.83445,8.46433],[-70.8326,8.49489],[-70.83321,8.50098],[-70.83868,8.51035],[-70.83806,8.51352],[-70.83424,8.51579],[-70.8384,8.5223],[-70.8391,8.52865],[-70.83691,8.54111],[-70.83861,8.5489],[-70.83535,8.55144],[-70.8393,8.55544],[-70.84219,8.5665],[-70.84315,8.58782],[-70.85049,8.58567],[-70.85741,8.58854],[-70.85608,8.59824],[-70.86059,8.61028],[-70.86605,8.61532],[-70.89141,8.61819],[-70.90675,8.60712],[-70.91187,8.6062],[-70.92166,8.61338],[-70.92802,8.62454],[-70.94972,8.64065],[-70.95022,8.64594],[-70.96392,8.64445],[-70.98054,8.6497],[-70.98691,8.64956],[-70.99718,8.65516],[-71.00116,8.65178],[-71.01813,8.65069],[-71.03052,8.66722],[-71.02908,8.67525],[-71.03619,8.71386],[-71.03454,8.72782],[-71.03993,8.7328],[-71.03915,8.73628]]]}},{"type":"Feature","id":"relation/3448349","properties":{"name":"Municipio Tulio Febres Cordero","level":6},"geometry":{"type":"Polygon","coordinates":[[[-71.00325,9.11036],[-70.99703,9.10367],[-70.98884,9.10204],[-70.9684,9.07021],[-70.96724,9.0849],[-70.96471,9.09086],[-70.96276,9.09065],[-70.96034,9.1042],[-70.9548,9.11382],[-70.95423,9.11946],[-70.94335,9.12923],[-70.9346,9.13153],[-70.95324,9.13708],[-70.96874,9.15],[-70.97948,9.16846],[-70.98404,9.18182],[-70.98569,9.1807],[-70.99221,9.18563],[-70.99613,9.1827],[-70.9973,9.1778],[-71.00955,9.16825],[-71.01236,9.14493],[-71.02088,9.13639],[-71.03408,9.13095],[-71.03698,9.13082],[-71.04055,9.13453],[-71.05145,9.12003],[-71.06712,9.11081],[-71.07933,9.12542],[-71.07914,9.13378],[-71.08254,9.14221],[-71.09337,9.15106],[-71.10838,9.15296],[-71.11074,9.15118],[-71.11531,9.15357],[-71.12405,9.14947],[-71.13359,9.15063],[-71.13395,9.14733],[-71.137,9.15045],[-71.13883,9.14896],[-71.13999,9.15411],[-71.149,9.15867],[-71.16348,9.17849],[-71.19242,9.19956],[-71.20365,9.21611],[-71.20824,9.21597],[-71.25877,9.31604],[-71.29323,9.2991],[-71.22803,9.16997],[-71.2176,9.15418],[-71.20418,9.14047],[-71.20094,9.13118],[-71.18875,9.11876],[-71.17149,9.11605],[-71.16886,9.11876],[-71.16661,9.11546],[-71.16356,9.11712],[-71.1627,9.11396],[-71.15651,9.11114],[-71.16322,9.10433],[-71.16614,9.09438],[-71.17144,9.09374],[-71.17192,9.09692],[-71.17629,9.09571],[-71.17964,9.08845],[-71.18453,9.086],[-71.18384,9.08241],[-71.18102,9.08222],[-71.17993,9.07456],[-71.17701,9.07697],[-71.1713,9.0731],[-71.19693,9.06877],[-71.20171,9.07769],[-71.21952,9.07491],[-71.21978,9.06415],[-71.22309,9.05749],[-71.22169,9.0448],[-71.22448,9.03526],[-71.21918,9.031],[-71.22197,9.02714],[-71.21991,9.02235],[-71.22358,9.02176],[-71.22674,9.01598],[-71.22772,9.00677],[-71.23186,9.00417],[-71.23174,9.00103],[-71.23516,9.00045],[-71.2378,8.98937],[-71.23642,8.98443],[-71.24183,8.97476],[-71.24049,8.97002],[-71.24253,8.96104],[-71.24025,8.95464],[-71.23226,8.94662],[-71.23363,8.94225],[-71.23085,8.93158],[-71.22109,8.92609],[-71.21007,8.92743],[-71.20119,8.9258],[-71.1963,8.92822],[-71.15919,8.92024],[-71.15658,8.91007],[-71.15076,8.90552],[-71.1504,8.89712],[-71.14699,8.89145],[-71.14778,8.88673],[-71.13703,8.88872],[-71.11792,8.87959],[-71.10762,8.88201],[-71.08088,8.90472],[-71.07612,8.89967],[-71.06437,8.90119],[-71.06028,8.89356],[-71.03542,8.89338],[-71.03684,8.8982],[-71.03103,8.9119],[-71.03688,8.93272],[-71.0357,8.94349],[-71.03037,8.95109],[-71.02597,8.96504],[-71.02002,8.97002],[-71.0161,8.98041],[-71.02324,8.9877],[-71.02426,8.99441],[-71.02132,8.99729],[-71.02939,9.01062],[-71.03589,9.01579],[-71.04758,9.01803],[-71.05389,9.02327],[-71.06469,9.02316],[-71.06852,9.03216],[-71.0834,9.0387],[-71.08799,9.0456],[-71.09152,9.04635],[-71.09718,9.0527],[-71.0806,9.05896],[-71.0525,9.0583],[-71.03931,9.04452],[-71.0383,9.05582],[-71.04193,9.06249],[-71.04508,9.08109],[-71.03398,9.08711],[-71.01853,9.10455],[-71.01418,9.10374],[-71.00325,9.11036]]]}}]}