{"type":"FeatureCollection","features":[{"type":"Feature","id":"node/268928372","properties":{"name":"M\u00e9rida","place":"city","population":"250303"},"geometry":{"type":"Point","coordinates":[-71.16581,8.5817]}},{"type":"Feature","id":"node/604128554","properties":{"name":"Mucuch\u00edes","place":"town"},"geometry":{"type":"Point","coordinates":[-70.92006,8.74901]}},{"type":"Feature","id":"node/695530988","properties":{"name":"Las Mercedes","place":"village"},"geometry":{"type":"Point","coordinates":[-71.10566,8.64964]}},{"type":"Feature","id":"node/722277188","properties":{"name":"Lagunillas","place":"town"},"geometry":{"type":"Point","coordinates":[-71.38961,8.49786]}},{"type":"Feature","id":"node/844625993","properties":{"name":"El Vig\u00eda","place":"city","population":"145637"},"geometry":{"type":"Point","coordinates":[-71.65964,8.61158]}},{"type":"Feature","id":"node/845454536","properties":{"name":"Tabay","place":"city"},"geometry":{"type":"Point","coordinates":[-71.08662,8.6214]}},{"type":"Feature","id":"node/859597149","properties":{"name":"Chiguar\u00e1","place":"town"},"geometry":{"type":"Point","coordinates":[-71.53861,8.4906]}},{"type":"Feature","id":"node/859598672","properties":{"name":"Tovar","place":"city","population":"111147"},"geometry":{"type":"Point","coordinates":[-71.75835,8.32594]}},{"type":"Feature","id":"node/859600194","properties":{"name":"Santa Cruz de Mora","place":"town"},"geometry":{"type":"Point","coordinates":[-71.64141,8.39901]}},{"type":"Feature","id":"node/861228664","properties":{"name":"Santo Domingo","place":"town"},"geometry":{"type":"Point","coordinates":[-70.69464,8.86147]}},{"type":"Feature","id":"node/861232297","properties":{"name":"Las Piedras","place":"village"},"geometry":{"type":"Point","coordinates":[-70.63867,8.89055]}},{"type":"Feature","id":"node/873148739","properties":{"name":"Tucan\u00ed","place":"town"},"geometry":{"type":"Point","coordinates":[-71.27565,8.97123]}},{"type":"Feature","id":"node/877259961","properties":{"name":"Zea","place":"town"},"geometry":{"type":"Point","coordinates":[-71.78432,8.38041]}},{"type":"Feature","id":"node/906255924","properties":{"name":"Chachopo","place":"town"},"geometry":{"type":"Point","coordinates":[-70.77019,8.93561]}},{"type":"Feature","id":"node/906260868","properties":{"name":"Timotes","place":"city"},"geometry":{"type":"Point","coordinates":[-70.74027,8.98111]}},{"type":"Feature","id":"node/922123562","properties":{"name":"Estanques","place":"village"},"geometry":{"type":"Point","coordinates":[-71.53031,8.46214]}},{"type":"Feature","id":"node/930206401","properties":{"name":"Santa Elena de Arenales","place":"town"},"geometry":{"type":"Point","coordinates":[-71.46779,8.82446]}},{"type":"Feature","id":"node/930206991","properties":{"name":"La Azulita","place":"town"},"geometry":{"type":"Point","coordinates":[-71.44679,8.71357]}},{"type":"Feature","id":"node/930218322","properties":{"name":"Nueva Bolivia","place":"town"},"geometry":{"type":"Point","coordinates":[-71.09174,9.14113]}},{"type":"Feature","id":"node/930227935","properties":{"name":"Torondoy","place":"town"},"geometry":{"type":"Point","coordinates":[-71.01469,9.03481]}},{"type":"Feature","id":"node/1091475811","properties":{"name":"El Morro","place":"village"},"geometry":{"type":"Point","coordinates":[-71.19086,8.44152]}},{"type":"Feature","id":"node/1091541968","properties":{"name":"San Rafael del Chama","place":"village"},"geometry":{"type":"Point","coordinates":[-71.19912,8.53396]}},{"type":"Feature","id":"node/1098348074","properties":{"name":"Jaj\u00ed","place":"village"},"geometry":{"type":"Point","coordinates":[-71.34126,8.57228]}},{"type":"Feature","id":"node/1176433604","properties":{"name":"Antolin","place":"village"},"geometry":{"type":"Point","coordinates":[-71.65099,8.3945]}},{"type":"Feature","id":"node/1176433809","properties":{"name":"Llano Grande","place":"village"},"geometry":{"type":"Point","coordinates":[-71.81482,8.31631]}},{"type":"Feature","id":"node/1176434232","properties":{"name":"La Victoria","place":"village"},"geometry":{"type":"Point","coordinates":[-71.604,8.42452]}},{"type":"Feature","id":"node/1176436211","properties":{"name":"La Mesa de Los Indios","place":"town"},"geometry":{"type":"Point","coordinates":[-71.2883,8.54529]}},{"type":"Feature","id":"node/1176436921","properties":{"name":"El An\u00eds","place":"town"},"geometry":{"type":"Point","coordinates":[-71.50584,8.46553]}},{"type":"Feature","id":"node/1176436959","properties":{"name":"Bailadores","place":"town"},"geometry":{"type":"Point","coordinates":[-71.82796,8.25468]}},{"type":"Feature","id":"node/1176509776","properties":{"name":"Santa Rosa","place":"village"},"geometry":{"type":"Point","coordinates":[-71.049,9.09312]}},{"type":"Feature","id":"node/1176512063","properties":{"name":"Quebrada Amarilla","place":"village"},"geometry":{"type":"Point","coordinates":[-71.06173,9.09818]}},{"type":"Feature","id":"node/1202419361","properties":{"name":"El Hato","place":"village"},"geometry":{"type":"Point","coordinates":[-71.50234,8.43883]}},{"type":"Feature","id":"node/1202525821","properties":{"name":"San Jos\u00e9 de Acequias","place":"village"},"geometry":{"type":"Point","coordinates":[-71.31338,8.36295]}},{"type":"Feature","id":"node/1204078602","properties":{"name":"Pueblo Nuevo","place":"village"},"geometry":{"type":"Point","coordinates":[-71.42039,8.43552]}},{"type":"Feature","id":"node/1205523353","properties":{"name":"Guaraque","place":"village"},"geometry":{"type":"Point","coordinates":[-71.7364,8.15507]}},{"type":"Feature","id":"node/1205523466","properties":{"name":"El Rinc\u00f3n","place":"village"},"geometry":{"type":"Point","coordinates":[-71.47483,8.14052]}},{"type":"Feature","id":"node/1205523474","properties":{"name":"Mucuchach\u00ed","place":"village"},"geometry":{"type":"Point","coordinates":[-71.33939,8.14589]}},{"type":"Feature","id":"node/1205523565","properties":{"name":"San Francisco","place":"village"},"geometry":{"type":"Point","coordinates":[-71.73831,8.29284]}},{"type":"Feature","id":"node/1205523574","properties":{"name":"Mucutuy","place":"village"},"geometry":{"type":"Point","coordinates":[-71.28658,8.24602]}},{"type":"Feature","id":"node/1205524097","properties":{"name":"Canagu\u00e1","place":"village"},"geometry":{"type":"Point","coordinates":[-71.46081,8.12477]}},{"type":"Feature","id":"node/1205524098","properties":{"name":"Valle de La Cruz","place":"village"},"geometry":{"type":"Point","coordinates":[-71.46732,8.11687]}},{"type":"Feature","id":"node/1205524112","properties":{"name":"Mesa de Quintero","place":"village"},"geometry":{"type":"Point","coordinates":[-71.61861,8.09639]}},{"type":"Feature","id":"node/1206790008","properties":{"name":"Onia","place":"village"},"geometry":{"type":"Point","coordinates":[-71.69614,8.59201]}},{"type":"Feature","id":"node/1214350010","properties":{"name":"Mutus","place":"town"},"geometry":{"type":"Point","coordinates":[-70.67089,8.92174]}},{"type":"Feature","id":"node/1254881244","properties":{"name":"Alto Viento","place":"village"},"geometry":{"type":"Point","coordinates":[-71.09764,8.68604]}},{"type":"Feature","id":"node/1254881365","properties":{"name":"San Javier del Valle","place":"town"},"geometry":{"type":"Point","coordinates":[-71.10852,8.663]}},{"type":"Feature","id":"node/1323094040","properties":{"name":"La Vuelta","place":"village"},"geometry":{"type":"Point","coordinates":[-71.37333,8.49167]}},{"type":"Feature","id":"node/1638927803","properties":{"name":"Cacute","place":"village"},"geometry":{"type":"Point","coordinates":[-71.0114,8.6792]}},{"type":"Feature","id":"node/2249328727","properties":{"name":"Moc\u00e1z","place":"village"},"geometry":{"type":"Point","coordinates":[-71.16165,8.46141]}},{"type":"Feature","id":"node/2249328735","properties":{"name":"Quiror\u00e1","place":"village"},"geometry":{"type":"Point","coordinates":[-71.46212,8.34035]}},{"type":"Feature","id":"node/3623878359","properties":{"name":"Ejido","place":"city","population":"114825"},"geometry":{"type":"Point","coordinates":[-71.24092,8.55248]}},{"type":"Feature","id":"node/3817312035","properties":{"name":"Apartaderos","place":"town"},"geometry":{"type":"Point","coordinates":[-70.85562,8.80045]}},{"type":"Feature","id":"node/3877234470","properties":{"name":"La Mitis\u00fas","place":"village"},"geometry":{"type":"Point","coordinates":[-70.64855,8.88256]}},{"type":"Feature","id":"node/3883291821","properties":{"name":"Pueblo Llano","place":"town"},"geometry":{"type":"Point","coordinates":[-70.65935,8.9151]}},{"type":"Feature","id":"node/4253796212","properties":{"name":"Palmarito","place":"town"},"geometry":{"type":"Point","coordinates":[-71.21638,9.17491]}},{"type":"Feature","id":"node/5295840870","properties":{"name":"Arapuey","place":"town"},"geometry":{"type":"Point","coordinates":[-70.95372,9.25518]}},{"type":"Feature","id":"node/4585666215","properties":{"name":"San Rafael de Mucuch\u00edes","place":"town"},"geometry":{"type":"Point","coordinates":[-70.87468,8.76955]}},{"type":"Feature","id":"node/4585702978","properties":{"name":"Mucurub\u00e1","place":"village"},"geometry":{"type":"Point","coordinates":[-70.99326,8.70811]}},{"type":"Feature","id":"node/4585702979","properties":{"name":"La Venta","place":"village"},"geometry":{"type":"Point","coordinates":[-70.77822,8.9252]}},{"type":"Feature","id":"node/4586109947","properties":{"name":"Escag\u00fcey","place":"village"},"geometry":{"type":"Point","coordinates":[-70.99884,8.69071]}},{"type":"Feature","id":"node/4690264186","properties":{"name":"La Mucuchache","place":"village"},"geometry":{"type":"Point","coordinates":[-70.86437,8.77649]}},{"type":"Feature","id":"node/4811266846","properties":{"name":"Santa Mar\u00eda de Caparo","place":"town"},"geometry":{"type":"Point","coordinates":[-71.46523,7.71494]}},{"type":"Feature","id":"node/5230497788","properties":{"name":"Ca\u00f1o Amarillo","place":"village"},"geometry":{"type":"Point","coordinates":[-71.57814,8.7268]}},{"type":"Feature","id":"node/5230497789","properties":{"name":"Guayabones","place":"town"},"geometry":{"type":"Point","coordinates":[-71.57408,8.75474]}},{"type":"Feature","id":"node/5230527450","properties":{"name":"Playones","place":"village"},"geometry":{"type":"Point","coordinates":[-71.54131,8.77862]}},{"type":"Feature","id":"node/5230611266","properties":{"name":"Camell\u00f3n de Los Jim\u00e9nez","place":"village"},"geometry":{"type":"Point","coordinates":[-71.50088,8.80446]}},{"type":"Feature","id":"node/5235818789","properties":{"name":"Quebrada del Barro","place":"village"},"geometry":{"type":"Point","coordinates":[-71.62021,8.41234]}},{"type":"Feature","id":"node/5295583062","properties":{"name":"R\u00edo Negro","place":"village"},"geometry":{"type":"Point","coordinates":[-71.66843,8.21378]}},{"type":"Feature","id":"node/5295618334","properties":{"name":"Mesa Bol\u00edvar","place":"village"},"geometry":{"type":"Point","coordinates":[-71.59779,8.47588]}},{"type":"Feature","id":"node/5295618335","properties":{"name":"La Palmita","place":"town"},"geometry":{"type":"Point","coordinates":[-71.59801,8.54225]}},{"type":"Feature","id":"node/5295695915","properties":{"name":"La Cuchilla","place":"village"},"geometry":{"type":"Point","coordinates":[-70.60482,8.93412]}},{"type":"Feature","id":"node/5295717383","properties":{"name":"El Canutal","place":"town"},"geometry":{"type":"Point","coordinates":[-70.63939,8.96716]}},{"type":"Feature","id":"node/5295717390","properties":{"name":"Las Virtudes","place":"village"},"geometry":{"type":"Point","coordinates":[-70.96511,9.12885]}},{"type":"Feature","id":"node/5295717393","properties":{"name":"Las Trincheras","place":"village"},"geometry":{"type":"Point","coordinates":[-70.98012,9.14927]}},{"type":"Feature","id":"node/5295717394","properties":{"name":"Pueblo Nuevo","place":"village"},"geometry":{"type":"Point","coordinates":[-71.00269,9.15735]}},{"type":"Feature","id":"node/5295782992","properties":{"name":"Monte Aventino","place":"village"},"geometry":{"type":"Point","coordinates":[-71.10413,9.04564]}},{"type":"Feature","id":"node/5295782993","properties":{"name":"Santa Apolonia","place":"village"},"geometry":{"type":"Point","coordinates":[-71.06727,8.99054]}},{"type":"Feature","id":"node/5295783854","properties":{"name":"El Pinar","place":"town"},"geometry":{"type":"Point","coordinates":[-71.30911,8.92508]}},{"type":"Feature","id":"node/5295785645","properties":{"name":"Guachiz\u00f3n","place":"village"},"geometry":{"type":"Point","coordinates":[-71.351,8.88862]}},{"type":"Feature","id":"node/5295785649","properties":{"name":"San Rafael de Alc\u00e1zar","place":"town"},"geometry":{"type":"Point","coordinates":[-71.36958,8.88052]}},{"type":"Feature","id":"node/5295804411","properties":{"name":"Agua Caliente","place":"village"},"geometry":{"type":"Point","coordinates":[-71.23644,9.01167]}},{"type":"Feature","id":"node/5295810927","properties":{"name":"Campo Alegre","place":"village"},"geometry":{"type":"Point","coordinates":[-71.11821,9.10703]}},{"type":"Feature","id":"node/5295840871","properties":{"name":"San Miguel","place":"village"},"geometry":{"type":"Point","coordinates":[-70.95457,9.27437]}},{"type":"Feature","id":"node/5295885256","properties":{"name":"La Blanca","place":"town"},"geometry":{"type":"Point","coordinates":[-71.62098,8.63148]}},{"type":"Feature","id":"node/5295885257","properties":{"name":"El Cangrejo","place":"village"},"geometry":{"type":"Point","coordinates":[-71.63877,8.66301]}},{"type":"Feature","id":"node/5303166487","properties":{"name":"Los Pozones","place":"town"},"geometry":{"type":"Point","coordinates":[-71.67524,8.65538]}},{"type":"Feature","id":"node/9028978854","properties":{"name":"El Veg\u00f3n","place":"village"},"geometry":{"type":"Point","coordinates":[-71.44627,7.70105]}},{"type":"Feature","id":"node/9042050995","properties":{"name":"Llano Grande","place":"village"},"geometry":{"type":"Point","coordinates":[-70.63982,8.93637]}},{"type":"Feature","id":"node/9043642456","properties":{"name":"El Potrero","place":"town"},"geometry":{"type":"Point","coordinates":[-71.78606,8.30021]}},{"type":"Feature","id":"node/9043804972","properties":{"name":"Mesa Julia","place":"village"},"geometry":{"type":"Point","coordinates":[-71.25526,8.95893]}},{"type":"Feature","id":"node/9043804976","properties":{"name":"El Charal","place":"village"},"geometry":{"type":"Point","coordinates":[-71.22625,8.90801]}},{"type":"Feature","id":"node/9043804977","properties":{"name":"La Gran Parada","place":"village"},"geometry":{"type":"Point","coordinates":[-71.22623,8.91897]}},{"type":"Feature","id":"node/9043805007","properties":{"name":"San Jos\u00e9 de Palmira","place":"village"},"geometry":{"type":"Point","coordinates":[-70.86733,9.12011]}},{"type":"Feature","id":"node/9043866004","properties":{"name":"Mucujepe","place":"town"},"geometry":{"type":"Point","coordinates":[-71.58706,8.66728]}},{"type":"Feature","id":"node/9046431945","properties":{"name":"El Arbolito","place":"village"},"geometry":{"type":"Point","coordinates":[-70.66295,8.93627]}},{"type":"Feature","id":"node/9046431947","properties":{"name":"Agua de Las Flores","place":"village"},"geometry":{"type":"Point","coordinates":[-70.61971,8.98654]}},{"type":"Feature","id":"node/9046431948","properties":{"name":"La Culata","place":"village"},"geometry":{"type":"Point","coordinates":[-70.65046,8.94388]}},{"type":"Feature","id":"node/9046431956","properties":{"name":"El Caney","place":"village"},"geometry":{"type":"Point","coordinates":[-70.60544,8.94905]}},{"type":"Feature","id":"node/9046431958","properties":{"name":"Alto de Caney","place":"village"},"geometry":{"type":"Point","coordinates":[-70.61383,8.95904]}},{"type":"Feature","id":"node/9046431960","properties":{"name":"El Morro","place":"village"},"geometry":{"type":"Point","coordinates":[-70.62797,8.93832]}},{"type":"Feature","id":"node/9046431963","properties":{"name":"Aracay","place":"village"},"geometry":{"type":"Point","coordinates":[-70.61164,8.9262]}},{"type":"Feature","id":"node/9046431964","properties":{"name":"Mesa de Chino","place":"village"},"geometry":{"type":"Point","coordinates":[-70.64964,8.92423]}},{"type":"Feature","id":"node/9046464673","properties":{"name":"La Quinta","place":"village"},"geometry":{"type":"Point","coordinates":[-70.64209,8.89887]}},{"type":"Feature","id":"node/9046464683","properties":{"name":"Esfafiche","place":"village"},"geometry":{"type":"Point","coordinates":[-70.64892,8.89471]}},{"type":"Feature","id":"node/9046464688","properties":{"name":"Mocao","place":"village"},"geometry":{"type":"Point","coordinates":[-70.92304,8.73972]}},{"type":"Feature","id":"node/9046464689","properties":{"name":"El Royal","place":"village"},"geometry":{"type":"Point","coordinates":[-70.88323,8.76244]}},{"type":"Feature","id":"node/9046464690","properties":{"name":"La Toma","place":"town"},"geometry":{"type":"Point","coordinates":[-70.89851,8.76521]}},{"type":"Feature","id":"node/9046464691","properties":{"name":"Mucumpate","place":"town"},"geometry":{"type":"Point","coordinates":[-70.9028,8.75455]}},{"type":"Feature","id":"node/9046464696","properties":{"name":"El Pedregal","place":"village"},"geometry":{"type":"Point","coordinates":[-70.86041,8.78031]}},{"type":"Feature","id":"node/9046484944","properties":{"name":"El Rinc\u00f3n","place":"village"},"geometry":{"type":"Point","coordinates":[-70.7844,8.90983]}},{"type":"Feature","id":"node/9046518542","properties":{"name":"Mijar\u00e1 del Este","place":"village"},"geometry":{"type":"Point","coordinates":[-70.69955,8.9911]}},{"type":"Feature","id":"node/9046518543","properties":{"name":"Mijar\u00e1 del Oeste","place":"village"},"geometry":{"type":"Point","coordinates":[-70.71187,8.99583]}},{"type":"Feature","id":"node/9046518546","properties":{"name":"Mucuyup\u00fa","place":"village"},"geometry":{"type":"Point","coordinates":[-70.76093,9.01129]}},{"type":"Feature","id":"node/9051264768","properties":{"name":"La Raya","place":"village"},"geometry":{"type":"Point","coordinates":[-70.72744,9.0322]}},{"type":"Feature","id":"node/9051264770","properties":{"name":"La Joya","place":"town"},"geometry":{"type":"Point","coordinates":[-70.73243,9.02148]}},{"type":"Feature","id":"node/9051264772","properties":{"name":"La Ca\u00f1ada","place":"town"},"geometry":{"type":"Point","coordinates":[-70.73584,9.01041]}},{"type":"Feature","id":"node/9051857771","properties":{"name":"Las Quebraditas","place":"village"},"geometry":{"type":"Point","coordinates":[-70.92123,9.26262]}},{"type":"Feature","id":"node/9051857772","properties":{"name":"La Mensura","place":"village"},"geometry":{"type":"Point","coordinates":[-70.96492,9.23714]}},{"type":"Feature","id":"node/9051857776","properties":{"name":"El Alguacil","place":"village"},"geometry":{"type":"Point","coordinates":[-70.97966,9.20749]}},{"type":"Feature","id":"node/9051857780","properties":{"name":"La Arenosa","place":"village"},"geometry":{"type":"Point","coordinates":[-70.91022,9.21906]}},{"type":"Feature","id":"node/9051857790","properties":{"name":"Cartagena Abajo","place":"village"},"geometry":{"type":"Point","coordinates":[-70.91168,9.169]}},{"type":"Feature","id":"node/9051857793","properties":{"name":"23 de Enero","place":"village"},"geometry":{"type":"Point","coordinates":[-70.95775,9.1647]}},{"type":"Feature","id":"node/9051867161","properties":{"name":"Mucum\u00eds Arriba","place":"village"},"geometry":{"type":"Point","coordinates":[-70.72135,9.01785]}},{"type":"Feature","id":"node/9051886190","properties":{"name":"Las Duaras","place":"village"},"geometry":{"type":"Point","coordinates":[-70.97243,9.1387]}},{"type":"Feature","id":"node/9051914452","properties":{"name":"Mesa Esperanza","place":"village"},"geometry":{"type":"Point","coordinates":[-70.94389,9.23473]}},{"type":"Feature","id":"node/9051914473","properties":{"name":"San Pablo","place":"village"},"geometry":{"type":"Point","coordinates":[-70.86093,9.1123]}},{"type":"Feature","id":"node/9053936298","properties":{"name":"Quebrada de Piedra","place":"town"},"geometry":{"type":"Point","coordinates":[-71.08068,9.12108]}},{"type":"Feature","id":"node/9053936299","properties":{"name":"Tabacal","place":"village"},"geometry":{"type":"Point","coordinates":[-71.03578,9.08576]}},{"type":"Feature","id":"node/9053936309","properties":{"name":"Mucutub\u00e1n","place":"village"},"geometry":{"type":"Point","coordinates":[-71.03249,9.07307]}},{"type":"Feature","id":"node/9053989043","properties":{"name":"Playa Grande","place":"village"},"geometry":{"type":"Point","coordinates":[-71.20276,9.02255]}},{"type":"Feature","id":"node/9053989044","properties":{"name":"La Victoria","place":"village"},"geometry":{"type":"Point","coordinates":[-71.19733,9.03315]}},{"type":"Feature","id":"node/9053989045","properties":{"name":"Culebra","place":"village"},"geometry":{"type":"Point","coordinates":[-71.16643,9.04857]}},{"type":"Feature","id":"node/9053989047","properties":{"name":"El Quebrad\u00f3n","place":"village"},"geometry":{"type":"Point","coordinates":[-71.15257,9.06417]}},{"type":"Feature","id":"node/9053989048","properties":{"name":"Ca\u00f1o Jes\u00fas","place":"town"},"geometry":{"type":"Point","coordinates":[-71.12965,9.08354]}},{"type":"Feature","id":"node/9053989049","properties":{"name":"Guaramaco","place":"village"},"geometry":{"type":"Point","coordinates":[-71.10813,9.07046]}},{"type":"Feature","id":"node/9053989050","properties":{"name":"San Pedro","place":"village"},"geometry":{"type":"Point","coordinates":[-71.12231,9.09337]}},{"type":"Feature","id":"node/9053989051","properties":{"name":"El Pion\u00edo","place":"village"},"geometry":{"type":"Point","coordinates":[-71.11566,9.09854]}},{"type":"Feature","id":"node/9053989052","properties":{"name":"Muyap\u00e1","place":"town"},"geometry":{"type":"Point","coordinates":[-71.12281,9.11659]}},{"type":"Feature","id":"node/9053989054","properties":{"name":"San Rafael","place":"town"},"geometry":{"type":"Point","coordinates":[-71.09987,9.12311]}},{"type":"Feature","id":"node/9053997203","properties":{"name":"Jabonera del Sur","place":"village"},"geometry":{"type":"Point","coordinates":[-71.17579,9.01484]}},{"type":"Feature","id":"node/9053997207","properties":{"name":"Jabonera del Oeste","place":"village"},"geometry":{"type":"Point","coordinates":[-71.18486,9.02946]}},{"type":"Feature","id":"node/9053997208","properties":{"name":"Jabonera del Este","place":"village"},"geometry":{"type":"Point","coordinates":[-71.15551,9.03391]}},{"type":"Feature","id":"node/9053997211","properties":{"name":"Santa Elena","place":"village"},"geometry":{"type":"Point","coordinates":[-71.12193,9.06082]}},{"type":"Feature","id":"node/9054098578","properties":{"name":"Agua Blanca","place":"town"},"geometry":{"type":"Point","coordinates":[-71.13308,9.10686]}},{"type":"Feature","id":"node/9054534215","properties":{"name":"Tucanicito","place":"village"},"geometry":{"type":"Point","coordinates":[-71.24076,9.03724]}},{"type":"Feature","id":"node/9066661946","properties":{"name":"La Esmeralda","place":"village"},"geometry":{"type":"Point","coordinates":[-71.32749,8.93061]}},{"type":"Feature","id":"node/9066661952","properties":{"name":"R\u00edo Perdido Abajo","place":"village"},"geometry":{"type":"Point","coordinates":[-71.41701,8.83771]}},{"type":"Feature","id":"node/9066661953","properties":{"name":"Ca\u00f1o Moro","place":"village"},"geometry":{"type":"Point","coordinates":[-71.39049,8.84526]}},{"type":"Feature","id":"node/9066661954","properties":{"name":"Ca\u00f1o Azul","place":"village"},"geometry":{"type":"Point","coordinates":[-71.37307,8.86319]}},{"type":"Feature","id":"node/9066661955","properties":{"name":"Ca\u00f1o La Yuca","place":"village"},"geometry":{"type":"Point","coordinates":[-71.32893,8.88997]}},{"type":"Feature","id":"node/9066661958","properties":{"name":"R\u00edo Fr\u00edo Arriba","place":"village"},"geometry":{"type":"Point","coordinates":[-71.3097,8.89082]}},{"type":"Feature","id":"node/9066661959","properties":{"name":"R\u00edo Fr\u00edo","place":"village"},"geometry":{"type":"Point","coordinates":[-71.32161,8.91229]}},{"type":"Feature","id":"node/9066661960","properties":{"name":"Chimon\u00f3","place":"village"},"geometry":{"type":"Point","coordinates":[-71.31758,8.94235]}},{"type":"Feature","id":"node/9066661961","properties":{"name":"Las Delicias","place":"village"},"geometry":{"type":"Point","coordinates":[-71.2961,8.93953]}},{"type":"Feature","id":"node/9066661962","properties":{"name":"Chimonocito","place":"village"},"geometry":{"type":"Point","coordinates":[-71.29144,8.95884]}},{"type":"Feature","id":"node/9066661966","properties":{"name":"Chiquinquir\u00e1","place":"village"},"geometry":{"type":"Point","coordinates":[-71.29814,8.97563]}},{"type":"Feature","id":"node/9066671512","properties":{"name":"Toledo","place":"village"},"geometry":{"type":"Point","coordinates":[-71.35966,8.8977]}},{"type":"Feature","id":"node/9066671513","properties":{"name":"Mata de Coco","place":"village"},"geometry":{"type":"Point","coordinates":[-71.3662,8.91734]}},{"type":"Feature","id":"node/9066692307","properties":{"name":"Ca\u00f1o Amarillo","place":"village"},"geometry":{"type":"Point","coordinates":[-71.39227,8.92526]}},{"type":"Feature","id":"node/9066725126","properties":{"name":"Loma del Medio","place":"village"},"geometry":{"type":"Point","coordinates":[-71.04996,8.98491]}},{"type":"Feature","id":"node/9066770235","properties":{"name":"Capaz\u00f3n Arriba","place":"village"},"geometry":{"type":"Point","coordinates":[-71.44319,8.81091]}},{"type":"Feature","id":"node/9066770237","properties":{"name":"R\u00edo Perdido Arriba","place":"village"},"geometry":{"type":"Point","coordinates":[-71.40208,8.8235]}},{"type":"Feature","id":"node/9066770583","properties":{"name":"El Tigre","place":"village"},"geometry":{"type":"Point","coordinates":[-71.29024,8.91089]}},{"type":"Feature","id":"node/9066770597","properties":{"name":"R\u00edo Bonito","place":"village"},"geometry":{"type":"Point","coordinates":[-71.24157,8.94479]}},{"type":"Feature","id":"node/9066770605","properties":{"name":"La Meseta","place":"village"},"geometry":{"type":"Point","coordinates":[-71.22874,8.95918]}},{"type":"Feature","id":"node/9066840644","properties":{"name":"San Rafael del Macho","place":"village"},"geometry":{"type":"Point","coordinates":[-71.34672,8.6739]}},{"type":"Feature","id":"node/9066840668","properties":{"name":"Mirabel","place":"village"},"geometry":{"type":"Point","coordinates":[-71.42978,8.69484]}},{"type":"Feature","id":"node/9066840669","properties":{"name":"El Salado","place":"village"},"geometry":{"type":"Point","coordinates":[-71.44409,8.69621]}},{"type":"Feature","id":"node/9066840670","properties":{"name":"Ca\u00f1o Seco","place":"village"},"geometry":{"type":"Point","coordinates":[-71.44965,8.67248]}},{"type":"Feature","id":"node/9066840671","properties":{"name":"San Luis","place":"village"},"geometry":{"type":"Point","coordinates":[-71.4622,8.67789]}},{"type":"Feature","id":"node/9066840672","properties":{"name":"Las Adjuntas","place":"village"},"geometry":{"type":"Point","coordinates":[-71.48576,8.66648]}},{"type":"Feature","id":"node/9066840673","properties":{"name":"Paramito","place":"village"},"geometry":{"type":"Point","coordinates":[-71.48021,8.67925]}},{"type":"Feature","id":"node/9066840674","properties":{"name":"Quebrada Azul","place":"village"},"geometry":{"type":"Point","coordinates":[-71.49201,8.67401]}},{"type":"Feature","id":"node/9066840675","properties":{"name":"Santa Ana","place":"village"},"geometry":{"type":"Point","coordinates":[-71.49426,8.6896]}},{"type":"Feature","id":"node/9066840677","properties":{"name":"Mesa Alta Arriba","place":"village"},"geometry":{"type":"Point","coordinates":[-71.48508,8.70491]}},{"type":"Feature","id":"node/9066840678","properties":{"name":"Saiyal Bajo","place":"village"},"geometry":{"type":"Point","coordinates":[-71.46516,8.69677]}},{"type":"Feature","id":"node/9066840679","properties":{"name":"La Piedra Sur","place":"village"},"geometry":{"type":"Point","coordinates":[-71.46585,8.7243]}},{"type":"Feature","id":"node/9066840680","properties":{"name":"Saiyal Alto","place":"village"},"geometry":{"type":"Point","coordinates":[-71.47933,8.69464]}},{"type":"Feature","id":"node/9066840681","properties":{"name":"La Uva","place":"village"},"geometry":{"type":"Point","coordinates":[-71.4769,8.71337]}},{"type":"Feature","id":"node/9066840682","properties":{"name":"Mesa Alta","place":"village"},"geometry":{"type":"Point","coordinates":[-71.47003,8.7062]}},{"type":"Feature","id":"node/9066840683","properties":{"name":"San Rafael","place":"village"},"geometry":{"type":"Point","coordinates":[-71.46276,8.71471]}},{"type":"Feature","id":"node/9066840688","properties":{"name":"Tres Puentes","place":"village"},"geometry":{"type":"Point","coordinates":[-71.46497,8.7412]}},{"type":"Feature","id":"node/9066840694","properties":{"name":"La Pueblita","place":"village"},"geometry":{"type":"Point","coordinates":[-71.46392,8.78627]}},{"type":"Feature","id":"node/9066840695","properties":{"name":"Palmaral","place":"village"},"geometry":{"type":"Point","coordinates":[-71.4534,8.76922]}},{"type":"Feature","id":"node/9066840696","properties":{"name":"El Destierro","place":"village"},"geometry":{"type":"Point","coordinates":[-71.44341,8.77986]}},{"type":"Feature","id":"node/9067384470","properties":{"name":"Tampacal","place":"village"},"geometry":{"type":"Point","coordinates":[-71.03309,8.66382]}},{"type":"Feature","id":"node/9067403343","properties":{"name":"La Ca\u00f1a","place":"town"},"geometry":{"type":"Point","coordinates":[-71.08541,8.71102]}},{"type":"Feature","id":"node/9068774203","properties":{"name":"La Vega","place":"village"},"geometry":{"type":"Point","coordinates":[-71.30957,8.50913]}},{"type":"Feature","id":"node/9068787346","properties":{"name":"Mesa Arriba","place":"village"},"geometry":{"type":"Point","coordinates":[-71.28423,8.56292]}},{"type":"Feature","id":"node/9068787350","properties":{"name":"Loma del Rosario Sur","place":"village"},"geometry":{"type":"Point","coordinates":[-71.32756,8.55904]}},{"type":"Feature","id":"node/9068787357","properties":{"name":"La Carbonera","place":"village"},"geometry":{"type":"Point","coordinates":[-71.37985,8.63936]}},{"type":"Feature","id":"node/9068787362","properties":{"name":"Palo Negro del Norte","place":"village"},"geometry":{"type":"Point","coordinates":[-71.36191,8.6058]}},{"type":"Feature","id":"node/9068787371","properties":{"name":"La Playa","place":"village"},"geometry":{"type":"Point","coordinates":[-71.36513,8.56948]}},{"type":"Feature","id":"node/9068787377","properties":{"name":"San Juan","place":"city"},"geometry":{"type":"Point","coordinates":[-71.35448,8.50013]}},{"type":"Feature","id":"node/9068787403","properties":{"name":"Los Araques","place":"village"},"geometry":{"type":"Point","coordinates":[-71.47456,8.46223]}},{"type":"Feature","id":"node/9068787405","properties":{"name":"Puente Viejo","place":"village"},"geometry":{"type":"Point","coordinates":[-71.43204,8.47036]}},{"type":"Feature","id":"node/9068787407","properties":{"name":"Cases","place":"village"},"geometry":{"type":"Point","coordinates":[-71.42499,8.50153]}},{"type":"Feature","id":"node/9068787409","properties":{"name":"Los Caracoles","place":"village"},"geometry":{"type":"Point","coordinates":[-71.37496,8.50306]}},{"type":"Feature","id":"node/9068787411","properties":{"name":"El Molino","place":"town"},"geometry":{"type":"Point","coordinates":[-71.40809,8.50747]}},{"type":"Feature","id":"node/9068787412","properties":{"name":"La Calera","place":"village"},"geometry":{"type":"Point","coordinates":[-71.38843,8.5163]}},{"type":"Feature","id":"node/9068787419","properties":{"name":"Las Uvas","place":"village"},"geometry":{"type":"Point","coordinates":[-71.50119,8.54308]}},{"type":"Feature","id":"node/9070240337","properties":{"name":"Pedregal","place":"village"},"geometry":{"type":"Point","coordinates":[-71.04026,8.65267]}},{"type":"Feature","id":"node/9070396464","properties":{"name":"Llano Grande Abajo","place":"village"},"geometry":{"type":"Point","coordinates":[-71.22621,8.5368]}},{"type":"Feature","id":"node/9072150629","properties":{"name":"Aricagua","place":"village"},"geometry":{"type":"Point","coordinates":[-71.13878,8.22441]}},{"type":"Feature","id":"node/9072211396","properties":{"name":"La Villa","place":"village"},"geometry":{"type":"Point","coordinates":[-71.47808,8.10231]}},{"type":"Feature","id":"node/9073738319","properties":{"name":"Las Adjuntas","place":"village"},"geometry":{"type":"Point","coordinates":[-71.64906,8.21635]}},{"type":"Feature","id":"node/9073738325","properties":{"name":"La Laguna","place":"village"},"geometry":{"type":"Point","coordinates":[-71.68026,8.19618]}},{"type":"Feature","id":"node/9073738327","properties":{"name":"El Mochuelo","place":"village"},"geometry":{"type":"Point","coordinates":[-71.68897,8.17589]}},{"type":"Feature","id":"node/9073738329","properties":{"name":"Las Lomas","place":"village"},"geometry":{"type":"Point","coordinates":[-71.69235,8.15548]}},{"type":"Feature","id":"node/9073962473","properties":{"name":"Carrizal","place":"village"},"geometry":{"type":"Point","coordinates":[-71.76128,8.29227]}},{"type":"Feature","id":"node/9074086748","properties":{"name":"La Rosa","place":"village"},"geometry":{"type":"Point","coordinates":[-71.84346,8.21973]}},{"type":"Feature","id":"node/9074086749","properties":{"name":"Rinconcito","place":"village"},"geometry":{"type":"Point","coordinates":[-71.83984,8.20624]}},{"type":"Feature","id":"node/9074086750","properties":{"name":"Mesa de Guerrero","place":"village"},"geometry":{"type":"Point","coordinates":[-71.85192,8.22941]}},{"type":"Feature","id":"node/9074086755","properties":{"name":"La Cebada","place":"village"},"geometry":{"type":"Point","coordinates":[-71.86018,8.21971]}},{"type":"Feature","id":"node/9074133251","properties":{"name":"Mesa de Adri\u00e1n","place":"town"},"geometry":{"type":"Point","coordinates":[-71.80473,8.28798]}},{"type":"Feature","id":"node/9074133254","properties":{"name":"Bodoque","place":"town"},"geometry":{"type":"Point","coordinates":[-71.81917,8.27091]}},{"type":"Feature","id":"node/9074133255","properties":{"name":"La Otra Banda","place":"village"},"geometry":{"type":"Point","coordinates":[-71.8417,8.23829]}},{"type":"Feature","id":"node/9074248395","properties":{"name":"San Rafael","place":"village"},"geometry":{"type":"Point","coordinates":[-71.65191,8.33308]}},{"type":"Feature","id":"node/9074828211","properties":{"name":"Loma Las Piedras","place":"village"},"geometry":{"type":"Point","coordinates":[-71.55007,8.74915]}},{"type":"Feature","id":"node/9074828212","properties":{"name":"Ca\u00f1o Obispo","place":"village"},"geometry":{"type":"Point","coordinates":[-71.51119,8.79483]}},{"type":"Feature","id":"node/9074828213","properties":{"name":"Ca\u00f1o Iguana","place":"village"},"geometry":{"type":"Point","coordinates":[-71.52246,8.78955]}},{"type":"Feature","id":"node/9074828214","properties":{"name":"Ca\u00f1o Avispero","place":"village"},"geometry":{"type":"Point","coordinates":[-71.53269,8.78417]}},{"type":"Feature","id":"node/9074828215","properties":{"name":"Ca\u00f1o Arenoso","place":"village"},"geometry":{"type":"Point","coordinates":[-71.55747,8.76497]}},{"type":"Feature","id":"node/9074828216","properties":{"name":"Quebrada Blanca","place":"village"},"geometry":{"type":"Point","coordinates":[-71.57623,8.71335]}},{"type":"Feature","id":"node/9074830317","properties":{"name":"Ca\u00f1o Arenas","place":"village"},"geometry":{"type":"Point","coordinates":[-71.58339,8.70699]}},{"type":"Feature","id":"node/9074830318","properties":{"name":"Ca\u00f1o Blanco","place":"village"},"geometry":{"type":"Point","coordinates":[-71.58109,8.69459]}},{"type":"Feature","id":"node/9074891732","properties":{"name":"Los Ca\u00f1itos","place":"village"},"geometry":{"type":"Point","coordinates":[-71.70787,8.68402]}},{"type":"Feature","id":"node/9075081488","properties":{"name":"Costa del Chama Sur","place":"village"},"geometry":{"type":"Point","coordinates":[-71.66996,8.67564]}}]}