{"type":"FeatureCollection","features":[{"type":"Feature","id":"relation/272632","properties":{"name":"Zulia","level":4},"geometry":{"type":"MultiPolygon","coordinates":[[[[-70.97431,9.30605],[-70.97806,9.30882],[-70.96955,9.31754],[-70.97876,9.32348],[-70.98508,9.33413],[-71.00749,9.33524],[-71.0201,9.34518],[-71.02395,9.35242],[-71.04358,9.36047],[-71.05039,9.35905],[-71.06378,9.34897],[-71.17287,9.35829],[-71.25877,9.31604],[-71.20824,9.21597],[-71.20365,9.21611],[-71.19242,9.19956],[-71.16348,9.17849],[-71.149,9.15867],[-71.13999,9.15411],[-71.13883,9.14896],[-71.137,9.15045],[-71.13395,9.14733],[-71.13359,9.15063],[-71.12405,9.14947],[-71.11531,9.15357],[-71.11074,9.15118],[-71.10838,9.15296],[-71.09337,9.15106],[-71.08254,9.14221],[-71.07914,9.13378],[-71.07933,9.12542],[-71.06712,9.11081],[-71.05145,9.12003],[-71.04055,9.13453],[-71.03698,9.13082],[-71.03408,9.13095],[-71.02088,9.13639],[-71.01236,9.14493],[-71.00955,9.16825],[-70.9973,9.1778],[-70.99613,9.1827],[-70.99221,9.18563],[-70.99259,9.18917],[-71.00033,9.19513],[-70.99406,9.19731],[-70.98833,9.20976],[-70.99479,9.21095],[-70.99113,9.21639],[-70.99279,9.22213],[-70.97836,9.23373],[-70.98185,9.2443],[-70.97844,9.24647],[-70.98479,9.25266],[-70.98305,9.25525],[-70.98472,9.25527],[-70.98663,9.26927],[-70.99169,9.27496],[-70.98308,9.29583],[-70.97932,9.29772],[-70.97431,9.30605]]],[[[-71.34328,11.84863],[-71.34766,11.84248],[-71.35716,11.83803],[-71.36006,11.83797],[-71.36205,11.84155],[-71.36525,11.84031],[-71.36855,11.83291],[-71.37966,11.83299],[-71.38187,11.82986],[-71.38673,11.83044],[-71.38583,11.82881],[-71.38991,11.82703],[-71.38775,11.81575],[-71.37841,11.81213],[-71.64418,11.7342],[-71.78269,11.68684],[-71.90067,11.65983],[-71.97136,11.64627],[-72.24942,11.14019],[-72.27213,11.13832],[-72.28663,11.1432],[-72.3154,11.14417],[-72.32221,11.14684],[-72.33144,11.14427],[-72.33476,11.14518],[-72.33413,11.14822],[-72.34931,11.15137],[-72.36621,11.13934],[-72.4079,11.12638],[-72.4233,11.1258],[-72.42503,11.12217],[-72.43107,11.12146],[-72.43789,11.11529],[-72.44359,11.12766],[-72.45616,11.11957],[-72.46009,11.11369],[-72.46502,11.11264],[-72.48467,11.09916],[-72.49048,11.08905],[-72.49764,11.08589],[-72.49778,11.08301],[-72.49042,11.07809],[-72.48558,11.06248],[-72.48163,11.05911],[-72.49853,11.04129],[-72.50505,11.03792],[-72.50874,11.02276],[-72.5176,11.01912],[-72.51926,11.01367],[-72.52604,11.01188],[-72.52521,11.00708],[-72.51845,11.00165],[-72.52281,10.99611],[-72.52659,10.99638],[-72.53012,10.99336],[-72.53604,10.98566],[-72.53836,10.97951],[-72.53715,10.97491],[-72.55015,10.95214],[-72.55377,10.9402],[-72.56097,10.93353],[-72.56336,10.92795],[-72.57193,10.92266],[-72.57776,10.91291],[-72.60421,10.8972],[-72.6124,10.8827],[-72.62041,10.88701],[-72.63905,10.88486],[-72.64897,10.87955],[-72.65008,10.86702],[-72.65874,10.85569],[-72.65807,10.85108],[-72.66338,10.83787],[-72.66215,10.83046],[-72.66884,10.82275],[-72.67555,10.82029],[-72.6754,10.80656],[-72.68261,10.79614],[-72.6782,10.78341],[-72.68277,10.77014],[-72.67995,10.76397],[-72.68936,10.75718],[-72.70393,10.7587],[-72.70822,10.75669],[-72.71657,10.74012],[-72.71147,10.73241],[-72.71651,10.7142],[-72.71117,10.70254],[-72.72672,10.69099],[-72.73,10.67529],[-72.73591,10.66649],[-72.73511,10.65146],[-72.74123,10.64793],[-72.7472,10.65233],[-72.74943,10.65111],[-72.74901,10.64046],[-72.75346,10.63419],[-72.76303,10.62437],[-72.78357,10.61551],[-72.79132,10.60157],[-72.79209,10.58737],[-72.82064,10.57021],[-72.82476,10.56406],[-72.82675,10.54745],[-72.83671,10.53856],[-72.84163,10.53901],[-72.83831,10.53159],[-72.83615,10.51285],[-72.84355,10.50732],[-72.84561,10.4858],[-72.85228,10.48106],[-72.85423,10.47419],[-72.86066,10.47186],[-72.86265,10.46355],[-72.87864,10.45531],[-72.89072,10.45308],[-72.8933,10.44666],[-72.89522,10.41105],[-72.89871,10.39968],[-72.89068,10.39666],[-72.88583,10.384],[-72.89479,10.36322],[-72.89936,10.36296],[-72.90664,10.35316],[-72.90757,10.3451],[-72.90476,10.33591],[-72.90562,10.32308],[-72.89744,10.3119],[-72.90161,10.29426],[-72.90574,10.28745],[-72.90391,10.2785],[-72.90728,10.26662],[-72.90155,10.24809],[-72.90328,10.24326],[-72.90202,10.23141],[-72.90412,10.22813],[-72.89728,10.21745],[-72.89962,10.20931],[-72.90935,10.20416],[-72.90722,10.18998],[-72.9082,10.17566],[-72.91749,10.16128],[-72.92158,10.13808],[-72.91163,10.11272],[-72.91325,10.11019],[-72.92202,10.10893],[-72.92169,10.10409],[-72.92585,10.09568],[-72.92392,10.09136],[-72.94118,10.07995],[-72.94543,10.06999],[-72.95409,10.066],[-72.95444,10.05815],[-72.95793,10.05377],[-72.95324,10.04037],[-72.95281,10.02637],[-72.96325,10.01782],[-72.96095,10.00714],[-72.9666,9.99637],[-72.97506,9.99287],[-72.98277,9.9764],[-72.98489,9.97063],[-72.98031,9.96441],[-72.98035,9.9597],[-72.98647,9.95392],[-72.98853,9.94279],[-72.99904,9.92387],[-72.99356,9.91564],[-72.98677,9.91418],[-72.98434,9.90829],[-72.98821,9.89746],[-72.97747,9.88877],[-72.99404,9.87808],[-72.99281,9.87503],[-72.97147,9.86858],[-72.97004,9.85362],[-72.96407,9.85389],[-72.95033,9.84922],[-72.94544,9.83763],[-72.94997,9.83588],[-72.95002,9.83086],[-72.95504,9.8286],[-72.95705,9.82141],[-72.96555,9.81712],[-72.97879,9.79899],[-72.98899,9.79088],[-73.00138,9.76499],[-72.99997,9.75867],[-73.00418,9.75263],[-73.00542,9.74097],[-73.01173,9.7352],[-73.01712,9.73373],[-73.01976,9.72666],[-73.02739,9.72019],[-73.02774,9.71382],[-73.03355,9.71171],[-73.03536,9.70088],[-73.04415,9.69398],[-73.04764,9.68583],[-73.052,9.68358],[-73.05482,9.67826],[-73.05512,9.67173],[-73.06096,9.65791],[-73.05842,9.65012],[-73.07418,9.62704],[-73.07853,9.61227],[-73.07327,9.60515],[-73.08662,9.56753],[-73.08519,9.55628],[-73.10316,9.55663],[-73.11082,9.55335],[-73.12697,9.55475],[-73.13172,9.5508],[-73.13667,9.55047],[-73.14965,9.53597],[-73.15632,9.52136],[-73.16377,9.51723],[-73.16583,9.51105],[-73.17678,9.5004],[-73.17249,9.49001],[-73.17202,9.48063],[-73.17494,9.4777],[-73.18598,9.47507],[-73.1965,9.47576],[-73.20326,9.46926],[-73.20156,9.46364],[-73.19365,9.45708],[-73.18926,9.44554],[-73.1988,9.43756],[-73.20729,9.42283],[-73.22001,9.4247],[-73.22346,9.41749],[-73.24089,9.4029],[-73.24166,9.39092],[-73.24669,9.37972],[-73.25734,9.37606],[-73.26113,9.37027],[-73.26307,9.35914],[-73.2591,9.34539],[-73.2656,9.3267],[-73.27342,9.32119],[-73.2788,9.32395],[-73.28408,9.32213],[-73.29036,9.30668],[-73.28934,9.30133],[-73.29334,9.2967],[-73.29256,9.29011],[-73.29672,9.28575],[-73.29624,9.27653],[-73.29897,9.26774],[-73.3042,9.26609],[-73.31568,9.24967],[-73.3222,9.23212],[-73.32625,9.2293],[-73.33375,9.21305],[-73.35296,9.21753],[-73.34705,9.21129],[-73.34652,9.20534],[-73.34989,9.1996],[-73.35148,9.18847],[-73.34816,9.18392],[-73.34726,9.1734],[-73.31661,9.16883],[-73.30068,9.17116],[-73.28042,9.16285],[-73.27602,9.1649],[-73.26704,9.16441],[-73.26329,9.16113],[-73.25712,9.16258],[-73.25529,9.16029],[-73.25272,9.16338],[-73.25282,9.15922],[-73.25015,9.15821],[-73.24352,9.16663],[-73.23933,9.16584],[-73.23497,9.1735],[-73.22486,9.17521],[-73.22243,9.1792],[-73.21472,9.18025],[-73.21378,9.18365],[-73.20966,9.17802],[-73.20703,9.1788],[-73.20731,9.18122],[-73.20484,9.17729],[-73.20293,9.18017],[-73.19294,9.17444],[-73.17658,9.17717],[-73.16251,9.19248],[-73.15767,9.19157],[-73.15857,9.19473],[-73.15045,9.1994],[-73.15295,9.2102],[-73.14824,9.20948],[-73.1474,9.21199],[-73.14451,9.2113],[-73.14425,9.2133],[-73.14184,9.21284],[-73.14028,9.21573],[-73.13734,9.21482],[-73.13636,9.21755],[-73.13211,9.21906],[-73.13341,9.22257],[-73.12993,9.22528],[-73.1313,9.22831],[-73.12298,9.22712],[-73.1173,9.23151],[-73.10867,9.22847],[-73.10652,9.23124],[-73.09901,9.22659],[-73.09036,9.22556],[-73.08249,9.24029],[-73.07927,9.239],[-73.07355,9.24309],[-73.07735,9.24642],[-73.07806,9.25052],[-73.07304,9.26339],[-73.07027,9.26453],[-73.06448,9.25896],[-73.06363,9.26279],[-73.05821,9.26308],[-73.05145,9.25832],[-73.04642,9.2626],[-73.04333,9.26242],[-73.04441,9.26898],[-73.04047,9.27061],[-73.03645,9.28212],[-73.03156,9.28591],[-73.02725,9.28002],[-73.02552,9.28576],[-73.01061,9.29129],[-73.00341,9.2864],[-73.00627,9.27493],[-72.99445,9.27171],[-72.9961,9.25851],[-72.98582,9.25294],[-72.98946,9.24407],[-72.98829,9.22911],[-72.99634,9.22663],[-72.99622,9.22079],[-72.9936,9.21983],[-72.98628,9.22319],[-72.98014,9.21624],[-72.97084,9.21307],[-72.96443,9.1994],[-72.96188,9.18439],[-72.95592,9.18124],[-72.95851,9.17541],[-72.96295,9.17246],[-72.96585,9.15547],[-72.97351,9.15389],[-72.98672,9.14531],[-72.98691,9.14236],[-72.97241,9.1359],[-72.95847,9.11136],[-72.94775,9.10575],[-72.94688,9.10232],[-72.95132,9.09715],[-72.9477,9.09165],[-72.93765,9.08998],[-72.93614,9.08502],[-72.93159,9.08317],[-72.92105,9.08839],[-72.91943,9.09388],[-72.89712,9.09785],[-72.89358,9.10368],[-72.88729,9.10294],[-72.88379,9.11094],[-72.88678,9.11459],[-72.8812,9.13296],[-72.86683,9.12913],[-72.84595,9.13036],[-72.83485,9.1223],[-72.82445,9.12163],[-72.82208,9.12507],[-72.82413,9.13646],[-72.82192,9.14054],[-72.80891,9.13118],[-72.80764,9.1268],[-72.81105,9.12083],[-72.7972,9.1207],[-72.79822,9.10826],[-72.79634,9.10323],[-72.79114,9.10541],[-72.78833,9.11306],[-72.7849,9.11528],[-72.77638,9.11388],[-72.77461,9.10309],[-72.76709,9.10636],[-72.76331,9.09316],[-72.77155,9.08983],[-72.77294,9.08648],[-72.77095,9.0845],[-72.76437,9.08487],[-72.76123,9.08187],[-72.76291,9.07663],[-72.74698,9.01429],[-72.71918,8.93456],[-72.69802,8.80641],[-72.65511,8.61466],[-72.63873,8.60806],[-72.63553,8.60065],[-72.63358,8.60123],[-72.63371,8.60656],[-72.62875,8.60628],[-72.62604,8.60125],[-72.63179,8.60061],[-72.63199,8.59714],[-72.61696,8.59511],[-72.61213,8.58653],[-72.61847,8.5878],[-72.61644,8.58269],[-72.61919,8.57804],[-72.61372,8.58022],[-72.61041,8.57862],[-72.42806,8.38167],[-72.42011,8.38292],[-72.40913,8.37571],[-72.40784,8.37061],[-72.41591,8.36767],[-72.41443,8.3638],[-72.40948,8.36474],[-72.40015,8.37596],[-72.40029,8.38105],[-72.40576,8.38626],[-72.40674,8.39164],[-72.40118,8.39746],[-72.39198,8.40058],[-72.39377,8.41262],[-72.39223,8.41645],[-72.38171,8.41932],[-72.37753,8.43172],[-72.36627,8.42592],[-72.35954,8.43657],[-72.35168,8.44162],[-72.35301,8.45563],[-72.35031,8.46682],[-72.36059,8.46949],[-72.36242,8.47419],[-72.3597,8.47872],[-72.34775,8.48332],[-72.34761,8.48744],[-72.35319,8.49491],[-72.34815,8.50434],[-72.34469,8.50544],[-72.34747,8.51423],[-72.33095,8.5492],[-72.32068,8.55843],[-72.31559,8.55786],[-72.31501,8.55503],[-72.29759,8.55642],[-72.29528,8.56249],[-72.28202,8.56167],[-72.28125,8.56555],[-72.26464,8.56521],[-72.25196,8.56417],[-72.25139,8.55672],[-72.23924,8.55454],[-72.23527,8.55715],[-72.2393,8.5694],[-72.23568,8.56964],[-72.22113,8.5615],[-72.22126,8.55884],[-72.21528,8.55966],[-72.21452,8.56409],[-72.19324,8.56566],[-72.19334,8.5685],[-72.18939,8.57076],[-72.18738,8.56751],[-72.18579,8.57125],[-72.18015,8.5744],[-72.16846,8.57197],[-72.1604,8.58105],[-72.15844,8.57972],[-72.15383,8.58191],[-72.15026,8.57957],[-72.14838,8.58274],[-72.14089,8.58271],[-72.13817,8.58529],[-72.14093,8.58536],[-72.14092,8.58808],[-72.13833,8.58816],[-72.13824,8.59062],[-72.13453,8.58948],[-72.12976,8.59582],[-72.12799,8.59527],[-72.12832,8.60005],[-72.12493,8.5986],[-72.12231,8.60459],[-72.1241,8.60601],[-72.12012,8.60942],[-72.11762,8.60662],[-72.11758,8.61049],[-72.11593,8.60796],[-72.11368,8.61057],[-72.11203,8.60898],[-72.11257,8.61293],[-72.10852,8.61412],[-72.11023,8.61066],[-72.10799,8.60779],[-72.10094,8.61376],[-72.09684,8.61495],[-72.09423,8.61289],[-72.0936,8.61589],[-72.09077,8.61462],[-72.08757,8.61698],[-72.08293,8.61699],[-72.08298,8.61492],[-72.08029,8.61734],[-72.08075,8.61369],[-72.07566,8.61322],[-72.07102,8.616],[-72.06783,8.62189],[-72.0689,8.62728],[-72.07091,8.62613],[-72.07334,8.62892],[-72.07003,8.63329],[-72.04798,8.63197],[-72.04325,8.63717],[-72.03669,8.63648],[-72.0326,8.64591],[-72.0252,8.64657],[-72.02133,8.65148],[-72.01916,8.66176],[-72.00796,8.65955],[-72.00168,8.66333],[-72.00072,8.6671],[-71.9974,8.66528],[-71.99369,8.6691],[-71.98993,8.66921],[-71.98908,8.67283],[-71.99433,8.67403],[-71.99515,8.67829],[-71.99839,8.68052],[-71.99294,8.67916],[-71.99212,8.68189],[-71.98881,8.68266],[-71.98518,8.68067],[-71.9873,8.67757],[-71.98205,8.67871],[-71.98505,8.67258],[-71.9813,8.66492],[-71.98308,8.66578],[-71.98287,8.66205],[-71.98447,8.66238],[-71.98304,8.65658],[-71.986,8.65717],[-71.98878,8.65437],[-71.98593,8.65198],[-71.98706,8.65058],[-71.98276,8.6458],[-71.97379,8.64657],[-71.97044,8.63946],[-71.96892,8.64095],[-71.96645,8.63737],[-71.95948,8.63684],[-71.9599,8.63446],[-71.95681,8.6323],[-71.96334,8.6272],[-71.9588,8.62341],[-71.9579,8.61816],[-71.94349,8.61639],[-71.93917,8.61903],[-71.9338,8.61877],[-71.92284,8.63009],[-71.91619,8.63135],[-71.91141,8.64028],[-71.89102,8.64999],[-71.88551,8.65753],[-71.8661,8.67148],[-71.84773,8.67573],[-71.83766,8.6725],[-71.82341,8.67557],[-71.80349,8.67125],[-71.80543,8.6739],[-71.80342,8.67691],[-71.80764,8.67842],[-71.80815,8.68143],[-71.79946,8.68647],[-71.79489,8.68338],[-71.79366,8.67639],[-71.78734,8.67526],[-71.78554,8.67931],[-71.77995,8.67627],[-71.77902,8.68308],[-71.77181,8.68052],[-71.7563,8.69893],[-71.75722,8.70164],[-71.75388,8.70407],[-71.75247,8.70166],[-71.74813,8.70301],[-71.74915,8.70438],[-71.73598,8.71457],[-71.73055,8.70842],[-71.72328,8.7124],[-71.72157,8.70861],[-71.7165,8.71067],[-71.70941,8.70654],[-71.69633,8.71674],[-71.699,8.71974],[-71.69215,8.72414],[-71.68996,8.72157],[-71.68567,8.725],[-71.68141,8.72481],[-71.68059,8.72168],[-71.67639,8.72147],[-71.67707,8.71756],[-71.67154,8.7138],[-71.6578,8.72434],[-71.64963,8.72351],[-71.64623,8.72532],[-71.6443,8.72224],[-71.63932,8.72456],[-71.64258,8.72218],[-71.64027,8.72031],[-71.63778,8.72156],[-71.63789,8.71815],[-71.6268,8.72489],[-71.62562,8.72331],[-71.6192,8.72499],[-71.61736,8.72705],[-71.61868,8.72904],[-71.62139,8.72811],[-71.62151,8.73687],[-71.62663,8.74213],[-71.61694,8.7431],[-71.61989,8.74848],[-71.6171,8.7507],[-71.61189,8.74896],[-71.60873,8.75331],[-71.60825,8.75948],[-71.6018,8.7667],[-71.59643,8.76567],[-71.58595,8.79132],[-71.58136,8.78773],[-71.57416,8.77337],[-71.57056,8.7714],[-71.57011,8.77956],[-71.5623,8.78482],[-71.55676,8.78446],[-71.55613,8.78665],[-71.55903,8.78679],[-71.56166,8.79103],[-71.55999,8.79659],[-71.54747,8.80211],[-71.54714,8.81173],[-71.55154,8.8184],[-71.54692,8.82063],[-71.54504,8.8185],[-71.53906,8.82106],[-71.53973,8.81847],[-71.53153,8.82009],[-71.53236,8.82551],[-71.52148,8.83006],[-71.51813,8.82898],[-71.51501,8.83263],[-71.5222,8.84163],[-71.52223,8.84555],[-71.51382,8.84973],[-71.51236,8.85336],[-71.51474,8.85458],[-71.51327,8.85835],[-71.51711,8.86152],[-71.5162,8.86457],[-71.50465,8.86655],[-71.5047,8.86227],[-71.50218,8.86107],[-71.48751,8.86075],[-71.48144,8.85746],[-71.47916,8.85939],[-71.47571,8.85824],[-71.47488,8.86399],[-71.46166,8.86214],[-71.46167,8.86478],[-71.45185,8.86667],[-71.44803,8.87056],[-71.44285,8.87177],[-71.44374,8.89344],[-71.43809,8.88657],[-71.4319,8.88461],[-71.42807,8.88932],[-71.42687,8.88741],[-71.41117,8.88824],[-71.40954,8.88429],[-71.40403,8.88548],[-71.40364,8.88883],[-71.4158,8.91119],[-71.41392,8.91746],[-71.40879,8.92061],[-71.40928,8.92678],[-71.40497,8.92541],[-71.40419,8.92733],[-71.4064,8.9295],[-71.40519,8.93331],[-71.40863,8.93539],[-71.40587,8.93759],[-71.40649,8.94031],[-71.41025,8.94521],[-71.4031,8.94532],[-71.40289,8.95147],[-71.39546,8.95921],[-71.39292,8.95821],[-71.39265,8.95398],[-71.3893,8.95539],[-71.3882,8.95087],[-71.38558,8.9509],[-71.38606,8.94839],[-71.37549,8.93772],[-71.37096,8.93755],[-71.37445,8.94569],[-71.36608,8.95059],[-71.35716,8.94583],[-71.35049,8.95393],[-71.36392,8.96611],[-71.36181,8.96853],[-71.36424,8.97352],[-71.35365,8.97149],[-71.35032,8.97446],[-71.34568,8.97177],[-71.34492,8.97551],[-71.35045,8.98164],[-71.34413,8.9848],[-71.34779,8.98904],[-71.34912,8.99659],[-71.34581,8.99836],[-71.34451,8.99643],[-71.33958,9.00006],[-71.33399,8.999],[-71.33158,9.00346],[-71.32636,8.9974],[-71.30809,9.00057],[-71.30817,8.99577],[-71.30136,8.99543],[-71.30257,8.99365],[-71.3007,8.99207],[-71.29466,8.99348],[-71.29125,8.98789],[-71.28529,8.98694],[-71.28198,8.98975],[-71.28404,8.99251],[-71.28198,8.99848],[-71.28,8.99742],[-71.27006,9.00234],[-71.26418,9.02357],[-71.25679,9.02431],[-71.25523,9.03124],[-71.25249,9.0306],[-71.25047,9.0437],[-71.24576,9.03936],[-71.24336,9.0455],[-71.23427,9.0481],[-71.23511,9.05308],[-71.22899,9.05471],[-71.22848,9.05308],[-71.22797,9.05705],[-71.22567,9.05608],[-71.22097,9.06026],[-71.21952,9.07491],[-71.20171,9.07769],[-71.19693,9.06877],[-71.1713,9.0731],[-71.17701,9.07697],[-71.17993,9.07456],[-71.18102,9.08222],[-71.18384,9.08241],[-71.18453,9.086],[-71.17964,9.08845],[-71.17629,9.09571],[-71.17192,9.09692],[-71.17144,9.09374],[-71.16614,9.09438],[-71.16322,9.10433],[-71.15651,9.11114],[-71.1627,9.11396],[-71.16356,9.11712],[-71.16661,9.11546],[-71.16886,9.11876],[-71.17133,9.11605],[-71.18875,9.11876],[-71.20094,9.13118],[-71.20418,9.14047],[-71.2176,9.15418],[-71.22803,9.16997],[-71.29323,9.2991],[-71.39697,9.24807],[-71.45671,9.50339],[-71.06261,9.60951],[-71.05988,9.6127],[-71.04223,9.60422],[-71.03494,9.60321],[-71.02171,9.60605],[-71.00849,9.59964],[-70.99989,9.59972],[-70.99783,9.59675],[-70.98043,9.59703],[-70.95548,9.59097],[-70.94795,9.59233],[-70.94187,9.59017],[-70.93088,9.59452],[-70.9242,9.58954],[-70.9198,9.59143],[-70.91716,9.59675],[-70.91225,9.59762],[-70.91068,9.59472],[-70.91283,9.59222],[-70.90783,9.59035],[-70.90669,9.58014],[-70.90606,9.58532],[-70.89431,9.59076],[-70.887,9.58777],[-70.86794,9.5883],[-70.86014,9.59177],[-70.8525,9.5868],[-70.84424,9.58549],[-70.83059,9.61051],[-70.82578,9.60976],[-70.82226,9.61494],[-70.82162,9.61972],[-70.82749,9.62553],[-70.8236,9.62978],[-70.82648,9.63175],[-70.82608,9.66249],[-70.81923,9.66129],[-70.81803,9.66763],[-70.81215,9.67292],[-70.81115,9.67794],[-70.80771,9.67738],[-70.80554,9.68432],[-70.80278,9.68287],[-70.79962,9.69284],[-70.79766,9.69104],[-70.79513,9.69694],[-70.79,9.69596],[-70.79221,9.69155],[-70.78446,9.69101],[-70.77794,9.68722],[-70.77816,9.68502],[-70.76452,9.68789],[-70.76077,9.69223],[-70.76314,9.70232],[-70.75718,9.71299],[-70.75688,9.71834],[-70.75048,9.72331],[-70.74681,9.7311],[-70.74527,9.75472],[-70.73359,9.75306],[-70.72665,9.75593],[-70.71721,9.74959],[-70.71464,9.75302],[-70.69378,9.76097],[-70.6892,9.77413],[-70.68812,9.79368],[-70.68386,9.80317],[-70.674,9.80809],[-70.66944,9.81419],[-70.66765,9.82208],[-70.67132,9.82506],[-70.67099,9.84209],[-70.6798,9.853],[-70.68234,9.86283],[-70.69926,9.88298],[-70.7077,9.8827],[-70.73927,9.8945],[-70.7461,9.89975],[-70.74486,9.90981],[-70.74953,9.91685],[-70.76374,9.91722],[-70.76472,9.92111],[-70.77011,9.92239],[-70.78785,9.91782],[-70.79119,9.91939],[-70.88281,10.05018],[-70.87687,10.05903],[-70.87174,10.05842],[-70.8619,10.06976],[-70.84651,10.07223],[-70.84112,10.07926],[-70.84141,10.08501],[-70.83667,10.0885],[-70.83428,10.09007],[-70.83146,10.0881],[-70.81958,10.09959],[-70.79989,10.10982],[-70.79762,10.11532],[-70.76605,10.13036],[-70.75043,10.14304],[-70.73827,10.14947],[-70.73323,10.15485],[-70.73552,10.16145],[-70.73376,10.1721],[-70.72589,10.17643],[-70.72887,10.17812],[-70.72734,10.18221],[-70.72899,10.18624],[-70.7221,10.19511],[-70.71016,10.19835],[-70.70447,10.20588],[-70.70837,10.21283],[-70.70981,10.22415],[-70.70671,10.23074],[-70.70736,10.23942],[-70.70203,10.24677],[-70.70092,10.25815],[-70.69606,10.26143],[-70.69653,10.27979],[-70.69069,10.29286],[-70.69734,10.30211],[-70.71307,10.3002],[-70.71631,10.30292],[-70.72525,10.29806],[-70.74159,10.3051],[-70.75031,10.31783],[-70.75366,10.31775],[-70.76283,10.32644],[-70.76704,10.34778],[-70.76467,10.35286],[-70.76874,10.36063],[-70.75793,10.37865],[-70.75921,10.38888],[-70.75739,10.39512],[-70.77198,10.4077],[-70.77463,10.41848],[-70.77325,10.42176],[-70.7791,10.42578],[-70.78969,10.44425],[-70.79961,10.46897],[-70.80337,10.47155],[-70.80616,10.46981],[-70.81153,10.46153],[-70.82283,10.46374],[-70.82828,10.46338],[-70.83218,10.46012],[-70.83663,10.46162],[-70.84265,10.45233],[-70.8505,10.45852],[-70.86215,10.46065],[-70.86753,10.45246],[-70.87311,10.45169],[-70.87592,10.44872],[-70.88216,10.45004],[-70.89229,10.46228],[-70.90075,10.46575],[-70.90902,10.46299],[-70.91484,10.46744],[-70.92423,10.46462],[-70.92501,10.46833],[-70.9329,10.463],[-70.93631,10.46352],[-70.93658,10.46617],[-70.95116,10.46215],[-70.94981,10.46527],[-70.95662,10.46673],[-70.95428,10.47525],[-70.95667,10.48027],[-70.96215,10.47984],[-70.96359,10.48302],[-70.96188,10.48399],[-70.9695,10.48508],[-70.96575,10.48814],[-70.96897,10.48941],[-70.96681,10.49196],[-70.96846,10.49647],[-70.97604,10.49824],[-70.97646,10.49544],[-70.97893,10.49515],[-70.97785,10.49672],[-70.9805,10.49863],[-70.98322,10.49496],[-70.98456,10.49774],[-70.98763,10.49747],[-70.98682,10.50201],[-70.99061,10.50215],[-70.9908,10.50486],[-70.99452,10.50706],[-70.99845,10.50193],[-71.00665,10.50834],[-71.00916,10.50682],[-71.00914,10.50365],[-71.01405,10.50706],[-71.01799,10.50233],[-71.02079,10.5038],[-71.02227,10.50793],[-71.01834,10.50924],[-71.01812,10.51205],[-71.02013,10.5121],[-71.02208,10.51687],[-71.02037,10.52322],[-71.02338,10.52924],[-71.02095,10.53254],[-71.02639,10.54012],[-71.02162,10.54552],[-71.02416,10.54697],[-71.02399,10.55236],[-71.02594,10.55159],[-71.02358,10.55615],[-71.02492,10.56159],[-71.03035,10.5652],[-71.025,10.56992],[-71.02766,10.57922],[-71.03133,10.58182],[-71.03761,10.57839],[-71.04158,10.58058],[-71.04692,10.57988],[-71.05138,10.58748],[-71.05071,10.59128],[-71.05668,10.59689],[-71.05308,10.60013],[-71.05526,10.60435],[-71.07001,10.61625],[-71.07424,10.61286],[-71.0784,10.6165],[-71.08353,10.61651],[-71.08564,10.62095],[-71.08423,10.62283],[-71.08815,10.6257],[-71.0881,10.63318],[-71.08033,10.63492],[-71.07735,10.64535],[-71.0852,10.65385],[-71.08323,10.65598],[-71.08522,10.65735],[-71.08379,10.66187],[-71.08805,10.66795],[-71.08646,10.67235],[-71.09847,10.68004],[-71.09509,10.68367],[-71.09602,10.69151],[-71.09062,10.69371],[-71.0897,10.69814],[-71.0857,10.70081],[-71.08825,10.70593],[-71.08659,10.71381],[-71.08816,10.7222],[-71.08535,10.73258],[-71.08651,10.74486],[-71.09083,10.75029],[-71.08718,10.75828],[-71.08802,10.76365],[-71.09259,10.76738],[-71.09482,10.7662],[-71.09666,10.77103],[-71.10125,10.77271],[-71.09891,10.77488],[-71.10064,10.77798],[-71.10459,10.7767],[-71.10935,10.78123],[-71.11249,10.77974],[-71.12294,10.79307],[-71.13062,10.79658],[-71.13264,10.80512],[-71.13643,10.80541],[-71.14238,10.81125],[-71.14359,10.80839],[-71.14588,10.81],[-71.14822,10.80746],[-71.15247,10.81399],[-71.15878,10.81598],[-71.16108,10.81444],[-71.16846,10.8235],[-71.17293,10.8225],[-71.17642,10.82808],[-71.18233,10.83002],[-71.18299,10.83336],[-71.18844,10.83793],[-71.18995,10.84651],[-71.19446,10.84871],[-71.19682,10.85715],[-71.19899,10.85708],[-71.20036,10.86628],[-71.2104,10.87096],[-71.21426,10.90015],[-71.23348,10.90831],[-71.23808,10.90694],[-71.23966,10.91271],[-71.2437,10.91629],[-71.24422,10.9226],[-71.2521,10.92379],[-71.25927,10.91961],[-71.26076,10.92357],[-71.26594,10.92553],[-71.26763,10.92998],[-71.27223,10.93254],[-71.27069,10.94555],[-71.28127,10.95174],[-71.27144,10.95646],[-71.26932,10.9638],[-71.26369,10.96642],[-71.26339,10.97549],[-71.26005,10.97888],[-71.28009,11.0356],[-71.35317,11.01889],[-71.41269,11.02643],[-71.43551,11.02614],[-71.45856,11.02452],[-71.50406,11.01354],[-71.52468,11.02942],[-71.52849,11.04247],[-71.53505,11.05407],[-71.54538,11.06501],[-71.55693,11.07241],[-71.57261,11.07754],[-71.58911,11.07821],[-71.60387,11.07484],[-71.6183,11.06719],[-71.67243,11.09614],[-71.70347,11.11565],[-71.73464,11.1401],[-71.76414,11.16948],[-71.79219,11.20255],[-71.82354,11.2472],[-71.84179,11.2784],[-71.86222,11.31976],[-71.88421,11.37543],[-71.8977,11.421],[-71.90547,11.46108],[-71.90912,11.51411],[-71.90644,11.54612],[-71.87439,11.55537],[-71.85685,11.56661],[-71.80003,11.58328],[-71.78744,11.58923],[-71.75996,11.59455],[-71.7451,11.60149],[-71.71105,11.60326],[-71.66935,11.61555],[-71.65312,11.62275],[-71.62072,11.62959],[-71.60358,11.62917],[-71.5829,11.63415],[-71.54686,11.63832],[-71.52766,11.64485],[-71.49862,11.64793],[-71.42709,11.66209],[-71.41162,11.66789],[-71.39154,11.6851],[-71.36135,11.69622],[-71.34825,11.70378],[-71.33752,11.71436],[-71.32816,11.73012],[-71.31474,11.73758],[-71.29725,11.75285],[-71.28514,11.76972],[-71.27939,11.79343],[-71.26766,11.81247],[-71.26642,11.81607],[-71.324,11.84835],[-71.33577,11.85058],[-71.34328,11.84863]]]]}}]}