{"type":"FeatureCollection","features":[{"type":"Feature","id":"relation/3447436","properties":{"name":"Municipio Almirante Padilla","level":6,"population":"11929"},"geometry":{"type":"Polygon","coordinates":[[[-71.68378,10.91149],[-71.66898,10.87563],[-71.63457,10.76915],[-71.52685,10.85743],[-71.50709,10.92231],[-71.5252,10.93727],[-71.52846,10.94431],[-71.52207,10.9582],[-71.53697,10.97525],[-71.57712,11.00448],[-71.57476,11.02062],[-71.57932,11.02731],[-71.58507,11.02809],[-71.59,11.02509],[-71.59341,11.01071],[-71.6017,11.01563],[-71.60773,11.01359],[-71.61176,11.0076],[-71.62245,11.01142],[-71.69785,11.05263],[-71.73538,11.07635],[-71.77438,11.10759],[-71.80063,11.13437],[-71.81067,11.12847],[-71.81416,11.13178],[-71.81826,11.12997],[-71.81751,11.12649],[-71.81019,11.12207],[-71.79603,11.10371],[-71.76773,11.07584],[-71.7704,11.06783],[-71.7822,11.06969],[-71.78856,11.05771],[-71.79487,11.05948],[-71.79638,11.05626],[-71.80073,11.05568],[-71.80144,11.05124],[-71.79181,11.04667],[-71.79408,11.0342],[-71.77986,11.03203],[-71.77224,11.03938],[-71.76364,11.02469],[-71.76536,11.01765],[-71.75885,11.0002],[-71.71171,10.9792],[-71.68378,10.91149]]]}},{"type":"Feature","id":"relation/3447437","properties":{"name":"Municipio Sucre","level":6,"population":"60819"},"geometry":{"type":"MultiPolygon","coordinates":[[[[-71.44468,8.99786],[-71.43407,8.98346],[-71.42784,8.98153],[-71.4268,8.97622],[-71.41841,8.97293],[-71.41228,8.96217],[-71.4008,8.95941],[-71.3992,8.95703],[-71.39314,8.95844],[-71.39275,8.95409],[-71.38942,8.95551],[-71.3882,8.95087],[-71.38558,8.9509],[-71.38606,8.94839],[-71.37632,8.93813],[-71.37096,8.93755],[-71.37364,8.94673],[-71.36506,8.95082],[-71.36489,8.94892],[-71.36169,8.94964],[-71.35716,8.94583],[-71.35049,8.95393],[-71.36392,8.96611],[-71.36181,8.96853],[-71.36424,8.97352],[-71.35365,8.97149],[-71.35032,8.97446],[-71.34568,8.97177],[-71.34492,8.97551],[-71.35045,8.98164],[-71.34413,8.9848],[-71.34779,8.98904],[-71.34912,8.99659],[-71.34581,8.99836],[-71.34451,8.99643],[-71.33958,9.00006],[-71.33399,8.999],[-71.33158,9.00346],[-71.32636,8.9974],[-71.30809,9.00057],[-71.30817,8.99577],[-71.30136,8.99543],[-71.30257,8.99365],[-71.3007,8.99207],[-71.29466,8.99348],[-71.29125,8.98789],[-71.28529,8.98694],[-71.28198,8.98975],[-71.28404,8.99251],[-71.28198,8.99848],[-71.28,8.99742],[-71.27006,9.00234],[-71.26418,9.02357],[-71.25679,9.02431],[-71.25523,9.03124],[-71.25249,9.0306],[-71.25047,9.0437],[-71.24576,9.03936],[-71.24336,9.0455],[-71.23427,9.0481],[-71.23511,9.05308],[-71.22899,9.05471],[-71.22848,9.05308],[-71.22797,9.05705],[-71.22567,9.05608],[-71.22097,9.06026],[-71.21952,9.07491],[-71.20171,9.07769],[-71.19693,9.06877],[-71.1713,9.0731],[-71.17701,9.07697],[-71.17993,9.07456],[-71.18102,9.08222],[-71.18384,9.08241],[-71.18453,9.086],[-71.17964,9.08845],[-71.17629,9.09571],[-71.17192,9.09692],[-71.17144,9.09374],[-71.16614,9.09438],[-71.16322,9.10433],[-71.15651,9.11114],[-71.1627,9.11396],[-71.16356,9.11712],[-71.16661,9.11546],[-71.16886,9.11876],[-71.17133,9.11605],[-71.18875,9.11876],[-71.20094,9.13118],[-71.20418,9.14047],[-71.2176,9.15418],[-71.22803,9.16997],[-71.29323,9.2991],[-71.54241,9.17652],[-71.45366,9.05318],[-71.45215,9.04362],[-71.44948,9.04057],[-71.45777,9.0241],[-71.46363,9.02264],[-71.46421,9.0198],[-71.45908,9.01081],[-71.45221,9.00776],[-71.45088,9.00059],[-71.44468,8.99786]]],[[[-70.97431,9.30605],[-70.97806,9.30882],[-70.96955,9.31754],[-70.97876,9.32348],[-70.98508,9.33413],[-71.00749,9.33524],[-71.0201,9.34518],[-71.02395,9.35242],[-71.04358,9.36047],[-71.05039,9.35905],[-71.06378,9.34897],[-71.17287,9.35829],[-71.25877,9.31604],[-71.20824,9.21597],[-71.20365,9.21611],[-71.19242,9.19956],[-71.16348,9.17849],[-71.149,9.15867],[-71.13999,9.15411],[-71.13883,9.14896],[-71.137,9.15045],[-71.13395,9.14733],[-71.13359,9.15063],[-71.12405,9.14947],[-71.11531,9.15357],[-71.11074,9.15118],[-71.10838,9.15296],[-71.09337,9.15106],[-71.08254,9.14221],[-71.07914,9.13378],[-71.07933,9.12542],[-71.06712,9.11081],[-71.05145,9.12003],[-71.04055,9.13453],[-71.03698,9.13082],[-71.03408,9.13095],[-71.02088,9.13639],[-71.01236,9.14493],[-71.00955,9.16825],[-70.9973,9.1778],[-70.99613,9.1827],[-70.99221,9.18563],[-70.99259,9.18917],[-71.00033,9.19513],[-70.99406,9.19731],[-70.98833,9.20976],[-70.99479,9.21095],[-70.99113,9.21639],[-70.99279,9.22213],[-70.97836,9.23373],[-70.98185,9.2443],[-70.97844,9.24647],[-70.98479,9.25266],[-70.98305,9.25525],[-70.98472,9.25527],[-70.98663,9.26927],[-70.99169,9.27496],[-70.98308,9.29583],[-70.97932,9.29772],[-70.97431,9.30605]]]]}},{"type":"Feature","id":"relation/3447438","properties":{"name":"Municipio Catatumbo","level":6,"population":"40702"},"geometry":{"type":"Polygon","coordinates":[[[-72.43285,8.81565],[-72.43725,8.66258],[-72.44663,8.57556],[-72.48079,8.49242],[-72.49815,8.45726],[-72.42806,8.38167],[-72.42011,8.38292],[-72.40913,8.37571],[-72.40877,8.36924],[-72.41591,8.36767],[-72.41638,8.36579],[-72.4111,8.36396],[-72.40015,8.37596],[-72.40029,8.38105],[-72.40576,8.38626],[-72.40674,8.39164],[-72.40118,8.39746],[-72.39198,8.40058],[-72.39377,8.41262],[-72.39223,8.41645],[-72.38171,8.41932],[-72.37753,8.43172],[-72.36627,8.42592],[-72.35954,8.43657],[-72.35168,8.44162],[-72.35301,8.45563],[-72.35031,8.46682],[-72.36059,8.46949],[-72.36242,8.47419],[-72.3597,8.47872],[-72.34775,8.48332],[-72.34761,8.48744],[-72.35319,8.49491],[-72.34815,8.50434],[-72.34469,8.50544],[-72.34747,8.51423],[-72.33095,8.5492],[-72.32068,8.55843],[-72.31559,8.55786],[-72.31501,8.55503],[-72.29759,8.55642],[-72.29528,8.56249],[-72.28202,8.56167],[-72.28125,8.56555],[-72.26464,8.56521],[-72.25196,8.56417],[-72.25139,8.55672],[-72.23924,8.55454],[-72.23527,8.55715],[-72.2393,8.5694],[-72.23568,8.56964],[-72.22113,8.5615],[-72.22126,8.55884],[-72.21882,8.55909],[-72.21528,8.55966],[-72.21452,8.56409],[-72.19324,8.56566],[-72.19334,8.5685],[-72.18916,8.57079],[-72.18738,8.56751],[-72.18579,8.57125],[-72.18015,8.5744],[-72.16846,8.57197],[-72.16455,8.57725],[-72.16,8.62066],[-72.16172,8.65034],[-72.15514,8.70865],[-72.15403,8.74603],[-72.14511,8.78013],[-72.14558,8.81372],[-72.1494,8.84381],[-72.14498,8.87724],[-72.14432,8.90826],[-72.15217,8.93711],[-72.14991,8.99616],[-72.16715,9.00003],[-72.17871,9.01745],[-72.18729,9.01991],[-72.19314,9.01849],[-72.19406,9.02067],[-72.1911,9.02336],[-72.1917,9.02847],[-72.18621,9.03071],[-72.18209,9.03951],[-72.1745,9.0376],[-72.16617,9.04146],[-72.16293,9.03824],[-72.16226,9.03285],[-72.15166,9.03311],[-72.15574,9.04411],[-72.15379,9.04754],[-72.14836,9.04775],[-72.15111,9.05775],[-72.14524,9.06936],[-72.1491,9.07371],[-72.14862,9.08314],[-72.15487,9.09512],[-72.14753,9.10099],[-72.14013,9.10175],[-72.13934,9.09906],[-72.14286,9.09351],[-72.1347,9.09398],[-72.13133,9.09128],[-72.12582,9.09614],[-72.12333,9.09202],[-72.12015,9.09387],[-72.10908,9.08683],[-72.10501,9.07468],[-72.10129,9.07465],[-72.09377,9.07956],[-72.08141,9.07443],[-72.07724,9.07644],[-72.0715,9.06947],[-72.06709,9.0796],[-72.06246,9.06599],[-72.0565,9.06792],[-72.04761,9.06516],[-72.0397,9.07608],[-72.04065,9.08055],[-72.03651,9.08605],[-72.03581,9.09239],[-72.02251,9.1101],[-72.01794,9.10535],[-72.01646,9.09802],[-72.00723,9.09262],[-72.00523,9.08769],[-71.99528,9.09222],[-71.98772,9.08671],[-71.97957,9.09453],[-71.93946,9.1162],[-71.87091,9.18933],[-71.85436,9.1863],[-71.84669,9.19727],[-71.83753,9.19703],[-71.8272,9.21399],[-71.8207,9.21804],[-71.81911,9.2294],[-71.80542,9.24541],[-71.73403,9.24733],[-71.59721,9.14955],[-71.39697,9.24807],[-71.49294,9.65817],[-71.95544,9.53876],[-71.9263,9.50416],[-71.92954,9.50469],[-71.94722,9.52223],[-71.95265,9.52359],[-71.95396,9.50947],[-71.96371,9.49719],[-71.97495,9.48913],[-71.98007,9.49392],[-71.98701,9.4947],[-71.99228,9.50109],[-72.00467,9.50397],[-72.00625,9.51538],[-72.02759,9.52314],[-72.02886,9.53628],[-72.0237,9.54377],[-72.02448,9.5561],[-72.02022,9.56266],[-72.01628,9.56447],[-72.02859,9.56955],[-72.03298,9.5741],[-72.04176,9.57697],[-72.05408,9.57533],[-72.05567,9.57318],[-72.06078,9.57434],[-72.06543,9.57],[-72.06823,9.5822],[-72.07556,9.58301],[-72.07912,9.58786],[-72.08089,9.58644],[-72.07864,9.58322],[-72.0834,9.58373],[-72.08758,9.59024],[-72.08541,9.59502],[-72.08711,9.59965],[-72.08984,9.59815],[-72.09759,9.60193],[-72.10131,9.60066],[-72.10119,9.60325],[-72.10631,9.60627],[-72.11306,9.60543],[-72.11719,9.60946],[-72.12006,9.60691],[-72.1237,9.60752],[-72.12642,9.60392],[-72.12965,9.612],[-72.13692,9.6076],[-72.14106,9.60827],[-72.14205,9.60282],[-72.13746,9.59771],[-72.14083,9.59278],[-72.14454,9.59698],[-72.1517,9.59844],[-72.15532,9.60211],[-72.15775,9.59963],[-72.15606,9.59281],[-72.16315,9.59573],[-72.16849,9.58838],[-72.17222,9.5919],[-72.17634,9.59073],[-72.18391,9.59349],[-72.18296,9.59927],[-72.19148,9.60146],[-72.19398,9.59374],[-72.19218,9.58923],[-72.19491,9.58646],[-72.19368,9.58171],[-72.19745,9.58173],[-72.19698,9.57635],[-72.20638,9.57691],[-72.20915,9.58152],[-72.21301,9.57931],[-72.2182,9.56349],[-72.2101,9.56205],[-72.20599,9.55305],[-72.21,9.54991],[-72.21059,9.54333],[-72.21437,9.54763],[-72.21599,9.54686],[-72.21542,9.538],[-72.21768,9.53784],[-72.21838,9.54175],[-72.22235,9.53817],[-72.22122,9.53118],[-72.2275,9.52944],[-72.22459,9.52518],[-72.22993,9.52333],[-72.22717,9.51321],[-72.23197,9.51672],[-72.22995,9.51127],[-72.23531,9.51343],[-72.23523,9.50836],[-72.24334,9.50486],[-72.24078,9.50189],[-72.24357,9.49881],[-72.24881,9.50583],[-72.25174,9.50323],[-72.2466,9.49924],[-72.24712,9.49549],[-72.25561,9.49293],[-72.25022,9.48656],[-72.25661,9.48376],[-72.25729,9.48176],[-72.25404,9.48028],[-72.26054,9.47701],[-72.26409,9.47146],[-72.25969,9.47122],[-72.2579,9.46572],[-72.25474,9.46553],[-72.25981,9.46225],[-72.25381,9.45703],[-72.25635,9.45329],[-72.25845,9.45649],[-72.26126,9.44644],[-72.26381,9.44754],[-72.26144,9.45036],[-72.2673,9.45086],[-72.26405,9.4445],[-72.27016,9.44188],[-72.2707,9.43745],[-72.27743,9.4382],[-72.2712,9.43586],[-72.27547,9.43449],[-72.27405,9.43139],[-72.28844,9.42822],[-72.28595,9.43235],[-72.29138,9.4333],[-72.29033,9.44104],[-72.29355,9.44232],[-72.29614,9.43578],[-72.29966,9.44283],[-72.30715,9.4321],[-72.3121,9.43319],[-72.31028,9.42886],[-72.31568,9.4304],[-72.32544,9.42787],[-72.32562,9.42537],[-72.31989,9.42465],[-72.31989,9.42153],[-72.3292,9.42353],[-72.32843,9.42052],[-72.32556,9.42051],[-72.32661,9.4189],[-72.33367,9.4198],[-72.33298,9.41589],[-72.3257,9.41421],[-72.32964,9.41147],[-72.33349,9.41418],[-72.33437,9.41184],[-72.33206,9.41034],[-72.33393,9.40613],[-72.34638,9.41167],[-72.34565,9.40713],[-72.34828,9.40179],[-72.35104,9.40772],[-72.3552,9.40931],[-72.35223,9.40228],[-72.35616,9.40314],[-72.35676,9.40635],[-72.35863,9.40552],[-72.36007,9.40229],[-72.35791,9.39858],[-72.35917,9.3973],[-72.36147,9.40079],[-72.36083,9.39729],[-72.36412,9.39701],[-72.36249,9.39338],[-72.37281,9.39163],[-72.37565,9.39635],[-72.38075,9.39288],[-72.36157,9.08499],[-72.35593,9.08095],[-72.35893,9.07876],[-72.35863,9.07491],[-72.35337,9.0758],[-72.34748,9.08355],[-72.34137,9.08328],[-72.33972,9.07879],[-72.3438,9.07123],[-72.33322,9.06809],[-72.33622,9.06171],[-72.33347,9.05655],[-72.32535,9.0554],[-72.31931,9.06415],[-72.31513,9.06459],[-72.31069,9.05618],[-72.30644,9.0563],[-72.30773,9.05048],[-72.30394,9.04786],[-72.31377,9.04231],[-72.30899,9.03468],[-72.31069,9.03057],[-72.30572,9.0274],[-72.30852,9.01886],[-72.30685,9.01261],[-72.31274,9.01054],[-72.31459,9.00428],[-72.31974,9.00662],[-72.31764,9.00082],[-72.32199,8.99235],[-72.32754,8.98796],[-72.32728,8.97861],[-72.33572,8.97392],[-72.3327,8.97071],[-72.32518,8.97614],[-72.32841,8.96868],[-72.32204,8.96647],[-72.32052,8.96329],[-72.32799,8.95784],[-72.32904,8.95421],[-72.32565,8.95189],[-72.31985,8.95467],[-72.31906,8.95194],[-72.32437,8.94789],[-72.32471,8.94444],[-72.3159,8.94761],[-72.31597,8.93876],[-72.30983,8.936],[-72.31104,8.92497],[-72.31812,8.92034],[-72.31082,8.91279],[-72.31713,8.90966],[-72.31334,8.905],[-72.3173,8.8964],[-72.31476,8.88597],[-72.32194,8.87024],[-72.32939,8.86297],[-72.33658,8.86378],[-72.34623,8.85663],[-72.34973,8.84135],[-72.34732,8.82337],[-72.35845,8.81994],[-72.3742,8.82252],[-72.38142,8.81281],[-72.38463,8.81166],[-72.43285,8.81565]]]}},{"type":"Feature","id":"relation/3447439","properties":{"name":"Municipio Col\u00f3n","level":6,"population":"128729"},"geometry":{"type":"Polygon","coordinates":[[[-72.16454,8.5775],[-72.16025,8.58109],[-72.15844,8.57972],[-72.15383,8.58191],[-72.15026,8.57957],[-72.14838,8.58274],[-72.14089,8.58271],[-72.13817,8.58517],[-72.14093,8.58536],[-72.1408,8.58822],[-72.13833,8.58816],[-72.13824,8.59062],[-72.13453,8.58948],[-72.12976,8.59582],[-72.12799,8.59527],[-72.12815,8.60033],[-72.12493,8.5986],[-72.12231,8.60459],[-72.12402,8.60613],[-72.1189,8.60969],[-72.11747,8.60669],[-72.11733,8.61059],[-72.11593,8.60796],[-72.11368,8.61057],[-72.11191,8.60905],[-72.11229,8.61312],[-72.10832,8.614],[-72.11023,8.61066],[-72.10799,8.60779],[-72.10094,8.61376],[-72.09701,8.61497],[-72.09393,8.61299],[-72.09327,8.616],[-72.09077,8.61462],[-72.08996,8.61651],[-72.08311,8.61702],[-72.08298,8.61492],[-72.08043,8.61738],[-72.08059,8.6136],[-72.0736,8.61417],[-72.06783,8.62189],[-72.0689,8.62728],[-72.07091,8.62613],[-72.07334,8.62892],[-72.06988,8.63336],[-72.04798,8.63197],[-72.04325,8.63717],[-72.03669,8.63648],[-72.0326,8.64591],[-72.0252,8.64657],[-72.02133,8.65148],[-72.01916,8.66176],[-72.00796,8.65955],[-72.00168,8.66333],[-72.00072,8.6671],[-71.9974,8.66528],[-71.99369,8.6691],[-71.98993,8.66921],[-71.98908,8.67283],[-71.99433,8.67403],[-71.99515,8.67829],[-71.99839,8.68052],[-71.99294,8.67916],[-71.99212,8.68189],[-71.98881,8.68266],[-71.98518,8.68067],[-71.9873,8.67757],[-71.98165,8.67798],[-71.98291,8.67468],[-71.98504,8.67474],[-71.98128,8.6651],[-71.98308,8.66578],[-71.98287,8.66205],[-71.98447,8.66238],[-71.98304,8.65658],[-71.986,8.65717],[-71.98879,8.65424],[-71.98305,8.64599],[-71.97386,8.6466],[-71.97037,8.63938],[-71.96904,8.64099],[-71.96645,8.63737],[-71.95948,8.63684],[-71.9599,8.63446],[-71.95681,8.6323],[-71.96334,8.6272],[-71.9588,8.62341],[-71.9579,8.61816],[-71.94112,8.61668],[-71.93931,8.61899],[-71.93366,8.61887],[-71.92284,8.63009],[-71.91631,8.63124],[-71.91141,8.64028],[-71.89102,8.64999],[-71.88551,8.65753],[-71.86626,8.67142],[-71.84773,8.67573],[-71.83766,8.6725],[-71.82341,8.67557],[-71.80349,8.67125],[-71.80543,8.6739],[-71.80342,8.67691],[-71.80764,8.67842],[-71.80815,8.68143],[-71.79946,8.68647],[-71.79489,8.68338],[-71.79366,8.67639],[-71.78734,8.67526],[-71.78554,8.67931],[-71.77995,8.67627],[-71.77902,8.68308],[-71.77181,8.68052],[-71.7563,8.69893],[-71.75722,8.70164],[-71.75388,8.70407],[-71.75247,8.70166],[-71.74813,8.70301],[-71.74915,8.70438],[-71.73598,8.71457],[-71.73055,8.70842],[-71.72328,8.7124],[-71.72157,8.70861],[-71.7165,8.71067],[-71.70941,8.70654],[-71.69633,8.71674],[-71.699,8.71974],[-71.69215,8.72414],[-71.68996,8.72157],[-71.68527,8.7251],[-71.68271,8.73092],[-71.6855,8.73747],[-71.68457,8.74202],[-71.68846,8.74427],[-71.68996,8.74914],[-71.69746,8.74748],[-71.69954,8.75518],[-71.69124,8.75873],[-71.69307,8.76609],[-71.68875,8.773],[-71.68881,8.78252],[-71.67914,8.78454],[-71.68714,8.79433],[-71.68165,8.80332],[-71.68199,8.80887],[-71.6854,8.81361],[-71.68145,8.82214],[-71.68447,8.82535],[-71.6783,8.82706],[-71.67707,8.83191],[-71.67138,8.83175],[-71.67939,8.84018],[-71.66591,8.84999],[-71.66541,8.8568],[-71.66018,8.86011],[-71.66043,8.86482],[-71.65826,8.86682],[-71.66366,8.87232],[-71.65593,8.87404],[-71.6582,8.8799],[-71.65542,8.88523],[-71.65867,8.88722],[-71.66122,8.89574],[-71.6607,8.90076],[-71.6569,8.90358],[-71.6551,8.90953],[-71.65997,8.91352],[-71.65792,8.91767],[-71.64776,8.92021],[-71.64876,8.92292],[-71.65321,8.92222],[-71.65644,8.92688],[-71.65487,8.9293],[-71.65092,8.92796],[-71.6554,8.93556],[-71.65164,8.93632],[-71.65109,8.9399],[-71.64624,8.94375],[-71.65405,8.96023],[-71.64424,8.98566],[-71.65041,8.99038],[-71.6494,8.99449],[-71.65297,8.99845],[-71.66099,8.99992],[-71.65914,9.00669],[-71.66731,9.01156],[-71.67214,9.02126],[-71.67219,9.04499],[-71.66917,9.04725],[-71.66057,9.04747],[-71.63869,9.05803],[-71.61576,9.07391],[-71.61716,9.07998],[-71.59721,9.14955],[-71.73403,9.24733],[-71.8048,9.24551],[-71.81911,9.2294],[-71.8207,9.21804],[-71.8272,9.21399],[-71.83753,9.19703],[-71.84669,9.19727],[-71.85436,9.1863],[-71.87091,9.18933],[-71.93946,9.1162],[-71.97957,9.09453],[-71.98772,9.08671],[-71.99528,9.09222],[-72.00523,9.08769],[-72.00723,9.09262],[-72.01646,9.09802],[-72.01794,9.10535],[-72.02251,9.1101],[-72.03581,9.09239],[-72.03651,9.08605],[-72.04065,9.08055],[-72.0397,9.07608],[-72.04761,9.06516],[-72.0565,9.06792],[-72.06246,9.06599],[-72.06709,9.0796],[-72.0715,9.06947],[-72.07724,9.07644],[-72.08141,9.07443],[-72.09377,9.07956],[-72.10129,9.07465],[-72.10501,9.07468],[-72.10908,9.08683],[-72.12015,9.09387],[-72.12333,9.09202],[-72.12582,9.09614],[-72.13133,9.09128],[-72.1347,9.09398],[-72.14286,9.09351],[-72.13934,9.09906],[-72.14013,9.10175],[-72.14753,9.10099],[-72.15487,9.09512],[-72.14862,9.08314],[-72.1491,9.07371],[-72.14524,9.06936],[-72.15111,9.05775],[-72.14836,9.04775],[-72.15379,9.04754],[-72.15574,9.04411],[-72.15166,9.03311],[-72.16226,9.03285],[-72.16293,9.03824],[-72.16617,9.04146],[-72.1745,9.0376],[-72.18209,9.03951],[-72.18621,9.03071],[-72.1917,9.02847],[-72.1911,9.02336],[-72.19406,9.02067],[-72.19314,9.01849],[-72.18729,9.01991],[-72.17871,9.01745],[-72.16715,9.00003],[-72.14991,8.99616],[-72.15217,8.93711],[-72.14432,8.90826],[-72.14498,8.87724],[-72.1494,8.84381],[-72.14558,8.81372],[-72.14511,8.78013],[-72.15403,8.74603],[-72.15514,8.70865],[-72.16172,8.65034],[-72.16,8.62066],[-72.16454,8.5775]]]}},{"type":"Feature","id":"relation/3447440","properties":{"name":"Municipio Javier Pulgar","level":6,"population":"33942"},"geometry":{"type":"Polygon","coordinates":[[[-71.44468,8.99786],[-71.45088,9.00059],[-71.45221,9.00776],[-71.45908,9.01081],[-71.46421,9.0198],[-71.46363,9.02264],[-71.45777,9.0241],[-71.44948,9.04057],[-71.45215,9.04362],[-71.45366,9.05318],[-71.54241,9.17652],[-71.59721,9.14955],[-71.61716,9.07998],[-71.61576,9.07391],[-71.63869,9.05803],[-71.66057,9.04747],[-71.66917,9.04725],[-71.67219,9.04499],[-71.67214,9.02126],[-71.66731,9.01156],[-71.65914,9.00669],[-71.66099,8.99992],[-71.65297,8.99845],[-71.6494,8.99449],[-71.65041,8.99038],[-71.64424,8.98566],[-71.65405,8.96023],[-71.64624,8.94375],[-71.65109,8.9399],[-71.65164,8.93632],[-71.6554,8.93556],[-71.65092,8.92796],[-71.65487,8.9293],[-71.65644,8.92688],[-71.65321,8.92222],[-71.64876,8.92292],[-71.64776,8.92021],[-71.65792,8.91767],[-71.65997,8.91352],[-71.6551,8.90953],[-71.6569,8.90358],[-71.6607,8.90076],[-71.66122,8.89574],[-71.65867,8.88722],[-71.65542,8.88523],[-71.6582,8.8799],[-71.65593,8.87404],[-71.66366,8.87232],[-71.65826,8.86682],[-71.66043,8.86482],[-71.66018,8.86011],[-71.66541,8.8568],[-71.66591,8.84999],[-71.67939,8.84018],[-71.67138,8.83175],[-71.67707,8.83191],[-71.6783,8.82706],[-71.68447,8.82535],[-71.68145,8.82214],[-71.6854,8.81361],[-71.68199,8.80887],[-71.68165,8.80332],[-71.68714,8.79433],[-71.67914,8.78454],[-71.68881,8.78252],[-71.68875,8.773],[-71.69307,8.76609],[-71.69124,8.75873],[-71.69954,8.75518],[-71.69746,8.74748],[-71.68996,8.74914],[-71.68846,8.74427],[-71.68486,8.74255],[-71.6855,8.73747],[-71.68271,8.73092],[-71.68524,8.72446],[-71.68174,8.72492],[-71.68059,8.72168],[-71.67652,8.72166],[-71.67723,8.71784],[-71.67469,8.71509],[-71.6704,8.71398],[-71.66743,8.71865],[-71.66709,8.71703],[-71.65948,8.72122],[-71.6578,8.72434],[-71.64963,8.72351],[-71.64623,8.72532],[-71.6443,8.72224],[-71.63932,8.72456],[-71.64258,8.72218],[-71.64027,8.72031],[-71.63778,8.72156],[-71.63789,8.71815],[-71.6268,8.72489],[-71.62562,8.72331],[-71.6192,8.72499],[-71.61736,8.72705],[-71.61868,8.72904],[-71.62139,8.72811],[-71.62151,8.73687],[-71.62663,8.74213],[-71.61694,8.7431],[-71.61989,8.74848],[-71.6171,8.7507],[-71.61189,8.74896],[-71.60873,8.75331],[-71.60825,8.75948],[-71.6018,8.7667],[-71.59643,8.76567],[-71.58595,8.79132],[-71.58136,8.78773],[-71.57416,8.77337],[-71.57056,8.7714],[-71.57011,8.77956],[-71.5623,8.78482],[-71.55676,8.78446],[-71.55613,8.78665],[-71.55903,8.78679],[-71.56166,8.79103],[-71.55999,8.79659],[-71.54747,8.80211],[-71.54714,8.81173],[-71.55154,8.8184],[-71.54692,8.82063],[-71.54504,8.8185],[-71.53906,8.82106],[-71.53973,8.81847],[-71.53153,8.82009],[-71.53236,8.82551],[-71.52148,8.83006],[-71.51813,8.82898],[-71.51501,8.83263],[-71.51785,8.83823],[-71.52081,8.83897],[-71.52228,8.84516],[-71.51382,8.84973],[-71.51236,8.85336],[-71.51474,8.85458],[-71.51327,8.85835],[-71.51711,8.86152],[-71.51535,8.86515],[-71.50465,8.86655],[-71.5047,8.86227],[-71.50218,8.86107],[-71.48751,8.86075],[-71.48144,8.85746],[-71.47916,8.85939],[-71.47571,8.85824],[-71.47488,8.86399],[-71.46166,8.86214],[-71.46167,8.86478],[-71.45185,8.86667],[-71.44803,8.87056],[-71.44285,8.87177],[-71.44374,8.89344],[-71.43809,8.88657],[-71.4319,8.88461],[-71.42807,8.88932],[-71.42687,8.88741],[-71.41117,8.88824],[-71.40954,8.88429],[-71.40403,8.88548],[-71.40364,8.88883],[-71.4158,8.91119],[-71.41392,8.91746],[-71.40879,8.92061],[-71.40928,8.92678],[-71.40497,8.92541],[-71.40419,8.92733],[-71.4064,8.9295],[-71.40519,8.93331],[-71.40863,8.93539],[-71.40587,8.93759],[-71.40649,8.94031],[-71.41025,8.94521],[-71.4031,8.94532],[-71.40276,8.9517],[-71.39603,8.95778],[-71.3994,8.95708],[-71.4008,8.95941],[-71.41228,8.96217],[-71.41841,8.97293],[-71.4268,8.97622],[-71.42784,8.98153],[-71.43407,8.98346],[-71.44468,8.99786]]]}},{"type":"Feature","id":"relation/3447441","properties":{"name":"Municipio Lossada","level":6,"population":"118756"},"geometry":{"type":"Polygon","coordinates":[[[-71.91672,10.50767],[-71.78059,10.50904],[-71.78175,10.76757],[-72.68159,10.77618],[-72.68253,10.76642],[-72.67976,10.76466],[-72.68255,10.76137],[-72.68958,10.75713],[-72.70457,10.75859],[-72.71084,10.75362],[-72.71686,10.73914],[-72.71147,10.73241],[-72.71651,10.7142],[-72.71117,10.70254],[-72.72672,10.69099],[-72.73,10.67529],[-72.73591,10.66649],[-72.73511,10.65146],[-72.74123,10.64793],[-72.7482,10.65211],[-72.74901,10.64046],[-72.75346,10.63419],[-72.76303,10.62437],[-72.78357,10.61551],[-72.79132,10.60157],[-72.79209,10.58737],[-72.82064,10.57021],[-72.82476,10.56406],[-72.82675,10.54745],[-72.83671,10.53856],[-72.84163,10.53901],[-72.83831,10.53159],[-72.83615,10.51285],[-72.84355,10.50732],[-72.84561,10.4858],[-72.85228,10.48106],[-72.85423,10.47419],[-72.86066,10.47186],[-72.86265,10.46355],[-72.87864,10.45531],[-72.89072,10.45308],[-72.8955,10.42791],[-72.89522,10.41105],[-72.89871,10.39968],[-72.89068,10.39666],[-72.88583,10.384],[-72.89396,10.3653],[-72.8388,10.36215],[-72.82758,10.36453],[-72.80097,10.35653],[-72.7897,10.35992],[-72.78608,10.36324],[-72.77775,10.38501],[-72.76836,10.39649],[-72.76505,10.40611],[-72.75279,10.41662],[-72.73376,10.42438],[-72.73244,10.41074],[-72.72981,10.40924],[-72.71166,10.41578],[-72.70275,10.423],[-72.69742,10.43185],[-72.68387,10.43417],[-72.6787,10.44508],[-72.67165,10.4477],[-72.67494,10.45544],[-72.67203,10.45753],[-72.67408,10.45863],[-72.67043,10.4593],[-72.66998,10.46518],[-72.6654,10.46461],[-72.66649,10.47092],[-72.66265,10.47845],[-72.65827,10.48128],[-72.65564,10.48701],[-72.6511,10.48872],[-72.65194,10.49203],[-72.64731,10.49039],[-72.64453,10.50129],[-72.64142,10.50008],[-72.64032,10.50407],[-72.64306,10.50679],[-72.63826,10.50949],[-72.64039,10.51743],[-72.6345,10.51753],[-72.63298,10.5233],[-72.62727,10.52543],[-72.62852,10.52865],[-72.62376,10.5269],[-72.62554,10.52941],[-72.62087,10.53049],[-72.62084,10.53576],[-72.61947,10.5344],[-72.61672,10.53634],[-72.61365,10.53942],[-72.61436,10.54163],[-72.60988,10.53957],[-72.60645,10.54415],[-72.59812,10.54638],[-72.59301,10.55795],[-72.57882,10.57294],[-72.57468,10.57624],[-72.56391,10.57531],[-72.55646,10.58305],[-72.55469,10.59062],[-72.54496,10.59055],[-72.53662,10.5941],[-72.53613,10.59934],[-72.53286,10.60235],[-72.52267,10.60359],[-72.52129,10.60838],[-72.51632,10.60864],[-72.51565,10.61215],[-72.50462,10.61652],[-72.5012,10.61444],[-72.49831,10.61936],[-72.491,10.61854],[-72.4859,10.62169],[-72.48347,10.61876],[-72.47993,10.62103],[-72.47429,10.616],[-72.44104,10.61185],[-72.4348,10.61947],[-72.43201,10.61823],[-72.41818,10.62314],[-72.40782,10.61622],[-72.39643,10.61469],[-72.3985,10.60816],[-72.38575,10.60422],[-72.37699,10.59627],[-72.37945,10.58901],[-72.37247,10.5869],[-72.37394,10.58065],[-72.36795,10.57878],[-72.36821,10.57453],[-72.36244,10.57147],[-72.36333,10.56911],[-72.35877,10.5622],[-72.3536,10.56079],[-72.35352,10.56595],[-72.3494,10.56786],[-72.3477,10.56223],[-72.3437,10.56142],[-72.34057,10.55224],[-72.33567,10.55371],[-72.33861,10.54405],[-72.33442,10.53774],[-72.3348,10.52544],[-72.32871,10.52601],[-72.32024,10.51344],[-71.91672,10.50767]]]}},{"type":"Feature","id":"relation/3447442","properties":{"name":"Municipio Sempr\u00fan","level":6,"population":"30484"},"geometry":{"type":"Polygon","coordinates":[[[-72.31551,8.88246],[-72.31719,8.89769],[-72.31334,8.905],[-72.31718,8.90938],[-72.3108,8.91317],[-72.31732,8.91788],[-72.31808,8.92088],[-72.31104,8.92497],[-72.30968,8.93565],[-72.31597,8.93876],[-72.3159,8.94761],[-72.32471,8.94444],[-72.32437,8.94789],[-72.31906,8.95194],[-72.31985,8.95467],[-72.32565,8.95189],[-72.32889,8.95357],[-72.32799,8.95784],[-72.32052,8.96329],[-72.32204,8.96647],[-72.32841,8.96868],[-72.32529,8.97641],[-72.3327,8.97071],[-72.33572,8.97392],[-72.32728,8.97861],[-72.32754,8.98796],[-72.32199,8.99235],[-72.31764,9.00082],[-72.31974,9.00662],[-72.31459,9.00428],[-72.31274,9.01054],[-72.30685,9.01261],[-72.30852,9.01886],[-72.30572,9.0274],[-72.31069,9.03057],[-72.30899,9.03468],[-72.31377,9.04231],[-72.30394,9.04786],[-72.30773,9.05048],[-72.30644,9.0563],[-72.31069,9.05618],[-72.31513,9.06459],[-72.31931,9.06415],[-72.32535,9.0554],[-72.33347,9.05655],[-72.33622,9.06171],[-72.33322,9.06809],[-72.3438,9.07123],[-72.33972,9.07879],[-72.34137,9.08328],[-72.34748,9.08355],[-72.35337,9.0758],[-72.35863,9.07491],[-72.35893,9.07876],[-72.35593,9.08095],[-72.36157,9.08499],[-72.38184,9.40113],[-72.37989,9.40471],[-72.38689,9.40436],[-72.38299,9.41103],[-72.38676,9.41022],[-72.39024,9.41391],[-72.38748,9.41737],[-72.39238,9.42169],[-72.39411,9.41802],[-72.39817,9.4196],[-72.39848,9.42299],[-72.40311,9.42406],[-72.40323,9.42124],[-72.40653,9.42295],[-72.40779,9.41958],[-72.41933,9.41797],[-72.41739,9.41416],[-72.42378,9.41461],[-72.42553,9.41135],[-72.43194,9.41189],[-72.43614,9.4159],[-72.43952,9.41493],[-72.44287,9.42073],[-72.44613,9.42171],[-72.44708,9.42883],[-72.45758,9.42833],[-72.4621,9.43524],[-72.4634,9.43214],[-72.46076,9.42664],[-72.46418,9.4277],[-72.46507,9.42386],[-72.46701,9.42553],[-72.47116,9.42395],[-72.47134,9.41709],[-72.47598,9.41773],[-72.47682,9.41047],[-72.4889,9.39843],[-72.48971,9.39011],[-72.49393,9.38463],[-72.49686,9.38262],[-72.50685,9.38303],[-72.5059,9.37999],[-72.5084,9.37877],[-72.50676,9.37539],[-72.51163,9.37195],[-72.5125,9.36647],[-72.51698,9.36939],[-72.51844,9.36549],[-72.51996,9.36785],[-72.5271,9.36587],[-72.52989,9.36818],[-72.53373,9.36356],[-72.53921,9.36654],[-72.54509,9.36473],[-72.54421,9.36657],[-72.5469,9.36847],[-72.55255,9.36548],[-72.55212,9.37222],[-72.55341,9.37017],[-72.55684,9.37443],[-72.5597,9.37445],[-72.56363,9.37143],[-72.56677,9.37539],[-72.56286,9.3761],[-72.5666,9.37733],[-72.56727,9.3805],[-72.57057,9.37879],[-72.57055,9.3763],[-72.57453,9.37941],[-72.57882,9.37418],[-72.58193,9.38104],[-72.58411,9.37841],[-72.58202,9.376],[-72.58465,9.37653],[-72.58323,9.37449],[-72.58588,9.37277],[-72.58626,9.37527],[-72.59381,9.37364],[-72.59558,9.3751],[-72.59048,9.37864],[-72.59521,9.37653],[-72.59745,9.37826],[-72.59601,9.38667],[-72.59993,9.38087],[-72.6053,9.3809],[-72.60267,9.38352],[-72.60701,9.38509],[-72.60453,9.38894],[-72.61417,9.39298],[-72.61255,9.39736],[-72.61539,9.39638],[-72.61416,9.39993],[-72.62233,9.39903],[-72.62358,9.40213],[-72.62806,9.3963],[-72.63132,9.39735],[-72.63063,9.40235],[-72.63583,9.40346],[-72.6353,9.40094],[-72.63786,9.40098],[-72.63822,9.39837],[-72.64176,9.39962],[-72.63949,9.39685],[-72.64479,9.39718],[-72.64529,9.39466],[-72.64271,9.39393],[-72.64671,9.38983],[-72.64561,9.39209],[-72.6488,9.39464],[-72.65587,9.39047],[-72.6562,9.39444],[-72.65944,9.39513],[-72.65857,9.39274],[-72.664,9.39018],[-72.6656,9.39207],[-72.67086,9.38986],[-72.6709,9.39261],[-72.67435,9.39273],[-72.67501,9.38818],[-72.67575,9.39194],[-72.67895,9.38928],[-72.67729,9.39396],[-72.68042,9.38945],[-72.68382,9.39134],[-72.68929,9.38872],[-72.68734,9.38737],[-72.69037,9.38356],[-72.69455,9.38777],[-72.69508,9.38497],[-72.69775,9.38474],[-72.69837,9.38856],[-72.70196,9.38617],[-72.70077,9.3836],[-72.70589,9.3823],[-72.70556,9.37959],[-72.70874,9.37991],[-72.70836,9.37644],[-72.7122,9.37871],[-72.71065,9.37312],[-72.71682,9.37691],[-72.71581,9.37425],[-72.72206,9.37168],[-72.72346,9.37746],[-72.73098,9.377],[-72.73262,9.3795],[-72.7357,9.3766],[-72.73428,9.37972],[-72.73754,9.37856],[-72.73628,9.38088],[-72.73831,9.38362],[-72.74109,9.37999],[-72.74246,9.38327],[-72.7454,9.38062],[-72.7449,9.3774],[-72.74785,9.37746],[-72.74711,9.38029],[-72.75049,9.38291],[-72.75412,9.37972],[-72.75227,9.37819],[-72.75511,9.37884],[-72.75589,9.37654],[-72.75853,9.37794],[-72.76046,9.37222],[-72.76314,9.37316],[-72.77194,9.36906],[-72.77318,9.36463],[-72.7797,9.36051],[-72.78434,9.37117],[-72.78661,9.36777],[-72.7919,9.36709],[-72.7968,9.36792],[-72.79407,9.36981],[-72.79746,9.3694],[-72.79724,9.3721],[-72.80113,9.37082],[-72.79836,9.36495],[-72.80061,9.36292],[-72.80073,9.35762],[-72.8068,9.3592],[-72.80326,9.35298],[-72.80605,9.35289],[-72.80492,9.35084],[-72.80697,9.34991],[-72.80581,9.348],[-72.80995,9.33936],[-72.81263,9.33944],[-72.81077,9.33668],[-72.81352,9.33165],[-72.81659,9.33464],[-72.82432,9.32626],[-72.82955,9.32618],[-72.83304,9.32308],[-72.83881,9.3267],[-72.83742,9.32866],[-72.84102,9.32939],[-72.84172,9.32684],[-72.84885,9.32333],[-72.8479,9.3208],[-72.85474,9.32084],[-72.85348,9.31735],[-72.85953,9.31542],[-72.86021,9.3095],[-72.86823,9.30788],[-72.86987,9.29942],[-72.87923,9.30021],[-72.88153,9.29671],[-72.88377,9.29792],[-72.88401,9.29551],[-72.89491,9.29918],[-72.90068,9.29389],[-72.90073,9.28792],[-72.90579,9.29139],[-72.90955,9.28578],[-72.91256,9.29103],[-72.92008,9.29538],[-72.92481,9.28988],[-72.92637,9.29396],[-72.93036,9.29469],[-72.92956,9.29815],[-72.93576,9.29458],[-72.93615,9.2977],[-72.94177,9.2975],[-72.94595,9.30144],[-72.95744,9.30255],[-72.96894,9.31339],[-72.97043,9.32108],[-72.96746,9.33039],[-72.96906,9.33424],[-72.95473,9.34548],[-72.94927,9.35483],[-72.93507,9.36833],[-72.93835,9.38485],[-72.93612,9.39549],[-72.94578,9.4202],[-72.95801,9.43275],[-72.96244,9.44446],[-72.9559,9.47336],[-72.98276,9.4874],[-73.03261,9.49881],[-73.03799,9.49558],[-73.04086,9.49005],[-73.04785,9.48694],[-73.06353,9.48498],[-73.07876,9.48806],[-73.08867,9.50053],[-73.0982,9.50214],[-73.104,9.50795],[-73.11877,9.51177],[-73.1482,9.53683],[-73.15632,9.52136],[-73.16377,9.51723],[-73.16583,9.51105],[-73.17678,9.5004],[-73.17249,9.49001],[-73.17202,9.48063],[-73.17494,9.4777],[-73.18598,9.47507],[-73.1965,9.47576],[-73.20326,9.46926],[-73.20156,9.46364],[-73.19365,9.45708],[-73.18976,9.44473],[-73.1988,9.43756],[-73.20729,9.42283],[-73.22103,9.42395],[-73.22346,9.41749],[-73.24089,9.4029],[-73.24166,9.39092],[-73.24669,9.37972],[-73.25734,9.37606],[-73.26113,9.37027],[-73.26307,9.35914],[-73.2591,9.34539],[-73.26194,9.33436],[-73.2656,9.3267],[-73.27051,9.32264],[-73.27342,9.32119],[-73.2788,9.32395],[-73.28408,9.32213],[-73.29036,9.30668],[-73.28934,9.30133],[-73.29334,9.2967],[-73.29256,9.29011],[-73.29672,9.28575],[-73.29624,9.27653],[-73.29897,9.26774],[-73.3042,9.26609],[-73.31568,9.24967],[-73.31682,9.24319],[-73.3222,9.23212],[-73.32625,9.2293],[-73.33103,9.21692],[-73.33375,9.21305],[-73.35296,9.21753],[-73.34705,9.21129],[-73.34652,9.20534],[-73.34989,9.1996],[-73.35148,9.18847],[-73.34816,9.18392],[-73.34726,9.1734],[-73.31661,9.16883],[-73.30068,9.17116],[-73.28042,9.16285],[-73.27602,9.1649],[-73.26704,9.16441],[-73.26329,9.16113],[-73.25712,9.16258],[-73.25529,9.16029],[-73.25272,9.16338],[-73.25282,9.15922],[-73.25015,9.15821],[-73.24352,9.16663],[-73.23933,9.16584],[-73.23497,9.1735],[-73.22486,9.17521],[-73.22243,9.1792],[-73.21472,9.18025],[-73.21378,9.18365],[-73.20966,9.17802],[-73.20703,9.1788],[-73.20731,9.18122],[-73.20484,9.17729],[-73.20293,9.18017],[-73.19294,9.17444],[-73.17658,9.17717],[-73.16251,9.19248],[-73.15767,9.19157],[-73.15857,9.19473],[-73.15045,9.1994],[-73.15295,9.2102],[-73.14824,9.20948],[-73.1474,9.21199],[-73.14451,9.2113],[-73.14425,9.2133],[-73.14184,9.21284],[-73.14028,9.21573],[-73.13734,9.21482],[-73.13636,9.21755],[-73.13211,9.21906],[-73.13341,9.22257],[-73.12993,9.22528],[-73.1313,9.22831],[-73.12298,9.22712],[-73.1173,9.23151],[-73.10867,9.22847],[-73.10652,9.23124],[-73.09901,9.22659],[-73.09036,9.22556],[-73.08249,9.24029],[-73.07927,9.239],[-73.07355,9.24309],[-73.07735,9.24642],[-73.07806,9.25052],[-73.07304,9.26339],[-73.07027,9.26453],[-73.06448,9.25896],[-73.06363,9.26279],[-73.05821,9.26308],[-73.05145,9.25832],[-73.04642,9.2626],[-73.04333,9.26242],[-73.04441,9.26898],[-73.04047,9.27061],[-73.03645,9.28212],[-73.03156,9.28591],[-73.02725,9.28002],[-73.02552,9.28576],[-73.01061,9.29129],[-73.00341,9.2864],[-73.00627,9.27493],[-72.99445,9.27171],[-72.9961,9.25851],[-72.98582,9.25294],[-72.98946,9.24407],[-72.98829,9.22911],[-72.99634,9.22663],[-72.99622,9.22079],[-72.9936,9.21983],[-72.98628,9.22319],[-72.98014,9.21624],[-72.97084,9.21307],[-72.96443,9.1994],[-72.96188,9.18439],[-72.95592,9.18124],[-72.95851,9.17541],[-72.96295,9.17246],[-72.96585,9.15547],[-72.97351,9.15389],[-72.98672,9.14531],[-72.98691,9.14236],[-72.97241,9.1359],[-72.95847,9.11136],[-72.94775,9.10575],[-72.94688,9.10232],[-72.95132,9.09715],[-72.9477,9.09165],[-72.93765,9.08998],[-72.93614,9.08502],[-72.93159,9.08317],[-72.92105,9.08839],[-72.91943,9.09388],[-72.89712,9.09785],[-72.89358,9.10368],[-72.88729,9.10294],[-72.88379,9.11094],[-72.88678,9.11459],[-72.8812,9.13296],[-72.86683,9.12913],[-72.84595,9.13036],[-72.83485,9.1223],[-72.82445,9.12163],[-72.82208,9.12507],[-72.82413,9.13646],[-72.82192,9.14054],[-72.80891,9.13118],[-72.80764,9.1268],[-72.81105,9.12083],[-72.7972,9.1207],[-72.79822,9.10826],[-72.79634,9.10323],[-72.79114,9.10541],[-72.78833,9.11306],[-72.7849,9.11528],[-72.77638,9.11388],[-72.77461,9.10309],[-72.76709,9.10636],[-72.76331,9.09316],[-72.77155,9.08983],[-72.77294,9.08648],[-72.77095,9.0845],[-72.76437,9.08487],[-72.76123,9.08187],[-72.76291,9.07663],[-72.74698,9.01429],[-72.71918,8.93456],[-72.69802,8.80641],[-72.65511,8.61466],[-72.63873,8.60806],[-72.63553,8.60065],[-72.63358,8.60123],[-72.63371,8.60656],[-72.62875,8.60628],[-72.62604,8.60125],[-72.63179,8.60061],[-72.63199,8.59714],[-72.61696,8.59511],[-72.61213,8.58653],[-72.61847,8.5878],[-72.61644,8.58269],[-72.61919,8.57804],[-72.61372,8.58022],[-72.61041,8.57862],[-72.49815,8.45726],[-72.48079,8.49242],[-72.44663,8.57556],[-72.43725,8.66258],[-72.43285,8.81565],[-72.38463,8.81166],[-72.38142,8.81281],[-72.3742,8.82252],[-72.35845,8.81994],[-72.34732,8.82337],[-72.34973,8.84135],[-72.34555,8.85811],[-72.33658,8.86378],[-72.32878,8.86335],[-72.32228,8.86973],[-72.31551,8.88246]]]}},{"type":"Feature","id":"relation/3447443","properties":{"name":"Municipio La Ca\u00f1ada","level":6,"population":"82210"},"geometry":{"type":"Polygon","coordinates":[[[-71.97959,10.08474],[-71.59106,10.08766],[-71.58951,10.19216],[-71.57321,10.51096],[-71.60709,10.51264],[-71.68637,10.50921],[-71.91672,10.50767],[-72.30978,10.51231],[-72.301,10.50551],[-72.29922,10.50127],[-72.29376,10.50159],[-72.29924,10.49453],[-72.29297,10.49688],[-72.29434,10.48966],[-72.28809,10.47896],[-72.28462,10.47892],[-72.28665,10.47363],[-72.27775,10.46938],[-72.28031,10.46296],[-72.28271,10.46271],[-72.28214,10.45976],[-72.27901,10.46049],[-72.27708,10.45327],[-72.28091,10.45071],[-72.27786,10.44724],[-72.27433,10.44714],[-72.27389,10.44468],[-72.27634,10.44327],[-72.2727,10.44316],[-72.27294,10.43888],[-72.27636,10.43996],[-72.27522,10.43365],[-72.27244,10.43297],[-72.27455,10.43073],[-72.27232,10.42913],[-72.27296,10.42576],[-72.27528,10.42331],[-72.27159,10.4205],[-72.2717,10.41794],[-72.26796,10.42025],[-72.26789,10.41589],[-72.26516,10.41481],[-72.26768,10.41249],[-72.26207,10.41163],[-72.26303,10.40805],[-72.25201,10.41024],[-72.25294,10.40775],[-72.24493,10.40399],[-72.24494,10.40766],[-72.24176,10.40832],[-72.24212,10.41275],[-72.23702,10.41153],[-72.23584,10.40689],[-72.23523,10.41083],[-72.23256,10.40808],[-72.22905,10.41314],[-72.2243,10.40913],[-72.2277,10.40105],[-72.22195,10.4038],[-72.22078,10.39978],[-72.21874,10.40359],[-72.219,10.39975],[-72.21672,10.39941],[-72.21693,10.40364],[-72.21377,10.40474],[-72.21345,10.40203],[-72.20813,10.39823],[-72.2087,10.39472],[-72.20072,10.39911],[-72.19642,10.39793],[-72.19354,10.39277],[-72.19258,10.39568],[-72.18993,10.39195],[-72.18824,10.39433],[-72.18491,10.393],[-72.18354,10.3884],[-72.18045,10.38842],[-72.18125,10.38567],[-72.18595,10.38575],[-72.18694,10.38871],[-72.18634,10.38438],[-72.19042,10.38218],[-72.18935,10.37983],[-72.19145,10.38039],[-72.18785,10.37883],[-72.18735,10.37573],[-72.18217,10.37592],[-72.18349,10.37268],[-72.18146,10.36717],[-72.17816,10.36919],[-72.17913,10.37282],[-72.17232,10.37125],[-72.16962,10.36523],[-72.17019,10.35906],[-72.16755,10.35719],[-72.16393,10.35868],[-72.16466,10.35545],[-72.16248,10.35346],[-72.15892,10.35486],[-72.15969,10.35148],[-72.15754,10.35248],[-72.15449,10.34683],[-72.14958,10.34501],[-72.14614,10.34745],[-72.14866,10.34146],[-72.13966,10.34084],[-72.14069,10.33883],[-72.13801,10.33788],[-71.99618,10.10641],[-71.97959,10.08474]]]}},{"type":"Feature","id":"relation/3447444","properties":{"name":"Municipio Machiques","level":6,"population":"122734"},"geometry":{"type":"Polygon","coordinates":[[[-72.47587,10.21722],[-72.48044,10.21862],[-72.48092,10.22118],[-72.51408,10.22362],[-72.52819,10.2348],[-72.54561,10.23656],[-72.57872,10.1969],[-72.58483,10.19561],[-72.59251,10.20199],[-72.59646,10.20148],[-72.59758,10.20648],[-72.5997,10.20403],[-72.60594,10.20619],[-72.60425,10.20809],[-72.60845,10.21257],[-72.61234,10.21062],[-72.61275,10.21866],[-72.60696,10.22863],[-72.61042,10.23117],[-72.6051,10.23341],[-72.60853,10.23431],[-72.60742,10.23667],[-72.6109,10.23838],[-72.61277,10.23624],[-72.61417,10.23963],[-72.61664,10.23756],[-72.61645,10.23988],[-72.619,10.24054],[-72.61805,10.24415],[-72.62271,10.24399],[-72.6249,10.24722],[-72.63761,10.2509],[-72.63671,10.25265],[-72.641,10.25591],[-72.64315,10.263],[-72.64782,10.26614],[-72.65154,10.26368],[-72.65735,10.26407],[-72.67176,10.27],[-72.68036,10.2774],[-72.68059,10.28105],[-72.68841,10.2864],[-72.68282,10.2975],[-72.68709,10.30548],[-72.74947,10.30476],[-72.75438,10.31086],[-72.75479,10.31542],[-72.76187,10.31884],[-72.77024,10.32043],[-72.78302,10.31684],[-72.79162,10.31707],[-72.79222,10.31957],[-72.79484,10.31847],[-72.81643,10.32612],[-72.82079,10.33355],[-72.83072,10.33595],[-72.8331,10.33963],[-72.83461,10.33741],[-72.84375,10.33756],[-72.85016,10.3471],[-72.85689,10.34982],[-72.86411,10.35752],[-72.87528,10.35785],[-72.89075,10.35242],[-72.90664,10.35316],[-72.90562,10.32308],[-72.89744,10.3119],[-72.90161,10.29426],[-72.90574,10.28745],[-72.90391,10.2785],[-72.90728,10.26662],[-72.90155,10.24809],[-72.90328,10.24326],[-72.90202,10.23141],[-72.90412,10.22813],[-72.89728,10.21745],[-72.89962,10.20931],[-72.90935,10.20416],[-72.90722,10.18998],[-72.9082,10.17566],[-72.91749,10.16128],[-72.92158,10.13808],[-72.91163,10.11272],[-72.91325,10.11019],[-72.92202,10.10893],[-72.92169,10.10409],[-72.92585,10.09568],[-72.92392,10.09136],[-72.94118,10.07995],[-72.94543,10.06999],[-72.95409,10.066],[-72.95444,10.05815],[-72.95793,10.05377],[-72.95324,10.04037],[-72.95281,10.02637],[-72.96325,10.01782],[-72.96095,10.00714],[-72.9666,9.99637],[-72.97506,9.99287],[-72.98277,9.9764],[-72.98489,9.97063],[-72.98031,9.96441],[-72.98035,9.9597],[-72.98647,9.95392],[-72.98853,9.94279],[-72.99904,9.92387],[-72.99356,9.91564],[-72.98677,9.91418],[-72.98434,9.90829],[-72.98821,9.89746],[-72.97747,9.88877],[-72.99404,9.87808],[-72.99281,9.87503],[-72.97147,9.86858],[-72.97004,9.85362],[-72.96407,9.85389],[-72.95033,9.84922],[-72.94544,9.83763],[-72.94997,9.83588],[-72.95002,9.83086],[-72.95504,9.8286],[-72.95705,9.82141],[-72.96555,9.81712],[-72.97879,9.79899],[-72.98899,9.79088],[-73.00138,9.76499],[-72.99997,9.75867],[-73.00418,9.75263],[-73.00542,9.74097],[-73.01173,9.7352],[-73.01712,9.73373],[-73.01976,9.72666],[-73.02739,9.72019],[-73.02774,9.71382],[-73.03355,9.71171],[-73.03536,9.70088],[-73.04415,9.69398],[-73.04764,9.68583],[-73.052,9.68358],[-73.05482,9.67826],[-73.05512,9.67173],[-73.06096,9.65791],[-73.05842,9.65012],[-73.07418,9.62704],[-73.07853,9.61227],[-73.07327,9.60515],[-73.08662,9.56753],[-73.08519,9.55628],[-73.10316,9.55663],[-73.11082,9.55335],[-73.12697,9.55475],[-73.13172,9.5508],[-73.13667,9.55047],[-73.1482,9.53683],[-73.11877,9.51177],[-73.104,9.50795],[-73.0982,9.50214],[-73.08867,9.50053],[-73.07876,9.48806],[-73.06353,9.48498],[-73.04785,9.48694],[-73.04086,9.49005],[-73.03799,9.49558],[-73.03261,9.49881],[-72.98276,9.4874],[-72.9559,9.47336],[-72.96244,9.44446],[-72.95801,9.43275],[-72.94578,9.4202],[-72.93612,9.39549],[-72.93835,9.38485],[-72.93507,9.36833],[-72.94927,9.35483],[-72.95473,9.34548],[-72.96914,9.33409],[-72.96746,9.33039],[-72.97043,9.32108],[-72.96894,9.31339],[-72.95768,9.30267],[-72.94595,9.30144],[-72.94177,9.2975],[-72.93615,9.2977],[-72.93576,9.29458],[-72.92956,9.29815],[-72.93036,9.29469],[-72.92637,9.29396],[-72.92481,9.28988],[-72.92008,9.29538],[-72.91256,9.29103],[-72.90955,9.28578],[-72.90579,9.29139],[-72.90128,9.28753],[-72.89928,9.29222],[-72.90068,9.29389],[-72.89491,9.29918],[-72.88401,9.29551],[-72.88377,9.29792],[-72.88153,9.29671],[-72.87941,9.30016],[-72.86969,9.29954],[-72.86823,9.30788],[-72.86021,9.3095],[-72.85953,9.31542],[-72.85348,9.31735],[-72.85474,9.32084],[-72.8479,9.3208],[-72.84885,9.32333],[-72.84172,9.32684],[-72.84112,9.32934],[-72.83742,9.32866],[-72.83881,9.3267],[-72.83304,9.32308],[-72.82955,9.32618],[-72.82432,9.32626],[-72.81659,9.33464],[-72.81352,9.33165],[-72.81077,9.33668],[-72.81263,9.33944],[-72.80995,9.33936],[-72.80581,9.348],[-72.80697,9.34991],[-72.80492,9.35084],[-72.80605,9.35289],[-72.80326,9.35298],[-72.8068,9.3592],[-72.80073,9.35762],[-72.80061,9.36292],[-72.79847,9.3642],[-72.80098,9.37102],[-72.797,9.3721],[-72.79746,9.3694],[-72.79407,9.36981],[-72.7968,9.36792],[-72.79158,9.36708],[-72.78661,9.36777],[-72.78478,9.37139],[-72.78343,9.36563],[-72.77978,9.36313],[-72.78029,9.3608],[-72.77796,9.36083],[-72.77262,9.36537],[-72.77213,9.36892],[-72.76314,9.37316],[-72.76046,9.37222],[-72.75853,9.37794],[-72.75303,9.37762],[-72.75407,9.37983],[-72.75049,9.38291],[-72.74711,9.38029],[-72.74824,9.3777],[-72.74532,9.37726],[-72.74531,9.38075],[-72.74206,9.38333],[-72.74063,9.3801],[-72.73831,9.38362],[-72.73628,9.38088],[-72.73754,9.37856],[-72.73428,9.37972],[-72.7357,9.3766],[-72.73262,9.3795],[-72.73098,9.377],[-72.72346,9.37746],[-72.72206,9.37168],[-72.71581,9.37425],[-72.71682,9.37691],[-72.71065,9.37312],[-72.7122,9.37871],[-72.70836,9.37644],[-72.70874,9.37991],[-72.70556,9.37959],[-72.70589,9.3823],[-72.70077,9.3836],[-72.70196,9.38617],[-72.69837,9.38856],[-72.69775,9.38474],[-72.69508,9.38497],[-72.69455,9.38777],[-72.69037,9.38356],[-72.68734,9.38737],[-72.68929,9.38872],[-72.68382,9.39134],[-72.68042,9.38945],[-72.67729,9.39396],[-72.67895,9.38928],[-72.67575,9.39194],[-72.67501,9.38818],[-72.67435,9.39273],[-72.6709,9.39261],[-72.67086,9.38986],[-72.6656,9.39207],[-72.664,9.39018],[-72.65857,9.39274],[-72.65944,9.39513],[-72.6562,9.39444],[-72.65587,9.39047],[-72.6488,9.39464],[-72.64561,9.39209],[-72.64671,9.38983],[-72.64271,9.39393],[-72.64529,9.39466],[-72.64479,9.39718],[-72.63949,9.39685],[-72.64176,9.39962],[-72.63822,9.39837],[-72.63786,9.40098],[-72.6353,9.40094],[-72.63604,9.40346],[-72.63063,9.40235],[-72.63132,9.39735],[-72.62806,9.3963],[-72.62358,9.40213],[-72.62233,9.39903],[-72.61416,9.39993],[-72.61539,9.39638],[-72.61255,9.39736],[-72.61417,9.39298],[-72.60453,9.38894],[-72.60701,9.38509],[-72.60267,9.38352],[-72.6053,9.3809],[-72.59993,9.38087],[-72.59601,9.38667],[-72.59745,9.37826],[-72.59521,9.37653],[-72.59048,9.37864],[-72.59558,9.3751],[-72.59359,9.37357],[-72.58329,9.37441],[-72.58483,9.37623],[-72.58202,9.376],[-72.58411,9.37841],[-72.58193,9.38104],[-72.57882,9.37418],[-72.57453,9.37941],[-72.57055,9.3763],[-72.57057,9.37879],[-72.56727,9.3805],[-72.5666,9.37733],[-72.56286,9.3761],[-72.56677,9.37539],[-72.56363,9.37143],[-72.5597,9.37445],[-72.55684,9.37443],[-72.55341,9.37017],[-72.55212,9.37222],[-72.55255,9.36548],[-72.5469,9.36847],[-72.54421,9.36657],[-72.54509,9.36473],[-72.53921,9.36654],[-72.53373,9.36356],[-72.52989,9.36818],[-72.5271,9.36587],[-72.51996,9.36785],[-72.51844,9.36549],[-72.51698,9.36939],[-72.51273,9.36638],[-72.51163,9.37195],[-72.50676,9.37539],[-72.5084,9.37877],[-72.5059,9.37999],[-72.507,9.38288],[-72.49686,9.38262],[-72.49393,9.38463],[-72.48971,9.39011],[-72.4889,9.39843],[-72.47682,9.41047],[-72.47598,9.41773],[-72.47134,9.41709],[-72.47116,9.42395],[-72.46701,9.42553],[-72.46507,9.42386],[-72.46418,9.4277],[-72.46095,9.42638],[-72.4634,9.43214],[-72.4621,9.43524],[-72.45758,9.42833],[-72.44708,9.42883],[-72.44613,9.42171],[-72.44287,9.42073],[-72.43952,9.41493],[-72.43614,9.4159],[-72.43194,9.41189],[-72.42553,9.41135],[-72.42378,9.41461],[-72.41739,9.41416],[-72.41933,9.41797],[-72.40779,9.41958],[-72.40653,9.42295],[-72.40323,9.42124],[-72.40311,9.42406],[-72.39848,9.42299],[-72.39817,9.4196],[-72.39411,9.41802],[-72.39385,9.42157],[-72.39204,9.42155],[-72.38744,9.41722],[-72.39049,9.4142],[-72.38676,9.41022],[-72.38299,9.41103],[-72.38689,9.40436],[-72.37991,9.40485],[-72.38183,9.40165],[-72.38128,9.39314],[-72.37565,9.39635],[-72.37254,9.39406],[-72.37338,9.39178],[-72.36667,9.39392],[-72.36516,9.39227],[-72.36224,9.39368],[-72.36412,9.39701],[-72.36083,9.39729],[-72.36132,9.40093],[-72.35832,9.39755],[-72.36007,9.40229],[-72.35863,9.40552],[-72.35676,9.40635],[-72.35616,9.40314],[-72.35231,9.40213],[-72.3552,9.40931],[-72.35104,9.40772],[-72.34828,9.40179],[-72.34565,9.40713],[-72.34638,9.41167],[-72.33378,9.40623],[-72.33206,9.41034],[-72.33437,9.41184],[-72.33349,9.41418],[-72.32964,9.41147],[-72.3257,9.41421],[-72.33298,9.41589],[-72.33367,9.4198],[-72.32661,9.4189],[-72.32556,9.42051],[-72.32843,9.42052],[-72.3292,9.42353],[-72.31989,9.42153],[-72.31989,9.42465],[-72.32562,9.42537],[-72.32544,9.42787],[-72.31568,9.4304],[-72.31028,9.42886],[-72.3121,9.43319],[-72.30715,9.4321],[-72.30328,9.43537],[-72.30067,9.4424],[-72.29826,9.44259],[-72.29614,9.43578],[-72.29355,9.44232],[-72.29033,9.44104],[-72.29165,9.43412],[-72.28631,9.43323],[-72.28607,9.43043],[-72.28876,9.42883],[-72.28709,9.42814],[-72.27405,9.43139],[-72.27547,9.43449],[-72.2712,9.43586],[-72.2775,9.43803],[-72.27085,9.43736],[-72.27016,9.44188],[-72.26405,9.4445],[-72.26719,9.45095],[-72.26144,9.45036],[-72.2638,9.44735],[-72.26091,9.44678],[-72.25845,9.45649],[-72.25635,9.45329],[-72.25379,9.45727],[-72.25981,9.46247],[-72.25459,9.46522],[-72.2579,9.46572],[-72.25969,9.47122],[-72.26409,9.47146],[-72.26054,9.47701],[-72.25404,9.48028],[-72.25729,9.48176],[-72.25661,9.48376],[-72.25022,9.48656],[-72.25561,9.49293],[-72.24712,9.49549],[-72.2466,9.49924],[-72.25174,9.50323],[-72.24881,9.50583],[-72.24357,9.49881],[-72.24078,9.50189],[-72.24334,9.50486],[-72.23523,9.50836],[-72.23531,9.51343],[-72.22995,9.51127],[-72.23197,9.51672],[-72.22717,9.51321],[-72.22993,9.52333],[-72.22459,9.52518],[-72.2275,9.52944],[-72.22122,9.53118],[-72.22235,9.53817],[-72.21838,9.54175],[-72.21768,9.53784],[-72.21542,9.538],[-72.21599,9.54686],[-72.21437,9.54763],[-72.21059,9.54333],[-72.21,9.54991],[-72.20599,9.55305],[-72.2101,9.56205],[-72.2182,9.56349],[-72.21301,9.57931],[-72.20915,9.58152],[-72.20638,9.57691],[-72.19698,9.57635],[-72.19745,9.58173],[-72.19368,9.58171],[-72.19491,9.58646],[-72.19216,9.58984],[-72.19394,9.59407],[-72.19082,9.6018],[-72.18296,9.59927],[-72.18391,9.59349],[-72.17634,9.59073],[-72.17222,9.5919],[-72.16849,9.58838],[-72.16315,9.59573],[-72.15606,9.59281],[-72.15775,9.59963],[-72.15532,9.60211],[-72.1517,9.59844],[-72.14454,9.59698],[-72.14083,9.59278],[-72.13746,9.59771],[-72.14205,9.60282],[-72.14106,9.60827],[-72.13692,9.6076],[-72.12965,9.612],[-72.12642,9.60392],[-72.1237,9.60752],[-72.12006,9.60691],[-72.11719,9.60946],[-72.11306,9.60543],[-72.10631,9.60627],[-72.10119,9.60325],[-72.10131,9.60066],[-72.09759,9.60193],[-72.08984,9.59815],[-72.08711,9.59965],[-72.08541,9.59502],[-72.08758,9.59024],[-72.0834,9.58373],[-72.07864,9.58322],[-72.08089,9.58644],[-72.07912,9.58786],[-72.07556,9.58301],[-72.06823,9.5822],[-72.06543,9.57],[-72.06078,9.57434],[-72.05567,9.57318],[-72.05408,9.57533],[-72.04176,9.57697],[-72.03298,9.5741],[-72.02859,9.56955],[-72.01628,9.56447],[-72.02022,9.56266],[-72.02448,9.5561],[-72.0237,9.54377],[-72.02886,9.53628],[-72.02759,9.52314],[-72.00625,9.51538],[-72.00467,9.50397],[-71.99228,9.50109],[-71.98701,9.4947],[-71.98007,9.49392],[-71.97495,9.48913],[-71.96371,9.49719],[-71.95396,9.50947],[-71.95265,9.52359],[-71.94722,9.52223],[-71.92954,9.50469],[-71.9263,9.50416],[-71.95544,9.53876],[-71.49294,9.65817],[-71.56315,9.95788],[-72.10529,9.8346],[-72.11942,9.84471],[-72.12008,9.84953],[-72.13145,9.8667],[-72.13275,9.87731],[-72.1288,9.88508],[-72.13132,9.89181],[-72.13968,9.89241],[-72.13859,9.89866],[-72.14643,9.9012],[-72.14775,9.91131],[-72.15375,9.91881],[-72.15852,9.91844],[-72.16216,9.92089],[-72.16127,9.92361],[-72.16772,9.92603],[-72.16823,9.92945],[-72.17948,9.9318],[-72.17792,9.93542],[-72.18217,9.94226],[-72.18581,9.94449],[-72.18791,9.94422],[-72.1886,9.94047],[-72.20043,9.94427],[-72.2011,9.94239],[-72.2041,9.94386],[-72.20321,9.94072],[-72.20793,9.94075],[-72.20942,9.94398],[-72.20994,9.9415],[-72.21396,9.94193],[-72.21383,9.94479],[-72.22037,9.94726],[-72.21774,9.94925],[-72.22061,9.95147],[-72.22932,9.95215],[-72.22879,9.95507],[-72.23231,9.95354],[-72.23104,9.95456],[-72.2348,9.95898],[-72.23353,9.96066],[-72.23597,9.96148],[-72.23748,9.95782],[-72.23925,9.962],[-72.24099,9.95945],[-72.24296,9.96025],[-72.24163,9.96649],[-72.24604,9.96495],[-72.24432,9.96914],[-72.24778,9.96821],[-72.24754,9.9709],[-72.25396,9.97025],[-72.25508,9.97251],[-72.25562,9.97037],[-72.26347,9.96886],[-72.26443,9.96607],[-72.26917,9.96871],[-72.26737,9.97008],[-72.27144,9.97255],[-72.27015,9.97485],[-72.27292,9.97431],[-72.27001,9.97991],[-72.27339,9.98079],[-72.27192,9.9825],[-72.27356,9.98491],[-72.27159,9.98575],[-72.27549,9.98737],[-72.27352,9.98746],[-72.27258,9.99204],[-72.27832,9.99356],[-72.28081,10.0066],[-72.28506,10.00776],[-72.2838,10.01061],[-72.28637,10.01091],[-72.28561,10.01337],[-72.28985,10.01624],[-72.28801,10.01874],[-72.29175,10.01888],[-72.28805,10.02434],[-72.2892,10.03101],[-72.28704,10.02953],[-72.28356,10.03309],[-72.28977,10.03883],[-72.28861,10.0424],[-72.29202,10.04343],[-72.28955,10.04547],[-72.29177,10.04873],[-72.3011,10.05141],[-72.30163,10.04678],[-72.30611,10.05123],[-72.30779,10.04923],[-72.30976,10.05153],[-72.31185,10.04882],[-72.31335,10.05271],[-72.31882,10.05139],[-72.32079,10.05342],[-72.31753,10.05524],[-72.32147,10.06053],[-72.32339,10.05984],[-72.32297,10.05656],[-72.32464,10.0587],[-72.32867,10.05691],[-72.32914,10.05966],[-72.33242,10.05746],[-72.3356,10.063],[-72.33766,10.05817],[-72.3406,10.05735],[-72.34022,10.06177],[-72.34353,10.06049],[-72.34648,10.06276],[-72.34682,10.06969],[-72.3508,10.06764],[-72.35353,10.06974],[-72.35204,10.07085],[-72.35594,10.07154],[-72.35411,10.07765],[-72.3558,10.07527],[-72.35742,10.07751],[-72.36008,10.07567],[-72.36037,10.07841],[-72.36412,10.0788],[-72.36279,10.08402],[-72.36666,10.084],[-72.36923,10.08091],[-72.36882,10.08334],[-72.37278,10.08266],[-72.37067,10.08509],[-72.37453,10.08706],[-72.37384,10.08898],[-72.37961,10.08931],[-72.37686,10.09204],[-72.37838,10.0942],[-72.38355,10.09229],[-72.38039,10.10313],[-72.39067,10.10761],[-72.38859,10.11082],[-72.39062,10.11179],[-72.39029,10.11527],[-72.39911,10.1232],[-72.40034,10.12887],[-72.40579,10.12739],[-72.41016,10.13335],[-72.41356,10.13361],[-72.41498,10.13876],[-72.41793,10.13758],[-72.42176,10.14007],[-72.42282,10.14369],[-72.42115,10.14284],[-72.42008,10.14584],[-72.42411,10.14718],[-72.42252,10.1509],[-72.42551,10.153],[-72.42465,10.15453],[-72.42735,10.15467],[-72.42725,10.15655],[-72.42885,10.15523],[-72.43131,10.15782],[-72.4302,10.15984],[-72.43637,10.16216],[-72.43223,10.17122],[-72.4347,10.17464],[-72.43128,10.17743],[-72.4371,10.17629],[-72.4392,10.18009],[-72.4412,10.17664],[-72.44615,10.17835],[-72.44564,10.18032],[-72.45013,10.18008],[-72.45045,10.18256],[-72.45617,10.1818],[-72.46001,10.19227],[-72.45827,10.19353],[-72.46248,10.19526],[-72.45987,10.19892],[-72.46223,10.20012],[-72.46175,10.20288],[-72.46647,10.20198],[-72.46654,10.20697],[-72.46914,10.20758],[-72.46524,10.21395],[-72.46787,10.21377],[-72.47496,10.21996],[-72.47587,10.21722]]]}},{"type":"Feature","id":"relation/3447445","properties":{"name":"Municipio Mara","level":6,"population":"207221"},"geometry":{"type":"Polygon","coordinates":[[[-72.68073,10.77921],[-72.68159,10.77618],[-71.93739,10.76861],[-71.63457,10.76915],[-71.66898,10.87563],[-71.71171,10.9792],[-71.75885,11.0002],[-71.77274,10.99874],[-71.78576,11.00668],[-71.80132,11.00639],[-71.81091,10.99645],[-71.81767,10.99777],[-71.82341,10.99596],[-71.83239,10.99968],[-71.84484,10.99877],[-71.84589,11.00568],[-71.85252,11.01121],[-71.85181,11.02204],[-71.8482,11.0292],[-71.85711,11.03904],[-71.86707,11.04097],[-71.86861,11.04556],[-71.87168,11.04647],[-71.87095,11.05004],[-71.8841,11.04792],[-71.88561,11.05142],[-71.8967,11.05138],[-71.89732,11.05995],[-71.91919,11.06118],[-71.92413,11.0566],[-71.93937,11.08002],[-71.94705,11.07933],[-71.94771,11.08447],[-71.9502,11.08316],[-71.95162,11.08663],[-71.95469,11.08548],[-71.95867,11.09134],[-71.95831,11.09633],[-71.96428,11.09749],[-71.97201,11.09387],[-71.97639,11.08859],[-71.9771,11.09201],[-71.9867,11.08909],[-71.98774,11.08577],[-71.99208,11.08367],[-71.991,11.07944],[-71.99544,11.07414],[-71.99027,11.07002],[-71.99924,11.06312],[-71.99658,11.05944],[-72.00005,11.05825],[-71.99544,11.05405],[-71.99758,11.05062],[-71.99612,11.0461],[-72.00044,11.04678],[-72.00162,11.04268],[-72.00818,11.04396],[-72.00518,11.03918],[-72.00876,11.03425],[-72.02041,11.03744],[-72.01967,11.04444],[-72.02307,11.04672],[-72.02749,11.04335],[-72.02634,11.04814],[-72.02788,11.04902],[-72.02993,11.04605],[-72.03285,11.05136],[-72.03756,11.04856],[-72.04143,11.05037],[-72.04268,11.04717],[-72.05076,11.0451],[-72.05306,11.04613],[-72.05298,11.05162],[-72.05929,11.05299],[-72.05949,11.06019],[-72.06742,11.05799],[-72.06848,11.06669],[-72.07692,11.0702],[-72.07404,11.07457],[-72.07731,11.08036],[-72.07139,11.08635],[-72.07412,11.08909],[-72.07701,11.08571],[-72.082,11.0892],[-72.08203,11.08612],[-72.08544,11.08482],[-72.08801,11.07895],[-72.09455,11.08353],[-72.09603,11.0748],[-72.10085,11.07789],[-72.10528,11.07251],[-72.10873,11.07182],[-72.11473,11.07785],[-72.1163,11.0729],[-72.11904,11.07725],[-72.12464,11.07347],[-72.13415,11.07933],[-72.13145,11.08366],[-72.13378,11.08877],[-72.1425,11.08911],[-72.14368,11.0851],[-72.13673,11.08139],[-72.14103,11.0739],[-72.14433,11.07146],[-72.14317,11.07805],[-72.14838,11.07953],[-72.14777,11.0745],[-72.15399,11.06883],[-72.16357,11.07724],[-72.16427,11.07153],[-72.16107,11.06747],[-72.16258,11.06564],[-72.17118,11.07049],[-72.17017,11.07611],[-72.16539,11.07981],[-72.17143,11.08532],[-72.1776,11.08565],[-72.17367,11.09059],[-72.17466,11.09206],[-72.18202,11.09349],[-72.18314,11.08489],[-72.18571,11.08329],[-72.19351,11.09147],[-72.19733,11.09205],[-72.20452,11.08809],[-72.20589,11.08263],[-72.20511,11.08034],[-72.20035,11.08214],[-72.1968,11.06976],[-72.20334,11.06388],[-72.21206,11.06305],[-72.21471,11.05998],[-72.21475,11.05378],[-72.22012,11.05714],[-72.21749,11.06996],[-72.22279,11.0763],[-72.22823,11.07169],[-72.23548,11.07196],[-72.23762,11.05773],[-72.24418,11.06396],[-72.25037,11.06475],[-72.24886,11.07153],[-72.25174,11.07513],[-72.25776,11.07005],[-72.26283,11.07122],[-72.2659,11.08111],[-72.27816,11.07327],[-72.29086,11.0776],[-72.29898,11.07727],[-72.30927,11.08125],[-72.31252,11.08496],[-72.32283,11.08387],[-72.3452,11.08951],[-72.36386,11.08844],[-72.36314,11.09137],[-72.48186,11.05854],[-72.49853,11.04129],[-72.50505,11.03792],[-72.50874,11.02276],[-72.5176,11.01912],[-72.51926,11.01367],[-72.52604,11.01188],[-72.526,11.00822],[-72.51909,11.00318],[-72.5189,11.00063],[-72.52281,10.99611],[-72.52713,10.99602],[-72.535,10.98745],[-72.53819,10.98058],[-72.53715,10.97491],[-72.55015,10.95214],[-72.55377,10.9402],[-72.56097,10.93353],[-72.56336,10.92795],[-72.57193,10.92266],[-72.5752,10.9152],[-72.60391,10.89749],[-72.61252,10.88264],[-72.62041,10.88701],[-72.63905,10.88486],[-72.64897,10.87955],[-72.65008,10.86702],[-72.65874,10.85569],[-72.65807,10.85108],[-72.66338,10.83787],[-72.66254,10.82955],[-72.66884,10.82275],[-72.67595,10.81942],[-72.6754,10.80656],[-72.68266,10.79585],[-72.6782,10.78341],[-72.68073,10.77921]]]}},{"type":"Feature","id":"relation/3447446","properties":{"name":"Municipio Maracaibo","level":6,"population":"1459448"},"geometry":{"type":"Polygon","coordinates":[[[-71.56699,10.63259],[-71.56254,10.71965],[-71.60849,10.76894],[-71.78175,10.76757],[-71.78005,10.60317],[-71.77819,10.60162],[-71.77335,10.60282],[-71.67383,10.58427],[-71.6617,10.58703],[-71.65,10.58332],[-71.64238,10.59606],[-71.61873,10.59604],[-71.61382,10.59292],[-71.56901,10.59316],[-71.56699,10.63259]]]}},{"type":"Feature","id":"relation/3447447","properties":{"name":"Municipio La Guajira","level":6,"population":"65545"},"geometry":{"type":"Polygon","coordinates":[[[-72.40686,11.12671],[-72.4233,11.1258],[-72.42543,11.12189],[-72.42933,11.12238],[-72.43882,11.11528],[-72.44359,11.12766],[-72.45616,11.11957],[-72.46009,11.11369],[-72.46502,11.11264],[-72.48467,11.09916],[-72.49048,11.08905],[-72.49826,11.08505],[-72.49042,11.07809],[-72.48558,11.06248],[-72.48186,11.05854],[-72.36314,11.09137],[-72.36386,11.08844],[-72.3452,11.08951],[-72.32283,11.08387],[-72.31252,11.08496],[-72.30927,11.08125],[-72.29898,11.07727],[-72.29086,11.0776],[-72.27816,11.07327],[-72.2659,11.08111],[-72.26283,11.07122],[-72.25776,11.07005],[-72.25174,11.07513],[-72.24886,11.07153],[-72.25037,11.06475],[-72.24418,11.06396],[-72.23762,11.05773],[-72.23548,11.07196],[-72.22823,11.07169],[-72.22279,11.0763],[-72.21749,11.06996],[-72.22012,11.05714],[-72.21475,11.05378],[-72.21471,11.05998],[-72.21206,11.06305],[-72.20334,11.06388],[-72.1968,11.06976],[-72.20035,11.08214],[-72.20511,11.08034],[-72.20589,11.08263],[-72.20452,11.08809],[-72.19733,11.09205],[-72.19351,11.09147],[-72.18571,11.08329],[-72.18314,11.08489],[-72.18202,11.09349],[-72.17466,11.09206],[-72.17367,11.09059],[-72.1776,11.08565],[-72.17143,11.08532],[-72.16539,11.07981],[-72.17017,11.07611],[-72.17118,11.07049],[-72.16258,11.06564],[-72.16107,11.06747],[-72.16427,11.07153],[-72.16357,11.07724],[-72.15399,11.06883],[-72.14777,11.0745],[-72.14838,11.07953],[-72.14317,11.07805],[-72.14433,11.07146],[-72.14103,11.0739],[-72.13673,11.08139],[-72.14368,11.0851],[-72.1425,11.08911],[-72.13378,11.08877],[-72.13145,11.08366],[-72.13415,11.07933],[-72.12464,11.07347],[-72.11904,11.07725],[-72.1163,11.0729],[-72.11473,11.07785],[-72.10873,11.07182],[-72.10528,11.07251],[-72.10085,11.07789],[-72.09603,11.0748],[-72.09455,11.08353],[-72.08801,11.07895],[-72.08544,11.08482],[-72.08203,11.08612],[-72.082,11.0892],[-72.07701,11.08571],[-72.07412,11.08909],[-72.07139,11.08635],[-72.07731,11.08036],[-72.07404,11.07457],[-72.07692,11.0702],[-72.06848,11.06669],[-72.06742,11.05799],[-72.05949,11.06019],[-72.05929,11.05299],[-72.05298,11.05162],[-72.05306,11.04613],[-72.05076,11.0451],[-72.04268,11.04717],[-72.04143,11.05037],[-72.03756,11.04856],[-72.03285,11.05136],[-72.02993,11.04605],[-72.02788,11.04902],[-72.02634,11.04814],[-72.02749,11.04335],[-72.02307,11.04672],[-72.01967,11.04444],[-72.02041,11.03744],[-72.00876,11.03425],[-72.00518,11.03918],[-72.00818,11.04396],[-72.00162,11.04268],[-72.00044,11.04678],[-71.99612,11.0461],[-71.99758,11.05062],[-71.99544,11.05405],[-72.00005,11.05825],[-71.99658,11.05944],[-71.99924,11.06312],[-71.99027,11.07002],[-71.99544,11.07414],[-71.991,11.07944],[-71.99208,11.08367],[-71.98774,11.08577],[-71.9867,11.08909],[-71.9771,11.09201],[-71.97639,11.08859],[-71.97201,11.09387],[-71.96428,11.09749],[-71.95831,11.09633],[-71.95867,11.09134],[-71.95469,11.08548],[-71.95162,11.08663],[-71.9502,11.08316],[-71.94771,11.08447],[-71.94705,11.07933],[-71.93937,11.08002],[-71.92413,11.0566],[-71.91919,11.06118],[-71.89732,11.05995],[-71.8967,11.05138],[-71.88561,11.05142],[-71.8841,11.04792],[-71.87095,11.05004],[-71.87168,11.04647],[-71.86861,11.04556],[-71.86707,11.04097],[-71.85711,11.03904],[-71.8482,11.0292],[-71.85181,11.02204],[-71.85252,11.01121],[-71.84589,11.00568],[-71.84484,10.99877],[-71.83239,10.99968],[-71.82341,10.99596],[-71.81767,10.99777],[-71.81091,10.99645],[-71.80022,11.00654],[-71.78447,11.00637],[-71.77042,10.99832],[-71.75885,11.0002],[-71.76536,11.01765],[-71.76364,11.02469],[-71.77013,11.03721],[-71.77303,11.03949],[-71.77986,11.03203],[-71.7938,11.03404],[-71.79192,11.04692],[-71.8015,11.05132],[-71.80073,11.05568],[-71.79638,11.05626],[-71.79505,11.05943],[-71.78835,11.05788],[-71.78234,11.06963],[-71.7704,11.06783],[-71.76773,11.07584],[-71.79603,11.10371],[-71.81019,11.12207],[-71.81751,11.12649],[-71.81826,11.12997],[-71.81416,11.13178],[-71.81067,11.12847],[-71.80063,11.13437],[-71.84815,11.19304],[-71.88801,11.25701],[-71.92055,11.32434],[-71.94069,11.38247],[-71.95588,11.45309],[-71.9599,11.50234],[-71.95784,11.54723],[-71.95302,11.57169],[-71.94855,11.58252],[-71.93851,11.59352],[-71.90585,11.59727],[-71.89343,11.60201],[-71.87708,11.61387],[-71.84403,11.62219],[-71.82636,11.63152],[-71.81658,11.63079],[-71.80856,11.63764],[-71.77618,11.64219],[-71.75674,11.651],[-71.7201,11.65272],[-71.68523,11.66328],[-71.66799,11.67174],[-71.64315,11.67491],[-71.63256,11.68006],[-71.62364,11.68153],[-71.60912,11.67913],[-71.59299,11.68468],[-71.55622,11.6877],[-71.53677,11.69481],[-71.50787,11.69732],[-71.47245,11.70693],[-71.46178,11.70674],[-71.44628,11.7123],[-71.43728,11.7114],[-71.42597,11.72302],[-71.4207,11.73653],[-71.40768,11.73294],[-71.39653,11.74042],[-71.38023,11.74297],[-71.37576,11.74816],[-71.36919,11.76716],[-71.36365,11.77227],[-71.34559,11.77758],[-71.33276,11.78897],[-71.33037,11.79546],[-71.33499,11.80295],[-71.33639,11.81577],[-71.3275,11.8158],[-71.32292,11.82388],[-71.31676,11.82764],[-71.31487,11.83228],[-71.31554,11.84361],[-71.3331,11.85048],[-71.34186,11.84922],[-71.34677,11.84601],[-71.34766,11.84248],[-71.35716,11.83803],[-71.36006,11.83797],[-71.36205,11.84155],[-71.36525,11.84031],[-71.36855,11.83291],[-71.37966,11.83299],[-71.38187,11.82986],[-71.38673,11.83044],[-71.38583,11.82881],[-71.38991,11.82703],[-71.38775,11.81575],[-71.37841,11.81213],[-71.64418,11.7342],[-71.78269,11.68684],[-71.90067,11.65983],[-71.97136,11.64627],[-72.24942,11.14019],[-72.27213,11.13832],[-72.28663,11.1432],[-72.3154,11.14417],[-72.32221,11.14684],[-72.33144,11.14427],[-72.33476,11.14518],[-72.33413,11.14822],[-72.34931,11.15137],[-72.36621,11.13934],[-72.40686,11.12671]]]}},{"type":"Feature","id":"relation/3447448","properties":{"name":"Municipio Rosario de Perij\u00e1","level":6,"population":"85006"},"geometry":{"type":"Polygon","coordinates":[[[-72.38312,10.09329],[-72.37838,10.0942],[-72.37686,10.09204],[-72.37969,10.08943],[-72.37384,10.08898],[-72.37084,10.08164],[-72.3625,10.0838],[-72.36412,10.0788],[-72.36037,10.07841],[-72.36008,10.07567],[-72.35742,10.07751],[-72.3558,10.07527],[-72.35411,10.07765],[-72.35594,10.07154],[-72.35204,10.07085],[-72.35353,10.06974],[-72.3508,10.06764],[-72.34682,10.06969],[-72.34648,10.06276],[-72.34353,10.06049],[-72.34022,10.06177],[-72.3406,10.05735],[-72.33766,10.05817],[-72.3356,10.063],[-72.33242,10.05746],[-72.32914,10.05966],[-72.32867,10.05691],[-72.32464,10.0587],[-72.32297,10.05656],[-72.32339,10.05984],[-72.32147,10.06053],[-72.31753,10.05524],[-72.32079,10.05342],[-72.31882,10.05139],[-72.31335,10.05271],[-72.31185,10.04882],[-72.30976,10.05153],[-72.30779,10.04923],[-72.30611,10.05123],[-72.30163,10.04678],[-72.3011,10.05141],[-72.29177,10.04873],[-72.28955,10.04547],[-72.29202,10.04343],[-72.28861,10.0424],[-72.28977,10.03883],[-72.28356,10.03309],[-72.28704,10.02953],[-72.2892,10.03101],[-72.28805,10.02434],[-72.29175,10.01888],[-72.28801,10.01874],[-72.28985,10.01624],[-72.28561,10.01337],[-72.28637,10.01091],[-72.2838,10.01061],[-72.28506,10.00776],[-72.28081,10.0066],[-72.27832,9.99356],[-72.27258,9.99204],[-72.27352,9.98746],[-72.27549,9.98737],[-72.27159,9.98575],[-72.27356,9.98491],[-72.27192,9.9825],[-72.27339,9.98079],[-72.27001,9.97991],[-72.27292,9.97431],[-72.27015,9.97485],[-72.27144,9.97255],[-72.26737,9.97008],[-72.26917,9.96871],[-72.26443,9.96607],[-72.26347,9.96886],[-72.25562,9.97037],[-72.25508,9.97251],[-72.25396,9.97025],[-72.24754,9.9709],[-72.24778,9.96821],[-72.24432,9.96914],[-72.24604,9.96495],[-72.24163,9.96649],[-72.24296,9.96025],[-72.24099,9.95945],[-72.23925,9.962],[-72.23748,9.95782],[-72.23597,9.96148],[-72.23353,9.96066],[-72.2348,9.95898],[-72.23104,9.95456],[-72.23231,9.95354],[-72.22879,9.95507],[-72.22932,9.95215],[-72.22061,9.95147],[-72.21774,9.94925],[-72.22037,9.94726],[-72.21383,9.94479],[-72.21396,9.94193],[-72.20994,9.9415],[-72.20942,9.94398],[-72.20793,9.94075],[-72.20321,9.94072],[-72.2041,9.94386],[-72.2011,9.94239],[-72.20043,9.94427],[-72.1886,9.94047],[-72.18791,9.94422],[-72.18581,9.94449],[-72.18217,9.94226],[-72.17792,9.93542],[-72.17948,9.9318],[-72.16823,9.92945],[-72.16772,9.92603],[-72.16127,9.92361],[-72.16216,9.92089],[-72.15852,9.91844],[-72.15375,9.91881],[-72.14775,9.91131],[-72.14643,9.9012],[-72.13859,9.89866],[-72.13968,9.89241],[-72.13132,9.89181],[-72.1288,9.88508],[-72.13275,9.87731],[-72.13145,9.8667],[-72.12008,9.84953],[-72.11942,9.84471],[-72.10529,9.8346],[-71.56315,9.95788],[-71.58862,10.06656],[-71.59106,10.08766],[-71.97959,10.08474],[-71.99618,10.10641],[-72.13801,10.33788],[-72.14069,10.33883],[-72.13966,10.34084],[-72.14866,10.34146],[-72.14614,10.34745],[-72.14958,10.34501],[-72.15449,10.34683],[-72.15754,10.35248],[-72.15969,10.35148],[-72.15892,10.35486],[-72.16248,10.35346],[-72.16466,10.35545],[-72.16393,10.35868],[-72.16755,10.35719],[-72.17019,10.35906],[-72.16962,10.36523],[-72.17232,10.37125],[-72.17913,10.37282],[-72.17816,10.36919],[-72.18146,10.36717],[-72.18349,10.37268],[-72.18217,10.37592],[-72.18735,10.37573],[-72.18785,10.37883],[-72.19145,10.38039],[-72.18935,10.37983],[-72.19042,10.38218],[-72.18634,10.38438],[-72.18694,10.38871],[-72.18595,10.38575],[-72.18125,10.38567],[-72.18045,10.38842],[-72.18354,10.3884],[-72.18491,10.393],[-72.18824,10.39433],[-72.18993,10.39195],[-72.19258,10.39568],[-72.19354,10.39277],[-72.19642,10.39793],[-72.20072,10.39911],[-72.2087,10.39472],[-72.20813,10.39823],[-72.21345,10.40203],[-72.21377,10.40474],[-72.21693,10.40364],[-72.21672,10.39941],[-72.219,10.39975],[-72.21874,10.40359],[-72.22078,10.39978],[-72.22195,10.4038],[-72.2277,10.40105],[-72.2243,10.40913],[-72.22905,10.41314],[-72.23256,10.40808],[-72.23523,10.41083],[-72.23584,10.40689],[-72.23702,10.41153],[-72.24212,10.41275],[-72.24176,10.40832],[-72.24494,10.40766],[-72.24493,10.40399],[-72.25294,10.40775],[-72.25201,10.41024],[-72.26303,10.40805],[-72.26207,10.41163],[-72.26768,10.41249],[-72.26516,10.41481],[-72.26789,10.41589],[-72.26796,10.42025],[-72.2717,10.41794],[-72.27159,10.4205],[-72.27528,10.42331],[-72.27296,10.42576],[-72.27232,10.42913],[-72.27455,10.43073],[-72.27244,10.43297],[-72.27522,10.43365],[-72.27636,10.43996],[-72.27294,10.43888],[-72.2727,10.44316],[-72.27634,10.44327],[-72.27389,10.44468],[-72.27433,10.44714],[-72.27786,10.44724],[-72.28091,10.45071],[-72.27708,10.45327],[-72.27901,10.46049],[-72.28214,10.45976],[-72.28271,10.46271],[-72.28031,10.46296],[-72.27775,10.46938],[-72.28665,10.47363],[-72.28462,10.47892],[-72.28809,10.47896],[-72.29434,10.48966],[-72.29297,10.49688],[-72.29928,10.49466],[-72.29376,10.50159],[-72.29922,10.50127],[-72.301,10.50551],[-72.31328,10.51416],[-72.3212,10.51389],[-72.329,10.52619],[-72.33467,10.52522],[-72.33442,10.53774],[-72.33861,10.54405],[-72.33567,10.55371],[-72.34057,10.55224],[-72.3437,10.56142],[-72.3477,10.56223],[-72.3494,10.56786],[-72.35352,10.56595],[-72.35311,10.5611],[-72.35857,10.56201],[-72.36333,10.56911],[-72.36244,10.57147],[-72.36821,10.57453],[-72.36795,10.57878],[-72.37394,10.58065],[-72.37247,10.5869],[-72.37945,10.58901],[-72.37699,10.59627],[-72.38575,10.60422],[-72.39837,10.60802],[-72.39643,10.61469],[-72.40782,10.61622],[-72.41818,10.62314],[-72.43201,10.61823],[-72.4348,10.61947],[-72.44104,10.61185],[-72.47429,10.616],[-72.48037,10.62122],[-72.48324,10.61874],[-72.4859,10.62169],[-72.491,10.61854],[-72.49809,10.61946],[-72.5012,10.61444],[-72.50462,10.61652],[-72.51565,10.61215],[-72.51632,10.60864],[-72.52129,10.60838],[-72.52267,10.60359],[-72.53274,10.60243],[-72.53613,10.59934],[-72.53662,10.5941],[-72.54496,10.59055],[-72.55462,10.59067],[-72.55646,10.58305],[-72.56367,10.57549],[-72.57477,10.57621],[-72.59301,10.55795],[-72.59812,10.54638],[-72.60645,10.54415],[-72.60988,10.53957],[-72.61436,10.54163],[-72.61365,10.53942],[-72.61672,10.53634],[-72.61947,10.5344],[-72.62084,10.53576],[-72.62087,10.53049],[-72.62554,10.52941],[-72.62376,10.5269],[-72.62852,10.52865],[-72.62727,10.52543],[-72.63298,10.5233],[-72.6345,10.51753],[-72.64039,10.51743],[-72.63826,10.50949],[-72.64306,10.50679],[-72.64032,10.50407],[-72.64142,10.50008],[-72.64453,10.50129],[-72.64731,10.49039],[-72.65194,10.49203],[-72.6511,10.48872],[-72.65564,10.48701],[-72.65827,10.48128],[-72.66265,10.47845],[-72.66649,10.47092],[-72.6654,10.46461],[-72.66998,10.46518],[-72.67043,10.4593],[-72.67408,10.45863],[-72.67203,10.45753],[-72.67494,10.45544],[-72.67165,10.4477],[-72.6787,10.44508],[-72.68387,10.43417],[-72.69742,10.43185],[-72.70275,10.423],[-72.71166,10.41578],[-72.72981,10.40924],[-72.73244,10.41074],[-72.73376,10.42438],[-72.75279,10.41662],[-72.76505,10.40611],[-72.76836,10.39649],[-72.77775,10.38501],[-72.78608,10.36324],[-72.7897,10.35992],[-72.80097,10.35653],[-72.82758,10.36453],[-72.8388,10.36215],[-72.89396,10.3653],[-72.89479,10.36322],[-72.89936,10.36296],[-72.90664,10.35316],[-72.89075,10.35242],[-72.87528,10.35785],[-72.86411,10.35752],[-72.85689,10.34982],[-72.85016,10.3471],[-72.84375,10.33756],[-72.83461,10.33741],[-72.8331,10.33963],[-72.83072,10.33595],[-72.82079,10.33355],[-72.81643,10.32612],[-72.79484,10.31847],[-72.79222,10.31957],[-72.79162,10.31707],[-72.78302,10.31684],[-72.77024,10.32043],[-72.76187,10.31884],[-72.75479,10.31542],[-72.75438,10.31086],[-72.74947,10.30476],[-72.68709,10.30548],[-72.68282,10.2975],[-72.68841,10.2864],[-72.68059,10.28105],[-72.68036,10.2774],[-72.67176,10.27],[-72.65735,10.26407],[-72.65154,10.26368],[-72.64782,10.26614],[-72.64315,10.263],[-72.641,10.25591],[-72.63671,10.25265],[-72.63761,10.2509],[-72.6249,10.24722],[-72.62271,10.24399],[-72.61805,10.24415],[-72.619,10.24054],[-72.61645,10.23988],[-72.61664,10.23756],[-72.61417,10.23963],[-72.61277,10.23624],[-72.6109,10.23838],[-72.60742,10.23667],[-72.60853,10.23431],[-72.6051,10.23341],[-72.61042,10.23117],[-72.60696,10.22863],[-72.61275,10.21866],[-72.61234,10.21062],[-72.60845,10.21257],[-72.60425,10.20809],[-72.60594,10.20619],[-72.5997,10.20403],[-72.59758,10.20648],[-72.59646,10.20148],[-72.59251,10.20199],[-72.58483,10.19561],[-72.57872,10.1969],[-72.54561,10.23656],[-72.52819,10.2348],[-72.51408,10.22362],[-72.48092,10.22118],[-72.48044,10.21862],[-72.47576,10.21718],[-72.47603,10.21973],[-72.47174,10.21879],[-72.46973,10.21495],[-72.46521,10.21389],[-72.46914,10.20758],[-72.46654,10.20697],[-72.46647,10.20198],[-72.46175,10.20288],[-72.46223,10.20012],[-72.45987,10.19892],[-72.46248,10.19526],[-72.45827,10.19353],[-72.46001,10.19227],[-72.45624,10.18187],[-72.45045,10.18256],[-72.45013,10.18008],[-72.44564,10.18032],[-72.44615,10.17835],[-72.4412,10.17664],[-72.4392,10.18009],[-72.4371,10.17629],[-72.43128,10.17743],[-72.4347,10.17464],[-72.43223,10.17122],[-72.43637,10.16216],[-72.4302,10.15984],[-72.43131,10.15782],[-72.42885,10.15523],[-72.42725,10.15655],[-72.42735,10.15467],[-72.42465,10.15453],[-72.42551,10.153],[-72.42252,10.1509],[-72.42411,10.14718],[-72.42008,10.14584],[-72.42115,10.14284],[-72.42282,10.14369],[-72.42176,10.14007],[-72.41793,10.13758],[-72.41498,10.13876],[-72.41356,10.13361],[-72.41016,10.13335],[-72.40579,10.12739],[-72.40034,10.12887],[-72.39908,10.12316],[-72.39277,10.11949],[-72.38859,10.11088],[-72.39067,10.10761],[-72.38036,10.10307],[-72.38312,10.09329]]]}},{"type":"Feature","id":"relation/3447449","properties":{"name":"Municipio San Francisco","level":6,"population":"446757"},"geometry":{"type":"Polygon","coordinates":[[[-71.61765,10.5941],[-71.61873,10.59604],[-71.64262,10.59603],[-71.65,10.58332],[-71.6617,10.58703],[-71.67383,10.58427],[-71.78005,10.60317],[-71.78059,10.50904],[-71.68637,10.50921],[-71.60709,10.51264],[-71.57321,10.51096],[-71.56901,10.59316],[-71.61765,10.5941]]]}},{"type":"Feature","id":"relation/3447560","properties":{"name":"Municipio Baralt","level":6,"population":"89847"},"geometry":{"type":"Polygon","coordinates":[[[-70.89948,9.58952],[-70.86794,9.5883],[-70.86014,9.59177],[-70.8525,9.5868],[-70.84388,9.58564],[-70.83059,9.61051],[-70.82578,9.60976],[-70.82226,9.61494],[-70.82162,9.61972],[-70.82749,9.62553],[-70.8236,9.62978],[-70.82648,9.63175],[-70.82608,9.66249],[-70.81923,9.66129],[-70.81803,9.66763],[-70.81215,9.67292],[-70.81115,9.67794],[-70.80771,9.67738],[-70.80554,9.68432],[-70.80278,9.68287],[-70.79962,9.69284],[-70.79766,9.69104],[-70.79513,9.69694],[-70.79,9.69596],[-70.79221,9.69155],[-70.78446,9.69101],[-70.77794,9.68722],[-70.77816,9.68502],[-70.76452,9.68789],[-70.76077,9.69223],[-70.76314,9.70232],[-70.75718,9.71299],[-70.75688,9.71834],[-70.75048,9.72331],[-70.74681,9.7311],[-70.74527,9.75472],[-70.73359,9.75306],[-70.72665,9.75593],[-70.71721,9.74959],[-70.71464,9.75302],[-70.69378,9.76097],[-70.6892,9.77413],[-70.68788,9.79438],[-70.68343,9.80386],[-70.67026,9.81197],[-70.66765,9.82208],[-70.67132,9.82506],[-70.67099,9.84209],[-70.6798,9.853],[-70.68234,9.86283],[-70.69926,9.88298],[-70.7077,9.8827],[-70.73927,9.8945],[-70.7461,9.89975],[-70.74486,9.90981],[-70.74953,9.91685],[-70.76374,9.91722],[-70.76472,9.92111],[-70.77011,9.92239],[-70.78785,9.91782],[-70.79119,9.91939],[-70.88281,10.05018],[-70.87687,10.05903],[-70.87174,10.05842],[-70.8619,10.06976],[-70.84651,10.07223],[-70.84112,10.07926],[-70.84141,10.08501],[-70.83667,10.0885],[-70.83428,10.09007],[-70.83146,10.0881],[-70.81958,10.09959],[-70.79989,10.10982],[-70.79762,10.11532],[-70.76605,10.13036],[-70.75043,10.14304],[-70.73827,10.14947],[-70.73323,10.15485],[-70.73552,10.16145],[-70.73376,10.1721],[-70.72589,10.17643],[-70.72887,10.17812],[-70.72734,10.18221],[-70.72899,10.18624],[-70.7221,10.19511],[-70.71016,10.19835],[-70.70447,10.20588],[-70.70837,10.21283],[-70.70981,10.22415],[-70.70671,10.23074],[-70.70736,10.23942],[-70.70203,10.24677],[-70.70092,10.25815],[-70.69606,10.26143],[-70.69653,10.27979],[-70.69069,10.29286],[-70.69734,10.30211],[-70.71307,10.3002],[-70.71631,10.30292],[-70.72525,10.29806],[-70.74159,10.3051],[-70.75031,10.31783],[-70.75366,10.31775],[-70.76283,10.32644],[-70.76704,10.34778],[-70.77206,10.33967],[-70.78569,10.3341],[-70.78509,10.31834],[-70.79041,10.31745],[-70.79466,10.31319],[-70.79402,10.29657],[-70.79903,10.28974],[-70.8004,10.28342],[-70.79755,10.28071],[-70.79659,10.27435],[-70.79959,10.26904],[-70.79765,10.26463],[-70.80501,10.25958],[-70.80838,10.26133],[-70.80724,10.2566],[-70.81026,10.25424],[-70.81299,10.25559],[-70.81427,10.25285],[-70.81972,10.25242],[-70.82083,10.25596],[-70.82333,10.25609],[-70.82454,10.24226],[-70.83076,10.23892],[-70.83475,10.24051],[-70.83615,10.23843],[-70.83814,10.24336],[-70.84196,10.23863],[-70.8454,10.23804],[-70.84154,10.22836],[-70.84829,10.23164],[-70.8515,10.22961],[-70.85003,10.22681],[-70.85328,10.22523],[-70.84683,10.22141],[-70.84755,10.21841],[-70.84447,10.21497],[-70.848,10.21553],[-70.84887,10.21182],[-70.85417,10.21514],[-70.8593,10.21196],[-70.86156,10.21277],[-70.86095,10.21575],[-70.86644,10.21452],[-70.85965,10.20961],[-70.86232,10.20795],[-70.86079,10.20395],[-70.86324,10.20111],[-70.85988,10.19824],[-70.86498,10.19904],[-70.86391,10.19513],[-70.86732,10.19617],[-70.87237,10.18324],[-70.87846,10.17941],[-70.88284,10.18323],[-70.88194,10.18095],[-70.88631,10.1747],[-70.88966,10.17864],[-70.89057,10.17591],[-70.89263,10.1768],[-70.89527,10.18515],[-70.90235,10.17637],[-70.90498,10.16858],[-70.90711,10.17401],[-70.91068,10.17404],[-70.9108,10.17123],[-70.91398,10.17375],[-70.9141,10.17755],[-70.91844,10.17787],[-70.917,10.17104],[-70.92973,10.16266],[-70.93235,10.16553],[-70.93142,10.15849],[-70.93563,10.15858],[-70.93369,10.15692],[-70.93803,10.15445],[-70.93473,10.1504],[-70.93989,10.14701],[-70.93693,10.14288],[-70.93956,10.14138],[-70.93795,10.13602],[-70.94489,10.13273],[-70.94417,10.12977],[-70.95278,10.12747],[-70.95096,10.12279],[-70.94685,10.12307],[-70.94646,10.11935],[-70.9702,10.09817],[-70.9714,10.09206],[-70.97421,10.09079],[-70.97365,10.09305],[-70.97899,10.09518],[-70.97929,10.08965],[-70.98382,10.08921],[-70.98095,10.08627],[-70.98622,10.08774],[-70.98724,10.08473],[-70.99018,10.08444],[-70.99065,10.08181],[-70.98696,10.08002],[-70.98841,10.07946],[-70.98619,10.07556],[-70.98455,10.07618],[-70.98556,10.07902],[-70.98248,10.0786],[-70.98283,10.0734],[-70.98005,10.07294],[-70.98282,10.07028],[-70.97895,10.06991],[-70.97785,10.06733],[-70.97916,10.06162],[-70.98195,10.06368],[-70.98452,10.0594],[-70.97854,10.05569],[-70.98191,10.05112],[-70.97926,10.04822],[-70.98454,10.04364],[-70.98104,10.04202],[-70.98115,10.03788],[-70.98323,10.03757],[-70.98031,10.03586],[-70.98509,10.03373],[-70.984,10.0257],[-70.98886,10.0259],[-70.9914,10.02241],[-70.99052,10.01967],[-70.99498,10.01589],[-70.99513,10.00805],[-70.99861,10.00948],[-71.00635,10.00045],[-71.00567,9.99795],[-71.00781,9.99786],[-71.00217,9.99299],[-71.00235,9.98113],[-70.99999,9.98007],[-70.99729,9.97215],[-70.9983,9.93953],[-71.00218,9.93243],[-71.01205,9.92518],[-71.01272,9.91726],[-71.02342,9.91149],[-71.04682,9.8814],[-71.05092,9.88518],[-71.06437,9.8791],[-71.07057,9.88105],[-71.08288,9.879],[-71.09296,9.87423],[-71.52075,9.77694],[-71.45671,9.50339],[-71.06261,9.60951],[-71.05988,9.6127],[-71.04223,9.60422],[-71.03494,9.60321],[-71.02171,9.60605],[-71.00849,9.59964],[-70.99989,9.59972],[-70.99783,9.59675],[-70.98043,9.59703],[-70.95548,9.59097],[-70.94795,9.59233],[-70.94187,9.59017],[-70.93088,9.59452],[-70.9242,9.58954],[-70.9198,9.59143],[-70.91716,9.59675],[-70.91225,9.59762],[-70.91068,9.59472],[-70.91283,9.59222],[-70.90783,9.59035],[-70.90669,9.58014],[-70.90681,9.58462],[-70.89948,9.58952]]]}},{"type":"Feature","id":"relation/3447561","properties":{"name":"Municipio Cabimas","level":6,"population":"263056"},"geometry":{"type":"Polygon","coordinates":[[[-71.12172,10.45558],[-71.14874,10.45533],[-71.15236,10.45979],[-71.16088,10.4628],[-71.17088,10.4772],[-71.17835,10.47728],[-71.19413,10.46427],[-71.20181,10.46121],[-71.21262,10.44818],[-71.21791,10.44796],[-71.22104,10.44383],[-71.23644,10.44326],[-71.24737,10.45218],[-71.26626,10.45546],[-71.26998,10.45546],[-71.27263,10.45226],[-71.2886,10.44971],[-71.29276,10.45357],[-71.30063,10.45281],[-71.30985,10.45649],[-71.3175,10.46323],[-71.33032,10.46142],[-71.33392,10.46468],[-71.34595,10.45938],[-71.35372,10.4467],[-71.36255,10.44926],[-71.36364,10.4515],[-71.37135,10.44992],[-71.37461,10.45416],[-71.38066,10.45437],[-71.38057,10.45038],[-71.3857,10.44627],[-71.40086,10.45006],[-71.40821,10.44466],[-71.41257,10.44516],[-71.41661,10.44004],[-71.42034,10.44195],[-71.43266,10.43655],[-71.44615,10.44043],[-71.45366,10.44604],[-71.57622,10.4521],[-71.58317,10.31616],[-71.41927,10.31912],[-71.41345,10.32193],[-71.29962,10.32154],[-71.30021,10.35249],[-71.29016,10.3523],[-71.14641,10.38551],[-71.01298,10.38408],[-70.88112,10.44975],[-71.0482,10.44821],[-71.12172,10.45558]]]}},{"type":"Feature","id":"relation/3447562","properties":{"name":"Municipio Lagunillas","level":6,"population":"203435"},"geometry":{"type":"Polygon","coordinates":[[[-70.86753,10.45246],[-70.87311,10.45169],[-70.87586,10.44872],[-70.88009,10.45096],[-71.01298,10.38408],[-71.14808,10.3846],[-71.15074,10.38099],[-71.14644,10.37497],[-71.14699,10.37116],[-71.1498,10.36959],[-71.15421,10.37199],[-71.1552,10.37021],[-71.15741,10.37242],[-71.16172,10.36606],[-71.16548,10.36577],[-71.16523,10.35949],[-71.16741,10.35781],[-71.166,10.35061],[-71.17054,10.3456],[-71.17012,10.34328],[-71.1868,10.32622],[-71.19256,10.32685],[-71.19503,10.32355],[-71.19248,10.31891],[-71.19561,10.31586],[-71.19453,10.3076],[-71.19815,10.30197],[-71.20496,10.29981],[-71.20596,10.29599],[-71.20332,10.28945],[-71.20726,10.28695],[-71.21081,10.28863],[-71.21313,10.28145],[-71.21918,10.28026],[-71.22503,10.27381],[-71.24263,10.2699],[-71.25054,10.2594],[-71.25822,10.25561],[-71.26299,10.25875],[-71.26819,10.25645],[-71.27053,10.25928],[-71.27303,10.25643],[-71.2752,10.25883],[-71.27615,10.256],[-71.27901,10.25761],[-71.2808,10.25531],[-71.28375,10.25852],[-71.28647,10.25642],[-71.29168,10.25971],[-71.29168,10.25766],[-71.30424,10.25539],[-71.3491,10.22893],[-71.35889,10.21217],[-71.58791,10.2235],[-71.59106,10.08766],[-71.58862,10.06656],[-71.55735,9.93312],[-71.2324,10.00699],[-71.22889,10.01493],[-71.17158,10.04963],[-71.10959,10.09815],[-71.10641,10.09738],[-71.10653,10.09953],[-71.10069,10.10132],[-71.10357,10.10259],[-71.09972,10.10423],[-71.1,10.10786],[-71.09714,10.10766],[-71.09594,10.11323],[-71.09104,10.11183],[-71.09086,10.11464],[-71.08688,10.11391],[-71.08934,10.11716],[-71.08,10.11856],[-71.08072,10.12173],[-71.08283,10.12094],[-71.07951,10.12847],[-71.07765,10.12826],[-71.08033,10.13089],[-71.07868,10.13411],[-71.07422,10.13379],[-71.07768,10.13164],[-71.07366,10.12804],[-71.07133,10.12914],[-71.06731,10.13905],[-71.07365,10.14279],[-71.06791,10.14278],[-71.06625,10.14678],[-71.06824,10.14833],[-71.06935,10.14543],[-71.07177,10.14775],[-71.06931,10.15048],[-71.07011,10.15295],[-71.06621,10.15713],[-71.05987,10.15622],[-71.06009,10.16154],[-71.04761,10.16299],[-71.04427,10.16537],[-71.04536,10.16963],[-71.03933,10.17179],[-71.04479,10.17911],[-71.04459,10.18327],[-71.03474,10.18335],[-71.0382,10.20918],[-71.02644,10.22889],[-71.03029,10.23101],[-71.02947,10.23469],[-71.03365,10.23576],[-71.03238,10.23776],[-71.03714,10.24238],[-71.0348,10.24507],[-71.03689,10.24684],[-71.03573,10.2522],[-71.03061,10.25661],[-71.03189,10.26338],[-71.02687,10.26283],[-71.02304,10.26613],[-71.02021,10.26327],[-71.01616,10.27214],[-71.01335,10.27157],[-71.01362,10.27507],[-71.00839,10.2709],[-71.00642,10.27186],[-71.00602,10.27827],[-71.00953,10.27923],[-71.01056,10.28355],[-71.01462,10.28576],[-71.01389,10.29101],[-71.01008,10.29558],[-71.0071,10.29541],[-71.00818,10.30134],[-70.99942,10.30499],[-71.00188,10.30767],[-70.99993,10.30814],[-70.99972,10.3132],[-70.99013,10.32143],[-70.99412,10.32814],[-70.98936,10.33225],[-70.98691,10.32978],[-70.98636,10.33554],[-70.9794,10.34001],[-70.97983,10.3417],[-70.97541,10.34238],[-70.97694,10.34463],[-70.97476,10.34757],[-70.97104,10.34683],[-70.97033,10.35235],[-70.96697,10.35492],[-70.96983,10.35799],[-70.96794,10.36304],[-70.96358,10.36797],[-70.95951,10.36406],[-70.95459,10.37573],[-70.95125,10.37556],[-70.95108,10.37932],[-70.9535,10.38131],[-70.9504,10.38356],[-70.95158,10.38659],[-70.94917,10.39],[-70.94502,10.38728],[-70.9456,10.38296],[-70.9365,10.38309],[-70.93447,10.3787],[-70.92487,10.37325],[-70.91876,10.37511],[-70.91717,10.37779],[-70.91417,10.37595],[-70.91339,10.37931],[-70.90166,10.38176],[-70.90035,10.38543],[-70.89262,10.3891],[-70.88357,10.40523],[-70.87885,10.40453],[-70.86842,10.40889],[-70.85833,10.41896],[-70.85218,10.42911],[-70.84696,10.42866],[-70.83756,10.43803],[-70.82986,10.44142],[-70.8193,10.45303],[-70.8155,10.46099],[-70.82283,10.46374],[-70.82828,10.46338],[-70.83218,10.46012],[-70.83663,10.46162],[-70.84265,10.45233],[-70.8505,10.45852],[-70.86215,10.46065],[-70.86753,10.45246]]]}},{"type":"Feature","id":"relation/3447563","properties":{"name":"Municipio Miranda","level":6,"population":"97463"},"geometry":{"type":"Polygon","coordinates":[[[-71.50664,10.60978],[-71.49715,10.60629],[-71.46987,10.61985],[-71.43056,10.61125],[-71.42523,10.61186],[-71.41876,10.61626],[-71.40087,10.61328],[-71.38777,10.61683],[-71.37979,10.61632],[-71.37516,10.60885],[-71.37084,10.61142],[-71.36636,10.60122],[-71.3588,10.61255],[-71.35625,10.61216],[-71.35639,10.61772],[-71.35185,10.61729],[-71.34855,10.61041],[-71.34497,10.61091],[-71.33773,10.60112],[-71.33888,10.59736],[-71.33594,10.59476],[-71.33876,10.58139],[-71.33203,10.57468],[-71.32032,10.57475],[-71.30801,10.5662],[-71.29065,10.56394],[-71.27811,10.55387],[-71.2736,10.54575],[-71.26835,10.5435],[-71.26394,10.53721],[-71.25281,10.5352],[-71.24358,10.52771],[-71.23277,10.52429],[-71.22919,10.5195],[-71.21213,10.52442],[-71.20138,10.51919],[-71.19575,10.52354],[-71.18983,10.52153],[-71.18241,10.51197],[-71.16606,10.50664],[-71.13951,10.45576],[-71.0482,10.44821],[-70.88051,10.45006],[-70.89229,10.46228],[-70.90075,10.46575],[-70.90902,10.46299],[-70.91484,10.46744],[-70.92423,10.46462],[-70.92501,10.46833],[-70.9329,10.463],[-70.93631,10.46352],[-70.93658,10.46617],[-70.95116,10.46215],[-70.94981,10.46527],[-70.95662,10.46673],[-70.95428,10.47525],[-70.95667,10.48027],[-70.96215,10.47984],[-70.96359,10.48302],[-70.96188,10.48399],[-70.9695,10.48508],[-70.96575,10.48814],[-70.96897,10.48941],[-70.96681,10.49196],[-70.96846,10.49647],[-70.97604,10.49824],[-70.97646,10.49544],[-70.97893,10.49515],[-70.97785,10.49672],[-70.9805,10.49863],[-70.98322,10.49496],[-70.98456,10.49774],[-70.98763,10.49747],[-70.98682,10.50201],[-70.99061,10.50215],[-70.9908,10.50486],[-70.99452,10.50706],[-70.99845,10.50193],[-71.00665,10.50834],[-71.00916,10.50682],[-71.00914,10.50365],[-71.01405,10.50706],[-71.01799,10.50233],[-71.02079,10.5038],[-71.02227,10.50793],[-71.01834,10.50924],[-71.01812,10.51205],[-71.02013,10.5121],[-71.02208,10.51687],[-71.02037,10.52322],[-71.02338,10.52924],[-71.02095,10.53254],[-71.02639,10.54012],[-71.02162,10.54552],[-71.02416,10.54697],[-71.02399,10.55236],[-71.02594,10.55159],[-71.02358,10.55615],[-71.02492,10.56159],[-71.03035,10.5652],[-71.025,10.56992],[-71.02766,10.57922],[-71.03133,10.58182],[-71.03761,10.57839],[-71.04158,10.58058],[-71.04692,10.57988],[-71.05138,10.58748],[-71.05071,10.59128],[-71.05668,10.59689],[-71.05308,10.60013],[-71.05526,10.60435],[-71.07001,10.61625],[-71.07424,10.61286],[-71.0784,10.6165],[-71.08353,10.61651],[-71.08564,10.62095],[-71.08423,10.62283],[-71.08815,10.6257],[-71.0881,10.63318],[-71.08033,10.63492],[-71.07735,10.64535],[-71.0852,10.65385],[-71.08323,10.65598],[-71.08522,10.65735],[-71.08379,10.66187],[-71.08805,10.66795],[-71.08646,10.67235],[-71.09847,10.68004],[-71.09509,10.68367],[-71.09602,10.69151],[-71.09062,10.69371],[-71.0897,10.69814],[-71.0857,10.70081],[-71.08825,10.70593],[-71.08659,10.71381],[-71.08816,10.7222],[-71.08535,10.73258],[-71.08651,10.74486],[-71.09083,10.75029],[-71.08718,10.75828],[-71.08802,10.76365],[-71.09259,10.76738],[-71.09482,10.7662],[-71.09666,10.77103],[-71.10125,10.77271],[-71.09891,10.77488],[-71.10064,10.77798],[-71.10459,10.7767],[-71.10935,10.78123],[-71.11249,10.77974],[-71.12294,10.79307],[-71.13062,10.79658],[-71.13264,10.80512],[-71.13643,10.80541],[-71.14238,10.81125],[-71.14359,10.80839],[-71.14588,10.81],[-71.14822,10.80746],[-71.15247,10.81399],[-71.15878,10.81598],[-71.16108,10.81444],[-71.16846,10.8235],[-71.17293,10.8225],[-71.17642,10.82808],[-71.18233,10.83002],[-71.18299,10.83336],[-71.18844,10.83793],[-71.18995,10.84651],[-71.19446,10.84871],[-71.19682,10.85715],[-71.19899,10.85708],[-71.20036,10.86628],[-71.2104,10.87096],[-71.21426,10.90015],[-71.23348,10.90831],[-71.23808,10.90694],[-71.23966,10.91271],[-71.2437,10.91629],[-71.24422,10.9226],[-71.2521,10.92379],[-71.25927,10.91961],[-71.26076,10.92357],[-71.26594,10.92553],[-71.26763,10.92998],[-71.27223,10.93254],[-71.27069,10.94555],[-71.28127,10.95174],[-71.27144,10.95646],[-71.26932,10.9638],[-71.26369,10.96642],[-71.26339,10.97549],[-71.26004,10.97872],[-71.26351,10.98801],[-71.30058,10.98048],[-71.32409,10.97297],[-71.33239,10.97279],[-71.34634,10.96698],[-71.41721,10.9764],[-71.44829,10.9753],[-71.48099,10.96874],[-71.49358,10.95809],[-71.51772,10.9593],[-71.5258,10.9535],[-71.52846,10.94431],[-71.5252,10.93727],[-71.50709,10.92231],[-71.52685,10.85743],[-71.63457,10.76915],[-71.60849,10.76894],[-71.56254,10.71965],[-71.56699,10.63259],[-71.52433,10.61182],[-71.50664,10.60978]]]}},{"type":"Feature","id":"relation/3447564","properties":{"name":"Municipio Santa Rita","level":6,"population":"59866"},"geometry":{"type":"Polygon","coordinates":[[[-71.30063,10.45281],[-71.29639,10.45456],[-71.28919,10.44989],[-71.28489,10.44979],[-71.26626,10.45546],[-71.24737,10.45218],[-71.23644,10.44326],[-71.22104,10.44383],[-71.21791,10.44796],[-71.21262,10.44818],[-71.20181,10.46121],[-71.19413,10.46427],[-71.17835,10.47728],[-71.17088,10.4772],[-71.16088,10.4628],[-71.15236,10.45979],[-71.14874,10.45533],[-71.13951,10.45576],[-71.16606,10.50664],[-71.18241,10.51197],[-71.18983,10.52153],[-71.19575,10.52354],[-71.20138,10.51919],[-71.21213,10.52442],[-71.22919,10.5195],[-71.23277,10.52429],[-71.24358,10.52771],[-71.25281,10.5352],[-71.26394,10.53721],[-71.26835,10.5435],[-71.2736,10.54575],[-71.27811,10.55387],[-71.29065,10.56394],[-71.30801,10.5662],[-71.32032,10.57475],[-71.33203,10.57468],[-71.33876,10.58139],[-71.33594,10.59476],[-71.33888,10.59736],[-71.33773,10.60112],[-71.34497,10.61091],[-71.34855,10.61041],[-71.35305,10.61779],[-71.35639,10.61772],[-71.35625,10.61216],[-71.3588,10.61255],[-71.36636,10.60122],[-71.37084,10.61142],[-71.37516,10.60885],[-71.37979,10.61632],[-71.39039,10.61694],[-71.40087,10.61328],[-71.41876,10.61626],[-71.42523,10.61186],[-71.43056,10.61125],[-71.46987,10.61985],[-71.49715,10.60629],[-71.5116,10.61161],[-71.52433,10.61182],[-71.56699,10.63259],[-71.57622,10.4521],[-71.45366,10.44604],[-71.44615,10.44043],[-71.43266,10.43655],[-71.42034,10.44195],[-71.41661,10.44004],[-71.41257,10.44516],[-71.40821,10.44466],[-71.40086,10.45006],[-71.3857,10.44627],[-71.38057,10.45038],[-71.38066,10.45437],[-71.37461,10.45416],[-71.37135,10.44992],[-71.36364,10.4515],[-71.36255,10.44926],[-71.35372,10.4467],[-71.34595,10.45938],[-71.33392,10.46468],[-71.33032,10.46142],[-71.3175,10.46323],[-71.30985,10.45649],[-71.30063,10.45281]]]}},{"type":"Feature","id":"relation/3447565","properties":{"name":"Municipio Sim\u00f3n Bol\u00edvar","level":6,"population":"43831"},"geometry":{"type":"Polygon","coordinates":[[[-71.17455,10.33916],[-71.166,10.35061],[-71.16741,10.35781],[-71.16523,10.35949],[-71.16553,10.36572],[-71.16172,10.36606],[-71.15741,10.37242],[-71.1498,10.36959],[-71.14602,10.37264],[-71.15074,10.38099],[-71.14982,10.38347],[-71.14502,10.38479],[-71.14641,10.38551],[-71.29016,10.3523],[-71.30021,10.35249],[-71.29962,10.32154],[-71.41345,10.32193],[-71.41927,10.31912],[-71.58317,10.31616],[-71.58791,10.2235],[-71.35889,10.21217],[-71.3491,10.22893],[-71.30424,10.25539],[-71.29168,10.25766],[-71.29168,10.25971],[-71.28647,10.25642],[-71.28375,10.25852],[-71.2808,10.25531],[-71.27901,10.25761],[-71.27615,10.256],[-71.2752,10.25883],[-71.27303,10.25643],[-71.27053,10.25928],[-71.26819,10.25645],[-71.26299,10.25875],[-71.25822,10.25561],[-71.25054,10.2594],[-71.24263,10.2699],[-71.22503,10.27381],[-71.21918,10.28026],[-71.21324,10.28135],[-71.21099,10.28848],[-71.20716,10.28697],[-71.20252,10.29036],[-71.20584,10.2953],[-71.20439,10.3009],[-71.19815,10.30197],[-71.1946,10.30738],[-71.19561,10.31586],[-71.19248,10.31891],[-71.19497,10.32365],[-71.19256,10.32685],[-71.1868,10.32622],[-71.17455,10.33916]]]}},{"type":"Feature","id":"relation/3447566","properties":{"name":"Municipio Valmore Rodr\u00edguez","level":6,"population":"52624"},"geometry":{"type":"Polygon","coordinates":[[[-71.00854,9.92682],[-70.9983,9.93953],[-70.99652,9.96483],[-70.99847,9.97614],[-71.00235,9.98113],[-71.00217,9.99299],[-71.00781,9.99786],[-71.00567,9.99795],[-71.00635,10.00045],[-70.99861,10.00948],[-70.99513,10.00805],[-70.99498,10.01589],[-70.99052,10.01967],[-70.9914,10.02241],[-70.98886,10.0259],[-70.98404,10.02561],[-70.98509,10.03373],[-70.98031,10.03573],[-70.98323,10.03757],[-70.98115,10.03788],[-70.98104,10.04202],[-70.98454,10.04364],[-70.97926,10.04822],[-70.98191,10.05112],[-70.97856,10.05581],[-70.98452,10.0594],[-70.98195,10.06368],[-70.97916,10.06162],[-70.97786,10.06741],[-70.97895,10.06991],[-70.98282,10.07028],[-70.98005,10.07294],[-70.98283,10.0734],[-70.98248,10.0786],[-70.98556,10.07902],[-70.98455,10.07618],[-70.98619,10.07556],[-70.98841,10.07946],[-70.98696,10.08002],[-70.99065,10.08181],[-70.99018,10.08444],[-70.98724,10.08473],[-70.98622,10.08774],[-70.98095,10.08627],[-70.98382,10.08921],[-70.97929,10.08965],[-70.97899,10.09518],[-70.97365,10.09305],[-70.97421,10.09079],[-70.9714,10.09206],[-70.9702,10.09817],[-70.94646,10.11935],[-70.94685,10.12307],[-70.95096,10.12279],[-70.95278,10.12747],[-70.94417,10.12977],[-70.94489,10.13273],[-70.93795,10.13602],[-70.93956,10.14138],[-70.93693,10.14288],[-70.93989,10.14701],[-70.93473,10.1504],[-70.93803,10.15445],[-70.93369,10.15692],[-70.93563,10.15858],[-70.93142,10.15849],[-70.93235,10.16553],[-70.92973,10.16266],[-70.917,10.17104],[-70.91844,10.17787],[-70.9141,10.17755],[-70.91398,10.17375],[-70.9108,10.17123],[-70.91068,10.17404],[-70.90711,10.17401],[-70.90498,10.16858],[-70.90235,10.17637],[-70.89527,10.18515],[-70.89263,10.1768],[-70.89057,10.17591],[-70.88966,10.17864],[-70.88631,10.1747],[-70.88194,10.18095],[-70.88284,10.18323],[-70.87846,10.17941],[-70.87237,10.18324],[-70.86732,10.19617],[-70.86391,10.19513],[-70.86498,10.19904],[-70.85988,10.19824],[-70.86324,10.20111],[-70.86079,10.20395],[-70.86232,10.20795],[-70.85965,10.20961],[-70.86644,10.21452],[-70.86095,10.21575],[-70.86156,10.21277],[-70.8593,10.21196],[-70.85417,10.21514],[-70.84887,10.21182],[-70.848,10.21553],[-70.84447,10.21497],[-70.84755,10.21841],[-70.84683,10.22141],[-70.85328,10.22523],[-70.85003,10.22681],[-70.8515,10.22961],[-70.84829,10.23164],[-70.84154,10.22836],[-70.8454,10.23804],[-70.84196,10.23863],[-70.83814,10.24336],[-70.83615,10.23843],[-70.83475,10.24051],[-70.83076,10.23892],[-70.82454,10.24226],[-70.82333,10.25609],[-70.82083,10.25596],[-70.81972,10.25242],[-70.81427,10.25285],[-70.81299,10.25559],[-70.81026,10.25424],[-70.80724,10.2566],[-70.80838,10.26133],[-70.80501,10.25958],[-70.79754,10.2648],[-70.7996,10.26893],[-70.7966,10.27381],[-70.79749,10.28048],[-70.8004,10.28342],[-70.79903,10.28974],[-70.79402,10.29657],[-70.79523,10.31143],[-70.7906,10.31733],[-70.78509,10.31834],[-70.78569,10.3341],[-70.77206,10.33967],[-70.76749,10.34607],[-70.76467,10.35286],[-70.76873,10.3607],[-70.75793,10.37865],[-70.75921,10.38888],[-70.75718,10.39252],[-70.75739,10.39512],[-70.77198,10.4077],[-70.77463,10.41848],[-70.77325,10.42176],[-70.78006,10.4272],[-70.79961,10.46897],[-70.80337,10.47155],[-70.81098,10.46171],[-70.8155,10.46099],[-70.8193,10.45303],[-70.82986,10.44142],[-70.83756,10.43803],[-70.84696,10.42866],[-70.85218,10.42911],[-70.85833,10.41896],[-70.86842,10.40889],[-70.87885,10.40453],[-70.88357,10.40523],[-70.89262,10.3891],[-70.90035,10.38543],[-70.90166,10.38176],[-70.91339,10.37931],[-70.91417,10.37595],[-70.91717,10.37779],[-70.91876,10.37511],[-70.92487,10.37325],[-70.93447,10.3787],[-70.9365,10.38309],[-70.9456,10.38296],[-70.94502,10.38728],[-70.94917,10.39],[-70.95158,10.38659],[-70.9504,10.38356],[-70.9535,10.38131],[-70.95108,10.37932],[-70.95125,10.37556],[-70.95459,10.37573],[-70.95951,10.36406],[-70.96358,10.36797],[-70.96794,10.36304],[-70.96983,10.35799],[-70.96697,10.35492],[-70.97033,10.35235],[-70.97104,10.34683],[-70.97476,10.34757],[-70.97694,10.34463],[-70.97541,10.34238],[-70.97983,10.3417],[-70.9794,10.34001],[-70.98636,10.33554],[-70.98691,10.32978],[-70.98936,10.33225],[-70.99412,10.32814],[-70.99013,10.32143],[-70.99972,10.3132],[-70.99993,10.30814],[-71.00188,10.30767],[-70.99942,10.30499],[-71.00818,10.30134],[-71.0071,10.29541],[-71.01008,10.29558],[-71.01389,10.29101],[-71.01462,10.28576],[-71.01056,10.28355],[-71.00953,10.27923],[-71.00602,10.27827],[-71.00642,10.27186],[-71.00839,10.2709],[-71.01362,10.27507],[-71.01335,10.27157],[-71.01616,10.27214],[-71.02021,10.26327],[-71.02304,10.26613],[-71.02687,10.26283],[-71.03189,10.26338],[-71.03061,10.25661],[-71.03573,10.2522],[-71.03689,10.24684],[-71.0348,10.24507],[-71.03714,10.24238],[-71.03238,10.23776],[-71.03365,10.23576],[-71.02947,10.23469],[-71.03029,10.23101],[-71.02644,10.22889],[-71.0382,10.20918],[-71.03474,10.18335],[-71.04459,10.18327],[-71.04479,10.17911],[-71.03937,10.17172],[-71.04536,10.16963],[-71.04427,10.16537],[-71.04761,10.16299],[-71.06009,10.16154],[-71.05987,10.15622],[-71.06621,10.15713],[-71.07011,10.15295],[-71.06931,10.15048],[-71.07177,10.14775],[-71.06935,10.14543],[-71.06824,10.14833],[-71.06629,10.14653],[-71.06791,10.14278],[-71.07367,10.1426],[-71.06743,10.13825],[-71.07306,10.12816],[-71.07783,10.13198],[-71.07416,10.13373],[-71.07875,10.13404],[-71.08033,10.13089],[-71.07765,10.12826],[-71.07951,10.12847],[-71.08283,10.12094],[-71.08072,10.12173],[-71.08009,10.11844],[-71.08934,10.11716],[-71.08688,10.11391],[-71.09086,10.11464],[-71.09104,10.11183],[-71.09584,10.11331],[-71.09714,10.10766],[-71.1,10.10786],[-71.09972,10.10423],[-71.10357,10.10259],[-71.10069,10.10132],[-71.10653,10.09953],[-71.10641,10.09738],[-71.10959,10.09815],[-71.17158,10.04963],[-71.22875,10.01503],[-71.2324,10.00699],[-71.55735,9.93312],[-71.52075,9.77694],[-71.09296,9.87423],[-71.08288,9.879],[-71.07057,9.88105],[-71.06437,9.8791],[-71.05092,9.88518],[-71.04691,9.88135],[-71.02342,9.91149],[-71.01272,9.91726],[-71.01205,9.92518],[-71.00854,9.92682]]]}}]}