{"type":"FeatureCollection","features":[{"type":"Feature","id":"node/333554748","properties":{"name":"Cabimas","place":"city","population":"299108"},"geometry":{"type":"Point","coordinates":[-71.4414,10.39508]}},{"type":"Feature","id":"node/333560954","properties":{"name":"La Ca\u00f1ada de Urdaneta","place":"city"},"geometry":{"type":"Point","coordinates":[-71.69215,10.41342]}},{"type":"Feature","id":"node/377650103","properties":{"name":"Sinamaica","place":"town"},"geometry":{"type":"Point","coordinates":[-71.85411,11.08557]}},{"type":"Feature","id":"node/377687153","properties":{"name":"Los Puertos de Altagracia","place":"city"},"geometry":{"type":"Point","coordinates":[-71.51641,10.68353]}},{"type":"Feature","id":"node/377690696","properties":{"name":"Santa Rita","place":"city","population":"76100"},"geometry":{"type":"Point","coordinates":[-71.52006,10.55896]}},{"type":"Feature","id":"node/930218679","properties":{"name":"Caja Seca","place":"city","population":"65369"},"geometry":{"type":"Point","coordinates":[-71.07852,9.15257]}},{"type":"Feature","id":"node/930222815","properties":{"name":"Bobures","place":"town"},"geometry":{"type":"Point","coordinates":[-71.17281,9.2396]}},{"type":"Feature","id":"node/976482455","properties":{"name":"Bachaquero","place":"city"},"geometry":{"type":"Point","coordinates":[-71.12286,9.96437]}},{"type":"Feature","id":"node/1213178285","properties":{"name":"Santa Cruz del Zulia","place":"town"},"geometry":{"type":"Point","coordinates":[-71.9852,8.9011]}},{"type":"Feature","id":"node/1243061146","properties":{"name":"La Ensenada","place":"town"},"geometry":{"type":"Point","coordinates":[-71.6487,10.44322]}},{"type":"Feature","id":"node/2408446493","properties":{"name":"Bosc\u00e1n","place":"village"},"geometry":{"type":"Point","coordinates":[-71.0896,9.29753]}},{"type":"Feature","id":"node/2408448163","properties":{"name":"T\u00eda Juana","place":"city"},"geometry":{"type":"Point","coordinates":[-71.36139,10.25879]}},{"type":"Feature","id":"node/2408952945","properties":{"name":"Villa del Rosario","place":"city"},"geometry":{"type":"Point","coordinates":[-72.32718,10.31806]}},{"type":"Feature","id":"node/2612583230","properties":{"name":"Santa B\u00e1rbara del Zulia","place":"city","population":"153353"},"geometry":{"type":"Point","coordinates":[-71.90753,8.99949]}},{"type":"Feature","id":"node/2626908363","properties":{"name":"Guarero","place":"town"},"geometry":{"type":"Point","coordinates":[-72.06739,11.35629]}},{"type":"Feature","id":"node/2626919355","properties":{"name":"Paraguaipoa","place":"town"},"geometry":{"type":"Point","coordinates":[-71.96597,11.34768]}},{"type":"Feature","id":"node/2626946780","properties":{"name":"Las Guardias","place":"village"},"geometry":{"type":"Point","coordinates":[-71.90882,11.19312]}},{"type":"Feature","id":"node/3291240462","properties":{"name":"La Concepci\u00f3n","place":"town","population":"118423"},"geometry":{"type":"Point","coordinates":[-71.83933,10.61853]}},{"type":"Feature","id":"node/3575721762","properties":{"name":"Ciudad Ojeda","place":"city","population":"245283"},"geometry":{"type":"Point","coordinates":[-71.31001,10.20041]}},{"type":"Feature","id":"node/3575721763","properties":{"name":"Machiques","place":"city"},"geometry":{"type":"Point","coordinates":[-72.54631,10.05963]}},{"type":"Feature","id":"node/3740934507","properties":{"name":"Arepeta","place":"village"},"geometry":{"type":"Point","coordinates":[-72.03461,11.36632]}},{"type":"Feature","id":"node/3740934508","properties":{"name":"Moina","place":"village"},"geometry":{"type":"Point","coordinates":[-72.02559,11.36925]}},{"type":"Feature","id":"node/3777327578","properties":{"name":"San Bernardo","place":"village"},"geometry":{"type":"Point","coordinates":[-71.6053,10.99909]}},{"type":"Feature","id":"node/5303222620","properties":{"name":"Casigua El Cubo","place":"town"},"geometry":{"type":"Point","coordinates":[-72.52143,8.74481]}},{"type":"Feature","id":"node/5043624826","properties":{"name":"Encontrados","place":"city"},"geometry":{"type":"Point","coordinates":[-72.23507,9.05969]}},{"type":"Feature","id":"node/10265670273","properties":{"name":"San Carlos del Zulia","place":"town","population":"56500"},"geometry":{"type":"Point","coordinates":[-71.92594,9.00052]}},{"type":"Feature","id":"node/5295885270","properties":{"name":"Pueblo Nuevo - El Chivo","place":"town"},"geometry":{"type":"Point","coordinates":[-71.60821,8.96148]}},{"type":"Feature","id":"node/5300650533","properties":{"name":"San Timoteo","place":"town"},"geometry":{"type":"Point","coordinates":[-71.0672,9.78839]}},{"type":"Feature","id":"node/6491089849","properties":{"name":"San Francisco","place":"city"},"geometry":{"type":"Point","coordinates":[-71.64302,10.55982]}},{"type":"Feature","id":"node/4556016892","properties":{"name":"Maracaibo","place":"city","population":"2000000"},"geometry":{"type":"Point","coordinates":[-71.64436,10.64981]}},{"type":"Feature","id":"node/6421862188","properties":{"name":"San Rafael del Moj\u00e1n","place":"city"},"geometry":{"type":"Point","coordinates":[-71.72991,10.96156]}},{"type":"Feature","id":"node/5481283597","properties":{"name":"El Toro","place":"town"},"geometry":{"type":"Point","coordinates":[-71.64494,10.9582]}},{"type":"Feature","id":"node/4584390959","properties":{"name":"El Cruce","place":"town"},"geometry":{"type":"Point","coordinates":[-72.66402,9.19228]}},{"type":"Feature","id":"node/5295783856","properties":{"name":"San Francisco del Pino","place":"village"},"geometry":{"type":"Point","coordinates":[-71.43132,9.0316]}},{"type":"Feature","id":"node/5295785574","properties":{"name":"Ranch\u00f3n","place":"village"},"geometry":{"type":"Point","coordinates":[-71.5155,8.93043]}},{"type":"Feature","id":"node/5295785600","properties":{"name":"Pueblo Nuevo","place":"village"},"geometry":{"type":"Point","coordinates":[-71.41869,8.93209]}},{"type":"Feature","id":"node/5295785669","properties":{"name":"La Providencia","place":"village"},"geometry":{"type":"Point","coordinates":[-71.42804,8.96106]}},{"type":"Feature","id":"node/5295804412","properties":{"name":"Agua Colorada","place":"village"},"geometry":{"type":"Point","coordinates":[-71.23687,9.06132]}},{"type":"Feature","id":"node/5295804413","properties":{"name":"San Antonio","place":"village"},"geometry":{"type":"Point","coordinates":[-71.27599,9.12721]}},{"type":"Feature","id":"node/5295804414","properties":{"name":"San Jos\u00e9","place":"village"},"geometry":{"type":"Point","coordinates":[-71.29578,9.11842]}},{"type":"Feature","id":"node/5295804415","properties":{"name":"Santa Mar\u00eda","place":"town"},"geometry":{"type":"Point","coordinates":[-71.31067,9.10329]}},{"type":"Feature","id":"node/5295804416","properties":{"name":"La Sabana","place":"town"},"geometry":{"type":"Point","coordinates":[-71.31594,9.04663]}},{"type":"Feature","id":"node/5295804418","properties":{"name":"Altamira","place":"town"},"geometry":{"type":"Point","coordinates":[-71.29949,9.00647]}},{"type":"Feature","id":"node/5295817621","properties":{"name":"El Batey","place":"town"},"geometry":{"type":"Point","coordinates":[-71.11905,9.15925]}},{"type":"Feature","id":"node/5295817622","properties":{"name":"San Miguel","place":"village"},"geometry":{"type":"Point","coordinates":[-71.14944,9.19916]}},{"type":"Feature","id":"node/5295817624","properties":{"name":"Gibraltar","place":"village"},"geometry":{"type":"Point","coordinates":[-71.13385,9.27163]}},{"type":"Feature","id":"node/5295840868","properties":{"name":"El 15","place":"village"},"geometry":{"type":"Point","coordinates":[-71.0076,9.24448]}},{"type":"Feature","id":"node/5295840872","properties":{"name":"La Dificultad","place":"village"},"geometry":{"type":"Point","coordinates":[-71.04206,9.32746]}},{"type":"Feature","id":"node/5295840873","properties":{"name":"Monte Carmelo","place":"village"},"geometry":{"type":"Point","coordinates":[-71.03001,9.33732]}},{"type":"Feature","id":"node/5295885258","properties":{"name":"La Gran Parada","place":"village"},"geometry":{"type":"Point","coordinates":[-71.66826,8.8094]}},{"type":"Feature","id":"node/5295885259","properties":{"name":"Cuatro Esquinas","place":"town"},"geometry":{"type":"Point","coordinates":[-71.65792,8.84218]}},{"type":"Feature","id":"node/5295885835","properties":{"name":"Las Rurales","place":"village"},"geometry":{"type":"Point","coordinates":[-71.61249,9.00534]}},{"type":"Feature","id":"node/5295885862","properties":{"name":"Santa Rosa","place":"village"},"geometry":{"type":"Point","coordinates":[-71.57758,9.01137]}},{"type":"Feature","id":"node/5295919851","properties":{"name":"La Burra Mocha","place":"village"},"geometry":{"type":"Point","coordinates":[-71.58858,8.91594]}},{"type":"Feature","id":"node/5299361939","properties":{"name":"Alto Viento","place":"village"},"geometry":{"type":"Point","coordinates":[-70.96563,9.63385]}},{"type":"Feature","id":"node/5299361940","properties":{"name":"La Bombita","place":"village"},"geometry":{"type":"Point","coordinates":[-70.95286,9.66082]}},{"type":"Feature","id":"node/5299361941","properties":{"name":"La Barua","place":"village"},"geometry":{"type":"Point","coordinates":[-70.93344,9.65627]}},{"type":"Feature","id":"node/5299414093","properties":{"name":"Santa Rosa","place":"village"},"geometry":{"type":"Point","coordinates":[-70.77521,9.7316]}},{"type":"Feature","id":"node/5299414094","properties":{"name":"San Juan","place":"village"},"geometry":{"type":"Point","coordinates":[-70.78525,9.74219]}},{"type":"Feature","id":"node/5299414095","properties":{"name":"La Curva","place":"village"},"geometry":{"type":"Point","coordinates":[-70.79954,9.75437]}},{"type":"Feature","id":"node/5299414096","properties":{"name":"San Joaqu\u00edn","place":"village"},"geometry":{"type":"Point","coordinates":[-70.80851,9.77466]}},{"type":"Feature","id":"node/5299414098","properties":{"name":"La Raya","place":"village"},"geometry":{"type":"Point","coordinates":[-70.87874,9.83398]}},{"type":"Feature","id":"node/5299414109","properties":{"name":"La Arepa","place":"village"},"geometry":{"type":"Point","coordinates":[-70.90664,10.05534]}},{"type":"Feature","id":"node/5299414110","properties":{"name":"El Venado","place":"town"},"geometry":{"type":"Point","coordinates":[-70.92402,10.07031]}},{"type":"Feature","id":"node/5300650119","properties":{"name":"Mene Grande","place":"city"},"geometry":{"type":"Point","coordinates":[-70.92922,9.83662]}},{"type":"Feature","id":"node/5300650120","properties":{"name":"La Leona","place":"village"},"geometry":{"type":"Point","coordinates":[-70.89096,9.84121]}},{"type":"Feature","id":"node/5300650534","properties":{"name":"El Siete","place":"town"},"geometry":{"type":"Point","coordinates":[-70.91887,9.69318]}},{"type":"Feature","id":"node/5300650535","properties":{"name":"Batatal","place":"village"},"geometry":{"type":"Point","coordinates":[-70.86866,9.69649]}},{"type":"Feature","id":"node/5300650536","properties":{"name":"El Tigre","place":"town"},"geometry":{"type":"Point","coordinates":[-70.84795,9.6751]}},{"type":"Feature","id":"node/5300663996","properties":{"name":"El Toro","place":"village"},"geometry":{"type":"Point","coordinates":[-71.02636,9.66429]}},{"type":"Feature","id":"node/5300663997","properties":{"name":"Ceuta","place":"village"},"geometry":{"type":"Point","coordinates":[-71.0458,9.66759]}},{"type":"Feature","id":"node/5300664017","properties":{"name":"Tomporo de Tierra","place":"village"},"geometry":{"type":"Point","coordinates":[-71.02982,9.62797]}},{"type":"Feature","id":"node/5300664019","properties":{"name":"El Muro","place":"village"},"geometry":{"type":"Point","coordinates":[-70.91617,9.72307]}},{"type":"Feature","id":"node/5300664451","properties":{"name":"San Pedro","place":"town"},"geometry":{"type":"Point","coordinates":[-70.89445,9.78596]}},{"type":"Feature","id":"node/5300701074","properties":{"name":"23 de Enero","place":"village"},"geometry":{"type":"Point","coordinates":[-71.06026,9.92058]}},{"type":"Feature","id":"node/5300701075","properties":{"name":"Santa Cruz","place":"village"},"geometry":{"type":"Point","coordinates":[-71.0446,9.90981]}},{"type":"Feature","id":"node/5300701078","properties":{"name":"El Cinco","place":"village"},"geometry":{"type":"Point","coordinates":[-71.04151,10.01516]}},{"type":"Feature","id":"node/5300701079","properties":{"name":"Sabana de Machango","place":"town"},"geometry":{"type":"Point","coordinates":[-70.99302,10.06418]}},{"type":"Feature","id":"node/5300701088","properties":{"name":"Lagunillas","place":"city"},"geometry":{"type":"Point","coordinates":[-71.25356,10.12686]}},{"type":"Feature","id":"node/5300701089","properties":{"name":"Fabricio Ojeda","place":"town"},"geometry":{"type":"Point","coordinates":[-71.20673,10.19176]}},{"type":"Feature","id":"node/5300701090","properties":{"name":"Cordob\u00e9s","place":"town"},"geometry":{"type":"Point","coordinates":[-71.19424,10.18983]}},{"type":"Feature","id":"node/5300701091","properties":{"name":"Campo Lara","place":"town"},"geometry":{"type":"Point","coordinates":[-71.08797,10.16031]}},{"type":"Feature","id":"node/5300701092","properties":{"name":"Plan Bonito","place":"town"},"geometry":{"type":"Point","coordinates":[-71.05167,10.14549]}},{"type":"Feature","id":"node/5300701093","properties":{"name":"El Corozo","place":"town"},"geometry":{"type":"Point","coordinates":[-71.04551,10.12145]}},{"type":"Feature","id":"node/5300701094","properties":{"name":"El Remolino","place":"town"},"geometry":{"type":"Point","coordinates":[-71.02038,10.08543]}},{"type":"Feature","id":"node/5300701095","properties":{"name":"El Ri\u00edto","place":"village"},"geometry":{"type":"Point","coordinates":[-71.00343,10.08032]}},{"type":"Feature","id":"node/5300747395","properties":{"name":"El Danto","place":"town"},"geometry":{"type":"Point","coordinates":[-71.23692,10.23385]}},{"type":"Feature","id":"node/5300747399","properties":{"name":"Agua Santa","place":"village"},"geometry":{"type":"Point","coordinates":[-71.12111,10.41656]}},{"type":"Feature","id":"node/5300747400","properties":{"name":"Las Piedritas","place":"village"},"geometry":{"type":"Point","coordinates":[-71.10785,10.43894]}},{"type":"Feature","id":"node/5300747401","properties":{"name":"El Consejo de Ziruma","place":"town"},"geometry":{"type":"Point","coordinates":[-71.1442,10.48227]}},{"type":"Feature","id":"node/5300747402","properties":{"name":"Palito Blanco","place":"village"},"geometry":{"type":"Point","coordinates":[-71.18011,10.38271]}},{"type":"Feature","id":"node/5300747403","properties":{"name":"Sabana de La Plata","place":"town"},"geometry":{"type":"Point","coordinates":[-71.2753,10.32133]}},{"type":"Feature","id":"node/5300747404","properties":{"name":"La Sabana","place":"village"},"geometry":{"type":"Point","coordinates":[-71.19008,10.35811]}},{"type":"Feature","id":"node/5300747970","properties":{"name":"La Victoria","place":"village"},"geometry":{"type":"Point","coordinates":[-71.2422,10.60174]}},{"type":"Feature","id":"node/5300748075","properties":{"name":"Mecocal","place":"town"},"geometry":{"type":"Point","coordinates":[-71.41075,10.64356]}},{"type":"Feature","id":"node/5300748082","properties":{"name":"El Guan\u00e1bano","place":"village"},"geometry":{"type":"Point","coordinates":[-71.23932,10.52088]}},{"type":"Feature","id":"node/5300748200","properties":{"name":"Tolosa","place":"village"},"geometry":{"type":"Point","coordinates":[-71.3939,10.49241]}},{"type":"Feature","id":"node/5300748203","properties":{"name":"La Vega","place":"village"},"geometry":{"type":"Point","coordinates":[-71.34321,10.37591]}},{"type":"Feature","id":"node/5300817265","properties":{"name":"Ule","place":"town"},"geometry":{"type":"Point","coordinates":[-71.39521,10.30053]}},{"type":"Feature","id":"node/5300817266","properties":{"name":"Punta Gorda","place":"town"},"geometry":{"type":"Point","coordinates":[-71.40799,10.32326]}},{"type":"Feature","id":"node/5300817268","properties":{"name":"El Mene","place":"town"},"geometry":{"type":"Point","coordinates":[-71.44792,10.46726]}},{"type":"Feature","id":"node/5300817299","properties":{"name":"Puerto Escondido","place":"town"},"geometry":{"type":"Point","coordinates":[-71.48893,10.51418]}},{"type":"Feature","id":"node/5300912863","properties":{"name":"Las Palmas","place":"village"},"geometry":{"type":"Point","coordinates":[-71.17056,10.60284]}},{"type":"Feature","id":"node/5300912872","properties":{"name":"El Mu\u00f1eco","place":"village"},"geometry":{"type":"Point","coordinates":[-71.12977,10.63003]}},{"type":"Feature","id":"node/5300912898","properties":{"name":"La Entrada","place":"village"},"geometry":{"type":"Point","coordinates":[-71.14558,10.67989]}},{"type":"Feature","id":"node/5300913049","properties":{"name":"La Raya","place":"village"},"geometry":{"type":"Point","coordinates":[-71.10435,10.73132]}},{"type":"Feature","id":"node/5300913070","properties":{"name":"Sabaneta de Palmas","place":"town"},"geometry":{"type":"Point","coordinates":[-71.56109,10.79245]}},{"type":"Feature","id":"node/5300913071","properties":{"name":"Punta de Palmas","place":"town"},"geometry":{"type":"Point","coordinates":[-71.57621,10.78386]}},{"type":"Feature","id":"node/5300913072","properties":{"name":"Los Jobitos","place":"town"},"geometry":{"type":"Point","coordinates":[-71.51609,10.79497]}},{"type":"Feature","id":"node/5300913073","properties":{"name":"Anc\u00f3n de Iturre","place":"town"},"geometry":{"type":"Point","coordinates":[-71.44851,10.78686]}},{"type":"Feature","id":"node/5300913074","properties":{"name":"Japital","place":"village"},"geometry":{"type":"Point","coordinates":[-71.45129,10.77143]}},{"type":"Feature","id":"node/5300913102","properties":{"name":"Boca del Palmar","place":"village"},"geometry":{"type":"Point","coordinates":[-71.34732,10.80018]}},{"type":"Feature","id":"node/5300913145","properties":{"name":"Quisiro","place":"town"},"geometry":{"type":"Point","coordinates":[-71.28822,10.8819]}},{"type":"Feature","id":"node/5303191279","properties":{"name":"Caracol\u00ed","place":"town"},"geometry":{"type":"Point","coordinates":[-71.73969,8.76395]}},{"type":"Feature","id":"node/5303191286","properties":{"name":"El Abanico","place":"village"},"geometry":{"type":"Point","coordinates":[-71.72274,8.8007]}},{"type":"Feature","id":"node/5303191287","properties":{"name":"San Jos\u00e9","place":"village"},"geometry":{"type":"Point","coordinates":[-71.6969,8.8598]}},{"type":"Feature","id":"node/5303191288","properties":{"name":"Ca\u00f1o Blanco","place":"village"},"geometry":{"type":"Point","coordinates":[-71.70024,8.87198]}},{"type":"Feature","id":"node/5303191289","properties":{"name":"Puerto Chama","place":"village"},"geometry":{"type":"Point","coordinates":[-71.66963,8.85702]}},{"type":"Feature","id":"node/5303191291","properties":{"name":"Janeiro","place":"village"},"geometry":{"type":"Point","coordinates":[-71.7734,8.9114]}},{"type":"Feature","id":"node/5303191297","properties":{"name":"Ca\u00f1o Negro","place":"village"},"geometry":{"type":"Point","coordinates":[-71.76589,8.87673]}},{"type":"Feature","id":"node/5303191298","properties":{"name":"Concha","place":"town"},"geometry":{"type":"Point","coordinates":[-71.7488,9.02443]}},{"type":"Feature","id":"node/5303191300","properties":{"name":"Ca\u00f1o Muerto","place":"village"},"geometry":{"type":"Point","coordinates":[-71.68044,8.88971]}},{"type":"Feature","id":"node/5303222452","properties":{"name":"Bobures","place":"village"},"geometry":{"type":"Point","coordinates":[-71.98548,8.96241]}},{"type":"Feature","id":"node/5303222453","properties":{"name":"Santa Rosa","place":"village"},"geometry":{"type":"Point","coordinates":[-72.05814,8.96407]}},{"type":"Feature","id":"node/5303222578","properties":{"name":"El Rull","place":"village"},"geometry":{"type":"Point","coordinates":[-72.27307,8.83417]}},{"type":"Feature","id":"node/5303222594","properties":{"name":"Campo Alegre","place":"village"},"geometry":{"type":"Point","coordinates":[-72.33013,8.85194]}},{"type":"Feature","id":"node/5303222615","properties":{"name":"Valderrama","place":"village"},"geometry":{"type":"Point","coordinates":[-72.3058,8.92527]}},{"type":"Feature","id":"node/5303222616","properties":{"name":"Gallinazo","place":"village"},"geometry":{"type":"Point","coordinates":[-72.3533,8.76365]}},{"type":"Feature","id":"node/5303222617","properties":{"name":"Nicaragua","place":"village"},"geometry":{"type":"Point","coordinates":[-72.33987,8.66734]}},{"type":"Feature","id":"node/5303222618","properties":{"name":"El Guayabo","place":"town"},"geometry":{"type":"Point","coordinates":[-72.33664,8.62381]}},{"type":"Feature","id":"node/5303222619","properties":{"name":"Mi Delirio","place":"village"},"geometry":{"type":"Point","coordinates":[-72.5812,8.67136]}},{"type":"Feature","id":"node/5303249150","properties":{"name":"Campo Bernal","place":"village"},"geometry":{"type":"Point","coordinates":[-72.57818,9.6628]}},{"type":"Feature","id":"node/5303249327","properties":{"name":"Los \u00c1ngeles del Tucuco","place":"town"},"geometry":{"type":"Point","coordinates":[-72.81033,9.84371]}},{"type":"Feature","id":"node/5303274278","properties":{"name":"Kiridakae","place":"village"},"geometry":{"type":"Point","coordinates":[-72.86171,9.71671]}},{"type":"Feature","id":"node/5303274811","properties":{"name":"Saymadoy","place":"village"},"geometry":{"type":"Point","coordinates":[-72.91099,9.59872]}},{"type":"Feature","id":"node/5303274867","properties":{"name":"Yabagb\u00fa","place":"village"},"geometry":{"type":"Point","coordinates":[-72.86296,9.57982]}},{"type":"Feature","id":"node/5303298676","properties":{"name":"Tonono","place":"village"},"geometry":{"type":"Point","coordinates":[-72.70505,10.04785]}},{"type":"Feature","id":"node/5303298859","properties":{"name":"El Llano","place":"village"},"geometry":{"type":"Point","coordinates":[-72.52273,10.13252]}},{"type":"Feature","id":"node/5303337034","properties":{"name":"R\u00edo Negro","place":"village"},"geometry":{"type":"Point","coordinates":[-72.50942,9.66467]}},{"type":"Feature","id":"node/5303337326","properties":{"name":"Calle Larga","place":"town"},"geometry":{"type":"Point","coordinates":[-72.42115,9.94122]}},{"type":"Feature","id":"node/5303337346","properties":{"name":"San Jos\u00e9 de Perij\u00e1","place":"town"},"geometry":{"type":"Point","coordinates":[-72.39498,10.01366]}},{"type":"Feature","id":"node/5303337347","properties":{"name":"Las Piedras","place":"town"},"geometry":{"type":"Point","coordinates":[-72.42257,10.04931]}},{"type":"Feature","id":"node/5303337348","properties":{"name":"Los Chich\u00edes","place":"village"},"geometry":{"type":"Point","coordinates":[-72.44813,10.04041]}},{"type":"Feature","id":"node/5303337349","properties":{"name":"La Pastora","place":"town"},"geometry":{"type":"Point","coordinates":[-72.50688,10.05366]}},{"type":"Feature","id":"node/5303365197","properties":{"name":"Macoa","place":"village"},"geometry":{"type":"Point","coordinates":[-72.45626,10.1441]}},{"type":"Feature","id":"node/5303365198","properties":{"name":"San Ignacio","place":"town"},"geometry":{"type":"Point","coordinates":[-72.38439,10.18755]}},{"type":"Feature","id":"node/5303365199","properties":{"name":"Guadalajara","place":"town"},"geometry":{"type":"Point","coordinates":[-72.40152,10.2274]}},{"type":"Feature","id":"node/5303365206","properties":{"name":"Villa Vieja","place":"village"},"geometry":{"type":"Point","coordinates":[-72.36394,10.12605]}},{"type":"Feature","id":"node/5303367247","properties":{"name":"Sartanejo","place":"village"},"geometry":{"type":"Point","coordinates":[-72.31824,10.10985]}},{"type":"Feature","id":"node/5303367502","properties":{"name":"Barranquitas","place":"town"},"geometry":{"type":"Point","coordinates":[-72.02863,9.97636]}},{"type":"Feature","id":"node/5303367533","properties":{"name":"El Curarire","place":"village"},"geometry":{"type":"Point","coordinates":[-71.82358,10.26328]}},{"type":"Feature","id":"node/5303367534","properties":{"name":"La Isla","place":"village"},"geometry":{"type":"Point","coordinates":[-71.81668,10.27793]}},{"type":"Feature","id":"node/5303367539","properties":{"name":"Potrerito","place":"town"},"geometry":{"type":"Point","coordinates":[-71.78736,10.33455]}},{"type":"Feature","id":"node/5303367540","properties":{"name":"El Carmelo","place":"town"},"geometry":{"type":"Point","coordinates":[-71.7306,10.38543]}},{"type":"Feature","id":"node/5303398025","properties":{"name":"Arimpia","place":"town"},"geometry":{"type":"Point","coordinates":[-72.39042,10.31199]}},{"type":"Feature","id":"node/5306571155","properties":{"name":"La Paz","place":"town"},"geometry":{"type":"Point","coordinates":[-71.9989,10.67704]}},{"type":"Feature","id":"node/5306571156","properties":{"name":"El Laberinto","place":"village"},"geometry":{"type":"Point","coordinates":[-72.23744,10.58157]}},{"type":"Feature","id":"node/5308445110","properties":{"name":"Campo Mara","place":"town"},"geometry":{"type":"Point","coordinates":[-71.87707,10.87466]}},{"type":"Feature","id":"node/5308445111","properties":{"name":"La Sierrita","place":"town"},"geometry":{"type":"Point","coordinates":[-71.86692,10.84149]}},{"type":"Feature","id":"node/5308445112","properties":{"name":"Las Cuatro Bocas","place":"town"},"geometry":{"type":"Point","coordinates":[-71.85892,10.8205]}},{"type":"Feature","id":"node/5308445119","properties":{"name":"Las Tres Bocas","place":"town"},"geometry":{"type":"Point","coordinates":[-71.82618,10.81974]}},{"type":"Feature","id":"node/5308445120","properties":{"name":"Nueva Lucha","place":"town"},"geometry":{"type":"Point","coordinates":[-71.75743,10.81042]}},{"type":"Feature","id":"node/5308484024","properties":{"name":"La Fragua","place":"village"},"geometry":{"type":"Point","coordinates":[-71.91089,10.78385]}},{"type":"Feature","id":"node/5308484043","properties":{"name":"La Botella","place":"village"},"geometry":{"type":"Point","coordinates":[-72.01788,10.84961]}},{"type":"Feature","id":"node/5308484735","properties":{"name":"Los Ca\u00f1os","place":"village"},"geometry":{"type":"Point","coordinates":[-72.14922,10.79894]}},{"type":"Feature","id":"node/5308484747","properties":{"name":"El Tamaral","place":"village"},"geometry":{"type":"Point","coordinates":[-72.18997,10.81983]}},{"type":"Feature","id":"node/5308484761","properties":{"name":"La L\u00ednea","place":"village"},"geometry":{"type":"Point","coordinates":[-72.1989,10.80491]}},{"type":"Feature","id":"node/5308484995","properties":{"name":"Cachir\u00ed","place":"village"},"geometry":{"type":"Point","coordinates":[-72.24039,10.83408]}},{"type":"Feature","id":"node/5308560787","properties":{"name":"Carrasquero","place":"town"},"geometry":{"type":"Point","coordinates":[-72.00274,11.02732]}},{"type":"Feature","id":"node/5308560788","properties":{"name":"Molinete","place":"town"},"geometry":{"type":"Point","coordinates":[-72.02358,11.05097]}},{"type":"Feature","id":"node/5308560809","properties":{"name":"Ca\u00f1aguate","place":"village"},"geometry":{"type":"Point","coordinates":[-72.02993,11.10955]}},{"type":"Feature","id":"node/5308560882","properties":{"name":"El Escondido","place":"town"},"geometry":{"type":"Point","coordinates":[-72.13147,11.09203]}},{"type":"Feature","id":"node/5308561227","properties":{"name":"Morchipa","place":"village"},"geometry":{"type":"Point","coordinates":[-72.02004,11.25019]}},{"type":"Feature","id":"node/5308561240","properties":{"name":"El Arroyo","place":"village"},"geometry":{"type":"Point","coordinates":[-71.92644,11.18366]}},{"type":"Feature","id":"node/5308621721","properties":{"name":"El Calabozo","place":"village"},"geometry":{"type":"Point","coordinates":[-71.87039,11.11588]}},{"type":"Feature","id":"node/5308621742","properties":{"name":"Caimare","place":"village"},"geometry":{"type":"Point","coordinates":[-71.85237,11.15201]}},{"type":"Feature","id":"node/5308621754","properties":{"name":"Aramach\u00f3n","place":"village"},"geometry":{"type":"Point","coordinates":[-71.92282,11.22055]}},{"type":"Feature","id":"node/5308621760","properties":{"name":"Jurub\u00e1","place":"village"},"geometry":{"type":"Point","coordinates":[-71.9406,11.2672]}},{"type":"Feature","id":"node/5308621761","properties":{"name":"Los Aceitunitos","place":"village"},"geometry":{"type":"Point","coordinates":[-71.95376,11.30559]}},{"type":"Feature","id":"node/5308621762","properties":{"name":"La Punta","place":"town"},"geometry":{"type":"Point","coordinates":[-71.95848,11.32635]}},{"type":"Feature","id":"node/5308621771","properties":{"name":"Cojoro","place":"village"},"geometry":{"type":"Point","coordinates":[-71.84186,11.64077]}},{"type":"Feature","id":"node/5556940085","properties":{"name":"Santa Cruz de Mara","place":"city"},"geometry":{"type":"Point","coordinates":[-71.68937,10.78856]}},{"type":"Feature","id":"node/5574102642","properties":{"name":"La Gaviota","place":"village"},"geometry":{"type":"Point","coordinates":[-71.84235,10.78901]}},{"type":"Feature","id":"node/8319674955","properties":{"name":"Congo Mirador","place":"village"},"geometry":{"type":"Point","coordinates":[-71.80054,9.38594]}},{"type":"Feature","id":"node/8364348125","properties":{"name":"La Bendicion de Dios","place":"village"},"geometry":{"type":"Point","coordinates":[-72.63177,9.33512]}},{"type":"Feature","id":"node/9046522948","properties":{"name":"San Carlos","place":"town"},"geometry":{"type":"Point","coordinates":[-71.61306,10.98872]}},{"type":"Feature","id":"node/9051953594","properties":{"name":"El 14","place":"village"},"geometry":{"type":"Point","coordinates":[-70.98988,9.23214]}},{"type":"Feature","id":"node/9053932290","properties":{"name":"Ca\u00f1o de Agua","place":"village"},"geometry":{"type":"Point","coordinates":[-71.07107,9.12648]}},{"type":"Feature","id":"node/9053989055","properties":{"name":"Chirur\u00ed","place":"village"},"geometry":{"type":"Point","coordinates":[-71.02777,9.17004]}},{"type":"Feature","id":"node/9053989057","properties":{"name":"Capi\u00fa","place":"town"},"geometry":{"type":"Point","coordinates":[-71.04552,9.15608]}},{"type":"Feature","id":"node/9054023127","properties":{"name":"Hato Blanco","place":"village"},"geometry":{"type":"Point","coordinates":[-71.07639,9.26433]}},{"type":"Feature","id":"node/9054023132","properties":{"name":"Villa Dolores","place":"village"},"geometry":{"type":"Point","coordinates":[-71.05658,9.24713]}},{"type":"Feature","id":"node/9054023140","properties":{"name":"Capi\u00fa Abajo","place":"village"},"geometry":{"type":"Point","coordinates":[-71.05798,9.17508]}},{"type":"Feature","id":"node/9054023141","properties":{"name":"Mar\u00eda Rosario","place":"village"},"geometry":{"type":"Point","coordinates":[-71.06489,9.18925]}},{"type":"Feature","id":"node/9054023143","properties":{"name":"Las Carmelitas del Norte","place":"village"},"geometry":{"type":"Point","coordinates":[-71.0791,9.21283]}},{"type":"Feature","id":"node/9054023150","properties":{"name":"Las Mar\u00edas","place":"village"},"geometry":{"type":"Point","coordinates":[-71.13594,9.25339]}},{"type":"Feature","id":"node/9054023153","properties":{"name":"Los Dolores","place":"village"},"geometry":{"type":"Point","coordinates":[-71.15328,9.2289]}},{"type":"Feature","id":"node/9054023155","properties":{"name":"Monte Adentro","place":"village"},"geometry":{"type":"Point","coordinates":[-71.10165,9.17751]}},{"type":"Feature","id":"node/9054077590","properties":{"name":"Parcelamiento Muyap\u00e1","place":"village"},"geometry":{"type":"Point","coordinates":[-71.03348,9.20836]}},{"type":"Feature","id":"node/9054098566","properties":{"name":"Palo de Flores","place":"village"},"geometry":{"type":"Point","coordinates":[-71.13717,9.18469]}},{"type":"Feature","id":"node/9054098569","properties":{"name":"San Juan","place":"village"},"geometry":{"type":"Point","coordinates":[-71.10762,9.15712]}},{"type":"Feature","id":"node/9054098591","properties":{"name":"La Guaira","place":"village"},"geometry":{"type":"Point","coordinates":[-71.15999,9.17932]}},{"type":"Feature","id":"node/9054534186","properties":{"name":"Los \u00c1ngeles","place":"village"},"geometry":{"type":"Point","coordinates":[-71.30642,9.02823]}},{"type":"Feature","id":"node/9054534187","properties":{"name":"Los Ca\u00f1itos","place":"village"},"geometry":{"type":"Point","coordinates":[-71.28664,8.98788]}},{"type":"Feature","id":"node/9054534216","properties":{"name":"Agua Colorada Abajo","place":"village"},"geometry":{"type":"Point","coordinates":[-71.25376,9.08097]}},{"type":"Feature","id":"node/9066692299","properties":{"name":"Asentamiento Gavilanes del Norte","place":"village"},"geometry":{"type":"Point","coordinates":[-71.48812,8.92179]}},{"type":"Feature","id":"node/9074800609","properties":{"name":"Parcelamiento Casimba del Norte","place":"village"},"geometry":{"type":"Point","coordinates":[-71.6682,9.00331]}},{"type":"Feature","id":"node/9074800610","properties":{"name":"Parcelamiento Casimba del Medio","place":"village"},"geometry":{"type":"Point","coordinates":[-71.66339,8.98461]}},{"type":"Feature","id":"node/9074800611","properties":{"name":"Parcelamiento Casimba del Sur","place":"village"},"geometry":{"type":"Point","coordinates":[-71.66648,8.96321]}},{"type":"Feature","id":"node/9074800612","properties":{"name":"La Fortuna","place":"village"},"geometry":{"type":"Point","coordinates":[-71.65845,8.94844]}},{"type":"Feature","id":"node/9074828157","properties":{"name":"Parcelamiento Santo Domingo del Norte","place":"village"},"geometry":{"type":"Point","coordinates":[-71.66232,9.03276]}},{"type":"Feature","id":"node/9074828159","properties":{"name":"Parcelamiento Santo Domingo del Medio","place":"village"},"geometry":{"type":"Point","coordinates":[-71.65811,9.01072]}},{"type":"Feature","id":"node/9074828160","properties":{"name":"Parcelamiento Santo Domingo del Este","place":"village"},"geometry":{"type":"Point","coordinates":[-71.6324,9.01081]}},{"type":"Feature","id":"node/9074828173","properties":{"name":"Las Palmeras","place":"village"},"geometry":{"type":"Point","coordinates":[-71.65951,8.77696]}},{"type":"Feature","id":"node/9074828175","properties":{"name":"Los Naranjos","place":"town"},"geometry":{"type":"Point","coordinates":[-71.65669,8.73984]}},{"type":"Feature","id":"node/9074860664","properties":{"name":"Parcelamiento Estero del Norte","place":"village"},"geometry":{"type":"Point","coordinates":[-71.68365,9.04383]}},{"type":"Feature","id":"node/9074860665","properties":{"name":"Parcelamiento Estero del Medio","place":"village"},"geometry":{"type":"Point","coordinates":[-71.68811,9.02581]}},{"type":"Feature","id":"node/9074860666","properties":{"name":"Parcelamiento Estero del Sur","place":"village"},"geometry":{"type":"Point","coordinates":[-71.69025,9.00089]}},{"type":"Feature","id":"node/9074868509","properties":{"name":"Parcelamiento El Zapote","place":"village"},"geometry":{"type":"Point","coordinates":[-71.75222,8.86429]}},{"type":"Feature","id":"node/9074868516","properties":{"name":"Bancada de Limones","place":"village"},"geometry":{"type":"Point","coordinates":[-71.72991,8.82155]}},{"type":"Feature","id":"node/9074891722","properties":{"name":"El Laberinto","place":"village"},"geometry":{"type":"Point","coordinates":[-71.7085,8.8147]}},{"type":"Feature","id":"node/9074907919","properties":{"name":"Taparones","place":"town"},"geometry":{"type":"Point","coordinates":[-71.72602,8.87148]}},{"type":"Feature","id":"node/9074907920","properties":{"name":"Santa Mar\u00eda","place":"village"},"geometry":{"type":"Point","coordinates":[-71.76476,8.90379]}},{"type":"Feature","id":"node/9074907921","properties":{"name":"San Antonio","place":"village"},"geometry":{"type":"Point","coordinates":[-71.75265,8.88978]}},{"type":"Feature","id":"node/9074907925","properties":{"name":"Medio Cuarto","place":"village"},"geometry":{"type":"Point","coordinates":[-71.76038,8.98311]}},{"type":"Feature","id":"node/9075062402","properties":{"name":"El Gu\u00e1imaro","place":"village"},"geometry":{"type":"Point","coordinates":[-71.88431,8.7695]}},{"type":"Feature","id":"node/9075098024","properties":{"name":"Uvito del Este","place":"village"},"geometry":{"type":"Point","coordinates":[-71.79958,8.69462]}},{"type":"Feature","id":"node/9075098025","properties":{"name":"Uvito del Sur","place":"village"},"geometry":{"type":"Point","coordinates":[-71.81368,8.68557]}},{"type":"Feature","id":"node/9075098026","properties":{"name":"El Uvito","place":"village"},"geometry":{"type":"Point","coordinates":[-71.81604,8.69893]}},{"type":"Feature","id":"node/9075098035","properties":{"name":"El Castillo","place":"village"},"geometry":{"type":"Point","coordinates":[-71.759,8.73968]}},{"type":"Feature","id":"node/9075098036","properties":{"name":"Kil\u00f3metro 35","place":"village"},"geometry":{"type":"Point","coordinates":[-71.78278,8.74786]}},{"type":"Feature","id":"node/9075098041","properties":{"name":"Parcelamiento Madre Vieja","place":"village"},"geometry":{"type":"Point","coordinates":[-71.77845,8.82248]}},{"type":"Feature","id":"node/9938205660","properties":{"name":"Campo Alegre I","place":"village"},"geometry":{"type":"Point","coordinates":[-71.87906,11.16614]}},{"type":"Feature","id":"node/10036312485","properties":{"name":"El Jag\u00fcey","place":"village"},"geometry":{"type":"Point","coordinates":[-71.85507,10.73457]}},{"type":"Feature","id":"node/10036312487","properties":{"name":"La Quieta","place":"village"},"geometry":{"type":"Point","coordinates":[-71.88468,10.78089]}},{"type":"Feature","id":"node/10036312488","properties":{"name":"Los Cochinos","place":"town"},"geometry":{"type":"Point","coordinates":[-71.89277,10.80325]}},{"type":"Feature","id":"node/10036312489","properties":{"name":"Ca\u00f1a Fresca","place":"village"},"geometry":{"type":"Point","coordinates":[-71.83462,10.77564]}},{"type":"Feature","id":"node/10036312490","properties":{"name":"Las Piedras","place":"village"},"geometry":{"type":"Point","coordinates":[-71.77456,10.7549]}},{"type":"Feature","id":"node/10036312491","properties":{"name":"San Jos\u00e9","place":"village"},"geometry":{"type":"Point","coordinates":[-71.80179,10.73025]}},{"type":"Feature","id":"node/10036312492","properties":{"name":"San Luis","place":"village"},"geometry":{"type":"Point","coordinates":[-71.79518,10.74136]}},{"type":"Feature","id":"node/10036312493","properties":{"name":"El Cieneguito","place":"town"},"geometry":{"type":"Point","coordinates":[-71.82198,10.74857]}},{"type":"Feature","id":"node/10036312494","properties":{"name":"La Ceiba","place":"village"},"geometry":{"type":"Point","coordinates":[-71.76175,10.74421]}},{"type":"Feature","id":"node/10036312497","properties":{"name":"Los Pozos","place":"village"},"geometry":{"type":"Point","coordinates":[-71.74951,10.72205]}},{"type":"Feature","id":"node/10036312498","properties":{"name":"Anc\u00f3n Alto","place":"town"},"geometry":{"type":"Point","coordinates":[-71.81278,10.68878]}},{"type":"Feature","id":"node/10036312499","properties":{"name":"La Garrapata","place":"town"},"geometry":{"type":"Point","coordinates":[-71.76523,10.71657]}},{"type":"Feature","id":"node/10036312500","properties":{"name":"Los Coquitos","place":"town"},"geometry":{"type":"Point","coordinates":[-71.69693,10.7479]}},{"type":"Feature","id":"node/10036312502","properties":{"name":"El Curarire","place":"village"},"geometry":{"type":"Point","coordinates":[-72.03247,10.86773]}},{"type":"Feature","id":"node/10036312503","properties":{"name":"Tul\u00e9","place":"village"},"geometry":{"type":"Point","coordinates":[-72.10036,10.89641]}},{"type":"Feature","id":"node/10265670274","properties":{"name":"Tamare","place":"town"},"geometry":{"type":"Point","coordinates":[-71.76511,10.86171]}},{"type":"Feature","id":"node/11224055197","properties":{"name":"Zapara","place":"town"},"geometry":{"type":"Point","coordinates":[-71.57464,10.98072]}},{"type":"Feature","id":"node/11235667339","properties":{"name":"Santo Domingo","place":"village"},"geometry":{"type":"Point","coordinates":[-72.0148,10.47355]}},{"type":"Feature","id":"node/11235706638","properties":{"name":"Kil\u00f3metro 45","place":"village"},"geometry":{"type":"Point","coordinates":[-71.98304,10.48813]}},{"type":"Feature","id":"node/11235706639","properties":{"name":"Kil\u00f3metro 40","place":"village"},"geometry":{"type":"Point","coordinates":[-71.95414,10.4952]}},{"type":"Feature","id":"node/11235706640","properties":{"name":"Kil\u00f3metro 46","place":"village"},"geometry":{"type":"Point","coordinates":[-71.99156,10.48319]}},{"type":"Feature","id":"node/11235706641","properties":{"name":"Kil\u00f3metro 47","place":"village"},"geometry":{"type":"Point","coordinates":[-72.0018,10.47996]}},{"type":"Feature","id":"node/11235706642","properties":{"name":"Kil\u00f3metro 55","place":"village"},"geometry":{"type":"Point","coordinates":[-72.07905,10.45447]}},{"type":"Feature","id":"node/11235706643","properties":{"name":"Kil\u00f3metro 56","place":"village"},"geometry":{"type":"Point","coordinates":[-72.09319,10.45074]}},{"type":"Feature","id":"node/11235706644","properties":{"name":"Kil\u00f3metro 57","place":"village"},"geometry":{"type":"Point","coordinates":[-72.10147,10.447]}},{"type":"Feature","id":"node/11235710032","properties":{"name":"Kil\u00f3metro 29","place":"village"},"geometry":{"type":"Point","coordinates":[-71.89781,10.51435]}},{"type":"Feature","id":"node/11235710033","properties":{"name":"Kil\u00f3metro 28","place":"village"},"geometry":{"type":"Point","coordinates":[-71.8732,10.52195]}},{"type":"Feature","id":"node/11235710034","properties":{"name":"Kil\u00f3metro 27","place":"village"},"geometry":{"type":"Point","coordinates":[-71.84479,10.52283]}},{"type":"Feature","id":"node/11235710036","properties":{"name":"Jobo Alto","place":"town"},"geometry":{"type":"Point","coordinates":[-71.81902,10.54182]}},{"type":"Feature","id":"node/12388776094","properties":{"name":"El Cristo","place":"village"},"geometry":{"type":"Point","coordinates":[-71.11669,10.27521]}},{"type":"Feature","id":"node/12388776095","properties":{"name":"La Concepci\u00f3n","place":"village"},"geometry":{"type":"Point","coordinates":[-71.10332,10.29136]}},{"type":"Feature","id":"node/12388781902","properties":{"name":"La Pica Pica","place":"town"},"geometry":{"type":"Point","coordinates":[-71.14387,10.28465]}},{"type":"Feature","id":"node/12883990433","properties":{"name":"Mata Hambeach","place":"village"},"geometry":{"type":"Point","coordinates":[-70.98102,9.96591]}},{"type":"Feature","id":"node/12883990434","properties":{"name":"Sabana Perdida","place":"village"},"geometry":{"type":"Point","coordinates":[-70.98374,9.93674]}},{"type":"Feature","id":"node/12883990445","properties":{"name":"Machanguito","place":"village"},"geometry":{"type":"Point","coordinates":[-71.02157,9.89197]}}]}