{"type":"FeatureCollection","features":[{"type":"Feature","id":"relation/272633","properties":{"name":"T\u00e1chira","level":4},"geometry":{"type":"Polygon","coordinates":[[[-71.88221,8.6279],[-71.88981,8.63065],[-71.89143,8.63355],[-71.89915,8.63373],[-71.9087,8.6414],[-71.91153,8.64014],[-71.91631,8.63124],[-71.92284,8.63009],[-71.93397,8.61868],[-71.93917,8.61903],[-71.94349,8.61639],[-71.95778,8.61808],[-71.9588,8.62341],[-71.96334,8.6272],[-71.95681,8.6323],[-71.9599,8.63446],[-71.95948,8.63684],[-71.96645,8.63737],[-71.96904,8.64099],[-71.97037,8.63938],[-71.97386,8.6466],[-71.98288,8.64584],[-71.98807,8.65242],[-71.98776,8.65583],[-71.98304,8.65658],[-71.98447,8.66238],[-71.98287,8.66205],[-71.98308,8.66578],[-71.98128,8.6651],[-71.98505,8.67258],[-71.98165,8.67798],[-71.9873,8.67757],[-71.98518,8.68067],[-71.98881,8.68266],[-71.99212,8.68189],[-71.99294,8.67916],[-71.99839,8.68052],[-71.99515,8.67829],[-71.99433,8.67403],[-71.98908,8.67283],[-71.98993,8.66921],[-71.99369,8.6691],[-71.9974,8.66528],[-72.00072,8.6671],[-72.00168,8.66333],[-72.00796,8.65955],[-72.01916,8.66176],[-72.02133,8.65148],[-72.0252,8.64657],[-72.0326,8.64591],[-72.03669,8.63648],[-72.04325,8.63717],[-72.04798,8.63197],[-72.07003,8.63329],[-72.07334,8.62892],[-72.07091,8.62613],[-72.0689,8.62728],[-72.06783,8.62189],[-72.07102,8.616],[-72.07566,8.61322],[-72.08075,8.61369],[-72.08029,8.61734],[-72.08298,8.61492],[-72.08293,8.61699],[-72.08757,8.61698],[-72.09077,8.61462],[-72.0936,8.61589],[-72.09423,8.61289],[-72.09684,8.61495],[-72.10094,8.61376],[-72.10799,8.60779],[-72.11023,8.61066],[-72.10852,8.61412],[-72.11257,8.61293],[-72.11203,8.60898],[-72.11368,8.61057],[-72.11593,8.60796],[-72.11758,8.61049],[-72.11762,8.60662],[-72.12012,8.60942],[-72.1241,8.60601],[-72.12231,8.60459],[-72.12493,8.5986],[-72.12832,8.60005],[-72.12799,8.59527],[-72.12976,8.59582],[-72.13453,8.58948],[-72.13824,8.59062],[-72.13833,8.58816],[-72.14092,8.58808],[-72.14093,8.58536],[-72.13817,8.58529],[-72.14089,8.58271],[-72.14838,8.58274],[-72.15026,8.57957],[-72.15383,8.58191],[-72.15844,8.57972],[-72.1604,8.58105],[-72.16846,8.57197],[-72.18015,8.5744],[-72.18579,8.57125],[-72.18738,8.56751],[-72.18939,8.57076],[-72.19334,8.5685],[-72.19324,8.56566],[-72.21452,8.56409],[-72.21528,8.55966],[-72.22126,8.55884],[-72.22113,8.5615],[-72.23568,8.56964],[-72.2393,8.5694],[-72.23527,8.55715],[-72.23924,8.55454],[-72.25139,8.55672],[-72.25196,8.56417],[-72.26464,8.56521],[-72.28125,8.56555],[-72.28202,8.56167],[-72.29528,8.56249],[-72.29759,8.55642],[-72.31501,8.55503],[-72.31559,8.55786],[-72.32068,8.55843],[-72.33095,8.5492],[-72.34747,8.51423],[-72.34469,8.50544],[-72.34815,8.50434],[-72.35319,8.49491],[-72.34761,8.48744],[-72.34775,8.48332],[-72.3597,8.47872],[-72.36242,8.47419],[-72.36059,8.46949],[-72.35031,8.46682],[-72.35301,8.45563],[-72.35168,8.44162],[-72.35954,8.43657],[-72.36689,8.42566],[-72.37488,8.4319],[-72.37912,8.43088],[-72.38171,8.41932],[-72.3902,8.41824],[-72.39348,8.41469],[-72.39198,8.40058],[-72.40618,8.39317],[-72.40616,8.38699],[-72.39989,8.37924],[-72.4005,8.37529],[-72.40708,8.36767],[-72.40323,8.36478],[-72.40366,8.35611],[-72.4013,8.35546],[-72.3994,8.36098],[-72.39286,8.35853],[-72.39138,8.35573],[-72.39377,8.35075],[-72.3892,8.34998],[-72.38779,8.34652],[-72.38937,8.34394],[-72.3952,8.34349],[-72.3923,8.33904],[-72.39507,8.33226],[-72.39128,8.32878],[-72.39544,8.32659],[-72.3927,8.32071],[-72.38145,8.31637],[-72.38261,8.31271],[-72.38017,8.31045],[-72.38276,8.3039],[-72.38586,8.30409],[-72.38367,8.30179],[-72.38639,8.29937],[-72.38573,8.29644],[-72.38318,8.29483],[-72.38762,8.29176],[-72.38419,8.29021],[-72.38816,8.28971],[-72.38915,8.28685],[-72.3874,8.28707],[-72.386,8.28267],[-72.38817,8.27984],[-72.38421,8.27845],[-72.38891,8.26893],[-72.38978,8.25961],[-72.39315,8.25917],[-72.39047,8.25551],[-72.39373,8.25217],[-72.38605,8.25294],[-72.38764,8.25106],[-72.38582,8.24639],[-72.38041,8.24655],[-72.38648,8.24152],[-72.38132,8.23454],[-72.38344,8.23185],[-72.38066,8.2251],[-72.37784,8.22369],[-72.37741,8.22042],[-72.37961,8.2188],[-72.3751,8.21548],[-72.37663,8.20999],[-72.37493,8.20508],[-72.37125,8.20348],[-72.37186,8.20069],[-72.36888,8.20099],[-72.37417,8.19479],[-72.37252,8.19375],[-72.36917,8.19655],[-72.36635,8.1928],[-72.36953,8.19212],[-72.36823,8.19],[-72.36209,8.19134],[-72.36704,8.18403],[-72.36441,8.18483],[-72.36417,8.18173],[-72.36099,8.18205],[-72.36237,8.18031],[-72.3597,8.17846],[-72.3619,8.17775],[-72.35734,8.17399],[-72.35955,8.17297],[-72.35378,8.16566],[-72.3555,8.163],[-72.35266,8.15747],[-72.35469,8.15656],[-72.35379,8.15453],[-72.36596,8.149],[-72.36434,8.14587],[-72.36618,8.14101],[-72.36188,8.14048],[-72.36508,8.13622],[-72.36355,8.13369],[-72.3611,8.13413],[-72.36451,8.12971],[-72.36157,8.12821],[-72.36252,8.12586],[-72.35893,8.12042],[-72.3678,8.11701],[-72.37365,8.10553],[-72.3709,8.09362],[-72.349,8.08315],[-72.35307,8.07599],[-72.34832,8.05433],[-72.34538,8.0511],[-72.34897,8.04729],[-72.34667,8.03783],[-72.35412,8.03049],[-72.34742,8.01855],[-72.35079,8.01185],[-72.34882,8.00418],[-72.36209,8.01018],[-72.36471,8.01759],[-72.3774,8.02598],[-72.38274,8.03435],[-72.38985,8.03538],[-72.39826,8.03207],[-72.40432,8.03517],[-72.41626,8.03366],[-72.41177,8.0219],[-72.41779,8.01595],[-72.41651,8.01132],[-72.42175,8.00817],[-72.41719,8.0005],[-72.41876,7.99559],[-72.42638,7.9885],[-72.43258,7.99192],[-72.4377,7.99011],[-72.44272,7.98332],[-72.4404,7.97522],[-72.44605,7.97316],[-72.44576,7.96794],[-72.47277,7.96037],[-72.47429,7.95504],[-72.48046,7.95264],[-72.48278,7.94685],[-72.48645,7.9453],[-72.48782,7.93898],[-72.48452,7.93617],[-72.48455,7.93164],[-72.48008,7.93114],[-72.47881,7.92728],[-72.47498,7.93068],[-72.47496,7.92478],[-72.47165,7.92425],[-72.46234,7.91671],[-72.461,7.91255],[-72.45695,7.91114],[-72.46171,7.90356],[-72.45951,7.90125],[-72.45557,7.88126],[-72.44775,7.87133],[-72.44466,7.85638],[-72.44863,7.84],[-72.44923,7.82238],[-72.45624,7.80793],[-72.46814,7.79236],[-72.46829,7.77175],[-72.47374,7.75529],[-72.47096,7.73267],[-72.4713,7.70682],[-72.46927,7.70409],[-72.47454,7.69794],[-72.47548,7.68112],[-72.47257,7.66906],[-72.47552,7.65647],[-72.47279,7.65185],[-72.47682,7.64675],[-72.47347,7.64044],[-72.47623,7.63188],[-72.47,7.61838],[-72.46512,7.59274],[-72.46008,7.58888],[-72.45428,7.57652],[-72.45242,7.56017],[-72.45664,7.54543],[-72.46057,7.5389],[-72.46776,7.53398],[-72.46684,7.53077],[-72.47415,7.5199],[-72.47229,7.51335],[-72.47481,7.50353],[-72.47314,7.49729],[-72.47622,7.48937],[-72.4698,7.48319],[-72.46102,7.48194],[-72.45507,7.46979],[-72.44732,7.46273],[-72.44454,7.44736],[-72.44141,7.44503],[-72.44178,7.42149],[-72.43704,7.41122],[-72.43938,7.40312],[-72.42416,7.39508],[-72.41995,7.39578],[-72.41848,7.40001],[-72.41363,7.40337],[-72.41265,7.40832],[-72.40742,7.4116],[-72.39127,7.41024],[-72.37342,7.41955],[-72.36707,7.41995],[-72.36576,7.42344],[-72.34972,7.41888],[-72.34244,7.4196],[-72.33927,7.42438],[-72.34012,7.4282],[-72.32731,7.42626],[-72.32035,7.435],[-72.30955,7.43202],[-72.30576,7.43488],[-72.29937,7.42839],[-72.2921,7.42669],[-72.28201,7.43139],[-72.27356,7.42567],[-72.26242,7.4241],[-72.26074,7.42131],[-72.25517,7.4232],[-72.24309,7.42173],[-72.23954,7.42833],[-72.23068,7.42838],[-72.22065,7.43486],[-72.21803,7.42911],[-72.21141,7.42758],[-72.20938,7.42225],[-72.19324,7.41858],[-72.18695,7.40899],[-72.18356,7.40919],[-72.18041,7.40388],[-72.16949,7.40199],[-72.17009,7.39518],[-72.16758,7.39321],[-72.16618,7.3858],[-72.16005,7.39155],[-72.15518,7.39199],[-72.14953,7.39616],[-72.14345,7.39271],[-72.13992,7.39335],[-72.1242,7.40277],[-72.11925,7.4017],[-72.11393,7.40561],[-72.10433,7.39811],[-72.1006,7.4005],[-72.08978,7.39407],[-72.08153,7.39541],[-72.07898,7.3812],[-72.07498,7.37868],[-72.07574,7.37193],[-72.0733,7.36819],[-72.05045,7.36387],[-72.04396,7.36636],[-72.03987,7.36358],[-72.02962,7.36559],[-72.01698,7.36141],[-72.00466,7.36381],[-71.99681,7.36132],[-71.99417,7.36429],[-71.97768,7.3694],[-71.96471,7.38163],[-71.95915,7.38232],[-71.95398,7.3861],[-71.94775,7.38508],[-71.94012,7.39181],[-71.92818,7.39465],[-71.92391,7.39922],[-71.91766,7.3972],[-71.90541,7.40818],[-71.89419,7.4081],[-71.88603,7.41087],[-71.88426,7.41423],[-71.87914,7.41331],[-71.87376,7.4213],[-71.86902,7.41928],[-71.86991,7.42755],[-71.8643,7.42799],[-71.85884,7.43503],[-71.86137,7.43767],[-71.86072,7.44359],[-71.85247,7.4471],[-71.85601,7.45362],[-71.85357,7.45838],[-71.85505,7.46963],[-71.84968,7.4744],[-71.84896,7.48198],[-71.84432,7.48769],[-71.84259,7.49449],[-71.84502,7.49495],[-71.84899,7.50255],[-71.8531,7.49606],[-71.86314,7.50181],[-71.87039,7.49689],[-71.87836,7.50066],[-71.87666,7.5066],[-71.86944,7.51116],[-71.85432,7.5135],[-71.85373,7.52596],[-71.84805,7.51885],[-71.84135,7.51923],[-71.83875,7.52246],[-71.83977,7.53001],[-71.83765,7.53241],[-71.82848,7.53276],[-71.82613,7.53571],[-71.80719,7.53053],[-71.80404,7.53445],[-71.80824,7.5421],[-71.80539,7.54476],[-71.80261,7.54358],[-71.80176,7.53789],[-71.79913,7.53619],[-71.78682,7.54018],[-71.78495,7.53697],[-71.7895,7.52817],[-71.78181,7.52417],[-71.77661,7.52869],[-71.76603,7.52951],[-71.7653,7.53269],[-71.77127,7.54023],[-71.76717,7.54644],[-71.76277,7.54527],[-71.76155,7.54145],[-71.75236,7.5333],[-71.746,7.53853],[-71.74054,7.53892],[-71.73228,7.53629],[-71.72614,7.5297],[-71.7209,7.53325],[-71.72105,7.54403],[-71.71727,7.54452],[-71.71044,7.53922],[-71.70265,7.54139],[-71.69713,7.53688],[-71.69448,7.53949],[-71.69355,7.54682],[-71.6895,7.54789],[-71.68661,7.54361],[-71.6802,7.54347],[-71.67558,7.53846],[-71.66171,7.53542],[-71.65855,7.52873],[-71.6532,7.53159],[-71.6503,7.5305],[-71.64963,7.52192],[-71.64703,7.51991],[-71.64398,7.52147],[-71.64271,7.52768],[-71.63869,7.52962],[-71.62665,7.51916],[-71.61263,7.52231],[-71.6051,7.51554],[-71.60027,7.51872],[-71.60135,7.5256],[-71.59878,7.52683],[-71.59406,7.5227],[-71.59191,7.51325],[-71.58112,7.51058],[-71.5762,7.51817],[-71.57733,7.52267],[-71.57527,7.52672],[-71.56103,7.52125],[-71.55604,7.51395],[-71.54985,7.5186],[-71.53889,7.51632],[-71.52891,7.52343],[-71.52563,7.51641],[-71.50454,7.50935],[-71.48999,7.49867],[-71.46868,7.49715],[-71.45633,7.50092],[-71.44884,7.50915],[-71.44509,7.50922],[-71.44101,7.50558],[-71.43362,7.50532],[-71.42196,7.49951],[-71.41607,7.49401],[-71.4146,7.48282],[-71.4067,7.48166],[-71.40284,7.47649],[-71.39724,7.48245],[-71.39212,7.47681],[-71.37693,7.48125],[-71.36144,7.47405],[-71.35637,7.47843],[-71.34811,7.47892],[-71.33752,7.47462],[-71.3293,7.4786],[-71.31802,7.4898],[-71.31667,7.4864],[-71.3153,7.49356],[-71.31692,7.49635],[-71.32102,7.49819],[-71.33008,7.49703],[-71.33322,7.49981],[-71.33302,7.50664],[-71.32973,7.51207],[-71.33066,7.51607],[-71.3356,7.51468],[-71.33652,7.50758],[-71.33909,7.50533],[-71.3446,7.51096],[-71.34945,7.51135],[-71.35116,7.50774],[-71.34971,7.5015],[-71.35201,7.4996],[-71.35613,7.50487],[-71.3636,7.50381],[-71.36539,7.50979],[-71.37213,7.51619],[-71.37647,7.52929],[-71.38119,7.52589],[-71.39291,7.52977],[-71.40494,7.52982],[-71.41055,7.53681],[-71.41022,7.53988],[-71.40752,7.54027],[-71.3984,7.53412],[-71.39275,7.54057],[-71.39511,7.54437],[-71.39841,7.54041],[-71.4015,7.54076],[-71.39972,7.54709],[-71.40383,7.55727],[-71.40716,7.55779],[-71.41257,7.55117],[-71.41643,7.54998],[-71.43044,7.55243],[-71.43558,7.56029],[-71.43424,7.56273],[-71.42365,7.55463],[-71.42015,7.55518],[-71.41896,7.56233],[-71.42148,7.56907],[-71.41717,7.57424],[-71.42113,7.57676],[-71.42833,7.57513],[-71.43187,7.57919],[-71.43932,7.57762],[-71.44358,7.58335],[-71.44339,7.58819],[-71.44675,7.58954],[-71.45022,7.59596],[-71.45922,7.59002],[-71.46481,7.59614],[-71.47953,7.60163],[-71.48081,7.60583],[-71.47466,7.60932],[-71.4746,7.6127],[-71.49338,7.61082],[-71.49439,7.60706],[-71.48955,7.6006],[-71.4925,7.59693],[-71.49607,7.59748],[-71.50397,7.60456],[-71.50437,7.60866],[-71.49924,7.61023],[-71.49742,7.6158],[-71.50144,7.62303],[-71.49411,7.62325],[-71.4917,7.62635],[-71.49897,7.62969],[-71.49977,7.63381],[-71.49099,7.64136],[-71.48829,7.64704],[-71.4942,7.65161],[-71.49655,7.64427],[-71.49913,7.64318],[-71.50219,7.64857],[-71.49901,7.65407],[-71.49218,7.65784],[-71.48895,7.66608],[-71.49469,7.67592],[-71.49034,7.67717],[-71.49012,7.68127],[-71.4853,7.68314],[-71.4878,7.6875],[-71.49073,7.68495],[-71.49293,7.68696],[-71.49775,7.7017],[-71.5053,7.70584],[-71.50622,7.71025],[-71.51297,7.71501],[-71.51178,7.7184],[-71.51671,7.72087],[-71.51278,7.72657],[-71.51419,7.73086],[-71.51251,7.7338],[-71.51907,7.73545],[-71.52215,7.74516],[-71.53456,7.75366],[-71.52479,7.77061],[-71.52369,7.78379],[-71.51475,7.7972],[-71.52281,7.80846],[-71.52385,7.81629],[-71.51836,7.82674],[-71.51387,7.8298],[-71.51229,7.83927],[-71.5192,7.8475],[-71.51604,7.85007],[-71.51783,7.86898],[-71.51593,7.87271],[-71.50925,7.87499],[-71.51081,7.88688],[-71.50836,7.89016],[-71.51148,7.89322],[-71.50366,7.90803],[-71.50627,7.91331],[-71.51717,7.91321],[-71.51982,7.92009],[-71.52405,7.92221],[-71.52491,7.92729],[-71.53068,7.93068],[-71.52938,7.93522],[-71.53204,7.93865],[-71.53264,7.94668],[-71.52847,7.95205],[-71.52871,7.95544],[-71.5292,7.95847],[-71.53741,7.96135],[-71.53327,7.96577],[-71.53479,7.97581],[-71.53681,7.97826],[-71.54573,7.97663],[-71.55038,7.97833],[-71.55827,7.98745],[-71.55908,7.99318],[-71.57024,8.00441],[-71.56583,8.01785],[-71.57132,8.0393],[-71.60303,8.05687],[-71.61014,8.05077],[-71.61928,8.04847],[-71.6213,8.04371],[-71.62793,8.03824],[-71.63332,8.04022],[-71.63715,8.03763],[-71.6423,8.0414],[-71.64441,8.04],[-71.64866,8.03433],[-71.64828,8.02926],[-71.65185,8.02805],[-71.65548,8.02057],[-71.65984,8.01937],[-71.66045,8.01621],[-71.66834,8.00942],[-71.66717,8.00513],[-71.67533,8.00589],[-71.68862,8.01473],[-71.69546,8.02657],[-71.70601,8.02712],[-71.70736,8.03136],[-71.7025,8.03931],[-71.70352,8.04128],[-71.71317,8.04315],[-71.72157,8.03832],[-71.74525,8.04929],[-71.75462,8.05737],[-71.75952,8.06671],[-71.7596,8.07413],[-71.76595,8.07766],[-71.7642,8.08165],[-71.76727,8.08495],[-71.76556,8.09074],[-71.77067,8.09805],[-71.7794,8.10064],[-71.78193,8.10736],[-71.7841,8.10741],[-71.78343,8.11206],[-71.78555,8.11475],[-71.78832,8.11441],[-71.78965,8.11801],[-71.79365,8.11846],[-71.79538,8.11625],[-71.7968,8.12013],[-71.79941,8.11814],[-71.80534,8.12025],[-71.80861,8.12555],[-71.81327,8.12714],[-71.81726,8.14775],[-71.82167,8.15003],[-71.82541,8.15727],[-71.83426,8.16033],[-71.83864,8.15946],[-71.8499,8.16626],[-71.85093,8.17351],[-71.85778,8.18011],[-71.87423,8.17788],[-71.8758,8.16842],[-71.88512,8.16863],[-71.88751,8.16301],[-71.89297,8.16213],[-71.89915,8.15516],[-71.90426,8.16399],[-71.90378,8.17888],[-71.91363,8.19083],[-71.91147,8.19232],[-71.91211,8.20057],[-71.90871,8.21058],[-71.9001,8.21489],[-71.89174,8.23547],[-71.8832,8.24397],[-71.88182,8.25152],[-71.87352,8.25875],[-71.86511,8.26112],[-71.86087,8.27249],[-71.86156,8.27791],[-71.8563,8.27834],[-71.85,8.28284],[-71.8452,8.29591],[-71.83908,8.29884],[-71.83131,8.31011],[-71.83528,8.31219],[-71.83711,8.3167],[-71.83406,8.31572],[-71.82984,8.3204],[-71.82561,8.31632],[-71.82345,8.31807],[-71.8202,8.31513],[-71.81719,8.31945],[-71.81823,8.32329],[-71.80665,8.33236],[-71.81728,8.34648],[-71.81687,8.34982],[-71.8193,8.35155],[-71.81755,8.35821],[-71.82052,8.36],[-71.81867,8.37186],[-71.81229,8.37833],[-71.81636,8.38451],[-71.80894,8.38942],[-71.81066,8.39869],[-71.81444,8.40038],[-71.81657,8.40548],[-71.8084,8.41714],[-71.80054,8.41924],[-71.80107,8.42209],[-71.79712,8.4266],[-71.79868,8.43245],[-71.79571,8.43333],[-71.78741,8.44521],[-71.78431,8.44526],[-71.78459,8.44876],[-71.77805,8.45472],[-71.7786,8.45722],[-71.77407,8.46365],[-71.77503,8.47297],[-71.77266,8.48515],[-71.7796,8.50072],[-71.78367,8.51943],[-71.79501,8.53553],[-71.80166,8.54083],[-71.80425,8.55356],[-71.81448,8.56288],[-71.82575,8.5659],[-71.8247,8.57273],[-71.81752,8.57596],[-71.81866,8.57974],[-71.82114,8.58033],[-71.82212,8.58718],[-71.83851,8.59454],[-71.84231,8.60024],[-71.84671,8.59929],[-71.84607,8.61183],[-71.85652,8.62053],[-71.87266,8.62937],[-71.87676,8.62711],[-71.88221,8.6279]]]}}]}