{"type":"FeatureCollection","features":[{"type":"Feature","id":"relation/3320843","properties":{"name":"Municipio Bol\u00edvar","level":6,"population":"61630"},"geometry":{"type":"Polygon","coordinates":[[[-72.40154,7.86006],[-72.4261,7.86826],[-72.44771,7.8712],[-72.44466,7.85594],[-72.44863,7.84],[-72.44923,7.82238],[-72.45116,7.81611],[-72.4687,7.79019],[-72.46813,7.77284],[-72.47379,7.75469],[-72.47096,7.73267],[-72.4713,7.70682],[-72.46927,7.70409],[-72.47141,7.70127],[-72.45071,7.68656],[-72.44519,7.66994],[-72.4506,7.66075],[-72.44666,7.64872],[-72.44793,7.63664],[-72.44612,7.63505],[-72.43404,7.64245],[-72.42614,7.64072],[-72.42702,7.6606],[-72.4161,7.66166],[-72.41384,7.6639],[-72.41144,7.67212],[-72.41773,7.67998],[-72.41817,7.68456],[-72.41788,7.68961],[-72.4099,7.69798],[-72.40837,7.70288],[-72.41067,7.73373],[-72.40675,7.7341],[-72.39938,7.746],[-72.38626,7.75404],[-72.38654,7.75848],[-72.37949,7.76257],[-72.37,7.76328],[-72.3682,7.76935],[-72.36209,7.77529],[-72.36088,7.77274],[-72.35209,7.77377],[-72.35048,7.7808],[-72.35311,7.79883],[-72.35128,7.80502],[-72.35822,7.80605],[-72.35881,7.80931],[-72.36347,7.81002],[-72.37077,7.80767],[-72.37783,7.80884],[-72.39024,7.82343],[-72.38954,7.83118],[-72.39812,7.83361],[-72.40512,7.84114],[-72.40686,7.84405],[-72.40154,7.86006]]]}},{"type":"Feature","id":"relation/3320915","properties":{"name":"Municipio Urdaneta","level":6,"population":"5905"},"geometry":{"type":"Polygon","coordinates":[[[-72.44727,7.66667],[-72.44562,7.67283],[-72.45097,7.68723],[-72.46632,7.69612],[-72.4699,7.70101],[-72.47452,7.69811],[-72.47548,7.68112],[-72.47257,7.66906],[-72.47552,7.65647],[-72.47279,7.65185],[-72.47682,7.64675],[-72.47347,7.64044],[-72.47623,7.63188],[-72.47,7.61838],[-72.46512,7.59274],[-72.46008,7.58888],[-72.45428,7.57652],[-72.45242,7.56017],[-72.45664,7.54543],[-72.46057,7.5389],[-72.46776,7.53398],[-72.46684,7.53077],[-72.47415,7.5199],[-72.47229,7.51335],[-72.47481,7.50353],[-72.47314,7.49729],[-72.47622,7.48937],[-72.4698,7.48319],[-72.46102,7.48194],[-72.45507,7.46979],[-72.44732,7.46273],[-72.44454,7.44736],[-72.44141,7.44503],[-72.44178,7.42149],[-72.43704,7.41122],[-72.43938,7.40312],[-72.42337,7.39494],[-72.41995,7.39578],[-72.41848,7.40001],[-72.41363,7.40337],[-72.41265,7.40832],[-72.40742,7.4116],[-72.39127,7.41024],[-72.39014,7.41213],[-72.39345,7.42131],[-72.39393,7.43776],[-72.39075,7.44242],[-72.39559,7.45138],[-72.39627,7.45763],[-72.39312,7.46894],[-72.39654,7.48027],[-72.39241,7.48607],[-72.39288,7.49477],[-72.38859,7.51596],[-72.37983,7.52407],[-72.38414,7.53189],[-72.38936,7.53555],[-72.39069,7.54274],[-72.38904,7.54763],[-72.39532,7.55268],[-72.39706,7.5579],[-72.39031,7.56658],[-72.39941,7.57448],[-72.40451,7.57415],[-72.40616,7.57838],[-72.41359,7.58313],[-72.41508,7.59539],[-72.43435,7.60236],[-72.43881,7.6153],[-72.43987,7.6296],[-72.44793,7.63664],[-72.44666,7.64872],[-72.4506,7.66075],[-72.44727,7.66667]]]}},{"type":"Feature","id":"relation/3321037","properties":{"name":"Municipio Ure\u00f1a","level":6,"population":"51879"},"geometry":{"type":"Polygon","coordinates":[[[-72.34909,8.00416],[-72.36209,8.01018],[-72.36471,8.01759],[-72.3774,8.02598],[-72.38274,8.03435],[-72.38985,8.03538],[-72.39826,8.03207],[-72.40432,8.03517],[-72.41626,8.03366],[-72.41177,8.0219],[-72.41779,8.01595],[-72.41651,8.01132],[-72.42175,8.00817],[-72.41719,8.0005],[-72.41892,7.99538],[-72.42638,7.9885],[-72.43258,7.99192],[-72.43737,7.99036],[-72.44268,7.9835],[-72.44039,7.97527],[-72.44605,7.97316],[-72.44576,7.96794],[-72.47261,7.96046],[-72.47429,7.95504],[-72.48046,7.95264],[-72.48278,7.94685],[-72.48645,7.9453],[-72.48781,7.93884],[-72.48452,7.93617],[-72.48466,7.93176],[-72.48008,7.93114],[-72.47881,7.92728],[-72.47498,7.93068],[-72.47496,7.92478],[-72.47165,7.92425],[-72.46234,7.91671],[-72.461,7.91255],[-72.45695,7.91114],[-72.46171,7.90356],[-72.45951,7.90125],[-72.45557,7.88126],[-72.44771,7.8712],[-72.4261,7.86826],[-72.40154,7.86006],[-72.38616,7.89793],[-72.38241,7.90035],[-72.37858,7.89658],[-72.36989,7.89533],[-72.36227,7.89839],[-72.3734,7.95875],[-72.36659,7.96737],[-72.3547,7.97423],[-72.35185,7.98797],[-72.35296,7.99241],[-72.34888,7.99786],[-72.34909,8.00416]]]}},{"type":"Feature","id":"relation/3322249","properties":{"name":"Municipio Ayacucho","level":6,"population":"59335"},"geometry":{"type":"Polygon","coordinates":[[[-72.21694,8.16179],[-72.21864,8.16622],[-72.26626,8.16264],[-72.28288,8.16962],[-72.29457,8.18351],[-72.29623,8.19145],[-72.30325,8.19838],[-72.30679,8.20851],[-72.31779,8.21847],[-72.31333,8.2231],[-72.3165,8.22761],[-72.31579,8.23176],[-72.31893,8.23344],[-72.31917,8.24192],[-72.32387,8.24533],[-72.318,8.25767],[-72.3238,8.27142],[-72.33189,8.2806],[-72.3417,8.28304],[-72.34144,8.28756],[-72.34824,8.28705],[-72.35643,8.29864],[-72.36277,8.29982],[-72.36619,8.30494],[-72.37005,8.30357],[-72.37634,8.31145],[-72.38251,8.31352],[-72.38016,8.31021],[-72.38276,8.3039],[-72.38584,8.30415],[-72.38367,8.30169],[-72.38642,8.29929],[-72.38339,8.2939],[-72.38762,8.29176],[-72.38415,8.29028],[-72.38816,8.28971],[-72.38915,8.28692],[-72.386,8.28267],[-72.38817,8.27984],[-72.38421,8.27845],[-72.38891,8.26893],[-72.38978,8.25961],[-72.39315,8.25917],[-72.39047,8.25551],[-72.39373,8.25217],[-72.38605,8.25294],[-72.38764,8.25106],[-72.38582,8.24639],[-72.38041,8.24655],[-72.38648,8.24152],[-72.38132,8.23454],[-72.38344,8.23185],[-72.38066,8.2251],[-72.37784,8.22369],[-72.37741,8.22042],[-72.37961,8.2188],[-72.3751,8.21548],[-72.37663,8.20999],[-72.37493,8.20508],[-72.37125,8.20348],[-72.37186,8.20069],[-72.36888,8.20099],[-72.37417,8.19479],[-72.37252,8.19375],[-72.36917,8.19655],[-72.36635,8.1928],[-72.36953,8.19212],[-72.36823,8.19],[-72.36209,8.19134],[-72.36704,8.18403],[-72.36441,8.18483],[-72.36417,8.18173],[-72.36099,8.18205],[-72.36237,8.18031],[-72.3597,8.17846],[-72.3619,8.17775],[-72.35734,8.17399],[-72.35955,8.17297],[-72.35378,8.16566],[-72.3555,8.163],[-72.35266,8.15747],[-72.35469,8.15656],[-72.35379,8.15453],[-72.36596,8.149],[-72.36434,8.14587],[-72.36618,8.14101],[-72.36188,8.14048],[-72.36508,8.13622],[-72.36355,8.13369],[-72.3611,8.13413],[-72.36451,8.12971],[-72.36157,8.12821],[-72.36252,8.12586],[-72.35893,8.12042],[-72.3678,8.11701],[-72.37365,8.10553],[-72.3709,8.09362],[-72.349,8.08315],[-72.35307,8.07599],[-72.34832,8.05433],[-72.34538,8.0511],[-72.34897,8.04729],[-72.34667,8.03783],[-72.35412,8.03049],[-72.344,8.01258],[-72.34232,8.01398],[-72.33929,8.01056],[-72.29546,8.00326],[-72.30604,7.97985],[-72.29929,7.97884],[-72.28948,7.98228],[-72.28854,7.98489],[-72.27936,7.9848],[-72.27709,7.98936],[-72.26908,7.9894],[-72.26932,7.99363],[-72.26224,8.00642],[-72.25493,8.00367],[-72.24884,7.99432],[-72.23949,7.99001],[-72.22426,7.99624],[-72.21164,7.99695],[-72.207,8.003],[-72.19724,8.00576],[-72.19713,8.00941],[-72.19171,8.00936],[-72.19328,8.01141],[-72.18713,8.00901],[-72.17438,8.02226],[-72.16882,8.03719],[-72.17107,8.04395],[-72.16983,8.05187],[-72.16403,8.06616],[-72.16333,8.07208],[-72.1653,8.0734],[-72.16312,8.07565],[-72.1674,8.08025],[-72.16631,8.08941],[-72.18833,8.0892],[-72.18524,8.11404],[-72.19941,8.12528],[-72.20522,8.13462],[-72.20488,8.14507],[-72.20936,8.15188],[-72.21509,8.15478],[-72.21694,8.16179]]]}},{"type":"Feature","id":"relation/3324561","properties":{"name":"Municipio C\u00f3rdoba","level":6,"population":"33124"},"geometry":{"type":"Polygon","coordinates":[[[-72.30689,7.66258],[-72.30307,7.66077],[-72.31021,7.65486],[-72.30609,7.64451],[-72.30874,7.64263],[-72.30806,7.64017],[-72.31974,7.63924],[-72.33041,7.62932],[-72.33324,7.62046],[-72.33231,7.60263],[-72.33566,7.60091],[-72.33443,7.59419],[-72.3391,7.58341],[-72.33705,7.57912],[-72.33977,7.57237],[-72.33777,7.56598],[-72.33324,7.56176],[-72.32977,7.54736],[-72.3321,7.54481],[-72.33018,7.53281],[-72.33487,7.52037],[-72.3342,7.51465],[-72.33927,7.5078],[-72.34091,7.49969],[-72.35086,7.48811],[-72.34883,7.48349],[-72.35229,7.47538],[-72.36121,7.46457],[-72.37379,7.45669],[-72.37834,7.44945],[-72.37809,7.43193],[-72.38335,7.42681],[-72.3893,7.41195],[-72.37342,7.41955],[-72.36736,7.4198],[-72.36576,7.42344],[-72.34972,7.41888],[-72.34244,7.4196],[-72.33927,7.42438],[-72.34012,7.4282],[-72.32731,7.42626],[-72.32035,7.435],[-72.30955,7.43202],[-72.30576,7.43488],[-72.29937,7.42839],[-72.2921,7.42669],[-72.28201,7.43139],[-72.27356,7.42567],[-72.26242,7.4241],[-72.26074,7.42131],[-72.25517,7.4232],[-72.24309,7.42173],[-72.23954,7.42833],[-72.23068,7.42838],[-72.22065,7.43486],[-72.21803,7.42911],[-72.21141,7.42758],[-72.20938,7.42225],[-72.19973,7.42065],[-72.19387,7.42779],[-72.19188,7.43924],[-72.18179,7.44233],[-72.17878,7.44619],[-72.17094,7.44662],[-72.16639,7.44944],[-72.15669,7.46219],[-72.15778,7.47228],[-72.1469,7.48099],[-72.13551,7.47813],[-72.1317,7.48603],[-72.12495,7.48984],[-72.12436,7.4931],[-72.11488,7.48938],[-72.11107,7.49466],[-72.11174,7.50302],[-72.1035,7.50794],[-72.09831,7.51459],[-72.0945,7.51466],[-72.08924,7.52003],[-72.07699,7.52014],[-72.07592,7.52395],[-72.06873,7.52543],[-72.05163,7.53879],[-72.04527,7.54085],[-72.03569,7.53658],[-72.02584,7.54319],[-72.0183,7.54476],[-72.02411,7.54802],[-72.08025,7.55928],[-72.08392,7.56509],[-72.07766,7.57034],[-72.07854,7.57474],[-72.0852,7.57298],[-72.09275,7.5804],[-72.12003,7.5826],[-72.14089,7.59597],[-72.15441,7.59809],[-72.15665,7.60517],[-72.16298,7.60888],[-72.16556,7.61374],[-72.1903,7.62747],[-72.19635,7.62484],[-72.20184,7.63159],[-72.20609,7.62811],[-72.20709,7.63053],[-72.21088,7.62947],[-72.21122,7.63243],[-72.21603,7.62863],[-72.22984,7.63148],[-72.23315,7.63518],[-72.23364,7.64118],[-72.22638,7.64904],[-72.2261,7.66258],[-72.23237,7.67212],[-72.23861,7.67736],[-72.24578,7.67582],[-72.24887,7.67158],[-72.25162,7.67391],[-72.25824,7.67005],[-72.26148,7.67209],[-72.26336,7.66968],[-72.26628,7.67038],[-72.27008,7.68448],[-72.27186,7.6871],[-72.27493,7.68675],[-72.27705,7.69357],[-72.28119,7.69379],[-72.2875,7.6894],[-72.28561,7.68307],[-72.29252,7.67789],[-72.29915,7.67833],[-72.30698,7.66839],[-72.30689,7.66258]]]}},{"type":"Feature","id":"relation/3324562","properties":{"name":"Municipio Jun\u00edn","level":6,"population":"80680"},"geometry":{"type":"Polygon","coordinates":[[[-72.41469,7.676],[-72.41144,7.67212],[-72.41384,7.6639],[-72.4161,7.66166],[-72.42702,7.6606],[-72.42614,7.64072],[-72.43404,7.64245],[-72.44612,7.63505],[-72.43987,7.6296],[-72.43881,7.6153],[-72.43287,7.60041],[-72.41508,7.59539],[-72.41359,7.58313],[-72.40616,7.57838],[-72.40458,7.5742],[-72.39941,7.57448],[-72.39004,7.56578],[-72.39706,7.5579],[-72.39532,7.55268],[-72.38904,7.54763],[-72.39069,7.54274],[-72.38936,7.53555],[-72.38414,7.53189],[-72.37983,7.52407],[-72.38859,7.51596],[-72.39288,7.49477],[-72.39241,7.48607],[-72.39654,7.48027],[-72.39312,7.46894],[-72.39627,7.45763],[-72.39559,7.45138],[-72.39075,7.44242],[-72.39393,7.43776],[-72.39345,7.42131],[-72.38996,7.41213],[-72.38335,7.42681],[-72.37809,7.43193],[-72.37834,7.44945],[-72.37379,7.45669],[-72.36121,7.46457],[-72.35229,7.47538],[-72.34883,7.48349],[-72.35086,7.48811],[-72.34091,7.49969],[-72.33927,7.5078],[-72.3342,7.51465],[-72.33487,7.52037],[-72.33018,7.53281],[-72.3321,7.54481],[-72.32977,7.54736],[-72.33324,7.56176],[-72.33777,7.56598],[-72.33977,7.57237],[-72.33705,7.57912],[-72.3391,7.58341],[-72.33443,7.59419],[-72.33566,7.60091],[-72.33231,7.60263],[-72.33328,7.62024],[-72.3311,7.62799],[-72.31957,7.63934],[-72.30806,7.64017],[-72.30874,7.64263],[-72.30609,7.64451],[-72.31021,7.65486],[-72.30307,7.66077],[-72.30689,7.66258],[-72.30698,7.66839],[-72.29915,7.67833],[-72.29305,7.67761],[-72.28561,7.68307],[-72.28754,7.68932],[-72.28117,7.69363],[-72.28579,7.69404],[-72.28508,7.69879],[-72.29218,7.70668],[-72.309,7.71178],[-72.31228,7.7231],[-72.31866,7.72797],[-72.31864,7.74278],[-72.33038,7.7462],[-72.33715,7.74553],[-72.34135,7.7538],[-72.34276,7.75171],[-72.35505,7.75536],[-72.35214,7.76323],[-72.35209,7.77377],[-72.36088,7.77274],[-72.36202,7.77532],[-72.3682,7.76935],[-72.37,7.76328],[-72.37949,7.76257],[-72.38643,7.75856],[-72.38626,7.75404],[-72.39938,7.746],[-72.40675,7.7341],[-72.41067,7.73373],[-72.40837,7.70288],[-72.4099,7.69798],[-72.41788,7.68961],[-72.41773,7.67998],[-72.41469,7.676]]]}},{"type":"Feature","id":"relation/3324579","properties":{"name":"Municipio Libertad","level":6,"population":"50011"},"geometry":{"type":"Polygon","coordinates":[[[-72.36227,7.89839],[-72.36989,7.89533],[-72.37858,7.89658],[-72.38241,7.90035],[-72.38616,7.89793],[-72.40686,7.84405],[-72.39812,7.83361],[-72.38954,7.83118],[-72.39024,7.82343],[-72.37783,7.80884],[-72.35926,7.8094],[-72.35822,7.80605],[-72.35105,7.80465],[-72.35311,7.79883],[-72.35042,7.78123],[-72.35505,7.75536],[-72.34276,7.75171],[-72.34135,7.7538],[-72.33715,7.74553],[-72.33038,7.7462],[-72.31864,7.74278],[-72.31866,7.72797],[-72.31228,7.7231],[-72.31187,7.71654],[-72.30764,7.71022],[-72.29218,7.70668],[-72.28508,7.69879],[-72.28571,7.69398],[-72.27297,7.69286],[-72.27438,7.69421],[-72.27121,7.69906],[-72.27207,7.70533],[-72.2672,7.71188],[-72.26719,7.71763],[-72.26365,7.71753],[-72.26531,7.7215],[-72.26281,7.72109],[-72.2647,7.72395],[-72.26321,7.72532],[-72.27606,7.73393],[-72.27433,7.74517],[-72.26815,7.75087],[-72.26732,7.75708],[-72.27552,7.77147],[-72.28119,7.77074],[-72.29317,7.77512],[-72.29507,7.77283],[-72.3026,7.77718],[-72.30518,7.78299],[-72.303,7.787],[-72.30471,7.79683],[-72.31053,7.80241],[-72.31943,7.80384],[-72.32528,7.81056],[-72.32555,7.81448],[-72.31922,7.81843],[-72.3179,7.82513],[-72.31122,7.8285],[-72.31338,7.85008],[-72.30805,7.85448],[-72.3105,7.86764],[-72.30607,7.87894],[-72.31261,7.88453],[-72.32206,7.88788],[-72.32464,7.89298],[-72.32335,7.89645],[-72.32544,7.89399],[-72.33896,7.90335],[-72.34244,7.90232],[-72.35096,7.90528],[-72.36227,7.89839]]]}},{"type":"Feature","id":"relation/3324584","properties":{"name":"Municipio San Crist\u00f3bal","level":6,"population":"263765"},"geometry":{"type":"Polygon","coordinates":[[[-72.14424,7.68806],[-72.13717,7.68829],[-72.13569,7.68589],[-72.13933,7.67906],[-72.13836,7.67603],[-72.13539,7.67096],[-72.12586,7.66588],[-72.12248,7.67633],[-72.1114,7.67961],[-72.10264,7.68557],[-72.09805,7.68543],[-72.09659,7.69199],[-72.08521,7.69013],[-72.07718,7.6953],[-72.07408,7.69443],[-72.07532,7.70781],[-72.08307,7.7228],[-72.08345,7.72803],[-72.07846,7.73404],[-72.07984,7.73673],[-72.08609,7.73982],[-72.09123,7.73885],[-72.0957,7.74407],[-72.11021,7.74611],[-72.11354,7.75244],[-72.12232,7.75514],[-72.12561,7.76268],[-72.1371,7.77451],[-72.14238,7.78769],[-72.15657,7.79093],[-72.15924,7.79601],[-72.16503,7.79814],[-72.1761,7.8079],[-72.18449,7.80575],[-72.21055,7.80849],[-72.21963,7.80741],[-72.2298,7.8123],[-72.23274,7.80916],[-72.23719,7.78728],[-72.24138,7.77822],[-72.24123,7.78095],[-72.24805,7.78511],[-72.25249,7.79548],[-72.26047,7.80008],[-72.26218,7.79831],[-72.25974,7.79077],[-72.25614,7.79142],[-72.25545,7.78931],[-72.2576,7.78448],[-72.25964,7.78467],[-72.25818,7.78136],[-72.2639,7.76915],[-72.26031,7.7663],[-72.26247,7.75846],[-72.25925,7.75755],[-72.26131,7.75359],[-72.26356,7.75423],[-72.27347,7.74725],[-72.27606,7.73393],[-72.26303,7.72499],[-72.2647,7.72395],[-72.26283,7.721],[-72.26536,7.72137],[-72.26365,7.71753],[-72.26719,7.71763],[-72.2672,7.71188],[-72.27207,7.70533],[-72.27121,7.69906],[-72.27438,7.69421],[-72.27294,7.69289],[-72.2767,7.69245],[-72.27493,7.68675],[-72.27186,7.6871],[-72.27008,7.68448],[-72.26635,7.67043],[-72.26336,7.66968],[-72.26148,7.67209],[-72.25824,7.67005],[-72.25162,7.67391],[-72.24887,7.67158],[-72.24578,7.67582],[-72.23967,7.67724],[-72.24803,7.6918],[-72.24608,7.6958],[-72.24734,7.70477],[-72.24473,7.70527],[-72.23247,7.70329],[-72.22973,7.70509],[-72.22274,7.70056],[-72.21644,7.70042],[-72.21192,7.68843],[-72.20372,7.6852],[-72.19986,7.68732],[-72.17795,7.68231],[-72.16218,7.68155],[-72.14912,7.68305],[-72.14424,7.68806]]]}},{"type":"Feature","id":"relation/3324586","properties":{"name":"Municipio Torbes","level":6,"population":"49577"},"geometry":{"type":"Polygon","coordinates":[[[-72.24626,7.70479],[-72.24805,7.69194],[-72.24484,7.68877],[-72.24372,7.6825],[-72.23254,7.67231],[-72.22616,7.66294],[-72.22638,7.64904],[-72.23364,7.64118],[-72.23315,7.63518],[-72.22944,7.63128],[-72.22611,7.63219],[-72.21603,7.62863],[-72.21122,7.63243],[-72.21088,7.62947],[-72.20709,7.63053],[-72.20609,7.62811],[-72.20184,7.63159],[-72.19685,7.62493],[-72.1903,7.62747],[-72.16556,7.61374],[-72.16089,7.61907],[-72.16137,7.62423],[-72.15289,7.62567],[-72.14669,7.63185],[-72.14087,7.63363],[-72.13334,7.63005],[-72.11388,7.63275],[-72.11085,7.62973],[-72.10754,7.63362],[-72.09659,7.63414],[-72.08719,7.63144],[-72.07972,7.63878],[-72.07552,7.63934],[-72.07532,7.6438],[-72.07067,7.64645],[-72.07218,7.65389],[-72.06846,7.65768],[-72.0787,7.66908],[-72.08254,7.67955],[-72.07456,7.69253],[-72.07591,7.69556],[-72.08521,7.69013],[-72.09659,7.69199],[-72.09805,7.68543],[-72.10264,7.68557],[-72.1114,7.67961],[-72.12248,7.67633],[-72.12586,7.66588],[-72.13662,7.67266],[-72.13936,7.67883],[-72.13569,7.68589],[-72.1389,7.68941],[-72.14368,7.6885],[-72.14912,7.68305],[-72.16218,7.68155],[-72.17795,7.68231],[-72.19986,7.68732],[-72.20372,7.6852],[-72.21192,7.68843],[-72.21644,7.70042],[-72.22274,7.70056],[-72.22973,7.70509],[-72.23241,7.70329],[-72.24626,7.70479]]]}},{"type":"Feature","id":"relation/3324593","properties":{"name":"Municipio Fern\u00e1ndez Feo","level":6,"population":"45891"},"geometry":{"type":"Polygon","coordinates":[[[-72.0721,7.65426],[-72.07089,7.64597],[-72.07532,7.6438],[-72.07552,7.63934],[-72.07972,7.63878],[-72.08646,7.63164],[-72.09755,7.63414],[-72.10754,7.63362],[-72.11085,7.62973],[-72.11361,7.63268],[-72.1182,7.633],[-72.13334,7.63005],[-72.14099,7.63362],[-72.15012,7.63017],[-72.15289,7.62567],[-72.16137,7.62423],[-72.16089,7.61907],[-72.16505,7.6127],[-72.15665,7.60517],[-72.15474,7.59825],[-72.14089,7.59597],[-72.1213,7.58309],[-72.09369,7.58063],[-72.08564,7.57309],[-72.07819,7.57452],[-72.07803,7.56971],[-72.08392,7.56509],[-72.08025,7.55928],[-72.02411,7.54802],[-72.0183,7.54476],[-72.02584,7.54319],[-72.03569,7.53658],[-72.04527,7.54085],[-72.05163,7.53879],[-72.06873,7.52543],[-72.07592,7.52395],[-72.07699,7.52014],[-72.08924,7.52003],[-72.0945,7.51466],[-72.09831,7.51459],[-72.1035,7.50794],[-72.11174,7.50302],[-72.11107,7.49466],[-72.11488,7.48938],[-72.12436,7.4931],[-72.12495,7.48984],[-72.1317,7.48603],[-72.13551,7.47813],[-72.1469,7.48099],[-72.15778,7.47228],[-72.15669,7.46219],[-72.16229,7.45454],[-72.16898,7.44758],[-72.17878,7.44619],[-72.18179,7.44233],[-72.19298,7.43829],[-72.19387,7.42779],[-72.1973,7.42597],[-72.1999,7.41961],[-72.19308,7.41847],[-72.18695,7.40899],[-72.18356,7.40919],[-72.18041,7.40388],[-72.16949,7.40199],[-72.17009,7.39518],[-72.16758,7.39321],[-72.16618,7.3858],[-72.16005,7.39155],[-72.15518,7.39199],[-72.14953,7.39616],[-72.14345,7.39271],[-72.13992,7.39335],[-72.1242,7.40277],[-72.11925,7.4017],[-72.11393,7.40561],[-72.10433,7.39811],[-72.1006,7.4005],[-72.08978,7.39407],[-72.08153,7.39541],[-72.07898,7.3812],[-72.07498,7.37868],[-72.07574,7.37193],[-72.0733,7.36819],[-72.05045,7.36387],[-72.04396,7.36636],[-72.03987,7.36358],[-72.02962,7.36559],[-72.0222,7.36209],[-72.00466,7.36381],[-71.99712,7.36129],[-71.99417,7.36429],[-71.97768,7.3694],[-71.96471,7.38163],[-71.95915,7.38232],[-71.95398,7.3861],[-71.94775,7.38508],[-71.94012,7.39181],[-71.92818,7.39465],[-71.92391,7.39922],[-71.91766,7.3972],[-71.90541,7.40818],[-71.89419,7.4081],[-71.88603,7.41087],[-71.88426,7.41423],[-71.87914,7.41331],[-71.87376,7.4213],[-71.86902,7.41928],[-71.86991,7.42755],[-71.8643,7.42799],[-71.85884,7.43503],[-71.86137,7.43767],[-71.86072,7.44359],[-71.85247,7.4471],[-71.85601,7.45362],[-71.85357,7.45838],[-71.85505,7.46963],[-71.84968,7.4744],[-71.84896,7.48198],[-71.84432,7.48769],[-71.84259,7.49449],[-71.84502,7.49495],[-71.84899,7.50255],[-71.8531,7.49606],[-71.86314,7.50181],[-71.87039,7.49689],[-71.87836,7.50066],[-71.87666,7.5066],[-71.86944,7.51116],[-71.85432,7.5135],[-71.85434,7.52569],[-71.85161,7.5252],[-71.84849,7.5191],[-71.8432,7.51835],[-71.83875,7.52246],[-71.83922,7.53155],[-71.82848,7.53276],[-71.83155,7.53493],[-71.82687,7.54074],[-71.82872,7.54278],[-71.82762,7.54553],[-71.83272,7.55412],[-71.83471,7.56439],[-71.83958,7.56617],[-71.83578,7.5743],[-71.83875,7.58473],[-71.833,7.59687],[-71.80499,7.61978],[-71.8046,7.62303],[-71.80804,7.6242],[-71.80991,7.62963],[-71.81533,7.63341],[-71.8115,7.63793],[-71.80164,7.63897],[-71.80352,7.65645],[-71.79828,7.67046],[-71.80199,7.67362],[-71.7984,7.67935],[-71.79975,7.68199],[-71.79755,7.68738],[-71.79233,7.68973],[-71.78655,7.70028],[-71.79068,7.70343],[-71.79618,7.69847],[-71.80728,7.69399],[-71.81346,7.68362],[-71.82153,7.68244],[-71.82993,7.67131],[-71.84303,7.66487],[-71.8431,7.64877],[-71.84783,7.64708],[-71.85432,7.64857],[-71.85988,7.63849],[-71.88169,7.63877],[-71.88288,7.63589],[-71.89328,7.62975],[-71.90321,7.63266],[-71.91613,7.64115],[-71.91605,7.63445],[-71.9228,7.63122],[-71.92717,7.63748],[-71.9323,7.63646],[-71.93676,7.63905],[-71.93088,7.64641],[-71.93449,7.65011],[-71.93405,7.65476],[-71.93822,7.66232],[-71.93496,7.66293],[-71.93635,7.66996],[-71.93982,7.67262],[-71.94722,7.68913],[-71.95224,7.68903],[-71.95459,7.68589],[-71.96698,7.70571],[-71.97799,7.71218],[-71.97414,7.72509],[-71.97821,7.72599],[-71.97972,7.73072],[-71.98861,7.72898],[-71.99446,7.72457],[-72.00245,7.72617],[-72.00924,7.73237],[-72.02474,7.73042],[-72.04064,7.71709],[-72.05121,7.69956],[-72.05922,7.69611],[-72.07408,7.69443],[-72.08177,7.68238],[-72.07886,7.66933],[-72.06838,7.65745],[-72.0721,7.65426]]]}},{"type":"Feature","id":"relation/3324630","properties":{"name":"Municipio Lobatera","level":6,"population":"13558"},"geometry":{"type":"Polygon","coordinates":[[[-72.14281,7.93783],[-72.16714,7.94459],[-72.17642,7.93851],[-72.18875,7.93409],[-72.1944,7.93458],[-72.2004,7.93066],[-72.21902,7.93777],[-72.22569,7.93314],[-72.23198,7.93691],[-72.24421,7.93741],[-72.25048,7.93289],[-72.25525,7.93816],[-72.25447,7.94176],[-72.25901,7.94638],[-72.25764,7.94871],[-72.25986,7.95279],[-72.26268,7.9537],[-72.26119,7.9596],[-72.26349,7.96271],[-72.26126,7.96779],[-72.26593,7.96907],[-72.26968,7.97679],[-72.27328,7.97914],[-72.26908,7.9894],[-72.27709,7.98936],[-72.27936,7.9848],[-72.28854,7.98489],[-72.28948,7.98228],[-72.29916,7.97885],[-72.30604,7.97985],[-72.29546,8.00326],[-72.33929,8.01056],[-72.34232,8.01398],[-72.344,8.01258],[-72.3476,8.01936],[-72.35079,8.01185],[-72.3487,7.9985],[-72.35296,7.99241],[-72.35362,7.97638],[-72.36659,7.96737],[-72.3734,7.95875],[-72.36227,7.89839],[-72.35096,7.90528],[-72.34244,7.90232],[-72.33896,7.90335],[-72.32544,7.89399],[-72.32335,7.89645],[-72.32464,7.89298],[-72.32206,7.88788],[-72.31148,7.88388],[-72.29977,7.87456],[-72.29186,7.87191],[-72.28769,7.87332],[-72.27262,7.86752],[-72.26746,7.87501],[-72.26405,7.87627],[-72.26064,7.87343],[-72.25381,7.87409],[-72.24134,7.86819],[-72.22433,7.87576],[-72.22072,7.88017],[-72.2098,7.88292],[-72.20042,7.88121],[-72.19472,7.88363],[-72.19197,7.89441],[-72.18711,7.90075],[-72.18739,7.91323],[-72.18461,7.91723],[-72.1455,7.93247],[-72.14277,7.93396],[-72.14281,7.93783]]]}},{"type":"Feature","id":"relation/3325359","properties":{"name":"Municipio Independencia","level":6,"population":"36964"},"geometry":{"type":"Polygon","coordinates":[[[-72.26083,7.7992],[-72.26716,7.81426],[-72.27134,7.81761],[-72.2748,7.81519],[-72.27765,7.81836],[-72.27752,7.82674],[-72.26644,7.83593],[-72.26587,7.84603],[-72.25991,7.859],[-72.26117,7.86389],[-72.25775,7.87255],[-72.26178,7.87562],[-72.26651,7.87566],[-72.27262,7.86752],[-72.28769,7.87332],[-72.29432,7.87232],[-72.30607,7.87894],[-72.3105,7.86764],[-72.30805,7.85448],[-72.31338,7.85008],[-72.31122,7.8285],[-72.3179,7.82513],[-72.31922,7.81843],[-72.32555,7.81448],[-72.32499,7.80993],[-72.31846,7.8032],[-72.31053,7.80241],[-72.30471,7.79683],[-72.303,7.787],[-72.30518,7.78299],[-72.3026,7.77718],[-72.29507,7.77283],[-72.29317,7.77512],[-72.28119,7.77074],[-72.27813,7.7726],[-72.27446,7.77078],[-72.27415,7.76668],[-72.26726,7.75691],[-72.26815,7.75087],[-72.26131,7.75359],[-72.25925,7.75755],[-72.26247,7.75846],[-72.26031,7.7663],[-72.2639,7.76915],[-72.25818,7.78136],[-72.25964,7.78467],[-72.2576,7.78448],[-72.25545,7.78931],[-72.25614,7.79142],[-72.25974,7.79077],[-72.25925,7.79398],[-72.26226,7.79717],[-72.26083,7.7992]]]}},{"type":"Feature","id":"relation/3325371","properties":{"name":"Municipio Michelena","level":6,"population":"19547"},"geometry":{"type":"Polygon","coordinates":[[[-72.25578,7.94382],[-72.25525,7.93816],[-72.25048,7.93289],[-72.24421,7.93741],[-72.23198,7.93691],[-72.22569,7.93314],[-72.21902,7.93777],[-72.2004,7.93066],[-72.1944,7.93458],[-72.18875,7.93409],[-72.17642,7.93851],[-72.16714,7.94459],[-72.14281,7.93783],[-72.14021,7.95585],[-72.13409,7.96988],[-72.12677,7.97441],[-72.11772,7.97273],[-72.11259,7.97862],[-72.12392,7.97721],[-72.14641,7.98419],[-72.15172,7.99661],[-72.14732,8.00102],[-72.13634,8.00102],[-72.1345,8.00858],[-72.1299,8.01246],[-72.12823,8.01829],[-72.13171,8.03182],[-72.12454,8.04596],[-72.12722,8.04928],[-72.12632,8.05393],[-72.1334,8.05593],[-72.13654,8.06013],[-72.13616,8.07319],[-72.1484,8.07249],[-72.15294,8.07571],[-72.15334,8.0826],[-72.16631,8.08941],[-72.16738,8.08009],[-72.16311,8.07554],[-72.16528,8.07349],[-72.16333,8.07208],[-72.16404,8.06608],[-72.17107,8.04401],[-72.16883,8.03714],[-72.17438,8.02226],[-72.18713,8.00901],[-72.19328,8.01141],[-72.19171,8.00936],[-72.19713,8.00941],[-72.19724,8.00576],[-72.207,8.003],[-72.21164,7.99695],[-72.22426,7.99624],[-72.23949,7.99001],[-72.24884,7.99432],[-72.25493,8.00367],[-72.26062,8.00635],[-72.26419,8.00514],[-72.2733,7.97928],[-72.26593,7.96907],[-72.26126,7.96779],[-72.26349,7.96271],[-72.26119,7.9596],[-72.26272,7.95384],[-72.25986,7.95279],[-72.25764,7.94871],[-72.25901,7.94638],[-72.25578,7.94382]]]}},{"type":"Feature","id":"relation/3325382","properties":{"name":"Municipio R\u00f3mulo Acosta","level":6,"population":"10061"},"geometry":{"type":"Polygon","coordinates":[[[-72.13937,8.23939],[-72.14343,8.23975],[-72.18311,8.1971],[-72.21084,8.17025],[-72.21864,8.16622],[-72.2155,8.15541],[-72.20936,8.15188],[-72.20488,8.14507],[-72.20522,8.13462],[-72.19941,8.12528],[-72.18524,8.11404],[-72.18833,8.0892],[-72.13433,8.12985],[-72.12139,8.14807],[-72.118,8.16252],[-72.09311,8.21097],[-72.10158,8.21924],[-72.1035,8.22485],[-72.10077,8.2355],[-72.10925,8.24558],[-72.12239,8.24785],[-72.13937,8.23939]]]}},{"type":"Feature","id":"relation/3325383","properties":{"name":"Municipio Seboruco","level":6,"population":"10243"},"geometry":{"type":"Polygon","coordinates":[[[-72.15788,8.11181],[-72.18833,8.0892],[-72.16527,8.08935],[-72.15334,8.0826],[-72.15294,8.07571],[-72.1484,8.07249],[-72.13616,8.07319],[-72.13322,8.07798],[-72.13062,8.07726],[-72.12211,8.08198],[-72.10928,8.08055],[-72.09963,8.0869],[-72.0921,8.08549],[-72.08612,8.07588],[-72.07919,8.07388],[-72.068,8.07941],[-72.06226,8.09346],[-72.04895,8.10151],[-72.04437,8.11172],[-72.04439,8.11796],[-72.03725,8.13159],[-72.02507,8.14242],[-72.02116,8.14316],[-72.01785,8.14837],[-72.02145,8.15585],[-72.03728,8.15224],[-72.03042,8.16689],[-72.0319,8.17741],[-72.03808,8.18938],[-72.04374,8.18202],[-72.04936,8.18107],[-72.07326,8.19207],[-72.0778,8.19631],[-72.07939,8.20187],[-72.09313,8.21108],[-72.118,8.16252],[-72.12139,8.14807],[-72.13433,8.12985],[-72.15788,8.11181]]]}},{"type":"Feature","id":"relation/3325384","properties":{"name":"Municipio Garc\u00eda de Hevia","level":6,"population":"48476"},"geometry":{"type":"Polygon","coordinates":[[[-72.14343,8.23975],[-72.14579,8.24515],[-72.14555,8.256],[-72.15263,8.25947],[-72.15306,8.26418],[-72.15751,8.26401],[-72.15977,8.27578],[-72.12883,8.29715],[-72.13341,8.30417],[-72.13128,8.30826],[-72.13454,8.31511],[-72.12963,8.32052],[-72.12788,8.32724],[-72.13183,8.34081],[-72.13835,8.34053],[-72.13977,8.34464],[-72.15087,8.34887],[-72.14878,8.35218],[-72.15122,8.35417],[-72.14791,8.35699],[-72.15163,8.35739],[-72.14962,8.36023],[-72.15396,8.36166],[-72.15228,8.36844],[-72.15502,8.36944],[-72.15005,8.37283],[-72.14956,8.37678],[-72.15218,8.38055],[-72.14748,8.38605],[-72.1486,8.38886],[-72.15144,8.38816],[-72.15603,8.3969],[-72.15405,8.3992],[-72.15749,8.40083],[-72.15321,8.40332],[-72.15743,8.40396],[-72.16007,8.41493],[-72.16629,8.41469],[-72.17284,8.41948],[-72.17296,8.42722],[-72.17565,8.42779],[-72.17668,8.4334],[-72.17478,8.43829],[-72.17752,8.44074],[-72.17127,8.44027],[-72.17502,8.45089],[-72.17246,8.45498],[-72.17858,8.46358],[-72.17767,8.47004],[-72.17995,8.4713],[-72.18328,8.46894],[-72.18687,8.4731],[-72.18278,8.47747],[-72.18147,8.48309],[-72.18452,8.4861],[-72.18449,8.49215],[-72.18963,8.49366],[-72.19955,8.50481],[-72.20132,8.51028],[-72.20199,8.5178],[-72.19604,8.52579],[-72.20132,8.54333],[-72.19768,8.55227],[-72.19853,8.55572],[-72.19589,8.55819],[-72.1963,8.56523],[-72.21452,8.56409],[-72.21528,8.55966],[-72.22126,8.55884],[-72.22113,8.5615],[-72.23568,8.56964],[-72.2393,8.5694],[-72.23527,8.55715],[-72.23924,8.55454],[-72.25139,8.55672],[-72.25196,8.56417],[-72.26464,8.56521],[-72.28125,8.56555],[-72.28202,8.56167],[-72.29528,8.56249],[-72.29759,8.55642],[-72.31501,8.55503],[-72.31559,8.55786],[-72.32068,8.55843],[-72.33095,8.5492],[-72.34747,8.51423],[-72.34469,8.50544],[-72.34815,8.50434],[-72.35319,8.49491],[-72.34761,8.48744],[-72.34775,8.48332],[-72.3597,8.47872],[-72.36242,8.47419],[-72.36059,8.46949],[-72.35031,8.46682],[-72.35301,8.45563],[-72.35168,8.44162],[-72.35954,8.43657],[-72.36689,8.42566],[-72.37488,8.4319],[-72.37912,8.43088],[-72.38171,8.41932],[-72.3902,8.41824],[-72.39348,8.41469],[-72.39198,8.40058],[-72.40118,8.39746],[-72.40674,8.39164],[-72.40576,8.38626],[-72.39989,8.37924],[-72.4005,8.37529],[-72.40708,8.36767],[-72.40323,8.36478],[-72.40366,8.35611],[-72.4013,8.35546],[-72.3994,8.36098],[-72.39286,8.35853],[-72.39138,8.35573],[-72.39377,8.35075],[-72.3892,8.34998],[-72.38779,8.34652],[-72.38937,8.34394],[-72.3952,8.34349],[-72.3923,8.33904],[-72.39507,8.33226],[-72.39128,8.32893],[-72.39546,8.32704],[-72.393,8.3211],[-72.38145,8.31637],[-72.38251,8.31352],[-72.37634,8.31145],[-72.37005,8.30357],[-72.36619,8.30494],[-72.36277,8.29982],[-72.35643,8.29864],[-72.34824,8.28705],[-72.34144,8.28756],[-72.3417,8.28304],[-72.33189,8.2806],[-72.3238,8.27142],[-72.318,8.25767],[-72.32387,8.24533],[-72.31917,8.24192],[-72.31893,8.23344],[-72.31579,8.23176],[-72.3165,8.22761],[-72.31333,8.2231],[-72.31759,8.218],[-72.30679,8.20851],[-72.30325,8.19838],[-72.29861,8.19524],[-72.29492,8.18411],[-72.2879,8.17479],[-72.28238,8.1693],[-72.26626,8.16264],[-72.21864,8.16622],[-72.21084,8.17025],[-72.14343,8.23975]]]}},{"type":"Feature","id":"relation/3325386","properties":{"name":"Municipio San Judas Tadeo","level":6,"population":"7649"},"geometry":{"type":"Polygon","coordinates":[[[-72.15977,8.27578],[-72.15751,8.26401],[-72.15306,8.26418],[-72.15263,8.25947],[-72.14527,8.25536],[-72.14421,8.24002],[-72.13937,8.23939],[-72.12111,8.24807],[-72.10925,8.24558],[-72.10077,8.2355],[-72.1035,8.22485],[-72.10086,8.21792],[-72.09456,8.21132],[-72.07939,8.20187],[-72.0778,8.19631],[-72.07326,8.19207],[-72.04936,8.18107],[-72.04374,8.18202],[-72.03825,8.18948],[-72.02841,8.19102],[-72.01801,8.19717],[-72.01164,8.19114],[-71.99963,8.19132],[-71.98702,8.20497],[-71.9801,8.20736],[-71.97793,8.21202],[-71.96277,8.2188],[-71.96163,8.22363],[-71.95192,8.23391],[-71.95339,8.25659],[-71.95645,8.26157],[-71.95302,8.27016],[-71.95432,8.28527],[-71.95728,8.28394],[-71.96259,8.28749],[-71.96623,8.28547],[-71.97387,8.29049],[-71.98065,8.30137],[-71.98507,8.32133],[-71.99526,8.32552],[-72.01303,8.33767],[-72.01904,8.34514],[-72.02545,8.33356],[-72.02527,8.31755],[-72.02742,8.31129],[-72.02967,8.31613],[-72.03753,8.31793],[-72.04504,8.32422],[-72.05235,8.32449],[-72.0578,8.32893],[-72.06832,8.33129],[-72.1068,8.29152],[-72.12,8.30349],[-72.15977,8.27578]]]}},{"type":"Feature","id":"relation/3325390","properties":{"name":"Municipio Panamericano","level":6,"population":"32180"},"geometry":{"type":"Polygon","coordinates":[[[-72.13168,8.33998],[-72.12789,8.32685],[-72.12963,8.32052],[-72.13454,8.31511],[-72.13128,8.30826],[-72.13341,8.30417],[-72.12883,8.29715],[-72.12,8.30349],[-72.1068,8.29152],[-72.06679,8.33152],[-72.0578,8.32893],[-72.05235,8.32449],[-72.04186,8.32262],[-72.03753,8.31793],[-72.02967,8.31613],[-72.02742,8.31129],[-72.02527,8.31755],[-72.02545,8.33356],[-72.01904,8.34514],[-72.01138,8.34714],[-72.01013,8.35183],[-71.99217,8.36437],[-71.97817,8.36669],[-71.97079,8.37301],[-71.96391,8.37132],[-71.95511,8.38556],[-71.95086,8.37958],[-71.94104,8.3882],[-71.94692,8.40308],[-71.94329,8.40641],[-71.94073,8.41552],[-71.9403,8.43294],[-71.94492,8.4389],[-71.96133,8.44808],[-71.96529,8.46233],[-71.95476,8.48754],[-71.9592,8.49449],[-71.95774,8.49851],[-71.95934,8.50303],[-71.97103,8.50962],[-71.97161,8.52004],[-71.97691,8.52693],[-71.97617,8.54707],[-71.97925,8.55484],[-71.99389,8.56645],[-71.97461,8.60174],[-71.98435,8.6112],[-71.9857,8.61705],[-71.98405,8.62091],[-71.98745,8.62236],[-71.98646,8.63034],[-71.99272,8.63823],[-71.99993,8.63921],[-71.9923,8.65475],[-71.98993,8.66882],[-71.99155,8.66981],[-71.99719,8.66534],[-72.00077,8.66707],[-72.00168,8.66333],[-72.00785,8.65958],[-72.01916,8.66176],[-72.02133,8.65148],[-72.0252,8.64657],[-72.0326,8.64591],[-72.03669,8.63648],[-72.04325,8.63717],[-72.04798,8.63197],[-72.07014,8.63322],[-72.07334,8.62892],[-72.07091,8.62613],[-72.06901,8.6274],[-72.06751,8.62359],[-72.0736,8.61417],[-72.08059,8.6136],[-72.08043,8.61738],[-72.08298,8.61492],[-72.08311,8.61702],[-72.08996,8.61651],[-72.09077,8.61462],[-72.09327,8.616],[-72.09393,8.61299],[-72.09701,8.61497],[-72.10094,8.61376],[-72.10799,8.60779],[-72.11023,8.61066],[-72.10832,8.614],[-72.11229,8.61312],[-72.11191,8.60905],[-72.11368,8.61057],[-72.11593,8.60796],[-72.11733,8.61059],[-72.11747,8.60669],[-72.1189,8.60969],[-72.12402,8.60613],[-72.12231,8.60459],[-72.12493,8.5986],[-72.12815,8.60033],[-72.12799,8.59527],[-72.12976,8.59582],[-72.13453,8.58948],[-72.13824,8.59062],[-72.13833,8.58816],[-72.1408,8.58822],[-72.14093,8.58536],[-72.13817,8.58517],[-72.14089,8.58271],[-72.14838,8.58274],[-72.15026,8.57957],[-72.15383,8.58191],[-72.15844,8.57972],[-72.1604,8.58105],[-72.16846,8.57197],[-72.18015,8.5744],[-72.18579,8.57125],[-72.18716,8.5676],[-72.19017,8.57056],[-72.19334,8.5685],[-72.19285,8.56585],[-72.19633,8.56516],[-72.19589,8.55819],[-72.19853,8.55572],[-72.19768,8.55227],[-72.20132,8.54333],[-72.19604,8.52579],[-72.20199,8.5178],[-72.20132,8.51028],[-72.19955,8.50481],[-72.18963,8.49366],[-72.18449,8.49215],[-72.18452,8.4861],[-72.18147,8.48309],[-72.18278,8.47747],[-72.18687,8.4731],[-72.18328,8.46894],[-72.17995,8.4713],[-72.17767,8.47004],[-72.17858,8.46358],[-72.17246,8.45498],[-72.17502,8.45089],[-72.17127,8.44027],[-72.17752,8.44074],[-72.17478,8.43829],[-72.17668,8.4334],[-72.17565,8.42779],[-72.17296,8.42722],[-72.17284,8.41948],[-72.16629,8.41469],[-72.16007,8.41493],[-72.15743,8.40396],[-72.15321,8.40332],[-72.15749,8.40083],[-72.15405,8.3992],[-72.15603,8.3969],[-72.15144,8.38816],[-72.1486,8.38886],[-72.14748,8.38605],[-72.15218,8.38055],[-72.14956,8.37678],[-72.15005,8.37283],[-72.15502,8.36944],[-72.15228,8.36844],[-72.15396,8.36166],[-72.14962,8.36023],[-72.15163,8.35739],[-72.14791,8.35699],[-72.15122,8.35417],[-72.14878,8.35218],[-72.15087,8.34887],[-72.13977,8.34464],[-72.13835,8.34053],[-72.13168,8.33998]]]}},{"type":"Feature","id":"relation/3325398","properties":{"name":"Municipio Maldonado","level":6,"population":"17911"},"geometry":{"type":"Polygon","coordinates":[[[-71.95426,8.61696],[-71.958,8.61826],[-71.9588,8.62341],[-71.9633,8.62681],[-71.96257,8.62951],[-71.95681,8.6323],[-71.9599,8.63446],[-71.95948,8.63684],[-71.96645,8.63737],[-71.96904,8.64099],[-71.97037,8.63938],[-71.97386,8.6466],[-71.98288,8.64584],[-71.98807,8.65242],[-71.98776,8.65583],[-71.98304,8.65658],[-71.98447,8.66238],[-71.98287,8.66205],[-71.98308,8.66578],[-71.98128,8.6651],[-71.98505,8.67258],[-71.98165,8.67798],[-71.9874,8.67765],[-71.98517,8.6805],[-71.98664,8.68205],[-71.99202,8.68197],[-71.99294,8.67916],[-71.99839,8.68052],[-71.99515,8.67829],[-71.99444,8.67413],[-71.98865,8.67162],[-71.99051,8.67075],[-71.99392,8.64998],[-71.99993,8.63921],[-71.99272,8.63823],[-71.98646,8.63034],[-71.98745,8.62236],[-71.98405,8.62091],[-71.9857,8.61705],[-71.98435,8.6112],[-71.97464,8.60225],[-71.99389,8.56645],[-71.97925,8.55484],[-71.97617,8.54707],[-71.97691,8.52693],[-71.97161,8.52004],[-71.97249,8.51358],[-71.97026,8.51267],[-71.96974,8.50804],[-71.95919,8.50285],[-71.9592,8.49449],[-71.95471,8.48825],[-71.96529,8.46233],[-71.96133,8.44808],[-71.94492,8.4389],[-71.9403,8.43294],[-71.94073,8.41552],[-71.94329,8.40641],[-71.94691,8.40327],[-71.94492,8.39438],[-71.94027,8.38634],[-71.93706,8.38579],[-71.9242,8.36949],[-71.912,8.36263],[-71.90094,8.36196],[-71.89801,8.35628],[-71.88208,8.36446],[-71.88209,8.35932],[-71.87869,8.35958],[-71.87221,8.35498],[-71.85198,8.36775],[-71.84403,8.36847],[-71.83682,8.37329],[-71.81902,8.37086],[-71.81229,8.37833],[-71.81636,8.38451],[-71.80894,8.38942],[-71.81066,8.39869],[-71.81444,8.40038],[-71.81657,8.40548],[-71.8084,8.41714],[-71.80054,8.41924],[-71.80107,8.42209],[-71.79712,8.4266],[-71.79868,8.43245],[-71.79571,8.43333],[-71.78741,8.44521],[-71.78431,8.44526],[-71.78463,8.44869],[-71.77972,8.4519],[-71.77421,8.46297],[-71.77279,8.48639],[-71.7796,8.50072],[-71.78575,8.52366],[-71.80166,8.54083],[-71.80375,8.5524],[-71.80732,8.55781],[-71.81448,8.56288],[-71.82575,8.5659],[-71.8247,8.57273],[-71.81752,8.57596],[-71.81866,8.57974],[-71.82114,8.58033],[-71.82212,8.58718],[-71.83851,8.59454],[-71.84231,8.60024],[-71.84671,8.59929],[-71.84607,8.61183],[-71.85705,8.62088],[-71.87266,8.62937],[-71.88042,8.62711],[-71.88981,8.63065],[-71.89143,8.63355],[-71.89915,8.63373],[-71.9087,8.6414],[-71.91153,8.64014],[-71.91631,8.63124],[-71.92284,8.63009],[-71.9338,8.61877],[-71.93917,8.61903],[-71.94349,8.61639],[-71.94953,8.61833],[-71.95426,8.61696]]]}},{"type":"Feature","id":"relation/3325982","properties":{"name":"Municipio Libertador","level":6,"population":"22464"},"geometry":{"type":"Polygon","coordinates":[[[-71.72557,7.52988],[-71.72082,7.5335],[-71.72105,7.54403],[-71.71727,7.54452],[-71.71044,7.53922],[-71.70265,7.54139],[-71.69713,7.53688],[-71.69448,7.53949],[-71.69355,7.54682],[-71.6895,7.54789],[-71.68661,7.54361],[-71.6802,7.54347],[-71.67558,7.53846],[-71.66171,7.53542],[-71.65855,7.52873],[-71.6532,7.53159],[-71.6503,7.5305],[-71.64963,7.52192],[-71.6469,7.51989],[-71.64398,7.52147],[-71.64271,7.52768],[-71.63869,7.52962],[-71.62665,7.51916],[-71.61263,7.52231],[-71.6051,7.51554],[-71.60027,7.51872],[-71.60135,7.5256],[-71.59878,7.52683],[-71.59406,7.5227],[-71.59191,7.51325],[-71.58112,7.51058],[-71.5762,7.51817],[-71.57733,7.52267],[-71.57527,7.52672],[-71.56103,7.52125],[-71.55604,7.51395],[-71.54985,7.5186],[-71.53889,7.51632],[-71.52891,7.52343],[-71.52563,7.51641],[-71.50454,7.50935],[-71.48886,7.49836],[-71.46815,7.49721],[-71.45614,7.50102],[-71.44845,7.50931],[-71.44101,7.50558],[-71.43256,7.50496],[-71.41675,7.49502],[-71.4146,7.48282],[-71.4067,7.48166],[-71.40284,7.47649],[-71.39724,7.48245],[-71.39212,7.47681],[-71.37693,7.48125],[-71.36144,7.47405],[-71.35637,7.47843],[-71.34811,7.47892],[-71.33737,7.47464],[-71.3293,7.4786],[-71.31802,7.4898],[-71.31667,7.4864],[-71.31532,7.49313],[-71.31971,7.49802],[-71.33247,7.4984],[-71.33066,7.51607],[-71.3356,7.51468],[-71.33652,7.50758],[-71.33909,7.50533],[-71.3446,7.51096],[-71.34945,7.51135],[-71.35116,7.50774],[-71.34971,7.5015],[-71.35201,7.4996],[-71.35613,7.50487],[-71.3636,7.50381],[-71.36539,7.50979],[-71.37213,7.51619],[-71.37647,7.52929],[-71.38119,7.52589],[-71.39291,7.52977],[-71.40445,7.52945],[-71.41055,7.53681],[-71.41022,7.53988],[-71.40752,7.54027],[-71.3984,7.53412],[-71.39275,7.54057],[-71.39511,7.54437],[-71.39841,7.54041],[-71.4015,7.54076],[-71.39972,7.54709],[-71.40383,7.55727],[-71.40716,7.55779],[-71.41257,7.55117],[-71.41643,7.54998],[-71.43044,7.55243],[-71.43558,7.56029],[-71.43424,7.56273],[-71.42365,7.55463],[-71.42015,7.55518],[-71.41896,7.56233],[-71.42148,7.56907],[-71.41717,7.57424],[-71.42113,7.57676],[-71.42833,7.57513],[-71.43187,7.57919],[-71.43932,7.57762],[-71.44358,7.58335],[-71.44339,7.58819],[-71.44675,7.58954],[-71.45022,7.59596],[-71.45922,7.59002],[-71.46481,7.59614],[-71.47953,7.60163],[-71.48081,7.60583],[-71.47466,7.60932],[-71.47507,7.61299],[-71.49338,7.61082],[-71.49439,7.60706],[-71.48959,7.60099],[-71.49187,7.59711],[-71.49566,7.59721],[-71.50375,7.60415],[-71.50437,7.60866],[-71.49924,7.61023],[-71.49742,7.6158],[-71.50144,7.62303],[-71.49411,7.62325],[-71.4917,7.62635],[-71.49897,7.62969],[-71.49977,7.63381],[-71.49099,7.64136],[-71.48829,7.64704],[-71.4942,7.65161],[-71.49655,7.64427],[-71.49913,7.64318],[-71.50219,7.64857],[-71.49901,7.65407],[-71.49218,7.65784],[-71.48895,7.66608],[-71.49469,7.67592],[-71.49034,7.67717],[-71.49012,7.68127],[-71.4853,7.68314],[-71.4878,7.6875],[-71.49073,7.68495],[-71.49293,7.68696],[-71.49775,7.7017],[-71.5053,7.70584],[-71.50622,7.71025],[-71.51297,7.71501],[-71.51178,7.7184],[-71.51671,7.72087],[-71.51278,7.72657],[-71.51419,7.73086],[-71.51251,7.7338],[-71.51907,7.73545],[-71.52215,7.74516],[-71.53456,7.75345],[-71.52479,7.77061],[-71.52369,7.78379],[-71.51475,7.7972],[-71.52281,7.80846],[-71.52386,7.81611],[-71.52192,7.82187],[-71.51387,7.8298],[-71.5121,7.83797],[-71.51367,7.84236],[-71.51776,7.8361],[-71.53066,7.82751],[-71.53545,7.81424],[-71.54616,7.80493],[-71.54792,7.79904],[-71.54626,7.79625],[-71.54948,7.79424],[-71.55117,7.78856],[-71.5535,7.78847],[-71.55449,7.7801],[-71.55618,7.78092],[-71.55664,7.77613],[-71.55924,7.77453],[-71.56465,7.77592],[-71.5785,7.78656],[-71.59578,7.79179],[-71.59852,7.7904],[-71.6064,7.79878],[-71.61204,7.80103],[-71.61574,7.79992],[-71.61762,7.80173],[-71.62235,7.79852],[-71.62766,7.80069],[-71.63298,7.79719],[-71.63771,7.80442],[-71.64035,7.80358],[-71.64112,7.80925],[-71.64695,7.81285],[-71.64795,7.81727],[-71.65216,7.81599],[-71.65304,7.81867],[-71.65484,7.81784],[-71.6516,7.82087],[-71.65346,7.82294],[-71.65071,7.82281],[-71.65363,7.82609],[-71.65686,7.82421],[-71.66199,7.82904],[-71.67032,7.82894],[-71.68219,7.81996],[-71.68537,7.81265],[-71.68111,7.80938],[-71.68627,7.79757],[-71.69254,7.79447],[-71.69232,7.79185],[-71.71333,7.78615],[-71.71711,7.77805],[-71.72527,7.77879],[-71.73773,7.77142],[-71.7435,7.77308],[-71.75197,7.77011],[-71.75488,7.76473],[-71.78144,7.74921],[-71.77983,7.74469],[-71.78446,7.73974],[-71.78562,7.73219],[-71.78278,7.72451],[-71.78818,7.7152],[-71.78473,7.7121],[-71.78952,7.70359],[-71.78608,7.69877],[-71.79307,7.68888],[-71.79755,7.68738],[-71.79975,7.68199],[-71.7984,7.67935],[-71.80199,7.67362],[-71.79828,7.67046],[-71.80352,7.65645],[-71.8015,7.6393],[-71.81162,7.63788],[-71.81536,7.63327],[-71.80991,7.62963],[-71.80804,7.6242],[-71.8047,7.62316],[-71.80488,7.62008],[-71.81419,7.61373],[-71.81523,7.60954],[-71.81806,7.61084],[-71.833,7.59687],[-71.83875,7.58473],[-71.83578,7.5743],[-71.83958,7.56617],[-71.83471,7.56439],[-71.82687,7.54116],[-71.83149,7.53439],[-71.81888,7.53513],[-71.80719,7.53053],[-71.80404,7.53507],[-71.80824,7.54221],[-71.80459,7.54476],[-71.79913,7.53619],[-71.78682,7.54018],[-71.78495,7.53697],[-71.7895,7.52817],[-71.78168,7.52419],[-71.77661,7.52869],[-71.76603,7.52951],[-71.7653,7.53269],[-71.77127,7.54023],[-71.7669,7.54648],[-71.76268,7.54519],[-71.76155,7.54145],[-71.75236,7.5333],[-71.746,7.53853],[-71.74054,7.53892],[-71.73305,7.53676],[-71.72557,7.52988]]]}},{"type":"Feature","id":"relation/3326199","properties":{"name":"Municipio Sim\u00f3n Rodr\u00edguez","level":6,"population":"2445"},"geometry":{"type":"Polygon","coordinates":[[[-71.88208,8.36446],[-71.89801,8.35628],[-71.88815,8.34561],[-71.88663,8.34028],[-71.88942,8.32894],[-71.89244,8.32855],[-71.89427,8.32459],[-71.89879,8.32474],[-71.90154,8.31889],[-71.88412,8.31836],[-71.87962,8.3218],[-71.8748,8.32123],[-71.88635,8.30945],[-71.88885,8.30244],[-71.88636,8.29672],[-71.88105,8.29306],[-71.87921,8.2859],[-71.87372,8.2833],[-71.87455,8.27443],[-71.86475,8.26175],[-71.86087,8.27249],[-71.86156,8.27791],[-71.8563,8.27834],[-71.85,8.28284],[-71.8452,8.29591],[-71.83908,8.29884],[-71.83131,8.31011],[-71.83528,8.31219],[-71.83711,8.3167],[-71.83406,8.31572],[-71.82984,8.3204],[-71.82561,8.31632],[-71.82345,8.31807],[-71.8202,8.31513],[-71.81719,8.31945],[-71.81823,8.32329],[-71.80665,8.33236],[-71.80694,8.33453],[-71.81212,8.33873],[-71.8193,8.35155],[-71.81734,8.35659],[-71.82052,8.36],[-71.81902,8.37086],[-71.83682,8.37329],[-71.84403,8.36847],[-71.85198,8.36775],[-71.87221,8.35498],[-71.87869,8.35958],[-71.88209,8.35932],[-71.88208,8.36446]]]}},{"type":"Feature","id":"relation/3326210","properties":{"name":"Municipio Uribante","level":6,"population":"20104"},"geometry":{"type":"Polygon","coordinates":[[[-71.98278,7.75497],[-71.98422,7.74498],[-72.00165,7.72581],[-71.99423,7.72458],[-71.98861,7.72898],[-71.97972,7.73072],[-71.97821,7.72599],[-71.97414,7.72509],[-71.97799,7.71218],[-71.96698,7.70571],[-71.95459,7.68589],[-71.94893,7.69007],[-71.94615,7.688],[-71.93991,7.67278],[-71.93629,7.66982],[-71.93496,7.66293],[-71.93822,7.66232],[-71.93405,7.65476],[-71.93449,7.65011],[-71.93088,7.64641],[-71.937,7.64065],[-71.93584,7.63771],[-71.92717,7.63748],[-71.92244,7.63122],[-71.91599,7.63454],[-71.91613,7.64115],[-71.90321,7.63266],[-71.89314,7.62975],[-71.88288,7.63589],[-71.88169,7.63877],[-71.85988,7.63849],[-71.85432,7.64857],[-71.84783,7.64708],[-71.8431,7.64877],[-71.84303,7.66487],[-71.82993,7.67131],[-71.82153,7.68244],[-71.81346,7.68362],[-71.80728,7.69399],[-71.78952,7.70359],[-71.78473,7.7121],[-71.78818,7.7152],[-71.78278,7.72451],[-71.78562,7.73219],[-71.78446,7.73974],[-71.77983,7.74469],[-71.78144,7.74921],[-71.75488,7.76473],[-71.75197,7.77011],[-71.7435,7.77308],[-71.73773,7.77142],[-71.72527,7.77879],[-71.71711,7.77805],[-71.71333,7.78615],[-71.69232,7.79185],[-71.69254,7.79447],[-71.68627,7.79757],[-71.68111,7.80938],[-71.68537,7.81265],[-71.68219,7.81996],[-71.67044,7.8289],[-71.66199,7.82904],[-71.65686,7.82421],[-71.65363,7.82609],[-71.65071,7.82281],[-71.65346,7.82294],[-71.6516,7.82087],[-71.65484,7.81784],[-71.65304,7.81867],[-71.65216,7.81599],[-71.64795,7.81727],[-71.64695,7.81285],[-71.64112,7.80925],[-71.64035,7.80358],[-71.63771,7.80442],[-71.63298,7.79719],[-71.62766,7.80069],[-71.62235,7.79852],[-71.61762,7.80173],[-71.61574,7.79992],[-71.61204,7.80103],[-71.6064,7.79878],[-71.59852,7.7904],[-71.59578,7.79179],[-71.5785,7.78656],[-71.56465,7.77592],[-71.55722,7.77548],[-71.5535,7.78847],[-71.55117,7.78856],[-71.54948,7.79424],[-71.54626,7.79625],[-71.54792,7.79904],[-71.54616,7.80493],[-71.53545,7.81424],[-71.53066,7.82751],[-71.51463,7.84032],[-71.5192,7.8475],[-71.51604,7.85007],[-71.51783,7.86898],[-71.51593,7.87271],[-71.50925,7.87499],[-71.51081,7.88688],[-71.50836,7.89016],[-71.51148,7.89322],[-71.50366,7.90803],[-71.50627,7.91331],[-71.51717,7.91321],[-71.51982,7.92009],[-71.52405,7.92221],[-71.52491,7.92729],[-71.53068,7.93068],[-71.52938,7.93522],[-71.53204,7.93865],[-71.53264,7.94668],[-71.52847,7.95205],[-71.52871,7.95544],[-71.5292,7.95847],[-71.53741,7.96135],[-71.53327,7.96577],[-71.53479,7.97581],[-71.53681,7.97826],[-71.54573,7.97663],[-71.55038,7.97833],[-71.55827,7.98745],[-71.55908,7.99318],[-71.57024,8.00441],[-71.56583,8.01785],[-71.57165,8.03957],[-71.58497,8.04515],[-71.60303,8.05687],[-71.61014,8.05077],[-71.61928,8.04847],[-71.6213,8.04371],[-71.62793,8.03824],[-71.63332,8.04022],[-71.63715,8.03763],[-71.6423,8.0414],[-71.64441,8.04],[-71.64866,8.03433],[-71.64828,8.02926],[-71.65185,8.02805],[-71.65548,8.02057],[-71.65984,8.01937],[-71.66045,8.01621],[-71.66834,8.00942],[-71.66717,8.00513],[-71.67533,8.00589],[-71.68862,8.01473],[-71.69546,8.02657],[-71.70601,8.02712],[-71.70736,8.03136],[-71.7025,8.03931],[-71.70352,8.04128],[-71.71317,8.04315],[-71.72157,8.03832],[-71.74525,8.04929],[-71.75462,8.05737],[-71.75952,8.06671],[-71.7596,8.07413],[-71.76595,8.07766],[-71.7642,8.08165],[-71.76727,8.08495],[-71.76536,8.08849],[-71.76686,8.09282],[-71.77154,8.09872],[-71.7794,8.10064],[-71.78193,8.10736],[-71.7841,8.10741],[-71.78343,8.11206],[-71.78555,8.11475],[-71.78832,8.11441],[-71.78965,8.11801],[-71.79365,8.11846],[-71.79538,8.11625],[-71.7968,8.12013],[-71.79941,8.11814],[-71.80534,8.12025],[-71.80861,8.12555],[-71.81327,8.12714],[-71.81698,8.1471],[-71.82167,8.15003],[-71.82541,8.15727],[-71.83426,8.16033],[-71.83864,8.15946],[-71.84974,8.16614],[-71.85093,8.17351],[-71.85778,8.18011],[-71.87332,8.17821],[-71.8758,8.16842],[-71.88512,8.16863],[-71.88775,8.16279],[-71.89297,8.16213],[-71.89652,8.15854],[-71.9,8.14929],[-71.90491,8.14551],[-71.90264,8.13765],[-71.90527,8.13244],[-71.90378,8.12761],[-71.90515,8.12442],[-71.91033,8.12226],[-71.91655,8.10584],[-71.91425,8.10056],[-71.91705,8.08784],[-71.91297,8.08114],[-71.91766,8.07467],[-71.92337,8.07162],[-71.91997,8.0643],[-71.92101,8.0598],[-71.92897,8.05691],[-71.93053,8.04685],[-71.92587,8.0435],[-71.9298,8.03309],[-71.92377,8.02756],[-71.92643,8.01461],[-71.91956,8.00614],[-71.91778,7.99624],[-71.92212,7.99138],[-71.92113,7.98708],[-71.91611,7.98311],[-71.91475,7.97022],[-71.90416,7.96133],[-71.90515,7.95114],[-71.90085,7.94444],[-71.89763,7.94314],[-71.88601,7.94732],[-71.87674,7.94151],[-71.87189,7.93489],[-71.86289,7.93701],[-71.85953,7.93055],[-71.85648,7.92975],[-71.84978,7.93522],[-71.83959,7.93552],[-71.83069,7.93143],[-71.82104,7.93081],[-71.82005,7.92608],[-71.81293,7.92095],[-71.81102,7.9123],[-71.79741,7.91326],[-71.79445,7.91022],[-71.79398,7.9033],[-71.78987,7.90372],[-71.78905,7.90042],[-71.77937,7.8957],[-71.77787,7.89235],[-71.79669,7.87204],[-71.79579,7.8631],[-71.79886,7.86258],[-71.80235,7.86632],[-71.80331,7.86206],[-71.8119,7.85262],[-71.81412,7.83972],[-71.81883,7.83906],[-71.8225,7.83276],[-71.82051,7.82356],[-71.82449,7.82392],[-71.8268,7.82142],[-71.83465,7.82247],[-71.83729,7.81579],[-71.84354,7.81383],[-71.84126,7.80543],[-71.85332,7.79763],[-71.85386,7.79343],[-71.86313,7.79449],[-71.8694,7.78869],[-71.87991,7.78576],[-71.88153,7.7802],[-71.89592,7.77529],[-71.89498,7.77997],[-71.89673,7.78135],[-71.90244,7.77316],[-71.90831,7.77221],[-71.91532,7.76699],[-71.92041,7.77064],[-71.9219,7.76772],[-71.92017,7.75877],[-71.92614,7.75824],[-71.92985,7.76075],[-71.93891,7.74956],[-71.9561,7.7528],[-71.96525,7.76276],[-71.96842,7.77373],[-71.9753,7.76923],[-71.97637,7.76084],[-71.98278,7.75497]]]}},{"type":"Feature","id":"relation/3326211","properties":{"name":"Municipio J\u00e1uregui","level":6,"population":"41000"},"geometry":{"type":"Polygon","coordinates":[[[-71.96795,8.37117],[-71.97079,8.37301],[-71.97817,8.36669],[-71.99217,8.36437],[-72.01013,8.35183],[-72.01138,8.34714],[-72.01904,8.34514],[-72.01303,8.33767],[-71.99526,8.32552],[-71.98507,8.32133],[-71.98065,8.30137],[-71.97387,8.29049],[-71.96623,8.28547],[-71.96259,8.28749],[-71.95728,8.28394],[-71.95432,8.28527],[-71.95302,8.27016],[-71.95645,8.26157],[-71.95339,8.25659],[-71.95242,8.23162],[-71.96041,8.22523],[-71.96277,8.2188],[-71.97793,8.21202],[-71.9801,8.20736],[-71.98702,8.20497],[-71.99963,8.19132],[-72.01164,8.19114],[-72.01749,8.1972],[-72.02841,8.19102],[-72.03825,8.18948],[-72.0319,8.17741],[-72.03043,8.16733],[-72.03728,8.15224],[-72.02145,8.15585],[-72.01785,8.14837],[-72.02116,8.14316],[-72.02507,8.14242],[-72.03725,8.13159],[-72.04869,8.10349],[-72.03823,8.09822],[-72.03562,8.09857],[-72.03379,8.10408],[-72.0291,8.10222],[-72.02051,8.09282],[-72.02172,8.08671],[-72.01823,8.08579],[-72.02053,8.0811],[-72.01622,8.07979],[-72.01852,8.07404],[-72.01594,8.07144],[-72.01982,8.04222],[-72.01965,8.01879],[-72.02225,8.01284],[-72.02616,8.0118],[-72.01737,8.01336],[-72.01131,8.01739],[-71.99923,8.019],[-71.98848,8.00523],[-71.97992,8.01382],[-71.96851,8.01954],[-71.96516,8.02836],[-71.95855,8.03222],[-71.94089,8.03],[-71.92952,8.03346],[-71.92587,8.0435],[-71.93053,8.04685],[-71.92897,8.05691],[-71.92101,8.0598],[-71.91997,8.0643],[-71.92337,8.07162],[-71.91766,8.07467],[-71.91294,8.08127],[-71.91705,8.08784],[-71.91425,8.10056],[-71.91652,8.10604],[-71.91033,8.12226],[-71.90515,8.12442],[-71.90378,8.12761],[-71.90527,8.13244],[-71.90264,8.13765],[-71.90494,8.14537],[-71.89895,8.15298],[-71.90466,8.1659],[-71.90378,8.17888],[-71.91363,8.19083],[-71.91106,8.19413],[-71.91098,8.20487],[-71.90871,8.21058],[-71.90001,8.21501],[-71.89174,8.23547],[-71.8832,8.24397],[-71.88182,8.25152],[-71.87352,8.25875],[-71.86475,8.26175],[-71.87455,8.27443],[-71.87372,8.2833],[-71.87921,8.2859],[-71.88105,8.29306],[-71.88636,8.29672],[-71.88885,8.30244],[-71.88635,8.30945],[-71.8748,8.32123],[-71.87962,8.3218],[-71.88412,8.31836],[-71.90154,8.31889],[-71.89879,8.32474],[-71.89427,8.32459],[-71.89244,8.32855],[-71.88942,8.32894],[-71.88663,8.34028],[-71.88815,8.34561],[-71.89734,8.35376],[-71.90094,8.36196],[-71.912,8.36263],[-71.92092,8.36726],[-71.94091,8.3882],[-71.95086,8.37958],[-71.95511,8.38556],[-71.9613,8.37403],[-71.96795,8.37117]]]}},{"type":"Feature","id":"relation/3326332","properties":{"name":"Municipio Vargas","level":6,"population":"9879"},"geometry":{"type":"Polygon","coordinates":[[[-72.11894,7.97771],[-72.11259,7.97862],[-72.11772,7.97273],[-72.12677,7.97441],[-72.13409,7.96988],[-72.14037,7.95512],[-72.14001,7.95182],[-72.13461,7.95052],[-72.13654,7.94475],[-72.13462,7.93962],[-72.12623,7.9356],[-72.12692,7.92952],[-72.10834,7.93073],[-72.10665,7.92868],[-72.09927,7.92871],[-72.09199,7.93303],[-72.08183,7.9277],[-72.08003,7.95295],[-72.07036,7.9501],[-72.06841,7.95342],[-72.06106,7.9564],[-72.04968,7.9688],[-72.05057,7.98057],[-72.04711,7.9873],[-72.03479,7.99818],[-72.03263,8.01068],[-72.02842,8.01422],[-72.02616,8.0118],[-72.02225,8.01284],[-72.01965,8.01879],[-72.01982,8.04222],[-72.01594,8.07144],[-72.01852,8.07404],[-72.01622,8.07979],[-72.02053,8.0811],[-72.01823,8.08579],[-72.02172,8.08671],[-72.02051,8.09282],[-72.0291,8.10222],[-72.03379,8.10408],[-72.03586,8.0983],[-72.04158,8.09862],[-72.04774,8.10229],[-72.05225,8.10045],[-72.06226,8.09346],[-72.068,8.07941],[-72.07919,8.07388],[-72.08612,8.07588],[-72.0902,8.08374],[-72.09781,8.08682],[-72.10928,8.08055],[-72.12211,8.08198],[-72.13062,8.07726],[-72.13322,8.07798],[-72.13649,8.07219],[-72.13654,8.06013],[-72.1334,8.05593],[-72.12632,8.05393],[-72.12722,8.04928],[-72.12454,8.04596],[-72.13171,8.03182],[-72.12823,8.01829],[-72.1299,8.01246],[-72.1345,8.00858],[-72.13634,8.00102],[-72.14732,8.00102],[-72.15172,7.99661],[-72.14641,7.98419],[-72.12432,7.9773],[-72.11894,7.97771]]]}},{"type":"Feature","id":"relation/3326414","properties":{"name":"Municipio Sucre","level":6,"population":"7320"},"geometry":{"type":"Polygon","coordinates":[[[-72.12193,7.86336],[-72.11485,7.86111],[-72.11314,7.85552],[-72.09483,7.84955],[-72.0866,7.83554],[-72.077,7.83067],[-72.07327,7.83026],[-72.07047,7.83793],[-72.06493,7.83504],[-72.03942,7.84267],[-72.03915,7.8367],[-72.03523,7.83613],[-72.03607,7.82979],[-72.0274,7.81452],[-72.0142,7.81177],[-72.01411,7.80024],[-72.0063,7.79547],[-71.98661,7.79309],[-71.9813,7.7859],[-71.97762,7.78725],[-71.96825,7.77347],[-71.96525,7.76276],[-71.96157,7.76093],[-71.95863,7.75533],[-71.95575,7.75257],[-71.94152,7.74935],[-71.93761,7.75018],[-71.92985,7.76075],[-71.92614,7.75824],[-71.92017,7.75877],[-71.9219,7.76772],[-71.92041,7.77064],[-71.91532,7.76699],[-71.90831,7.77221],[-71.90244,7.77316],[-71.89673,7.78135],[-71.89498,7.77997],[-71.89592,7.77529],[-71.88153,7.7802],[-71.87991,7.78576],[-71.8694,7.78869],[-71.86313,7.79449],[-71.85395,7.79337],[-71.85332,7.79763],[-71.84126,7.80543],[-71.84365,7.81354],[-71.841,7.81607],[-71.83739,7.8157],[-71.83647,7.81847],[-71.83987,7.82201],[-71.84333,7.82202],[-71.84579,7.82646],[-71.854,7.82658],[-71.85906,7.83361],[-71.89158,7.84494],[-71.89934,7.85103],[-71.90122,7.84989],[-71.9061,7.85357],[-71.90577,7.85702],[-71.90996,7.85803],[-71.91197,7.86366],[-71.91602,7.86268],[-71.93121,7.86998],[-71.9316,7.86717],[-71.94123,7.86565],[-71.95544,7.87205],[-71.96423,7.86603],[-71.96928,7.86938],[-71.98355,7.86689],[-71.99349,7.87096],[-71.98372,7.88281],[-71.98676,7.88408],[-71.98483,7.88963],[-71.97582,7.8985],[-71.97828,7.90347],[-71.97782,7.91141],[-71.96845,7.92092],[-71.96949,7.9296],[-71.96402,7.93746],[-71.96513,7.94171],[-71.9621,7.948],[-71.96364,7.9577],[-71.95771,7.96648],[-71.96528,7.97363],[-71.96603,7.97782],[-71.97805,7.9754],[-71.97822,7.97978],[-71.98771,7.98982],[-71.98663,7.99417],[-71.98336,7.99578],[-71.99923,8.019],[-72.01138,8.01737],[-72.02488,8.01109],[-72.02853,8.01414],[-72.03263,8.01068],[-72.03479,7.99818],[-72.0444,7.99046],[-72.05037,7.98107],[-72.04968,7.9688],[-72.06106,7.9564],[-72.06841,7.95342],[-72.07036,7.9501],[-72.08003,7.95295],[-72.08183,7.9277],[-72.07884,7.92036],[-72.08275,7.91936],[-72.10127,7.89593],[-72.10113,7.87507],[-72.10639,7.87599],[-72.11343,7.873],[-72.12104,7.86806],[-72.12193,7.86336]]]}},{"type":"Feature","id":"relation/3326458","properties":{"name":"Municipio Andr\u00e9s Bello","level":6,"population":"20358"},"geometry":{"type":"Polygon","coordinates":[[[-72.20212,7.87449],[-72.20277,7.87238],[-72.19144,7.85434],[-72.19233,7.84964],[-72.18568,7.8483],[-72.17924,7.85026],[-72.18005,7.85248],[-72.16824,7.8551],[-72.16274,7.84921],[-72.15923,7.85129],[-72.15258,7.8458],[-72.14965,7.84647],[-72.13942,7.83293],[-72.1256,7.82584],[-72.1197,7.83048],[-72.11913,7.84156],[-72.11695,7.84412],[-72.12456,7.85123],[-72.12473,7.85918],[-72.12058,7.86436],[-72.12104,7.86806],[-72.10639,7.87599],[-72.10113,7.87507],[-72.10127,7.89593],[-72.09689,7.9033],[-72.07838,7.92242],[-72.08183,7.9277],[-72.09199,7.93303],[-72.09927,7.92871],[-72.10665,7.92868],[-72.10834,7.93073],[-72.12702,7.92955],[-72.12623,7.9356],[-72.13462,7.93962],[-72.13654,7.94475],[-72.13461,7.95052],[-72.1397,7.95275],[-72.14277,7.93396],[-72.18461,7.91723],[-72.18739,7.91323],[-72.18711,7.90075],[-72.19197,7.89441],[-72.19509,7.8802],[-72.20191,7.87846],[-72.20212,7.87449]]]}},{"type":"Feature","id":"relation/3326501","properties":{"name":"Municipio C\u00e1rdenas","level":6,"population":"122053"},"geometry":{"type":"Polygon","coordinates":[[[-72.16225,7.84902],[-72.16824,7.8551],[-72.18005,7.85248],[-72.17924,7.85026],[-72.18568,7.8483],[-72.19233,7.84964],[-72.19144,7.85434],[-72.20277,7.87238],[-72.20277,7.86352],[-72.1999,7.86266],[-72.19745,7.85536],[-72.19963,7.85553],[-72.19886,7.84572],[-72.20273,7.84355],[-72.2015,7.84797],[-72.20615,7.84487],[-72.21161,7.84493],[-72.21242,7.84134],[-72.21589,7.84068],[-72.21524,7.83583],[-72.22357,7.83088],[-72.22354,7.82631],[-72.22604,7.82549],[-72.22435,7.82454],[-72.23546,7.82429],[-72.24284,7.82015],[-72.2514,7.82056],[-72.25813,7.81537],[-72.26032,7.81867],[-72.25666,7.82799],[-72.2592,7.83183],[-72.27721,7.82789],[-72.27765,7.81836],[-72.2748,7.81519],[-72.27134,7.81761],[-72.26716,7.81426],[-72.26348,7.80352],[-72.25249,7.79548],[-72.24805,7.78511],[-72.24123,7.78095],[-72.24138,7.77822],[-72.23719,7.78728],[-72.23274,7.80916],[-72.22961,7.81235],[-72.21963,7.80741],[-72.21055,7.80849],[-72.18449,7.80575],[-72.1761,7.8079],[-72.16503,7.79814],[-72.15924,7.79601],[-72.15657,7.79093],[-72.14476,7.78931],[-72.14,7.78444],[-72.13705,7.77443],[-72.12561,7.76268],[-72.12228,7.75509],[-72.11439,7.75307],[-72.10811,7.74506],[-72.0957,7.74407],[-72.09123,7.73885],[-72.08609,7.73982],[-72.07975,7.73663],[-72.07846,7.73404],[-72.08345,7.72803],[-72.08307,7.7228],[-72.07532,7.70781],[-72.07408,7.69443],[-72.05199,7.69892],[-72.04064,7.71709],[-72.02591,7.73008],[-72.00924,7.73237],[-72.00165,7.72581],[-71.98422,7.74498],[-71.98276,7.75508],[-71.97637,7.76084],[-71.9753,7.76923],[-71.96842,7.77373],[-71.97762,7.78725],[-71.98152,7.78604],[-71.98467,7.79212],[-71.99451,7.79291],[-71.99701,7.79578],[-72.0063,7.79547],[-72.01411,7.80024],[-72.0142,7.81177],[-72.0274,7.81452],[-72.03607,7.82979],[-72.03523,7.83613],[-72.03915,7.8367],[-72.03942,7.84267],[-72.06493,7.83504],[-72.07047,7.83793],[-72.07327,7.83026],[-72.077,7.83067],[-72.0866,7.83554],[-72.09483,7.84955],[-72.11314,7.85552],[-72.11485,7.86111],[-72.12193,7.86336],[-72.12473,7.85918],[-72.12456,7.85123],[-72.11695,7.84412],[-72.11913,7.84156],[-72.12029,7.82925],[-72.12753,7.82543],[-72.13942,7.83293],[-72.14965,7.84647],[-72.15258,7.8458],[-72.15923,7.85129],[-72.16225,7.84902]]]}},{"type":"Feature","id":"relation/3326502","properties":{"name":"Municipio Miranda","level":6,"population":"4127"},"geometry":{"type":"Polygon","coordinates":[[[-71.9876,7.87776],[-71.99349,7.87096],[-71.98355,7.86689],[-71.96928,7.86938],[-71.9641,7.86605],[-71.95544,7.87205],[-71.94123,7.86565],[-71.9316,7.86717],[-71.93121,7.86998],[-71.91602,7.86268],[-71.91197,7.86366],[-71.90996,7.85803],[-71.90577,7.85702],[-71.9061,7.85357],[-71.90122,7.84989],[-71.89934,7.85103],[-71.89158,7.84494],[-71.85906,7.83361],[-71.854,7.82658],[-71.8459,7.82651],[-71.84333,7.82202],[-71.83634,7.81931],[-71.83405,7.82281],[-71.8268,7.82142],[-71.82449,7.82392],[-71.82063,7.82341],[-71.8225,7.83276],[-71.81883,7.83906],[-71.81412,7.83972],[-71.8119,7.85262],[-71.80331,7.86206],[-71.80235,7.86632],[-71.79886,7.86258],[-71.79579,7.8631],[-71.79669,7.87204],[-71.77787,7.89235],[-71.77937,7.8957],[-71.78905,7.90042],[-71.78987,7.90372],[-71.79398,7.9033],[-71.79445,7.91022],[-71.79741,7.91326],[-71.81102,7.9123],[-71.81293,7.92095],[-71.82005,7.92608],[-71.82104,7.93081],[-71.83069,7.93143],[-71.83959,7.93552],[-71.84978,7.93522],[-71.85648,7.92975],[-71.85953,7.93055],[-71.86289,7.93701],[-71.87189,7.93489],[-71.87674,7.94151],[-71.88601,7.94732],[-71.89763,7.94314],[-71.90085,7.94444],[-71.90515,7.95114],[-71.90416,7.96133],[-71.91475,7.97022],[-71.91611,7.98311],[-71.92113,7.98708],[-71.92212,7.99138],[-71.91778,7.99624],[-71.91956,8.00614],[-71.92643,8.01461],[-71.92377,8.02756],[-71.92994,8.03312],[-71.94089,8.03],[-71.95855,8.03222],[-71.96516,8.02836],[-71.96851,8.01954],[-71.97992,8.01382],[-71.9887,8.00464],[-71.98334,7.99568],[-71.98663,7.99417],[-71.98771,7.98982],[-71.97822,7.97978],[-71.97805,7.9754],[-71.96603,7.97782],[-71.96528,7.97363],[-71.95771,7.96648],[-71.96364,7.9577],[-71.9621,7.948],[-71.96513,7.94171],[-71.96402,7.93746],[-71.96949,7.9296],[-71.96845,7.92092],[-71.97782,7.91141],[-71.97828,7.90347],[-71.97582,7.8985],[-71.98496,7.88941],[-71.98673,7.88393],[-71.98364,7.88299],[-71.9876,7.87776]]]}},{"type":"Feature","id":"relation/3326533","properties":{"name":"Municipio Gu\u00e1simos","level":6,"population":"43236"},"geometry":{"type":"Polygon","coordinates":[[[-72.19905,7.88225],[-72.2098,7.88292],[-72.22072,7.88017],[-72.22433,7.87576],[-72.24134,7.86819],[-72.25381,7.87409],[-72.25873,7.87402],[-72.2613,7.86248],[-72.25989,7.85908],[-72.26587,7.84603],[-72.26644,7.83593],[-72.27721,7.82789],[-72.2592,7.83183],[-72.25668,7.8271],[-72.26033,7.81794],[-72.25759,7.81528],[-72.2514,7.82056],[-72.24284,7.82015],[-72.23546,7.82429],[-72.22435,7.82454],[-72.22604,7.82549],[-72.22354,7.82631],[-72.22357,7.83088],[-72.21524,7.83583],[-72.21589,7.84068],[-72.21242,7.84134],[-72.21161,7.84493],[-72.20615,7.84487],[-72.2015,7.84797],[-72.20273,7.84355],[-72.19886,7.84572],[-72.19968,7.85518],[-72.1975,7.85559],[-72.20418,7.86977],[-72.20183,7.8725],[-72.20287,7.87762],[-72.19509,7.8802],[-72.19472,7.88363],[-72.19905,7.88225]]]}}]}