{"type":"FeatureCollection","features":[{"type":"Feature","id":"relation/272745","properties":{"name":"Carabobo","level":4},"geometry":{"type":"Polygon","coordinates":[[[-67.62896,10.01739],[-67.63757,10.0134],[-67.64383,10.01334],[-67.6466,10.01914],[-67.66227,10.0252],[-67.67137,10.03154],[-67.6729,10.03022],[-67.66873,10.02479],[-67.67517,10.02675],[-67.67948,10.02534],[-67.68298,10.01939],[-67.69036,10.02301],[-67.69677,10.02163],[-67.69047,10.03061],[-67.68497,10.03409],[-67.68017,10.04388],[-67.68026,10.04586],[-67.68436,10.04502],[-67.68657,10.04765],[-67.68758,10.05742],[-67.69152,10.05921],[-67.69062,10.06593],[-67.68693,10.0684],[-67.67993,10.06778],[-67.67758,10.07662],[-67.66538,10.08441],[-67.66428,10.16004],[-67.67395,10.25721],[-67.66676,10.26243],[-67.66142,10.27946],[-67.65216,10.28133],[-67.65087,10.29587],[-67.65291,10.30477],[-67.66233,10.31406],[-67.67156,10.33362],[-67.68205,10.34158],[-67.69446,10.34275],[-67.70193,10.34008],[-67.70876,10.33374],[-67.714,10.33284],[-67.726,10.3399],[-67.74179,10.3437],[-67.74913,10.34834],[-67.75447,10.35008],[-67.75832,10.34607],[-67.7667,10.35062],[-67.78022,10.34416],[-67.78431,10.33784],[-67.79081,10.33713],[-67.79658,10.32807],[-67.80704,10.32873],[-67.83678,10.3409],[-67.83914,10.34823],[-67.85544,10.35776],[-67.86642,10.36781],[-67.88161,10.37258],[-67.87682,10.39348],[-67.87939,10.41649],[-67.8766,10.43821],[-67.87874,10.44511],[-67.87523,10.44967],[-67.87269,10.46054],[-67.86955,10.46453],[-67.86288,10.46627],[-67.86059,10.47636],[-67.85681,10.4785],[-67.85681,10.53856],[-67.90569,10.53495],[-67.95207,10.56381],[-67.96663,10.56774],[-67.98118,10.56817],[-68.00277,10.57442],[-68.01662,10.57419],[-68.02996,10.5709],[-68.04218,10.56465],[-68.05262,10.55577],[-68.07345,10.55689],[-68.08623,10.56373],[-68.1009,10.56735],[-68.11586,10.56727],[-68.13098,10.56328],[-68.15005,10.56727],[-68.19162,10.61711],[-68.23956,10.58266],[-68.24369,10.58307],[-68.25114,10.57795],[-68.25714,10.57754],[-68.25857,10.57541],[-68.25564,10.57363],[-68.25645,10.57091],[-68.26123,10.56894],[-68.26536,10.56215],[-68.27423,10.55599],[-68.29994,10.54523],[-68.30378,10.5409],[-68.31453,10.53814],[-68.33139,10.54921],[-68.35425,10.5517],[-68.37305,10.53955],[-68.37597,10.53291],[-68.38279,10.52946],[-68.38811,10.5013],[-68.39127,10.49685],[-68.39801,10.49492],[-68.40229,10.49051],[-68.4023,10.48673],[-68.39461,10.48536],[-68.39473,10.48059],[-68.40226,10.47779],[-68.40465,10.46937],[-68.40308,10.46349],[-68.39488,10.45491],[-68.3977,10.44977],[-68.39722,10.44496],[-68.40149,10.43961],[-68.39919,10.43275],[-68.40164,10.42386],[-68.40043,10.40898],[-68.39607,10.40275],[-68.39713,10.39329],[-68.40157,10.38581],[-68.39833,10.37895],[-68.3998,10.36727],[-68.39749,10.35476],[-68.39132,10.34708],[-68.39391,10.3443],[-68.39299,10.34122],[-68.38966,10.34136],[-68.38827,10.33873],[-68.39206,10.33389],[-68.3894,10.33189],[-68.39071,10.32947],[-68.38825,10.3287],[-68.38018,10.3128],[-68.37301,10.30719],[-68.37319,10.29619],[-68.36979,10.2814],[-68.36222,10.2758],[-68.35976,10.26731],[-68.3548,10.26306],[-68.36186,10.25759],[-68.36384,10.24647],[-68.37037,10.23463],[-68.37995,10.22483],[-68.40988,10.21806],[-68.41099,10.21456],[-68.40713,10.20985],[-68.40732,10.20586],[-68.41039,10.20286],[-68.4094,10.19881],[-68.42865,10.17843],[-68.42521,10.16209],[-68.41443,10.15261],[-68.41357,10.13918],[-68.39755,10.12294],[-68.39902,10.10159],[-68.40201,10.10102],[-68.40087,10.09189],[-68.4051,10.08944],[-68.40803,10.08369],[-68.40653,10.07832],[-68.40187,10.07574],[-68.40444,10.07084],[-68.40175,10.06709],[-68.40346,10.0645],[-68.40059,10.06438],[-68.39977,10.05997],[-68.39171,10.06177],[-68.39077,10.05795],[-68.38472,10.0536],[-68.38356,10.05552],[-68.38166,10.0499],[-68.37757,10.0486],[-68.37847,10.04339],[-68.38279,10.04249],[-68.38336,10.03675],[-68.38674,10.03222],[-68.38454,10.0281],[-68.38782,10.0266],[-68.38665,10.02372],[-68.38908,10.01609],[-68.38574,10.01489],[-68.38689,10.01219],[-68.38152,9.99961],[-68.37306,9.99363],[-68.37184,9.99021],[-68.369,9.99029],[-68.36708,9.99451],[-68.36118,9.98934],[-68.35885,9.99168],[-68.35608,9.99059],[-68.35617,9.99348],[-68.35373,9.99182],[-68.3535,9.99448],[-68.35211,9.99294],[-68.34914,9.99447],[-68.34722,9.9992],[-68.34094,9.99988],[-68.343,10.00452],[-68.33777,10.00525],[-68.33604,10.00827],[-68.33815,10.01188],[-68.33571,10.01136],[-68.33507,10.01366],[-68.33805,10.01864],[-68.33702,10.02156],[-68.34102,10.02442],[-68.3407,10.02766],[-68.33341,10.03234],[-68.32224,10.03432],[-68.31316,10.04982],[-68.30135,10.05898],[-68.29166,10.06298],[-68.29283,10.06935],[-68.28877,10.07229],[-68.28405,10.07195],[-68.27506,10.06363],[-68.27229,10.06518],[-68.26385,10.06363],[-68.26117,10.06663],[-68.25047,10.06869],[-68.24769,10.07453],[-68.23488,10.08557],[-68.22985,10.08031],[-68.22039,10.08103],[-68.21941,10.07783],[-68.21239,10.07383],[-68.21113,10.06799],[-68.2066,10.06552],[-68.20665,10.06157],[-68.20145,10.05886],[-68.20364,10.05931],[-68.21116,10.05194],[-68.21446,10.05249],[-68.21334,10.04971],[-68.21937,10.04796],[-68.21869,10.04485],[-68.22401,10.04506],[-68.22384,10.04155],[-68.22691,10.04149],[-68.22713,10.03776],[-68.23103,10.03897],[-68.23027,10.03424],[-68.2362,10.03258],[-68.23633,10.02995],[-68.23835,10.03002],[-68.23611,10.02879],[-68.23963,10.02799],[-68.23888,10.02622],[-68.24536,10.0252],[-68.24464,10.0206],[-68.24755,10.01784],[-68.2503,10.01003],[-68.24852,10.0084],[-68.25089,10.00662],[-68.24784,10.0014],[-68.25248,10.00147],[-68.24955,9.99945],[-68.2521,9.99513],[-68.25006,9.99327],[-68.24893,9.9808],[-68.23905,9.96999],[-68.24064,9.96642],[-68.23801,9.96517],[-68.23038,9.96392],[-68.22549,9.96591],[-68.22244,9.96296],[-68.22288,9.96876],[-68.21643,9.96448],[-68.21429,9.96528],[-68.214,9.96057],[-68.21722,9.95886],[-68.21229,9.9583],[-68.21,9.95175],[-68.20643,9.95341],[-68.20629,9.95031],[-68.20972,9.94784],[-68.20496,9.93909],[-68.20118,9.94144],[-68.19674,9.93947],[-68.18941,9.94422],[-68.18417,9.9443],[-68.18095,9.94012],[-68.17336,9.94066],[-68.16936,9.93771],[-68.17142,9.93154],[-68.16692,9.92267],[-68.14513,9.91838],[-68.13676,9.88828],[-68.12763,9.87409],[-68.12629,9.86519],[-68.12793,9.86176],[-68.12373,9.86047],[-68.12651,9.84932],[-68.12145,9.84738],[-68.11818,9.8365],[-68.10071,9.83779],[-68.08646,9.84161],[-68.08251,9.84504],[-68.08269,9.8504],[-68.07853,9.85487],[-68.06677,9.86127],[-68.05912,9.85907],[-68.05083,9.86239],[-68.03959,9.86042],[-68.02218,9.86641],[-68.01641,9.87082],[-68.01202,9.8704],[-68.00796,9.87349],[-68.00427,9.8817],[-68.0065,9.87048],[-68.01505,9.86258],[-68.01415,9.84772],[-68.00827,9.84064],[-68.00543,9.83118],[-67.9914,9.82811],[-67.98293,9.83048],[-67.97582,9.82664],[-67.96817,9.82957],[-67.95507,9.83033],[-67.94516,9.8224],[-67.93186,9.81901],[-67.9252,9.8128],[-67.91728,9.81148],[-67.91057,9.81337],[-67.90584,9.81907],[-67.89255,9.8232],[-67.8813,9.83319],[-67.86633,9.83495],[-67.86252,9.83844],[-67.85615,9.83594],[-67.83323,9.83549],[-67.82823,9.84007],[-67.81745,9.84098],[-67.80871,9.84773],[-67.80502,9.84802],[-67.80599,9.8573],[-67.81543,9.87301],[-67.8129,9.87966],[-67.81446,9.89028],[-67.80897,9.90128],[-67.81241,9.91276],[-67.80398,9.92996],[-67.79623,9.9226],[-67.78247,9.924],[-67.77465,9.91724],[-67.76756,9.91643],[-67.76428,9.90585],[-67.75211,9.90482],[-67.74502,9.89482],[-67.73676,9.89465],[-67.73189,9.88062],[-67.71249,9.8739],[-67.71152,9.8562],[-67.7029,9.85048],[-67.71092,9.84241],[-67.71077,9.83566],[-67.69809,9.83008],[-67.69064,9.82187],[-67.67963,9.82531],[-67.67886,9.82921],[-67.66703,9.84185],[-67.66584,9.84592],[-67.65848,9.84872],[-67.64558,9.84531],[-67.64469,9.85012],[-67.63383,9.85599],[-67.63135,9.86193],[-67.62365,9.86014],[-67.61129,9.84948],[-67.60379,9.84927],[-67.60037,9.84517],[-67.59234,9.84543],[-67.59049,9.84776],[-67.59104,9.85572],[-67.5848,9.86681],[-67.58669,9.87635],[-67.57381,9.89037],[-67.57781,9.89825],[-67.56567,9.90523],[-67.55576,9.89607],[-67.54855,9.89437],[-67.55038,9.8897],[-67.54604,9.88521],[-67.54014,9.88307],[-67.52361,9.88393],[-67.51746,9.87739],[-67.54491,9.99778],[-67.5507,9.99555],[-67.55514,9.99763],[-67.56429,9.99395],[-67.57614,9.9988],[-67.58494,9.99589],[-67.60871,9.99513],[-67.61804,9.99895],[-67.61508,10.00826],[-67.62896,10.01739]]]}}]}