{"type":"FeatureCollection","features":[{"type":"Feature","id":"relation/2689581","properties":{"name":"Municipio Puerto Cabello","level":6,"population":"182493"},"geometry":{"type":"MultiPolygon","coordinates":[[[[-68.09928,10.51026],[-68.1033,10.51625],[-68.10977,10.51739],[-68.11547,10.51359],[-68.11663,10.50718],[-68.11285,10.5007],[-68.10606,10.49946],[-68.10017,10.50351],[-68.09928,10.51026]]],[[[-67.99968,10.51584],[-68.00199,10.52167],[-68.00828,10.52444],[-68.01472,10.52229],[-68.01752,10.51607],[-68.014,10.50859],[-68.00854,10.50616],[-68.00209,10.50856],[-67.99968,10.51584]]],[[[-67.86955,10.46453],[-67.86288,10.46627],[-67.86091,10.4693],[-67.86059,10.47636],[-67.85681,10.4785],[-67.85681,10.4869],[-67.87701,10.48602],[-67.8828,10.48274],[-67.89239,10.48191],[-67.89643,10.48467],[-67.90193,10.4846],[-67.92243,10.46644],[-67.92592,10.47767],[-67.93432,10.48046],[-67.93368,10.48895],[-67.93608,10.49445],[-67.94364,10.49984],[-67.96263,10.50552],[-67.96578,10.51344],[-67.97432,10.51809],[-67.9815,10.51649],[-67.98566,10.51028],[-67.98456,10.50349],[-67.97877,10.49762],[-67.98779,10.50437],[-67.99592,10.50528],[-68.00226,10.49863],[-68.01436,10.49715],[-68.01963,10.48349],[-68.02242,10.48319],[-68.02719,10.48514],[-68.02796,10.49288],[-68.03907,10.50322],[-68.04833,10.50009],[-68.05769,10.50561],[-68.07455,10.50647],[-68.08274,10.50192],[-68.09304,10.50192],[-68.10725,10.48961],[-68.11291,10.49262],[-68.11436,10.49897],[-68.12304,10.50664],[-68.13205,10.50731],[-68.13884,10.49922],[-68.13396,10.49235],[-68.14323,10.48431],[-68.14212,10.47311],[-68.14785,10.47171],[-68.15103,10.47343],[-68.14539,10.46355],[-68.14939,10.46137],[-68.14694,10.45884],[-68.15412,10.45806],[-68.15648,10.45461],[-68.15458,10.45263],[-68.15667,10.45019],[-68.15382,10.44795],[-68.15563,10.44346],[-68.15218,10.42707],[-68.15458,10.42619],[-68.1524,10.42501],[-68.16049,10.41788],[-68.15956,10.41456],[-68.16263,10.41034],[-68.15966,10.4093],[-68.16109,10.4074],[-68.15652,10.40242],[-68.15938,10.39787],[-68.15754,10.39583],[-68.15939,10.39186],[-68.15773,10.38075],[-68.16006,10.3705],[-68.15678,10.36506],[-68.16349,10.35238],[-68.17598,10.33748],[-68.17781,10.32665],[-68.16211,10.32085],[-68.15048,10.31944],[-68.13507,10.32662],[-68.12554,10.32295],[-68.11592,10.3278],[-68.1039,10.34343],[-68.10055,10.3404],[-68.09092,10.34075],[-68.08063,10.33553],[-68.07981,10.32975],[-68.07143,10.3224],[-68.06773,10.32512],[-68.0531,10.32489],[-68.04882,10.33513],[-68.04036,10.332],[-68.03667,10.32799],[-68.03025,10.3287],[-68.01127,10.3345],[-68.00651,10.34112],[-67.99581,10.33114],[-67.99254,10.33091],[-67.98775,10.33563],[-67.97615,10.33805],[-67.9676,10.33445],[-67.95986,10.33843],[-67.94919,10.33486],[-67.94499,10.33961],[-67.94459,10.34725],[-67.93834,10.36161],[-67.90851,10.36294],[-67.90193,10.36734],[-67.88161,10.37258],[-67.87682,10.39348],[-67.87939,10.41649],[-67.8766,10.43821],[-67.87874,10.44511],[-67.86955,10.46453]]]]}},{"type":"Feature","id":"relation/9997544","properties":{"name":"Municipio Mora","level":6,"population":"69236"},"geometry":{"type":"Polygon","coordinates":[[[-68.24648,10.58064],[-68.25714,10.57754],[-68.25857,10.57541],[-68.25564,10.57363],[-68.25645,10.57091],[-68.26123,10.56894],[-68.26536,10.56215],[-68.27423,10.55599],[-68.29994,10.54523],[-68.3057,10.5401],[-68.31492,10.53823],[-68.33139,10.54921],[-68.35361,10.55179],[-68.37305,10.53955],[-68.37597,10.53291],[-68.38279,10.52946],[-68.38811,10.5013],[-68.39127,10.49685],[-68.39801,10.49492],[-68.40229,10.49051],[-68.4023,10.48673],[-68.39461,10.48536],[-68.3941,10.48234],[-68.40226,10.47779],[-68.40465,10.46937],[-68.40308,10.46349],[-68.39488,10.45491],[-68.3977,10.44977],[-68.39722,10.44496],[-68.40149,10.43961],[-68.39919,10.43275],[-68.40164,10.42386],[-68.40043,10.40898],[-68.39607,10.40275],[-68.39713,10.39329],[-68.40157,10.38581],[-68.39838,10.3792],[-68.39813,10.36983],[-68.37227,10.37756],[-68.35854,10.39677],[-68.35625,10.40461],[-68.33764,10.42314],[-68.33453,10.42136],[-68.33089,10.41226],[-68.31081,10.4092],[-68.30987,10.40125],[-68.29569,10.39225],[-68.28797,10.37183],[-68.27063,10.36459],[-68.26911,10.3591],[-68.26302,10.35486],[-68.25686,10.35741],[-68.24298,10.33609],[-68.23677,10.33118],[-68.23335,10.31939],[-68.22162,10.31512],[-68.22166,10.31222],[-68.2168,10.31021],[-68.21479,10.3027],[-68.20556,10.29647],[-68.17673,10.32486],[-68.17799,10.33047],[-68.17598,10.33748],[-68.16349,10.35238],[-68.15678,10.36506],[-68.16006,10.3705],[-68.15773,10.38075],[-68.15939,10.39186],[-68.15754,10.39583],[-68.15938,10.39787],[-68.15652,10.40242],[-68.16109,10.4074],[-68.15966,10.4093],[-68.16263,10.41034],[-68.15956,10.41456],[-68.16049,10.41788],[-68.1524,10.42501],[-68.15458,10.42619],[-68.15218,10.42707],[-68.15563,10.44346],[-68.15382,10.44795],[-68.15667,10.45019],[-68.15458,10.45263],[-68.15648,10.45461],[-68.15412,10.45806],[-68.14694,10.45884],[-68.14939,10.46137],[-68.14539,10.46355],[-68.15103,10.47343],[-68.14785,10.47171],[-68.14229,10.47291],[-68.14323,10.48431],[-68.13396,10.49235],[-68.14439,10.50665],[-68.1477,10.51555],[-68.15588,10.51644],[-68.16307,10.50912],[-68.16823,10.51639],[-68.17694,10.52186],[-68.2327,10.58759],[-68.24648,10.58064]]]}},{"type":"Feature","id":"relation/10833239","properties":{"name":"Municipio Valencia","level":6,"population":"829856"},"geometry":{"type":"Polygon","coordinates":[[[-67.92464,10.12063],[-67.92056,10.12321],[-67.92047,10.13122],[-67.91608,10.13869],[-67.92294,10.14522],[-67.93073,10.16668],[-67.94119,10.17073],[-67.94999,10.18204],[-67.9507,10.18712],[-67.98627,10.18037],[-67.98446,10.18668],[-67.98865,10.19982],[-67.98043,10.20957],[-67.98336,10.23372],[-68.00144,10.23398],[-68.00406,10.22461],[-68.01176,10.2304],[-68.12218,10.23188],[-68.12438,10.22999],[-68.12625,10.22408],[-68.12413,10.21516],[-68.11723,10.20834],[-68.11592,10.19864],[-68.10858,10.19129],[-68.10184,10.17099],[-68.08784,10.16937],[-68.07648,10.17605],[-68.06994,10.17594],[-68.06344,10.17177],[-68.06662,10.16523],[-68.06747,10.14596],[-68.05743,10.11736],[-68.06176,10.10935],[-68.07179,10.10328],[-68.07065,10.09954],[-68.07379,10.09878],[-68.07709,10.08965],[-68.07054,10.07581],[-68.05929,10.06326],[-68.05072,10.05834],[-68.05246,10.04988],[-68.05591,10.04912],[-68.05741,10.04518],[-68.05375,10.03318],[-68.05678,10.03039],[-68.05676,10.02342],[-68.05134,10.01527],[-68.05383,10.00824],[-68.05188,9.99803],[-68.04043,9.98181],[-68.01804,9.97905],[-68.01138,9.95315],[-68.00703,9.94758],[-68.00722,9.94361],[-68.02359,9.94247],[-68.03245,9.93862],[-68.04208,9.93038],[-68.04715,9.91457],[-68.05545,9.91327],[-68.05506,9.90917],[-68.06478,9.90509],[-68.07171,9.89641],[-68.07889,9.89428],[-68.08572,9.89611],[-68.10343,9.88739],[-68.12073,9.89054],[-68.12621,9.88904],[-68.12627,9.88548],[-68.13353,9.88415],[-68.12763,9.87409],[-68.12629,9.86519],[-68.12793,9.86176],[-68.12373,9.86047],[-68.12651,9.84932],[-68.12145,9.84738],[-68.11818,9.8365],[-68.10071,9.83779],[-68.08646,9.84161],[-68.08251,9.84504],[-68.08269,9.8504],[-68.07853,9.85487],[-68.06677,9.86127],[-68.05912,9.85907],[-68.05083,9.86239],[-68.03959,9.86042],[-68.02218,9.86641],[-68.01641,9.87082],[-68.01202,9.8704],[-68.00796,9.87349],[-68.00427,9.8817],[-68.0065,9.87048],[-68.01505,9.86258],[-68.01415,9.84772],[-68.00827,9.84064],[-68.00543,9.83118],[-67.9914,9.82811],[-67.98293,9.83048],[-67.97582,9.82664],[-67.96817,9.82957],[-67.95507,9.83033],[-67.94516,9.8224],[-67.93186,9.81901],[-67.9252,9.8128],[-67.91728,9.81148],[-67.91057,9.81337],[-67.90584,9.81907],[-67.89255,9.8232],[-67.87737,9.83443],[-67.86633,9.83495],[-67.86252,9.83844],[-67.85615,9.83594],[-67.83323,9.83549],[-67.82823,9.84007],[-67.81745,9.84098],[-67.80871,9.84773],[-67.80502,9.84802],[-67.80599,9.8573],[-67.81543,9.87301],[-67.8129,9.87966],[-67.81446,9.89028],[-67.80897,9.90128],[-67.81241,9.91276],[-67.80398,9.92996],[-67.8066,9.93713],[-67.8177,9.93938],[-67.82188,9.9432],[-67.84777,9.94604],[-67.85003,9.95041],[-67.86163,9.95237],[-67.86358,9.97799],[-67.87186,9.97841],[-67.87942,9.98255],[-67.88786,9.97413],[-67.89815,9.97063],[-67.90247,9.96598],[-67.90528,9.96718],[-67.91624,9.98036],[-67.91836,9.99198],[-67.92833,9.99946],[-67.93041,10.00636],[-67.94409,10.01756],[-67.95171,10.01928],[-67.95441,10.02259],[-67.9561,10.03227],[-67.9793,10.06278],[-67.97856,10.06623],[-67.98185,10.06952],[-67.97844,10.07971],[-67.97788,10.09556],[-67.96919,10.09582],[-67.96159,10.09944],[-67.93993,10.09699],[-67.93215,10.10067],[-67.92461,10.09767],[-67.92464,10.12063]]]}},{"type":"Feature","id":"relation/10833240","properties":{"name":"Municipio Libertador","level":6,"population":"166166"},"geometry":{"type":"Polygon","coordinates":[[[-68.20217,10.05838],[-68.20364,10.05931],[-68.21116,10.05194],[-68.21446,10.05249],[-68.21334,10.04971],[-68.21937,10.04796],[-68.21869,10.04485],[-68.22401,10.04506],[-68.22384,10.04155],[-68.22691,10.04149],[-68.22713,10.03776],[-68.23103,10.03897],[-68.23027,10.03424],[-68.2362,10.03258],[-68.23633,10.02995],[-68.23835,10.03002],[-68.23611,10.02879],[-68.23963,10.02799],[-68.23888,10.02622],[-68.24536,10.0252],[-68.24464,10.0206],[-68.24755,10.01784],[-68.2503,10.01003],[-68.24852,10.0084],[-68.25089,10.00662],[-68.24784,10.0014],[-68.25248,10.00147],[-68.24955,9.99945],[-68.2521,9.99513],[-68.25006,9.99327],[-68.24893,9.9808],[-68.23905,9.96999],[-68.24064,9.96642],[-68.23801,9.96517],[-68.23038,9.96392],[-68.22549,9.96591],[-68.22244,9.96296],[-68.22288,9.96876],[-68.21643,9.96448],[-68.21429,9.96528],[-68.214,9.96057],[-68.21722,9.95886],[-68.21229,9.9583],[-68.21,9.95175],[-68.20643,9.95341],[-68.20629,9.95031],[-68.20972,9.94784],[-68.20496,9.93909],[-68.20118,9.94144],[-68.19674,9.93947],[-68.18941,9.94422],[-68.18417,9.9443],[-68.18095,9.94012],[-68.17336,9.94066],[-68.16936,9.93771],[-68.17142,9.93154],[-68.16692,9.92267],[-68.14513,9.91838],[-68.13676,9.88828],[-68.13353,9.88415],[-68.12627,9.88548],[-68.12621,9.88904],[-68.12073,9.89054],[-68.10343,9.88739],[-68.08572,9.89611],[-68.07889,9.89428],[-68.07171,9.89641],[-68.06478,9.90509],[-68.05506,9.90917],[-68.05545,9.91327],[-68.04715,9.91457],[-68.04208,9.93038],[-68.03241,9.93865],[-68.02106,9.94297],[-68.00722,9.94361],[-68.01804,9.97905],[-68.04043,9.98181],[-68.05188,9.99803],[-68.05383,10.00824],[-68.05134,10.01527],[-68.05676,10.02342],[-68.05678,10.03039],[-68.05375,10.03318],[-68.05741,10.04518],[-68.05591,10.04912],[-68.05246,10.04988],[-68.05072,10.05834],[-68.05929,10.06326],[-68.07054,10.07581],[-68.07709,10.08965],[-68.07379,10.09878],[-68.07065,10.09954],[-68.07179,10.10328],[-68.06176,10.10935],[-68.05743,10.11736],[-68.06747,10.14596],[-68.06662,10.16523],[-68.06344,10.17177],[-68.06994,10.17594],[-68.07648,10.17605],[-68.08784,10.16937],[-68.10184,10.17099],[-68.10858,10.19129],[-68.1161,10.19893],[-68.11614,10.20579],[-68.12413,10.21516],[-68.12625,10.22408],[-68.11767,10.24113],[-68.12067,10.2438],[-68.12028,10.24718],[-68.13247,10.25653],[-68.14293,10.25769],[-68.14029,10.25003],[-68.14142,10.24367],[-68.14708,10.22759],[-68.15119,10.22472],[-68.15004,10.21469],[-68.15403,10.20703],[-68.15408,10.19987],[-68.14728,10.17822],[-68.15379,10.16174],[-68.16839,10.14727],[-68.17432,10.13162],[-68.18004,10.12807],[-68.18259,10.12136],[-68.203,10.10845],[-68.20924,10.09989],[-68.20982,10.09459],[-68.2054,10.08646],[-68.20669,10.08426],[-68.20289,10.07957],[-68.20497,10.07722],[-68.19732,10.06538],[-68.20079,10.06121],[-68.20008,10.05767],[-68.20217,10.05838]]]}},{"type":"Feature","id":"relation/10833244","properties":{"name":"Municipio Los Guayos","level":6,"population":"149606"},"geometry":{"type":"Polygon","coordinates":[[[-67.87277,10.09965],[-67.85538,10.14603],[-67.88876,10.16242],[-67.89479,10.1755],[-67.89432,10.1854],[-67.8981,10.18534],[-67.90147,10.18885],[-67.90215,10.19544],[-67.90808,10.20312],[-67.91027,10.2139],[-67.93159,10.19636],[-67.9507,10.18712],[-67.94999,10.18204],[-67.94119,10.17073],[-67.93073,10.16668],[-67.92294,10.14522],[-67.91608,10.13869],[-67.92047,10.13122],[-67.92056,10.12321],[-67.92464,10.12063],[-67.92461,10.09767],[-67.91254,10.09645],[-67.9082,10.08984],[-67.90409,10.0892],[-67.87277,10.09965]]]}},{"type":"Feature","id":"relation/10833245","properties":{"name":"Municipio San Diego","level":6,"population":"93257"},"geometry":{"type":"Polygon","coordinates":[[[-67.93898,10.19284],[-67.9309,10.19686],[-67.90858,10.21562],[-67.90999,10.22095],[-67.91989,10.23259],[-67.92264,10.23135],[-67.92494,10.23609],[-67.92909,10.2366],[-67.93188,10.24834],[-67.92728,10.25533],[-67.93147,10.26224],[-67.93123,10.27343],[-67.92564,10.28491],[-67.92558,10.29349],[-67.92208,10.29657],[-67.91363,10.31441],[-67.91228,10.32452],[-67.92025,10.33312],[-67.92851,10.36113],[-67.93769,10.36179],[-67.94459,10.34725],[-67.94608,10.33713],[-67.95126,10.33473],[-67.95947,10.33839],[-67.96348,10.33775],[-67.97403,10.32646],[-67.97606,10.31839],[-67.97168,10.30472],[-67.97391,10.29721],[-67.983,10.29363],[-67.99172,10.28231],[-67.99372,10.26492],[-67.99054,10.25843],[-67.9841,10.25774],[-67.98159,10.24418],[-67.98412,10.22823],[-67.98126,10.22241],[-67.98043,10.20957],[-67.98865,10.19982],[-67.98446,10.18668],[-67.98627,10.18037],[-67.9513,10.18696],[-67.93898,10.19284]]]}},{"type":"Feature","id":"relation/10833246","properties":{"name":"Municipio Guacara","level":6,"population":"176218"},"geometry":{"type":"Polygon","coordinates":[[[-67.83647,10.22822],[-67.84712,10.24388],[-67.8525,10.26916],[-67.85646,10.27478],[-67.85259,10.28204],[-67.8484,10.30627],[-67.83504,10.31918],[-67.83746,10.32621],[-67.83567,10.33001],[-67.83853,10.34753],[-67.85544,10.35776],[-67.86722,10.36836],[-67.88161,10.37258],[-67.90193,10.36734],[-67.90851,10.36294],[-67.92764,10.36175],[-67.92025,10.33312],[-67.91227,10.32444],[-67.91363,10.31441],[-67.92208,10.29657],[-67.92558,10.29349],[-67.92564,10.28491],[-67.93123,10.27343],[-67.93147,10.26224],[-67.92728,10.25533],[-67.93181,10.2489],[-67.93057,10.24064],[-67.92852,10.23599],[-67.92494,10.23609],[-67.92257,10.23132],[-67.91989,10.23259],[-67.90999,10.22095],[-67.90812,10.20322],[-67.90223,10.19564],[-67.90136,10.18867],[-67.8981,10.18534],[-67.89432,10.1854],[-67.89479,10.1755],[-67.88876,10.16242],[-67.85538,10.14603],[-67.79946,10.16984],[-67.83647,10.22822]]]}},{"type":"Feature","id":"relation/10833247","properties":{"name":"Municipio San Joaqu\u00edn","level":6,"population":"64124"},"geometry":{"type":"Polygon","coordinates":[[[-67.73882,10.26741],[-67.74631,10.2827],[-67.74394,10.29801],[-67.74083,10.30301],[-67.7411,10.30871],[-67.74725,10.31984],[-67.74404,10.32245],[-67.7391,10.34319],[-67.75447,10.35008],[-67.75832,10.34607],[-67.76608,10.35052],[-67.77059,10.3498],[-67.78022,10.34416],[-67.78431,10.33784],[-67.79081,10.33713],[-67.79658,10.32807],[-67.81059,10.32958],[-67.82351,10.33694],[-67.83678,10.3409],[-67.83781,10.3354],[-67.83568,10.3292],[-67.83746,10.32621],[-67.83504,10.31918],[-67.8484,10.30627],[-67.85259,10.28204],[-67.85646,10.27478],[-67.8525,10.26916],[-67.84712,10.24388],[-67.83082,10.22137],[-67.79946,10.16984],[-67.72453,10.20175],[-67.73672,10.25001],[-67.73882,10.26741]]]}},{"type":"Feature","id":"relation/10833248","properties":{"name":"Municipio Diego Ibarra","level":6,"population":"104536"},"geometry":{"type":"Polygon","coordinates":[[[-67.65116,10.2857],[-67.65291,10.30477],[-67.66233,10.31406],[-67.67156,10.33362],[-67.68205,10.34158],[-67.69446,10.34275],[-67.70193,10.34008],[-67.70876,10.33374],[-67.714,10.33284],[-67.726,10.3399],[-67.73901,10.34371],[-67.74404,10.32245],[-67.74725,10.31984],[-67.7411,10.30871],[-67.74083,10.30301],[-67.74394,10.29801],[-67.74631,10.2827],[-67.73846,10.26623],[-67.73672,10.25001],[-67.72453,10.20175],[-67.66822,10.19776],[-67.67395,10.25721],[-67.6658,10.26414],[-67.66181,10.279],[-67.65216,10.28133],[-67.65116,10.2857]]]}},{"type":"Feature","id":"relation/10833249","properties":{"name":"Municipio Carlos Arvelo","level":6,"population":"150277"},"geometry":{"type":"Polygon","coordinates":[[[-67.61675,10.00278],[-67.61515,10.00836],[-67.62896,10.01739],[-67.63757,10.0134],[-67.64383,10.01334],[-67.6466,10.01914],[-67.66227,10.0252],[-67.67137,10.03154],[-67.6729,10.03022],[-67.66873,10.02479],[-67.67517,10.02675],[-67.67948,10.02534],[-67.68298,10.01939],[-67.69036,10.02301],[-67.6967,10.02136],[-67.69406,10.02676],[-67.68497,10.03409],[-67.68017,10.04388],[-67.68026,10.04586],[-67.68436,10.04502],[-67.68657,10.04765],[-67.68758,10.05742],[-67.69152,10.05921],[-67.69062,10.06593],[-67.68693,10.0684],[-67.67993,10.06778],[-67.67758,10.07662],[-67.66538,10.08441],[-67.66428,10.16004],[-67.66822,10.19776],[-67.72453,10.20175],[-67.85538,10.14603],[-67.87277,10.09965],[-67.87913,10.09599],[-67.8874,10.09554],[-67.89667,10.0904],[-67.90409,10.0892],[-67.9082,10.08984],[-67.91254,10.09645],[-67.92552,10.0977],[-67.93207,10.10067],[-67.94002,10.09698],[-67.96191,10.09941],[-67.96975,10.0957],[-67.97664,10.09661],[-67.97821,10.09433],[-67.97844,10.07971],[-67.98185,10.06952],[-67.97856,10.06623],[-67.9793,10.06278],[-67.9561,10.03227],[-67.95504,10.02373],[-67.95171,10.01928],[-67.93977,10.01454],[-67.93041,10.00636],[-67.92833,9.99946],[-67.91836,9.99198],[-67.91624,9.98036],[-67.91095,9.9717],[-67.90247,9.96598],[-67.89815,9.97063],[-67.88786,9.97413],[-67.87942,9.98255],[-67.87186,9.97841],[-67.86358,9.97799],[-67.86354,9.95892],[-67.86044,9.9516],[-67.85365,9.95203],[-67.84777,9.94604],[-67.82188,9.9432],[-67.8177,9.93938],[-67.80925,9.93851],[-67.8044,9.934],[-67.80185,9.92641],[-67.79623,9.9226],[-67.78247,9.924],[-67.77465,9.91724],[-67.76756,9.91643],[-67.76428,9.90585],[-67.75211,9.90482],[-67.74502,9.89482],[-67.73676,9.89465],[-67.73189,9.88062],[-67.71249,9.8739],[-67.71152,9.8562],[-67.7029,9.85048],[-67.71092,9.84241],[-67.71077,9.83566],[-67.69809,9.83008],[-67.69064,9.82187],[-67.67963,9.82531],[-67.67886,9.82921],[-67.66703,9.84185],[-67.66584,9.84592],[-67.65848,9.84872],[-67.64558,9.84531],[-67.64469,9.85012],[-67.63383,9.85599],[-67.63135,9.86193],[-67.62365,9.86014],[-67.61129,9.84948],[-67.60379,9.84927],[-67.60037,9.84517],[-67.59234,9.84543],[-67.59049,9.84776],[-67.59104,9.85572],[-67.5848,9.86681],[-67.58669,9.87635],[-67.57381,9.89037],[-67.57781,9.89825],[-67.56567,9.90523],[-67.55576,9.89607],[-67.54855,9.89437],[-67.55038,9.8897],[-67.54604,9.88521],[-67.54014,9.88307],[-67.52361,9.88393],[-67.51726,9.87786],[-67.54491,9.99778],[-67.5507,9.99555],[-67.55514,9.99763],[-67.56429,9.99395],[-67.57614,9.9988],[-67.58494,9.99589],[-67.60871,9.99513],[-67.61804,9.99895],[-67.61675,10.00278]]]}},{"type":"Feature","id":"relation/10833250","properties":{"name":"Municipio Naguanagua","level":6,"population":"157437"},"geometry":{"type":"Polygon","coordinates":[[[-67.99228,10.27171],[-67.99263,10.28056],[-67.99006,10.2847],[-67.983,10.29363],[-67.97391,10.29721],[-67.97214,10.30935],[-67.97606,10.31839],[-67.97403,10.32646],[-67.96825,10.33468],[-67.97088,10.33697],[-67.98595,10.33615],[-67.99254,10.33091],[-67.99581,10.33114],[-68.00651,10.34112],[-68.01127,10.3345],[-68.03667,10.32799],[-68.04036,10.332],[-68.04882,10.33513],[-68.0531,10.32489],[-68.06773,10.32512],[-68.07143,10.3224],[-68.07981,10.32975],[-68.08063,10.33553],[-68.09092,10.34075],[-68.10055,10.3404],[-68.1039,10.34343],[-68.10892,10.33455],[-68.12265,10.32376],[-68.12715,10.32298],[-68.13507,10.32662],[-68.1433,10.32434],[-68.14626,10.32025],[-68.15864,10.32029],[-68.15085,10.3069],[-68.15181,10.30304],[-68.14843,10.29681],[-68.14829,10.28214],[-68.14602,10.27574],[-68.14736,10.27242],[-68.14171,10.25993],[-68.14293,10.25769],[-68.13247,10.25653],[-68.12028,10.24718],[-68.12067,10.2438],[-68.11767,10.24113],[-68.12218,10.23188],[-68.01176,10.2304],[-68.00406,10.22461],[-68.00144,10.23398],[-67.98336,10.23372],[-67.98152,10.2432],[-67.98356,10.24674],[-67.98288,10.2546],[-67.9841,10.25774],[-67.99054,10.25843],[-67.9933,10.26306],[-67.99228,10.27171]]]}},{"type":"Feature","id":"relation/10833251","properties":{"name":"Municipio Bejuma","level":6,"population":"48538"},"geometry":{"type":"Polygon","coordinates":[[[-68.39132,10.34708],[-68.39391,10.3443],[-68.39299,10.34122],[-68.38966,10.34136],[-68.38826,10.33867],[-68.39206,10.33389],[-68.3894,10.33189],[-68.39071,10.32947],[-68.38825,10.3287],[-68.38018,10.3128],[-68.37301,10.30719],[-68.37319,10.29619],[-68.36979,10.2814],[-68.36222,10.2758],[-68.35976,10.26731],[-68.3548,10.26306],[-68.36245,10.25658],[-68.36373,10.2471],[-68.3528,10.25147],[-68.34368,10.25966],[-68.33482,10.2608],[-68.32956,10.27053],[-68.3046,10.26293],[-68.27809,10.26179],[-68.25844,10.26418],[-68.25194,10.26847],[-68.24267,10.26867],[-68.23673,10.266],[-68.23246,10.25316],[-68.24596,10.23801],[-68.25022,10.22636],[-68.26634,10.21564],[-68.26593,10.21124],[-68.27039,10.20786],[-68.2731,10.19956],[-68.27153,10.19413],[-68.27388,10.18648],[-68.27977,10.17795],[-68.27593,10.1702],[-68.27922,10.1647],[-68.28413,10.16079],[-68.28725,10.1635],[-68.2892,10.16122],[-68.29468,10.16106],[-68.29997,10.15278],[-68.30953,10.14868],[-68.30846,10.14537],[-68.30644,10.14568],[-68.30639,10.13822],[-68.30138,10.13408],[-68.30707,10.12652],[-68.30567,10.11829],[-68.30883,10.10736],[-68.32072,10.09747],[-68.32409,10.084],[-68.33153,10.07919],[-68.32441,10.06443],[-68.32688,10.05537],[-68.33309,10.04857],[-68.33173,10.04235],[-68.33729,10.03831],[-68.34106,10.02812],[-68.33341,10.03234],[-68.32224,10.03432],[-68.31316,10.04982],[-68.30135,10.05898],[-68.29166,10.06298],[-68.29283,10.06935],[-68.28877,10.07229],[-68.28405,10.07195],[-68.27506,10.06363],[-68.27229,10.06518],[-68.26385,10.06363],[-68.26117,10.06663],[-68.25047,10.06869],[-68.24769,10.07453],[-68.23488,10.08557],[-68.22985,10.08031],[-68.22039,10.08103],[-68.21941,10.07783],[-68.21239,10.07383],[-68.21113,10.06799],[-68.2066,10.06552],[-68.20665,10.06157],[-68.20024,10.05748],[-68.20079,10.06121],[-68.19732,10.06538],[-68.20497,10.07722],[-68.20289,10.07957],[-68.20669,10.08426],[-68.2054,10.08646],[-68.20982,10.09459],[-68.20924,10.09989],[-68.203,10.10845],[-68.19036,10.11495],[-68.18153,10.12265],[-68.18004,10.12807],[-68.17432,10.13162],[-68.16839,10.14727],[-68.15387,10.1616],[-68.14729,10.17814],[-68.15405,10.19967],[-68.15403,10.20703],[-68.15004,10.21469],[-68.15119,10.22472],[-68.14708,10.22759],[-68.14029,10.25003],[-68.14293,10.25769],[-68.14171,10.25993],[-68.14724,10.27177],[-68.14602,10.27574],[-68.14829,10.28214],[-68.14843,10.29681],[-68.15181,10.30304],[-68.15085,10.3069],[-68.15864,10.32029],[-68.17673,10.32486],[-68.18665,10.31702],[-68.19894,10.30127],[-68.20662,10.29634],[-68.21479,10.3027],[-68.2168,10.31021],[-68.22166,10.31222],[-68.22162,10.31512],[-68.23335,10.31939],[-68.23677,10.33118],[-68.24298,10.33609],[-68.25686,10.35741],[-68.26302,10.35486],[-68.26911,10.3591],[-68.27063,10.36459],[-68.28797,10.37183],[-68.29569,10.39225],[-68.30987,10.40125],[-68.31081,10.4092],[-68.33089,10.41226],[-68.33453,10.42136],[-68.33764,10.42314],[-68.35625,10.40461],[-68.35854,10.39677],[-68.3708,10.3786],[-68.39813,10.36983],[-68.3998,10.36727],[-68.39749,10.35476],[-68.39132,10.34708]]]}},{"type":"Feature","id":"relation/10833252","properties":{"name":"Municipio Montalb\u00e1n","level":6,"population":"24908"},"geometry":{"type":"Polygon","coordinates":[[[-68.27593,10.1702],[-68.27977,10.17795],[-68.27388,10.18648],[-68.27153,10.19413],[-68.2731,10.19956],[-68.27039,10.20786],[-68.26593,10.21124],[-68.26634,10.21564],[-68.25022,10.22636],[-68.24596,10.23801],[-68.2324,10.25242],[-68.23775,10.26752],[-68.24962,10.26874],[-68.25844,10.26418],[-68.294,10.26222],[-68.3046,10.26293],[-68.32956,10.27053],[-68.33482,10.2608],[-68.34368,10.25966],[-68.3528,10.25147],[-68.36373,10.2471],[-68.37037,10.23463],[-68.37942,10.22642],[-68.38002,10.21785],[-68.37436,10.20951],[-68.37511,10.19746],[-68.36553,10.17212],[-68.36126,10.17072],[-68.3562,10.16116],[-68.35237,10.16161],[-68.34997,10.15284],[-68.3351,10.15462],[-68.29931,10.16436],[-68.30136,10.15455],[-68.30406,10.15367],[-68.30219,10.15172],[-68.29468,10.16106],[-68.2892,10.16122],[-68.28791,10.16347],[-68.28419,10.16079],[-68.28118,10.16234],[-68.27593,10.1702]]]}},{"type":"Feature","id":"relation/10833253","properties":{"name":"Municipio Miranda","level":6,"population":"29092"},"geometry":{"type":"Polygon","coordinates":[[[-68.39983,10.10588],[-68.39905,10.10152],[-68.40201,10.10102],[-68.40087,10.09189],[-68.4051,10.08944],[-68.40803,10.08378],[-68.40653,10.07832],[-68.40187,10.07574],[-68.40444,10.07084],[-68.40175,10.06709],[-68.40346,10.0645],[-68.40059,10.06438],[-68.39971,10.05991],[-68.39171,10.06177],[-68.39077,10.05795],[-68.38472,10.0536],[-68.38356,10.05552],[-68.38166,10.0499],[-68.37756,10.04853],[-68.37847,10.04339],[-68.38279,10.04249],[-68.38336,10.03675],[-68.38674,10.03222],[-68.38454,10.0281],[-68.38782,10.0266],[-68.38905,10.01599],[-68.38574,10.01489],[-68.38689,10.01219],[-68.38152,9.99961],[-68.37306,9.99363],[-68.37184,9.99021],[-68.369,9.99029],[-68.36708,9.99451],[-68.36118,9.98934],[-68.35885,9.99168],[-68.35608,9.99059],[-68.35617,9.99348],[-68.35373,9.99182],[-68.3535,9.99448],[-68.35211,9.99294],[-68.34914,9.99447],[-68.34722,9.9992],[-68.34094,9.99988],[-68.343,10.00452],[-68.33783,10.00521],[-68.33606,10.00802],[-68.33817,10.01168],[-68.33571,10.01136],[-68.33507,10.01366],[-68.33805,10.01864],[-68.33699,10.0215],[-68.34102,10.02442],[-68.34118,10.02845],[-68.339,10.02978],[-68.33729,10.03831],[-68.33173,10.04235],[-68.33309,10.04857],[-68.32688,10.05537],[-68.32441,10.06443],[-68.32653,10.0659],[-68.32644,10.07203],[-68.33194,10.0778],[-68.33055,10.08149],[-68.32402,10.08412],[-68.32072,10.09747],[-68.30879,10.10746],[-68.30567,10.11829],[-68.30707,10.12652],[-68.30138,10.13408],[-68.30639,10.13822],[-68.30644,10.14568],[-68.30846,10.14537],[-68.30959,10.14847],[-68.30136,10.15455],[-68.29931,10.16436],[-68.3351,10.15462],[-68.34997,10.15284],[-68.35237,10.16161],[-68.3562,10.16116],[-68.36126,10.17072],[-68.36553,10.17212],[-68.37075,10.18975],[-68.37399,10.19329],[-68.37568,10.19983],[-68.37436,10.20951],[-68.38002,10.21785],[-68.37967,10.22454],[-68.38487,10.22523],[-68.39311,10.22078],[-68.40066,10.22142],[-68.40988,10.21806],[-68.41099,10.21456],[-68.40713,10.20985],[-68.40732,10.20586],[-68.41039,10.20286],[-68.4094,10.19881],[-68.42865,10.17843],[-68.42521,10.16209],[-68.41443,10.15261],[-68.41357,10.13918],[-68.39758,10.12302],[-68.39983,10.10588]]]}}]}