{"type":"FeatureCollection","features":[{"type":"Feature","id":"node/332581617","properties":{"name":"Mor\u00f3n","place":"city","population":"71327"},"geometry":{"type":"Point","coordinates":[-68.20272,10.48617]}},{"type":"Feature","id":"node/332585440","properties":{"name":"Puerto Cabello","place":"city","population":"208080"},"geometry":{"type":"Point","coordinates":[-68.04367,10.46779]}},{"type":"Feature","id":"node/332978047","properties":{"name":"Mariara","place":"city","population":"120861"},"geometry":{"type":"Point","coordinates":[-67.70893,10.2891]}},{"type":"Feature","id":"node/427733453","properties":{"name":"Yuma","place":"town"},"geometry":{"type":"Point","coordinates":[-67.70043,10.10508]}},{"type":"Feature","id":"node/427733456","properties":{"name":"El Copey","place":"village"},"geometry":{"type":"Point","coordinates":[-67.7462,10.08487]}},{"type":"Feature","id":"node/427733472","properties":{"name":"G\u00fcig\u00fce","place":"town","population":"162920"},"geometry":{"type":"Point","coordinates":[-67.77629,10.08424]}},{"type":"Feature","id":"node/1609709457","properties":{"name":"Chirgua","place":"town","population":"1000"},"geometry":{"type":"Point","coordinates":[-68.18182,10.20593]}},{"type":"Feature","id":"node/1618952245","properties":{"name":"Los Naranjos","place":"town"},"geometry":{"type":"Point","coordinates":[-67.90052,9.95648]}},{"type":"Feature","id":"node/1618952248","properties":{"name":"Manuare","place":"town"},"geometry":{"type":"Point","coordinates":[-67.80701,9.96385]}},{"type":"Feature","id":"node/1676439371","properties":{"name":"Guacara","place":"city","population":"194009"},"geometry":{"type":"Point","coordinates":[-67.88362,10.21721]}},{"type":"Feature","id":"node/1676449967","properties":{"name":"Yagua","place":"city"},"geometry":{"type":"Point","coordinates":[-67.90397,10.25987]}},{"type":"Feature","id":"node/1691948025","properties":{"name":"Borburata","place":"town"},"geometry":{"type":"Point","coordinates":[-67.96299,10.44384]}},{"type":"Feature","id":"node/1691983332","properties":{"name":"Patanemo","place":"town"},"geometry":{"type":"Point","coordinates":[-67.91645,10.42956]}},{"type":"Feature","id":"node/1691988583","properties":{"name":"San Esteban","place":"town"},"geometry":{"type":"Point","coordinates":[-68.01323,10.42478]}},{"type":"Feature","id":"node/1692006623","properties":{"name":"Ga\u00f1ango","place":"town"},"geometry":{"type":"Point","coordinates":[-67.95703,10.46663]}},{"type":"Feature","id":"node/1692044165","properties":{"name":"Guaiguaza","place":"town"},"geometry":{"type":"Point","coordinates":[-68.05662,10.43612]}},{"type":"Feature","id":"node/1692301944","properties":{"name":"El Palito","place":"town"},"geometry":{"type":"Point","coordinates":[-68.11046,10.47759]}},{"type":"Feature","id":"node/1787209503","properties":{"name":"Los Guayos","place":"city","population":"149606"},"geometry":{"type":"Point","coordinates":[-67.91942,10.17558]}},{"type":"Feature","id":"node/1834768688","properties":{"name":"Central Tacarigua","place":"town"},"geometry":{"type":"Point","coordinates":[-67.92083,10.08689]}},{"type":"Feature","id":"node/2172770131","properties":{"name":"Tocuyito","place":"city","population":"197449"},"geometry":{"type":"Point","coordinates":[-68.09422,10.10624]}},{"type":"Feature","id":"node/2173323118","properties":{"name":"Naguanagua","place":"city"},"geometry":{"type":"Point","coordinates":[-68.0121,10.25814]}},{"type":"Feature","id":"node/2333624261","properties":{"name":"La Glorieta","place":"village"},"geometry":{"type":"Point","coordinates":[-67.89987,10.13856]}},{"type":"Feature","id":"node/2335470971","properties":{"name":"Cachinche","place":"village"},"geometry":{"type":"Point","coordinates":[-68.16419,9.93853]}},{"type":"Feature","id":"node/2339343034","properties":{"name":"Guaica","place":"town"},"geometry":{"type":"Point","coordinates":[-67.83047,10.08752]}},{"type":"Feature","id":"node/2339354950","properties":{"name":"Las Vegas de Caicara","place":"village"},"geometry":{"type":"Point","coordinates":[-67.74684,10.03457]}},{"type":"Feature","id":"node/2339368764","properties":{"name":"Las Colonias","place":"village"},"geometry":{"type":"Point","coordinates":[-67.76685,10.02928]}},{"type":"Feature","id":"node/2351513006","properties":{"name":"El Arbolito","place":"village"},"geometry":{"type":"Point","coordinates":[-67.96538,9.98873]}},{"type":"Feature","id":"node/2351588746","properties":{"name":"Buena Vista","place":"village"},"geometry":{"type":"Point","coordinates":[-67.91458,9.99419]}},{"type":"Feature","id":"node/2351588747","properties":{"name":"Pomarrosa","place":"village"},"geometry":{"type":"Point","coordinates":[-67.92584,10.01831]}},{"type":"Feature","id":"node/2351588748","properties":{"name":"Noguera","place":"town"},"geometry":{"type":"Point","coordinates":[-67.91515,10.04887]}},{"type":"Feature","id":"node/3243049301","properties":{"name":"Urama","place":"town"},"geometry":{"type":"Point","coordinates":[-68.32019,10.45647]}},{"type":"Feature","id":"node/3247434254","properties":{"name":"Montalb\u00e1n","place":"town"},"geometry":{"type":"Point","coordinates":[-68.32485,10.2118]}},{"type":"Feature","id":"node/3247435822","properties":{"name":"Canoabo","place":"town"},"geometry":{"type":"Point","coordinates":[-68.28195,10.30282]}},{"type":"Feature","id":"node/3260410243","properties":{"name":"Bejuma","place":"town","population":"50000"},"geometry":{"type":"Point","coordinates":[-68.25786,10.17402]}},{"type":"Feature","id":"node/3845327357","properties":{"name":"Miranda","place":"town"},"geometry":{"type":"Point","coordinates":[-68.39481,10.14907]}},{"type":"Feature","id":"node/7179881094","properties":{"name":"Valencia","place":"city","population":"2299026"},"geometry":{"type":"Point","coordinates":[-68.0004,10.17003]}},{"type":"Feature","id":"node/5190975273","properties":{"name":"San Diego","place":"city"},"geometry":{"type":"Point","coordinates":[-67.9618,10.22999]}},{"type":"Feature","id":"node/5372786651","properties":{"name":"San Joaqu\u00edn","place":"city","population":"72463"},"geometry":{"type":"Point","coordinates":[-67.80155,10.25676]}},{"type":"Feature","id":"node/5331219901","properties":{"name":"Boca del Yaracuy","place":"village"},"geometry":{"type":"Point","coordinates":[-68.24228,10.58118]}},{"type":"Feature","id":"node/5368785788","properties":{"name":"La Guarura","place":"village"},"geometry":{"type":"Point","coordinates":[-68.41512,10.17596]}},{"type":"Feature","id":"node/5368789778","properties":{"name":"Santo Tom\u00e1s","place":"village"},"geometry":{"type":"Point","coordinates":[-68.3948,10.12103]}},{"type":"Feature","id":"node/5370197994","properties":{"name":"Aguirre","place":"town"},"geometry":{"type":"Point","coordinates":[-68.27378,10.22728]}},{"type":"Feature","id":"node/5370197995","properties":{"name":"Sabaneta","place":"town"},"geometry":{"type":"Point","coordinates":[-68.31861,10.1635]}},{"type":"Feature","id":"node/5370197996","properties":{"name":"Las Matas","place":"village"},"geometry":{"type":"Point","coordinates":[-68.33435,10.16456]}},{"type":"Feature","id":"node/5370197997","properties":{"name":"Sabana de Aguirre","place":"town"},"geometry":{"type":"Point","coordinates":[-68.28817,10.16772]}},{"type":"Feature","id":"node/5370197998","properties":{"name":"Mocundo","place":"village"},"geometry":{"type":"Point","coordinates":[-68.27107,10.24983]}},{"type":"Feature","id":"node/5370197999","properties":{"name":"El Guarapo","place":"village"},"geometry":{"type":"Point","coordinates":[-68.23644,10.29062]}},{"type":"Feature","id":"node/5370198000","properties":{"name":"Las Rosas","place":"village"},"geometry":{"type":"Point","coordinates":[-68.26553,10.26756]}},{"type":"Feature","id":"node/5370198001","properties":{"name":"Palmichal","place":"village"},"geometry":{"type":"Point","coordinates":[-68.22864,10.29833]}},{"type":"Feature","id":"node/5370198002","properties":{"name":"La Sabana","place":"village"},"geometry":{"type":"Point","coordinates":[-68.30446,10.33577]}},{"type":"Feature","id":"node/5370198003","properties":{"name":"Pueblo Nuevo","place":"village"},"geometry":{"type":"Point","coordinates":[-68.29308,10.32927]}},{"type":"Feature","id":"node/5370198004","properties":{"name":"Agua Clara","place":"village"},"geometry":{"type":"Point","coordinates":[-68.32349,10.39711]}},{"type":"Feature","id":"node/5370250277","properties":{"name":"La Mona","place":"village"},"geometry":{"type":"Point","coordinates":[-68.19478,10.14169]}},{"type":"Feature","id":"node/5370250279","properties":{"name":"Casupito","place":"town"},"geometry":{"type":"Point","coordinates":[-68.1874,10.16908]}},{"type":"Feature","id":"node/5370250280","properties":{"name":"La Parede\u00f1a","place":"town"},"geometry":{"type":"Point","coordinates":[-68.17546,10.18942]}},{"type":"Feature","id":"node/5370250291","properties":{"name":"Cariaprima","place":"village"},"geometry":{"type":"Point","coordinates":[-68.18261,10.25702]}},{"type":"Feature","id":"node/5370250292","properties":{"name":"Camburito","place":"village"},"geometry":{"type":"Point","coordinates":[-68.1984,10.11109]}},{"type":"Feature","id":"node/5370250293","properties":{"name":"Barrera Abajo","place":"village"},"geometry":{"type":"Point","coordinates":[-68.16044,10.09409]}},{"type":"Feature","id":"node/5370280330","properties":{"name":"Pirapira","place":"village"},"geometry":{"type":"Point","coordinates":[-68.0643,9.96009]}},{"type":"Feature","id":"node/5370280331","properties":{"name":"La Arenosa","place":"town"},"geometry":{"type":"Point","coordinates":[-68.08816,9.99502]}},{"type":"Feature","id":"node/5370280361","properties":{"name":"Sabanita","place":"village"},"geometry":{"type":"Point","coordinates":[-68.0933,9.97688]}},{"type":"Feature","id":"node/5370280362","properties":{"name":"Barrerita","place":"town"},"geometry":{"type":"Point","coordinates":[-68.08695,10.03343]}},{"type":"Feature","id":"node/5370280366","properties":{"name":"Barrera","place":"town"},"geometry":{"type":"Point","coordinates":[-68.14926,10.02223]}},{"type":"Feature","id":"node/5370280367","properties":{"name":"Campo Carabobo","place":"town"},"geometry":{"type":"Point","coordinates":[-68.15856,10.00911]}},{"type":"Feature","id":"node/5370281630","properties":{"name":"Agua Linda","place":"village"},"geometry":{"type":"Point","coordinates":[-68.16146,9.95259]}},{"type":"Feature","id":"node/5370281641","properties":{"name":"El Naipe","place":"village"},"geometry":{"type":"Point","coordinates":[-68.1924,9.98861]}},{"type":"Feature","id":"node/5370281642","properties":{"name":"Chirguita","place":"village"},"geometry":{"type":"Point","coordinates":[-68.22337,9.96636]}},{"type":"Feature","id":"node/5370348139","properties":{"name":"La Entrada","place":"town"},"geometry":{"type":"Point","coordinates":[-68.05383,10.3001]}},{"type":"Feature","id":"node/5370348140","properties":{"name":"Las Trincheras","place":"town"},"geometry":{"type":"Point","coordinates":[-68.08649,10.30566]}},{"type":"Feature","id":"node/5370348143","properties":{"name":"El Casta\u00f1o","place":"village"},"geometry":{"type":"Point","coordinates":[-68.09609,10.36071]}},{"type":"Feature","id":"node/5370348144","properties":{"name":"El Mam\u00f3n","place":"village"},"geometry":{"type":"Point","coordinates":[-68.0981,10.37145]}},{"type":"Feature","id":"node/5370348145","properties":{"name":"El Cambur","place":"town"},"geometry":{"type":"Point","coordinates":[-68.10515,10.39567]}},{"type":"Feature","id":"node/5370348147","properties":{"name":"La Pastora","place":"town"},"geometry":{"type":"Point","coordinates":[-68.1138,10.4287]}},{"type":"Feature","id":"node/5370348148","properties":{"name":"Las Tablas","place":"town"},"geometry":{"type":"Point","coordinates":[-68.11179,10.44318]}},{"type":"Feature","id":"node/5370348149","properties":{"name":"Taborda","place":"town"},"geometry":{"type":"Point","coordinates":[-68.11179,10.46362]}},{"type":"Feature","id":"node/5370374043","properties":{"name":"Miquija","place":"village"},"geometry":{"type":"Point","coordinates":[-68.06875,10.42003]}},{"type":"Feature","id":"node/5370419883","properties":{"name":"Palma Sola","place":"town"},"geometry":{"type":"Point","coordinates":[-68.1801,10.50044]}},{"type":"Feature","id":"node/5370462784","properties":{"name":"Venepal","place":"village"},"geometry":{"type":"Point","coordinates":[-68.23026,10.54928]}},{"type":"Feature","id":"node/5370462785","properties":{"name":"Alpargat\u00f3n","place":"town"},"geometry":{"type":"Point","coordinates":[-68.25875,10.46556]}},{"type":"Feature","id":"node/5370462786","properties":{"name":"El Guarataro","place":"village"},"geometry":{"type":"Point","coordinates":[-68.23888,10.47044]}},{"type":"Feature","id":"node/5370462814","properties":{"name":"San Pablo","place":"village"},"geometry":{"type":"Point","coordinates":[-68.35611,10.49477]}},{"type":"Feature","id":"node/5370468828","properties":{"name":"Canoabito Abajo","place":"town"},"geometry":{"type":"Point","coordinates":[-68.36019,10.45297]}},{"type":"Feature","id":"node/5370468830","properties":{"name":"Guaremal","place":"village"},"geometry":{"type":"Point","coordinates":[-68.39331,10.44542]}},{"type":"Feature","id":"node/5372671835","properties":{"name":"La Uni\u00f3n","place":"village"},"geometry":{"type":"Point","coordinates":[-67.92235,10.10465]}},{"type":"Feature","id":"node/5372671836","properties":{"name":"Cascabel","place":"village"},"geometry":{"type":"Point","coordinates":[-67.91961,10.11667]}},{"type":"Feature","id":"node/5372671837","properties":{"name":"Pirital","place":"village"},"geometry":{"type":"Point","coordinates":[-67.8945,10.10556]}},{"type":"Feature","id":"node/5372671838","properties":{"name":"El Charal","place":"village"},"geometry":{"type":"Point","coordinates":[-67.90641,10.10528]}},{"type":"Feature","id":"node/5372671839","properties":{"name":"El Fr\u00edo","place":"town"},"geometry":{"type":"Point","coordinates":[-67.91235,10.0743]}},{"type":"Feature","id":"node/5372671840","properties":{"name":"Boquer\u00f3n","place":"town"},"geometry":{"type":"Point","coordinates":[-67.92641,10.0635]}},{"type":"Feature","id":"node/5372671841","properties":{"name":"Chaguaramos","place":"town"},"geometry":{"type":"Point","coordinates":[-67.89403,10.08457]}},{"type":"Feature","id":"node/5372671842","properties":{"name":"Las Tiamitas","place":"town"},"geometry":{"type":"Point","coordinates":[-67.85191,10.09395]}},{"type":"Feature","id":"node/5372671843","properties":{"name":"Verd\u00fan","place":"town"},"geometry":{"type":"Point","coordinates":[-67.88201,10.08864]}},{"type":"Feature","id":"node/5372671845","properties":{"name":"Sam\u00e1n Mocho","place":"village"},"geometry":{"type":"Point","coordinates":[-67.89278,10.11809]}},{"type":"Feature","id":"node/5372671846","properties":{"name":"La Culebra","place":"village"},"geometry":{"type":"Point","coordinates":[-67.87731,10.13645]}},{"type":"Feature","id":"node/5372687776","properties":{"name":"El Copey","place":"village"},"geometry":{"type":"Point","coordinates":[-67.88712,10.01379]}},{"type":"Feature","id":"node/5372687777","properties":{"name":"Jabillal","place":"village"},"geometry":{"type":"Point","coordinates":[-67.88283,9.99929]}},{"type":"Feature","id":"node/5372687778","properties":{"name":"Santa In\u00e9s","place":"village"},"geometry":{"type":"Point","coordinates":[-67.84848,9.96546]}},{"type":"Feature","id":"node/5372687779","properties":{"name":"Santa Rosa","place":"village"},"geometry":{"type":"Point","coordinates":[-67.76732,9.96356]}},{"type":"Feature","id":"node/5372687780","properties":{"name":"Pe\u00f1as Negras","place":"village"},"geometry":{"type":"Point","coordinates":[-67.75313,9.95117]}},{"type":"Feature","id":"node/5372687781","properties":{"name":"Las Piedras","place":"village"},"geometry":{"type":"Point","coordinates":[-67.77116,9.9402]}},{"type":"Feature","id":"node/5372687797","properties":{"name":"San Vicente","place":"village"},"geometry":{"type":"Point","coordinates":[-67.91966,10.03701]}},{"type":"Feature","id":"node/5372687798","properties":{"name":"Lagunita","place":"village"},"geometry":{"type":"Point","coordinates":[-67.8803,9.92382]}},{"type":"Feature","id":"node/5372687799","properties":{"name":"Agua Honda","place":"village"},"geometry":{"type":"Point","coordinates":[-67.89873,9.91308]}},{"type":"Feature","id":"node/5372687800","properties":{"name":"Barrancones","place":"village"},"geometry":{"type":"Point","coordinates":[-67.91166,9.95401]}},{"type":"Feature","id":"node/5372717326","properties":{"name":"Las Ca\u00f1adas","place":"village"},"geometry":{"type":"Point","coordinates":[-67.81847,10.08531]}},{"type":"Feature","id":"node/5372717328","properties":{"name":"El Milagro","place":"town"},"geometry":{"type":"Point","coordinates":[-67.73702,10.08555]}},{"type":"Feature","id":"node/5372748585","properties":{"name":"El Trompillo","place":"village"},"geometry":{"type":"Point","coordinates":[-67.77109,10.05666]}},{"type":"Feature","id":"node/5372748586","properties":{"name":"Pedernales","place":"town"},"geometry":{"type":"Point","coordinates":[-67.76928,10.03997]}},{"type":"Feature","id":"node/5372748593","properties":{"name":"Bel\u00e9n","place":"town"},"geometry":{"type":"Point","coordinates":[-67.68689,9.98883]}},{"type":"Feature","id":"node/5372748594","properties":{"name":"Cocorote","place":"village"},"geometry":{"type":"Point","coordinates":[-67.65243,10.00868]}},{"type":"Feature","id":"node/5372748597","properties":{"name":"Parcelamiento Los Leones","place":"village"},"geometry":{"type":"Point","coordinates":[-67.64891,9.97291]}},{"type":"Feature","id":"node/5372748598","properties":{"name":"Cocotero","place":"village"},"geometry":{"type":"Point","coordinates":[-67.64627,9.95686]}},{"type":"Feature","id":"node/5372748615","properties":{"name":"Casupito","place":"village"},"geometry":{"type":"Point","coordinates":[-67.60492,9.96006]}},{"type":"Feature","id":"node/5372786657","properties":{"name":"La Cabrera","place":"town"},"geometry":{"type":"Point","coordinates":[-67.67814,10.25432]}},{"type":"Feature","id":"node/5413131356","properties":{"name":"La Cumaca","place":"town"},"geometry":{"type":"Point","coordinates":[-67.94268,10.2857]}},{"type":"Feature","id":"node/5773370854","properties":{"name":"La Candelaria","place":"village"},"geometry":{"type":"Point","coordinates":[-67.8365,9.96183]}},{"type":"Feature","id":"node/5773370876","properties":{"name":"El Naranjito","place":"village"},"geometry":{"type":"Point","coordinates":[-67.92879,10.05202]}},{"type":"Feature","id":"node/5773370880","properties":{"name":"El Portachuelo","place":"town"},"geometry":{"type":"Point","coordinates":[-67.86379,10.09265]}},{"type":"Feature","id":"node/5773370881","properties":{"name":"Maruria","place":"town"},"geometry":{"type":"Point","coordinates":[-67.90295,10.0801]}},{"type":"Feature","id":"node/5773370882","properties":{"name":"Garc\u00eda","place":"town"},"geometry":{"type":"Point","coordinates":[-67.87062,10.08978]}},{"type":"Feature","id":"node/5773371263","properties":{"name":"Las Minas","place":"village"},"geometry":{"type":"Point","coordinates":[-67.87793,10.00363]}},{"type":"Feature","id":"node/5773371264","properties":{"name":"Guayabillo","place":"village"},"geometry":{"type":"Point","coordinates":[-67.8584,10.02439]}},{"type":"Feature","id":"node/5773371556","properties":{"name":"Sabanita","place":"village"},"geometry":{"type":"Point","coordinates":[-67.87323,10.0534]}},{"type":"Feature","id":"node/5773371679","properties":{"name":"El 25","place":"village"},"geometry":{"type":"Point","coordinates":[-67.88253,10.03795]}},{"type":"Feature","id":"node/5773371793","properties":{"name":"Cogollal","place":"village"},"geometry":{"type":"Point","coordinates":[-67.84626,10.0603]}},{"type":"Feature","id":"node/5773371927","properties":{"name":"El Hatico","place":"village"},"geometry":{"type":"Point","coordinates":[-67.82487,10.07195]}},{"type":"Feature","id":"node/5773371928","properties":{"name":"El Venado","place":"town"},"geometry":{"type":"Point","coordinates":[-67.81071,10.08739]}},{"type":"Feature","id":"node/5773371930","properties":{"name":"San Juan de Dios","place":"town"},"geometry":{"type":"Point","coordinates":[-67.79998,10.08574]}},{"type":"Feature","id":"node/5773372387","properties":{"name":"Agua Blanca","place":"village"},"geometry":{"type":"Point","coordinates":[-67.85392,10.03241]}},{"type":"Feature","id":"node/5773372388","properties":{"name":"Buena Vista","place":"village"},"geometry":{"type":"Point","coordinates":[-67.80371,10.04137]}},{"type":"Feature","id":"node/5773372396","properties":{"name":"El Pi\u00f1al","place":"town"},"geometry":{"type":"Point","coordinates":[-67.78834,10.04668]}},{"type":"Feature","id":"node/5773372397","properties":{"name":"La Marucha","place":"village"},"geometry":{"type":"Point","coordinates":[-67.76687,10.06568]}},{"type":"Feature","id":"node/5773372405","properties":{"name":"Los Guaches","place":"village"},"geometry":{"type":"Point","coordinates":[-67.74692,10.01899]}},{"type":"Feature","id":"node/5773372467","properties":{"name":"El Alet\u00f3n","place":"village"},"geometry":{"type":"Point","coordinates":[-67.83371,10.00323]}},{"type":"Feature","id":"node/5773372468","properties":{"name":"Altamira","place":"village"},"geometry":{"type":"Point","coordinates":[-67.78488,10.00109]}},{"type":"Feature","id":"node/5773372469","properties":{"name":"Santa Efigenia","place":"village"},"geometry":{"type":"Point","coordinates":[-67.80518,10.00281]}},{"type":"Feature","id":"node/5773372472","properties":{"name":"Copet\u00f3n","place":"village"},"geometry":{"type":"Point","coordinates":[-67.82668,10.00186]}},{"type":"Feature","id":"node/5773372473","properties":{"name":"La Sapera","place":"village"},"geometry":{"type":"Point","coordinates":[-67.76969,10.01437]}},{"type":"Feature","id":"node/5773375453","properties":{"name":"El Carmen","place":"village"},"geometry":{"type":"Point","coordinates":[-67.82762,9.96532]}},{"type":"Feature","id":"node/5773376460","properties":{"name":"El Barbasco","place":"village"},"geometry":{"type":"Point","coordinates":[-67.74617,9.95977]}},{"type":"Feature","id":"node/5773376994","properties":{"name":"El Jobal","place":"village"},"geometry":{"type":"Point","coordinates":[-67.78388,9.9515]}},{"type":"Feature","id":"node/5773377016","properties":{"name":"Monte Esperanza","place":"village"},"geometry":{"type":"Point","coordinates":[-67.80006,9.96984]}},{"type":"Feature","id":"node/5773377017","properties":{"name":"El Cocuy","place":"village"},"geometry":{"type":"Point","coordinates":[-67.78133,9.95651]}},{"type":"Feature","id":"node/5773377018","properties":{"name":"Vallecito","place":"village"},"geometry":{"type":"Point","coordinates":[-67.76876,9.95757]}},{"type":"Feature","id":"node/5773377019","properties":{"name":"Juaniquero","place":"village"},"geometry":{"type":"Point","coordinates":[-67.73877,9.9333]}},{"type":"Feature","id":"node/5773377036","properties":{"name":"Gu\u00e1rico","place":"village"},"geometry":{"type":"Point","coordinates":[-67.6188,9.964]}},{"type":"Feature","id":"node/5773378449","properties":{"name":"Santa Rosa del Sur","place":"village"},"geometry":{"type":"Point","coordinates":[-67.53277,9.90527]}},{"type":"Feature","id":"node/5773378450","properties":{"name":"La Trilla","place":"village"},"geometry":{"type":"Point","coordinates":[-67.53598,9.91984]}},{"type":"Feature","id":"node/5773594589","properties":{"name":"La Florida","place":"village"},"geometry":{"type":"Point","coordinates":[-67.72028,10.09309]}},{"type":"Feature","id":"node/5773594590","properties":{"name":"El Barrial","place":"village"},"geometry":{"type":"Point","coordinates":[-67.89173,10.11124]}},{"type":"Feature","id":"node/5773594593","properties":{"name":"Caraquita","place":"village"},"geometry":{"type":"Point","coordinates":[-67.8977,10.09518]}},{"type":"Feature","id":"node/5773594594","properties":{"name":"Jabillal","place":"village"},"geometry":{"type":"Point","coordinates":[-67.90557,10.11139]}},{"type":"Feature","id":"node/5773594595","properties":{"name":"Agua Dulce","place":"village"},"geometry":{"type":"Point","coordinates":[-67.92521,10.11339]}},{"type":"Feature","id":"node/5773594597","properties":{"name":"El Trillo","place":"village"},"geometry":{"type":"Point","coordinates":[-67.94632,10.07108]}},{"type":"Feature","id":"node/5773594641","properties":{"name":"Naranjal","place":"village"},"geometry":{"type":"Point","coordinates":[-67.87815,9.96426]}},{"type":"Feature","id":"node/5773594642","properties":{"name":"El Zancudo","place":"village"},"geometry":{"type":"Point","coordinates":[-67.8836,9.95816]}},{"type":"Feature","id":"node/5773595586","properties":{"name":"Pacaragua","place":"village"},"geometry":{"type":"Point","coordinates":[-67.83987,9.92666]}},{"type":"Feature","id":"node/5773595587","properties":{"name":"El Escondido","place":"village"},"geometry":{"type":"Point","coordinates":[-67.83522,9.90723]}},{"type":"Feature","id":"node/5773595588","properties":{"name":"Las Tunas","place":"village"},"geometry":{"type":"Point","coordinates":[-67.84058,9.88585]}},{"type":"Feature","id":"node/5773595589","properties":{"name":"La Gilera","place":"village"},"geometry":{"type":"Point","coordinates":[-67.84152,9.86615]}},{"type":"Feature","id":"node/5773595590","properties":{"name":"El Algarrobo","place":"village"},"geometry":{"type":"Point","coordinates":[-67.83573,9.85632]}},{"type":"Feature","id":"node/5773595864","properties":{"name":"Quebrada Honda","place":"village"},"geometry":{"type":"Point","coordinates":[-67.84665,9.8745]}},{"type":"Feature","id":"node/5773595866","properties":{"name":"Aguacatico","place":"village"},"geometry":{"type":"Point","coordinates":[-67.88707,9.87198]}},{"type":"Feature","id":"node/5773596180","properties":{"name":"La Mapora","place":"village"},"geometry":{"type":"Point","coordinates":[-67.9459,9.86643]}},{"type":"Feature","id":"node/5773596513","properties":{"name":"Potrerito","place":"village"},"geometry":{"type":"Point","coordinates":[-67.90463,9.89564]}},{"type":"Feature","id":"node/5773596518","properties":{"name":"Cajobal","place":"village"},"geometry":{"type":"Point","coordinates":[-67.97688,9.84734]}},{"type":"Feature","id":"node/5773596520","properties":{"name":"El Cumbito","place":"village"},"geometry":{"type":"Point","coordinates":[-67.97294,9.87878]}},{"type":"Feature","id":"node/5773596614","properties":{"name":"Jengibre","place":"village"},"geometry":{"type":"Point","coordinates":[-67.9805,9.89914]}},{"type":"Feature","id":"node/5773596615","properties":{"name":"Los Mangos","place":"village"},"geometry":{"type":"Point","coordinates":[-67.93266,9.91569]}},{"type":"Feature","id":"node/5773597444","properties":{"name":"El Cocuy","place":"village"},"geometry":{"type":"Point","coordinates":[-67.95449,9.93842]}},{"type":"Feature","id":"node/5773597445","properties":{"name":"R\u00edo Abajo","place":"village"},"geometry":{"type":"Point","coordinates":[-67.9451,9.95818]}},{"type":"Feature","id":"node/5773597446","properties":{"name":"El Tesoro","place":"village"},"geometry":{"type":"Point","coordinates":[-67.95168,9.95261]}},{"type":"Feature","id":"node/5773598139","properties":{"name":"Santa B\u00e1rbara","place":"village"},"geometry":{"type":"Point","coordinates":[-67.9404,9.99604]}},{"type":"Feature","id":"node/5773598140","properties":{"name":"El Viento","place":"village"},"geometry":{"type":"Point","coordinates":[-67.94326,9.98689]}},{"type":"Feature","id":"node/5773598141","properties":{"name":"Los Caracaros","place":"village"},"geometry":{"type":"Point","coordinates":[-67.95259,9.97576]}},{"type":"Feature","id":"node/5773600426","properties":{"name":"Las Dos Bocas","place":"village"},"geometry":{"type":"Point","coordinates":[-67.98858,9.95337]}},{"type":"Feature","id":"node/5773600427","properties":{"name":"Flores","place":"village"},"geometry":{"type":"Point","coordinates":[-67.97445,9.96305]}},{"type":"Feature","id":"node/5773600680","properties":{"name":"El Yagual","place":"village"},"geometry":{"type":"Point","coordinates":[-67.99765,9.98094]}},{"type":"Feature","id":"node/5773600939","properties":{"name":"Las Rosas","place":"village"},"geometry":{"type":"Point","coordinates":[-67.9392,10.04892]}},{"type":"Feature","id":"node/5773600940","properties":{"name":"Las Delicias","place":"village"},"geometry":{"type":"Point","coordinates":[-67.95385,10.03041]}},{"type":"Feature","id":"node/5773601208","properties":{"name":"Paso Ancho","place":"village"},"geometry":{"type":"Point","coordinates":[-67.92744,10.00766]}},{"type":"Feature","id":"node/5774985988","properties":{"name":"Papayal","place":"village"},"geometry":{"type":"Point","coordinates":[-67.70056,10.24811]}},{"type":"Feature","id":"node/5774985990","properties":{"name":"Punta Palmita","place":"village"},"geometry":{"type":"Point","coordinates":[-67.68844,10.24704]}},{"type":"Feature","id":"node/5774985993","properties":{"name":"El Muerto","place":"village"},"geometry":{"type":"Point","coordinates":[-67.68184,10.24106]}},{"type":"Feature","id":"node/5774986028","properties":{"name":"Tronconero","place":"village"},"geometry":{"type":"Point","coordinates":[-67.89143,10.29125]}},{"type":"Feature","id":"node/5774986031","properties":{"name":"Vigirima","place":"town"},"geometry":{"type":"Point","coordinates":[-67.88216,10.33162]}},{"type":"Feature","id":"node/5784037899","properties":{"name":"Quebrada Honda","place":"town"},"geometry":{"type":"Point","coordinates":[-67.91922,10.27884]}},{"type":"Feature","id":"node/5784038572","properties":{"name":"El Salto","place":"town"},"geometry":{"type":"Point","coordinates":[-68.07583,10.30375]}},{"type":"Feature","id":"node/5784038574","properties":{"name":"La Bel\u00e9n","place":"village"},"geometry":{"type":"Point","coordinates":[-68.09519,10.29854]}},{"type":"Feature","id":"node/5784038875","properties":{"name":"El Poblado","place":"village"},"geometry":{"type":"Point","coordinates":[-68.10676,10.29463]}},{"type":"Feature","id":"node/5784038885","properties":{"name":"Cariaprima","place":"village"},"geometry":{"type":"Point","coordinates":[-68.04984,10.42673]}},{"type":"Feature","id":"node/5784039254","properties":{"name":"Santa Luc\u00eda","place":"village"},"geometry":{"type":"Point","coordinates":[-67.98539,10.45382]}},{"type":"Feature","id":"node/5784039255","properties":{"name":"Puerto Borburata","place":"village"},"geometry":{"type":"Point","coordinates":[-67.98119,10.48647]}},{"type":"Feature","id":"node/5801215010","properties":{"name":"R\u00edo Abajo","place":"village"},"geometry":{"type":"Point","coordinates":[-68.28591,10.4826]}},{"type":"Feature","id":"node/5801215011","properties":{"name":"Sanguijuela","place":"town"},"geometry":{"type":"Point","coordinates":[-68.29365,10.46287]}},{"type":"Feature","id":"node/5801215020","properties":{"name":"Urbanizaci\u00f3n Los Gavilanes","place":"village"},"geometry":{"type":"Point","coordinates":[-68.2033,10.53602]}},{"type":"Feature","id":"node/5816396597","properties":{"name":"Santo Domingo","place":"village"},"geometry":{"type":"Point","coordinates":[-68.24015,10.0061]}},{"type":"Feature","id":"node/5816396598","properties":{"name":"Palma Bonita","place":"village"},"geometry":{"type":"Point","coordinates":[-68.20299,10.03141]}},{"type":"Feature","id":"node/5816399723","properties":{"name":"Las Mar\u00edas","place":"village"},"geometry":{"type":"Point","coordinates":[-68.11277,10.28274]}},{"type":"Feature","id":"node/5816400061","properties":{"name":"Las Vegas del Torito","place":"village"},"geometry":{"type":"Point","coordinates":[-68.12959,10.12474]}},{"type":"Feature","id":"node/5816400073","properties":{"name":"El Escondido","place":"village"},"geometry":{"type":"Point","coordinates":[-68.16152,10.04106]}},{"type":"Feature","id":"node/5816400074","properties":{"name":"Algarrobal","place":"village"},"geometry":{"type":"Point","coordinates":[-68.18739,10.02855]}},{"type":"Feature","id":"node/5816400080","properties":{"name":"La India","place":"village"},"geometry":{"type":"Point","coordinates":[-68.15173,10.07881]}},{"type":"Feature","id":"node/5816400082","properties":{"name":"La Lagunita","place":"village"},"geometry":{"type":"Point","coordinates":[-68.15872,10.07552]}},{"type":"Feature","id":"node/5816400083","properties":{"name":"Barrera Arriba","place":"village"},"geometry":{"type":"Point","coordinates":[-68.1772,10.10794]}},{"type":"Feature","id":"node/5816400085","properties":{"name":"Aguita de Dios","place":"village"},"geometry":{"type":"Point","coordinates":[-68.1953,10.11718]}},{"type":"Feature","id":"node/5816400368","properties":{"name":"La Guadalupe","place":"village"},"geometry":{"type":"Point","coordinates":[-68.17384,10.29014]}},{"type":"Feature","id":"node/5816400385","properties":{"name":"La Emilia","place":"village"},"geometry":{"type":"Point","coordinates":[-68.17745,10.25207]}},{"type":"Feature","id":"node/5816400396","properties":{"name":"Perico","place":"village"},"geometry":{"type":"Point","coordinates":[-68.20169,10.25133]}},{"type":"Feature","id":"node/5816400397","properties":{"name":"Potrerito","place":"village"},"geometry":{"type":"Point","coordinates":[-68.19501,10.22462]}},{"type":"Feature","id":"node/5816400398","properties":{"name":"El Le\u00f3n","place":"village"},"geometry":{"type":"Point","coordinates":[-68.19318,10.21269]}},{"type":"Feature","id":"node/5816400399","properties":{"name":"Los Merecures","place":"village"},"geometry":{"type":"Point","coordinates":[-68.18025,10.19631]}},{"type":"Feature","id":"node/5816400439","properties":{"name":"El Caracaro","place":"village"},"geometry":{"type":"Point","coordinates":[-68.18757,10.1831]}},{"type":"Feature","id":"node/5816400441","properties":{"name":"Tierra Blanca","place":"town"},"geometry":{"type":"Point","coordinates":[-68.24565,10.19471]}},{"type":"Feature","id":"node/5816400443","properties":{"name":"Banco Largo","place":"village"},"geometry":{"type":"Point","coordinates":[-68.24899,10.16215]}},{"type":"Feature","id":"node/5816400448","properties":{"name":"Alto de Reyes","place":"town"},"geometry":{"type":"Point","coordinates":[-68.28429,10.15578]}},{"type":"Feature","id":"node/5816400451","properties":{"name":"Reyes Arriba","place":"village"},"geometry":{"type":"Point","coordinates":[-68.26175,10.14949]}},{"type":"Feature","id":"node/5816400452","properties":{"name":"Paso Real","place":"village"},"geometry":{"type":"Point","coordinates":[-68.33235,10.15557]}},{"type":"Feature","id":"node/5816400569","properties":{"name":"Potrerito","place":"village"},"geometry":{"type":"Point","coordinates":[-68.30629,10.1827]}},{"type":"Feature","id":"node/5816400570","properties":{"name":"Agua de Obispo","place":"village"},"geometry":{"type":"Point","coordinates":[-68.3496,10.1916]}},{"type":"Feature","id":"node/5816400572","properties":{"name":"Montero","place":"village"},"geometry":{"type":"Point","coordinates":[-68.30143,10.22697]}},{"type":"Feature","id":"node/5816400586","properties":{"name":"El Rinc\u00f3n","place":"town"},"geometry":{"type":"Point","coordinates":[-68.25401,10.19366]}},{"type":"Feature","id":"node/5816400587","properties":{"name":"Valle Hondo","place":"village"},"geometry":{"type":"Point","coordinates":[-68.25859,10.28055]}},{"type":"Feature","id":"node/5816400733","properties":{"name":"Canoabito","place":"village"},"geometry":{"type":"Point","coordinates":[-68.26081,10.31559]}},{"type":"Feature","id":"node/5816400735","properties":{"name":"Los Rastrojos","place":"village"},"geometry":{"type":"Point","coordinates":[-68.26254,10.32983]}},{"type":"Feature","id":"node/5818210129","properties":{"name":"Morrocoy","place":"village"},"geometry":{"type":"Point","coordinates":[-67.95661,9.83193]}},{"type":"Feature","id":"node/5818210130","properties":{"name":"Las Hermanitas","place":"village"},"geometry":{"type":"Point","coordinates":[-67.98795,9.83624]}},{"type":"Feature","id":"node/5818213396","properties":{"name":"La Palma","place":"village"},"geometry":{"type":"Point","coordinates":[-68.09655,9.87223]}},{"type":"Feature","id":"node/5818213442","properties":{"name":"Los Pilones","place":"village"},"geometry":{"type":"Point","coordinates":[-68.03621,9.93854]}},{"type":"Feature","id":"node/5818215138","properties":{"name":"Candelero","place":"village"},"geometry":{"type":"Point","coordinates":[-68.02294,9.92066]}},{"type":"Feature","id":"node/5818215139","properties":{"name":"El Mosquitero","place":"town"},"geometry":{"type":"Point","coordinates":[-68.09253,9.92398]}},{"type":"Feature","id":"node/5818215140","properties":{"name":"Guafalito","place":"village"},"geometry":{"type":"Point","coordinates":[-68.06337,9.9688]}},{"type":"Feature","id":"node/5818216947","properties":{"name":"Riach\u00f3n","place":"village"},"geometry":{"type":"Point","coordinates":[-68.04714,9.94566]}},{"type":"Feature","id":"node/5818216948","properties":{"name":"Paya","place":"village"},"geometry":{"type":"Point","coordinates":[-68.04522,9.92315]}},{"type":"Feature","id":"node/5818217800","properties":{"name":"La Araguata","place":"village"},"geometry":{"type":"Point","coordinates":[-68.07047,9.92089]}},{"type":"Feature","id":"node/5818217801","properties":{"name":"Dominguera","place":"village"},"geometry":{"type":"Point","coordinates":[-68.07458,9.90203]}},{"type":"Feature","id":"node/5818218323","properties":{"name":"El Cogollal","place":"village"},"geometry":{"type":"Point","coordinates":[-68.01138,9.87384]}},{"type":"Feature","id":"node/5818218324","properties":{"name":"Santa B\u00e1rbara","place":"village"},"geometry":{"type":"Point","coordinates":[-68.05016,9.86445]}},{"type":"Feature","id":"node/5818220549","properties":{"name":"El Barn\u00edz","place":"village"},"geometry":{"type":"Point","coordinates":[-68.231,9.97458]}},{"type":"Feature","id":"node/5818220551","properties":{"name":"Gualembe","place":"village"},"geometry":{"type":"Point","coordinates":[-68.17544,10.0011]}},{"type":"Feature","id":"node/5818220574","properties":{"name":"Quintana","place":"village"},"geometry":{"type":"Point","coordinates":[-68.1619,9.97483]}},{"type":"Feature","id":"node/5820617868","properties":{"name":"Agua Blanca","place":"village"},"geometry":{"type":"Point","coordinates":[-68.19697,9.96887]}},{"type":"Feature","id":"node/5820617877","properties":{"name":"El Tigre","place":"village"},"geometry":{"type":"Point","coordinates":[-68.05393,9.97593]}},{"type":"Feature","id":"node/5820617878","properties":{"name":"El Pi\u00f1al","place":"village"},"geometry":{"type":"Point","coordinates":[-68.09438,9.98564]}},{"type":"Feature","id":"node/10878697723","properties":{"name":"Costa del Yaracuy IV","place":"village"},"geometry":{"type":"Point","coordinates":[-68.3483,10.54977]}}]}