{"type":"FeatureCollection","features":[{"type":"Feature","id":"relation/272662","properties":{"name":"Cojedes","level":4},"geometry":{"type":"Polygon","coordinates":[[[-67.75434,9.70486],[-67.76245,9.71686],[-67.75734,9.7244],[-67.76129,9.72607],[-67.76489,9.73266],[-67.76414,9.74047],[-67.7681,9.7413],[-67.76508,9.74966],[-67.76564,9.75958],[-67.76286,9.76219],[-67.78339,9.76469],[-67.78751,9.78216],[-67.79323,9.78066],[-67.79795,9.78353],[-67.79667,9.8018],[-67.8001,9.80846],[-67.80032,9.81543],[-67.80378,9.81911],[-67.79949,9.82408],[-67.79748,9.83306],[-67.80226,9.83699],[-67.80271,9.84633],[-67.80502,9.84802],[-67.80871,9.84773],[-67.81745,9.84098],[-67.82823,9.84007],[-67.83323,9.83549],[-67.85615,9.83594],[-67.86252,9.83844],[-67.86633,9.83495],[-67.87737,9.83443],[-67.89255,9.8232],[-67.90584,9.81907],[-67.91057,9.81337],[-67.91728,9.81148],[-67.9252,9.8128],[-67.93186,9.81901],[-67.94516,9.8224],[-67.95507,9.83033],[-67.96817,9.82957],[-67.97582,9.82664],[-67.98293,9.83048],[-67.9914,9.82811],[-68.00543,9.83118],[-68.00827,9.84064],[-68.01415,9.84772],[-68.01505,9.86258],[-68.0065,9.87048],[-68.00427,9.8817],[-68.00796,9.87349],[-68.01202,9.8704],[-68.01641,9.87082],[-68.02218,9.86641],[-68.03959,9.86042],[-68.05083,9.86239],[-68.05912,9.85907],[-68.06677,9.86127],[-68.07853,9.85487],[-68.08269,9.8504],[-68.08251,9.84504],[-68.08646,9.84161],[-68.10071,9.83779],[-68.11818,9.8365],[-68.12145,9.84738],[-68.12651,9.84932],[-68.12373,9.86047],[-68.12793,9.86176],[-68.12629,9.86519],[-68.12763,9.87409],[-68.13676,9.88828],[-68.14513,9.91838],[-68.16692,9.92267],[-68.17142,9.93154],[-68.16936,9.93771],[-68.17336,9.94066],[-68.18095,9.94012],[-68.18417,9.9443],[-68.18941,9.94422],[-68.19674,9.93947],[-68.20118,9.94144],[-68.20496,9.93909],[-68.20972,9.94784],[-68.20629,9.95031],[-68.20643,9.95341],[-68.21,9.95175],[-68.21229,9.9583],[-68.21722,9.95886],[-68.214,9.96057],[-68.21429,9.96528],[-68.21643,9.96448],[-68.22288,9.96876],[-68.22244,9.96296],[-68.22549,9.96591],[-68.23038,9.96392],[-68.23801,9.96517],[-68.24064,9.96642],[-68.23905,9.96999],[-68.24893,9.9808],[-68.25006,9.99327],[-68.2521,9.99513],[-68.24955,9.99945],[-68.25248,10.00147],[-68.24784,10.0014],[-68.25089,10.00662],[-68.24852,10.0084],[-68.2503,10.01003],[-68.24755,10.01784],[-68.24464,10.0206],[-68.24536,10.0252],[-68.23888,10.02622],[-68.23963,10.02799],[-68.23611,10.02879],[-68.23835,10.03002],[-68.23633,10.02995],[-68.2362,10.03258],[-68.23027,10.03424],[-68.23103,10.03897],[-68.22713,10.03776],[-68.22691,10.04149],[-68.22384,10.04155],[-68.22401,10.04506],[-68.21869,10.04485],[-68.21937,10.04796],[-68.21334,10.04971],[-68.21446,10.05249],[-68.21116,10.05194],[-68.20364,10.05931],[-68.20145,10.05886],[-68.20665,10.06157],[-68.2066,10.06552],[-68.21113,10.06799],[-68.21239,10.07383],[-68.21941,10.07783],[-68.22039,10.08103],[-68.22985,10.08031],[-68.23488,10.08557],[-68.24769,10.07453],[-68.25047,10.06869],[-68.26117,10.06663],[-68.26385,10.06363],[-68.27211,10.06518],[-68.27506,10.06363],[-68.28405,10.07195],[-68.28877,10.07229],[-68.29283,10.06935],[-68.29166,10.06298],[-68.30135,10.05898],[-68.31316,10.04982],[-68.32224,10.03432],[-68.33341,10.03234],[-68.3407,10.02766],[-68.34102,10.02442],[-68.33702,10.02156],[-68.33805,10.01864],[-68.33507,10.01366],[-68.33571,10.01136],[-68.33815,10.01188],[-68.33604,10.00827],[-68.33777,10.00525],[-68.343,10.00452],[-68.34094,9.99988],[-68.34717,9.99923],[-68.34914,9.99447],[-68.35211,9.99294],[-68.3535,9.99448],[-68.35373,9.99182],[-68.35611,9.99351],[-68.35603,9.99061],[-68.35885,9.99168],[-68.36092,9.98935],[-68.3648,9.99389],[-68.36847,9.99437],[-68.37004,9.98738],[-68.37715,9.98331],[-68.37628,9.98165],[-68.38128,9.98052],[-68.38276,9.97523],[-68.39188,9.97071],[-68.39392,9.96518],[-68.40398,9.96764],[-68.40597,9.96355],[-68.40589,9.96105],[-68.4037,9.96176],[-68.4046,9.95893],[-68.41381,9.95199],[-68.41545,9.95438],[-68.41689,9.95231],[-68.4193,9.95346],[-68.4188,9.95071],[-68.42965,9.93849],[-68.43121,9.93967],[-68.4392,9.93512],[-68.44005,9.93269],[-68.44247,9.93289],[-68.44254,9.92962],[-68.44688,9.92961],[-68.44961,9.92591],[-68.45442,9.92732],[-68.46981,9.91567],[-68.48006,9.91475],[-68.48269,9.91196],[-68.48189,9.90974],[-68.48439,9.91116],[-68.48712,9.9094],[-68.48581,9.90593],[-68.48909,9.90579],[-68.49139,9.90085],[-68.51657,9.88827],[-68.52234,9.88697],[-68.52215,9.89091],[-68.52615,9.89688],[-68.531,9.89398],[-68.52933,9.89288],[-68.53093,9.88985],[-68.53343,9.89122],[-68.5393,9.88778],[-68.54215,9.88891],[-68.53782,9.89337],[-68.53968,9.90158],[-68.53586,9.906],[-68.53688,9.91255],[-68.53166,9.91663],[-68.52625,9.92829],[-68.52846,9.935],[-68.53036,9.93405],[-68.53365,9.93788],[-68.53519,9.93532],[-68.54723,9.93065],[-68.55393,9.93273],[-68.55742,9.92988],[-68.56942,9.93515],[-68.57684,9.93456],[-68.57837,9.93744],[-68.59233,9.93219],[-68.60395,9.93154],[-68.60575,9.93888],[-68.61112,9.94524],[-68.61077,9.95654],[-68.61604,9.96056],[-68.62482,9.94924],[-68.64552,9.94163],[-68.65873,9.94525],[-68.66639,9.96536],[-68.6821,9.95222],[-68.68436,9.9453],[-68.70023,9.94212],[-68.71212,9.93618],[-68.71609,9.92679],[-68.71157,9.91852],[-68.71837,9.91174],[-68.72062,9.89974],[-68.71762,9.89018],[-68.72039,9.882],[-68.73849,9.87101],[-68.74667,9.87157],[-68.75543,9.86572],[-68.75998,9.86971],[-68.76936,9.8718],[-68.77855,9.86229],[-68.78329,9.86239],[-68.79687,9.85438],[-68.80372,9.84349],[-68.8066,9.84564],[-68.80886,9.84405],[-68.82466,9.8464],[-68.82625,9.84838],[-68.83234,9.84394],[-68.84262,9.84422],[-68.84401,9.8385],[-68.85421,9.83884],[-68.8545,9.83531],[-68.85973,9.83419],[-68.86653,9.8433],[-68.88234,9.84231],[-68.88732,9.84591],[-68.89127,9.84167],[-68.89158,9.83762],[-68.90494,9.83487],[-68.92591,9.83607],[-68.92744,9.83837],[-68.93511,9.83672],[-68.94004,9.84173],[-68.94674,9.84189],[-68.97054,9.85101],[-68.97176,9.84353],[-68.97564,9.84234],[-68.9769,9.83818],[-68.97953,9.83919],[-68.9748,9.83359],[-68.97702,9.82507],[-68.9742,9.82225],[-68.97798,9.82278],[-68.97859,9.81805],[-68.97794,9.81084],[-68.97295,9.80792],[-68.97681,9.80334],[-68.97347,9.80054],[-68.97564,9.78918],[-68.97215,9.78735],[-68.98673,9.7861],[-68.98165,9.78292],[-68.98424,9.77832],[-68.97856,9.7766],[-68.97645,9.76923],[-68.978,9.76447],[-68.98296,9.76649],[-68.98675,9.76082],[-68.98344,9.75847],[-68.98013,9.74997],[-68.98332,9.74486],[-68.98371,9.73867],[-68.98155,9.73598],[-68.98763,9.73104],[-68.98796,9.72675],[-68.98535,9.72452],[-68.98764,9.71992],[-68.98183,9.7212],[-68.97748,9.71685],[-68.97359,9.72081],[-68.96956,9.71663],[-68.97112,9.7132],[-68.96416,9.70967],[-68.96535,9.70185],[-68.96149,9.69328],[-68.96738,9.6889],[-68.96236,9.68581],[-68.96571,9.67564],[-68.95944,9.66652],[-68.95023,9.65939],[-68.94762,9.64987],[-68.943,9.64682],[-68.94592,9.64411],[-68.9419,9.64262],[-68.9401,9.63725],[-68.9364,9.63454],[-68.93823,9.63081],[-68.93366,9.63108],[-68.93694,9.62885],[-68.93654,9.62654],[-68.93248,9.62863],[-68.93043,9.62473],[-68.93403,9.62462],[-68.93037,9.62202],[-68.92683,9.62404],[-68.92797,9.6204],[-68.92561,9.6212],[-68.92577,9.61774],[-68.92387,9.61926],[-68.92126,9.61677],[-68.92212,9.6132],[-68.92034,9.60939],[-68.91833,9.61086],[-68.91464,9.59921],[-68.91569,9.59579],[-68.91324,9.59495],[-68.91486,9.59044],[-68.91139,9.58946],[-68.91081,9.58145],[-68.90506,9.57636],[-68.90473,9.57475],[-68.91037,9.57282],[-68.90849,9.56711],[-68.90201,9.56389],[-68.90463,9.56092],[-68.90575,9.54439],[-68.90856,9.53664],[-68.90168,9.53069],[-68.89813,9.5207],[-68.8926,9.51725],[-68.89461,9.51483],[-68.89213,9.51164],[-68.89808,9.50947],[-68.89407,9.50381],[-68.89721,9.49217],[-68.89958,9.49234],[-68.88697,9.45879],[-68.89496,9.43059],[-68.89014,9.42156],[-68.89255,9.41646],[-68.88594,9.40238],[-68.87556,9.39666],[-68.86926,9.38565],[-68.86048,9.37756],[-68.85748,9.36954],[-68.82669,9.34231],[-68.7807,9.31849],[-68.76624,9.28918],[-68.74387,9.26526],[-68.73444,9.26067],[-68.73136,9.2644],[-68.72978,9.26221],[-68.72799,9.26355],[-68.7263,9.25642],[-68.71672,9.25314],[-68.71341,9.24936],[-68.70913,9.25315],[-68.69941,9.24845],[-68.69344,9.24862],[-68.69568,9.24722],[-68.69325,9.24419],[-68.69412,9.24121],[-68.68643,9.23895],[-68.68684,9.2431],[-68.68353,9.24311],[-68.6794,9.23886],[-68.68083,9.23354],[-68.67774,9.23582],[-68.67273,9.22945],[-68.66813,9.23171],[-68.66782,9.22761],[-68.65798,9.23229],[-68.65457,9.22778],[-68.65152,9.23047],[-68.64927,9.22958],[-68.64592,9.22126],[-68.64224,9.22005],[-68.63966,9.21957],[-68.64176,9.22187],[-68.63863,9.22371],[-68.63432,9.22142],[-68.63298,9.22438],[-68.6317,9.21749],[-68.62769,9.21974],[-68.62171,9.21749],[-68.62114,9.20844],[-68.61477,9.20621],[-68.61278,9.19398],[-68.60642,9.19075],[-68.60292,9.18463],[-68.59376,9.18049],[-68.5968,9.17754],[-68.59842,9.1791],[-68.59569,9.17427],[-68.58895,9.17406],[-68.60971,9.13935],[-68.61133,9.14243],[-68.61671,9.14245],[-68.62011,9.14587],[-68.62459,9.1414],[-68.62767,9.13584],[-68.62515,9.12859],[-68.63101,9.12682],[-68.62845,9.12325],[-68.63102,9.11463],[-68.63242,9.11295],[-68.63538,9.11664],[-68.63677,9.11542],[-68.63646,9.11032],[-68.63958,9.1057],[-68.64322,9.10829],[-68.64834,9.1033],[-68.65315,9.10922],[-68.66899,9.09892],[-68.66352,9.08903],[-68.65983,9.09133],[-68.65586,9.08366],[-68.65018,9.08816],[-68.64325,9.07804],[-68.64773,9.07462],[-68.64102,9.06602],[-68.65329,9.06028],[-68.63682,9.03597],[-68.64448,9.03003],[-68.64868,9.03655],[-68.65903,9.02954],[-68.65661,9.0266],[-68.66751,9.01931],[-68.66546,9.01607],[-68.66816,9.01394],[-68.65109,8.99348],[-68.6611,8.98502],[-68.65787,8.98523],[-68.65873,8.97551],[-68.65437,8.97242],[-68.6577,8.9632],[-68.64942,8.96044],[-68.64561,8.95268],[-68.64028,8.95298],[-68.63098,8.9478],[-68.62945,8.94293],[-68.63126,8.93719],[-68.62263,8.92486],[-68.62631,8.92224],[-68.6254,8.91723],[-68.62736,8.91428],[-68.62142,8.9104],[-68.62363,8.89882],[-68.61533,8.89427],[-68.61018,8.88446],[-68.60576,8.88554],[-68.60142,8.88019],[-68.60357,8.87238],[-68.59,8.8647],[-68.5871,8.86055],[-68.58377,8.86125],[-68.58339,8.85505],[-68.58044,8.85295],[-68.58243,8.8504],[-68.58057,8.84591],[-68.57255,8.84543],[-68.57066,8.82142],[-68.58289,8.81785],[-68.58416,8.79944],[-68.59048,8.79868],[-68.59353,8.80115],[-68.59597,8.79837],[-68.59885,8.80325],[-68.59971,8.80128],[-68.60186,8.80261],[-68.60171,8.79794],[-68.60354,8.80148],[-68.60566,8.79784],[-68.60947,8.7983],[-68.61924,8.80409],[-68.6246,8.80088],[-68.62574,8.8033],[-68.62992,8.80145],[-68.62934,8.79683],[-68.6309,8.79924],[-68.63474,8.79498],[-68.64177,8.7925],[-68.64222,8.78836],[-68.63962,8.78738],[-68.64144,8.77851],[-68.64823,8.77494],[-68.64948,8.77714],[-68.65455,8.77766],[-68.65652,8.77553],[-68.65464,8.77233],[-68.65966,8.77089],[-68.66018,8.76862],[-68.66353,8.76966],[-68.66852,8.76465],[-68.67264,8.7687],[-68.67474,8.76564],[-68.68739,8.76314],[-68.69016,8.75592],[-68.68898,8.74967],[-68.69922,8.74184],[-68.71173,8.74476],[-68.71803,8.73773],[-68.72107,8.73736],[-68.72801,8.73889],[-68.72642,8.74459],[-68.73034,8.74728],[-68.7331,8.74613],[-68.73599,8.73867],[-68.73151,8.7356],[-68.73055,8.73027],[-68.72464,8.73009],[-68.72771,8.7237],[-68.71685,8.72639],[-68.71544,8.72218],[-68.72037,8.7216],[-68.72207,8.71771],[-68.71539,8.71769],[-68.71563,8.71044],[-68.70653,8.70964],[-68.70049,8.70416],[-68.70149,8.70164],[-68.69855,8.69896],[-68.68188,8.69983],[-68.67631,8.70704],[-68.66546,8.71113],[-68.65473,8.71169],[-68.64908,8.70481],[-68.64856,8.7],[-68.65354,8.69772],[-68.65127,8.6924],[-68.64804,8.6946],[-68.64687,8.69054],[-68.64802,8.66932],[-68.63878,8.66639],[-68.63405,8.65023],[-68.65189,8.64377],[-68.64284,8.63404],[-68.63225,8.63787],[-68.62504,8.63443],[-68.62183,8.63519],[-68.60925,8.62733],[-68.59927,8.62686],[-68.59395,8.63016],[-68.59589,8.63493],[-68.59398,8.63659],[-68.58444,8.63771],[-68.57884,8.63329],[-68.58337,8.62896],[-68.58143,8.62333],[-68.57313,8.61412],[-68.56717,8.61428],[-68.56074,8.61899],[-68.54804,8.61345],[-68.54845,8.60766],[-68.54278,8.60222],[-68.53399,8.59837],[-68.5142,8.60483],[-68.50646,8.59821],[-68.49456,8.60211],[-68.48828,8.59678],[-68.4736,8.59762],[-68.47055,8.59982],[-68.46676,8.60937],[-68.46254,8.60487],[-68.45945,8.60697],[-68.45181,8.60286],[-68.44177,8.60748],[-68.4375,8.60322],[-68.43013,8.60088],[-68.42482,8.5947],[-68.42073,8.59436],[-68.41558,8.60076],[-68.38584,8.60533],[-68.38306,8.61218],[-68.37987,8.6139],[-68.36799,8.61197],[-68.36172,8.60452],[-68.35713,8.60569],[-68.35599,8.60834],[-68.34796,8.60689],[-68.34144,8.60232],[-68.33759,8.60251],[-68.33244,8.59431],[-68.32482,8.59354],[-68.3242,8.59522],[-68.32746,8.59675],[-68.32349,8.60721],[-68.31017,8.6111],[-68.29847,8.59913],[-68.29838,8.59325],[-68.29456,8.59462],[-68.28213,8.58655],[-68.27138,8.59375],[-68.26325,8.59433],[-68.2649,8.60024],[-68.26196,8.60421],[-68.25917,8.60121],[-68.24508,8.59998],[-68.23366,8.58925],[-68.22762,8.5921],[-68.22207,8.59149],[-68.21459,8.59999],[-68.20995,8.60057],[-68.20839,8.6033],[-68.20465,8.60225],[-68.20048,8.59569],[-68.1938,8.60467],[-68.1877,8.60256],[-68.18565,8.60536],[-68.18132,8.60507],[-68.17915,8.60072],[-68.17767,8.60342],[-68.17062,8.6022],[-68.16929,8.60522],[-68.16077,8.60491],[-68.15656,8.5971],[-68.15207,8.59963],[-68.14632,8.59736],[-68.14802,8.60243],[-68.14599,8.60849],[-68.14476,8.60136],[-68.13987,8.59839],[-68.13764,8.59938],[-68.13744,8.5953],[-68.13401,8.59568],[-68.12659,8.6032],[-68.1252,8.59885],[-68.11776,8.59509],[-68.1162,8.59789],[-68.11792,8.60201],[-68.11167,8.60484],[-68.10974,8.60185],[-68.10476,8.60232],[-68.10897,8.59301],[-68.1057,8.59222],[-68.10507,8.59534],[-68.10338,8.59292],[-68.10136,8.59488],[-68.09846,8.59352],[-68.09881,8.59081],[-68.10251,8.58915],[-68.10125,8.58602],[-68.09779,8.588],[-68.09316,8.58505],[-68.08849,8.59009],[-68.08586,8.58814],[-68.09031,8.58276],[-68.0887,8.5777],[-68.08287,8.5797],[-68.07973,8.58372],[-68.06715,8.57229],[-68.05256,8.57818],[-68.05657,8.56333],[-68.04858,8.56068],[-68.05239,8.55506],[-68.05222,8.54361],[-68.04685,8.53461],[-68.03205,8.53333],[-68.02647,8.53883],[-68.02097,8.53445],[-68.02316,8.54124],[-68.01786,8.5433],[-68.01482,8.54123],[-68.01619,8.54868],[-68.0095,8.54985],[-68.01386,8.56135],[-68.01143,8.56096],[-68.00795,8.55485],[-68.00271,8.5538],[-67.99973,8.55681],[-67.99713,8.55634],[-67.997,8.56019],[-68.00188,8.55891],[-67.99704,8.56714],[-67.9982,8.57339],[-67.99418,8.57933],[-68.00029,8.58547],[-68.00813,8.57591],[-68.01509,8.57563],[-68.01046,8.5863],[-68.01094,8.59015],[-68.02134,8.59323],[-68.01277,8.59723],[-68.01751,8.60333],[-68.01046,8.60941],[-68.01503,8.60769],[-68.01657,8.61232],[-68.01301,8.6115],[-68.01262,8.61347],[-68.01987,8.62214],[-68.00774,8.62713],[-68.00214,8.63337],[-68.0087,8.63821],[-68.00539,8.63897],[-68.00242,8.64424],[-68.002,8.65436],[-68.00975,8.6538],[-68.00725,8.65704],[-68.01413,8.65938],[-68.00849,8.6674],[-68.0109,8.66983],[-68.01005,8.67235],[-68.01375,8.67446],[-68.01198,8.68075],[-68.01919,8.68613],[-68.01677,8.68696],[-68.0161,8.6841],[-68.01197,8.68562],[-68.00834,8.68948],[-68.01076,8.69116],[-68.00191,8.69866],[-68.00314,8.70084],[-68.00451,8.69708],[-68.00498,8.70073],[-68.00835,8.69943],[-68.01243,8.70581],[-68.01178,8.70924],[-68.01599,8.70801],[-68.01865,8.71019],[-68.01351,8.71326],[-68.01917,8.71171],[-68.01928,8.71425],[-68.01641,8.71475],[-68.02208,8.72289],[-68.01968,8.73206],[-68.02278,8.73273],[-68.02254,8.7271],[-68.03047,8.73051],[-68.02847,8.73526],[-68.02676,8.73414],[-68.02584,8.74163],[-68.01917,8.74136],[-68.0214,8.73741],[-68.01682,8.73414],[-68.00666,8.74479],[-68.00818,8.74755],[-68.00939,8.74563],[-68.0132,8.74777],[-68.01696,8.74678],[-68.01336,8.75251],[-68.01515,8.75223],[-68.01795,8.76032],[-68.02139,8.75655],[-68.0249,8.75736],[-68.0273,8.76346],[-68.02431,8.76432],[-68.0266,8.76892],[-68.01694,8.76542],[-68.01054,8.77236],[-68.00971,8.77856],[-68.01266,8.77549],[-68.01379,8.77669],[-68.00532,8.78796],[-68.00703,8.78977],[-68.00015,8.79196],[-68.00305,8.79411],[-68.00215,8.79616],[-67.99731,8.797],[-67.99851,8.79889],[-67.99285,8.8031],[-67.99746,8.80478],[-67.99366,8.80727],[-67.99243,8.81293],[-67.99534,8.81839],[-67.99133,8.81763],[-67.99417,8.82661],[-67.98532,8.83101],[-67.98833,8.83684],[-67.99031,8.83607],[-67.99006,8.84011],[-67.9838,8.84025],[-67.98293,8.84394],[-67.98071,8.8428],[-67.98026,8.84558],[-67.97787,8.84532],[-67.97839,8.84973],[-67.97616,8.84931],[-67.97495,8.85531],[-67.97171,8.8564],[-67.97168,8.86512],[-67.96724,8.86593],[-67.96863,8.86769],[-67.96321,8.8796],[-67.96368,8.88335],[-67.97607,8.88203],[-67.97851,8.89539],[-67.98097,8.89704],[-67.97957,8.90997],[-67.97525,8.91742],[-67.97609,8.92224],[-67.9737,8.92173],[-67.97317,8.92474],[-67.97,8.92222],[-67.9642,8.92848],[-67.95758,8.93052],[-67.95274,8.92766],[-67.94745,8.93308],[-67.94546,8.93057],[-67.94177,8.93103],[-67.93791,8.93554],[-67.92974,8.9335],[-67.93035,8.93522],[-67.92757,8.9351],[-67.92051,8.94112],[-67.92139,8.94405],[-67.91944,8.94236],[-67.91758,8.94443],[-67.91884,8.94913],[-67.91579,8.9509],[-67.91319,8.95841],[-67.90581,8.96054],[-67.89808,8.97373],[-67.89253,8.9759],[-67.89104,8.98016],[-67.88753,8.97996],[-67.88734,8.98512],[-67.88137,8.98888],[-67.88345,8.99356],[-67.8816,8.99827],[-67.87937,9.0003],[-67.87559,8.99946],[-67.87516,9.00428],[-67.87171,9.00666],[-67.87339,9.0083],[-67.86816,9.01063],[-67.86832,9.01325],[-67.86464,9.0162],[-67.86673,9.02248],[-67.86405,9.04091],[-67.86648,9.04676],[-67.86288,9.05364],[-67.86404,9.0564],[-67.86085,9.05888],[-67.86072,9.06625],[-67.856,9.06814],[-67.85714,9.07456],[-67.85011,9.08513],[-67.85122,9.09138],[-67.84924,9.09316],[-67.85631,9.10073],[-67.85688,9.10558],[-67.85853,9.10454],[-67.86254,9.11],[-67.85599,9.11692],[-67.85599,9.12719],[-67.85864,9.12763],[-67.8578,9.13552],[-67.86231,9.14545],[-67.8611,9.15357],[-67.87531,9.17971],[-67.87197,9.18862],[-67.87471,9.19216],[-67.87423,9.1966],[-67.87803,9.19743],[-67.87748,9.19985],[-67.88022,9.20104],[-67.87641,9.20589],[-67.87731,9.21548],[-67.87994,9.21752],[-67.87657,9.21848],[-67.87631,9.22237],[-67.88185,9.2328],[-67.88625,9.25628],[-67.89081,9.25607],[-67.89364,9.25926],[-67.8926,9.26122],[-67.89752,9.26196],[-67.90159,9.26965],[-67.90567,9.26738],[-67.90632,9.27127],[-67.90817,9.26991],[-67.91372,9.27309],[-67.91156,9.27405],[-67.91599,9.27829],[-67.91475,9.28258],[-67.91868,9.28108],[-67.92073,9.28579],[-67.93678,9.29321],[-67.93952,9.29814],[-67.937,9.29969],[-67.94177,9.30163],[-67.94023,9.30532],[-67.94344,9.31066],[-67.94145,9.31128],[-67.94153,9.31621],[-67.94245,9.31857],[-67.94582,9.31791],[-67.94337,9.3204],[-67.94661,9.31991],[-67.94667,9.32559],[-67.94359,9.32463],[-67.94417,9.32884],[-67.94201,9.3292],[-67.94388,9.33243],[-67.94015,9.33479],[-67.94065,9.33771],[-67.93421,9.33846],[-67.93543,9.34297],[-67.93209,9.34255],[-67.932,9.34646],[-67.92777,9.34441],[-67.92362,9.35007],[-67.92451,9.35193],[-67.92088,9.35365],[-67.92156,9.35895],[-67.92306,9.35661],[-67.92506,9.35967],[-67.92268,9.36118],[-67.92206,9.36928],[-67.91953,9.37062],[-67.92324,9.37338],[-67.92031,9.37638],[-67.92169,9.38353],[-67.91986,9.38261],[-67.91706,9.38756],[-67.92073,9.38683],[-67.919,9.3907],[-67.92086,9.39253],[-67.91875,9.39453],[-67.92093,9.39723],[-67.91513,9.39958],[-67.91482,9.4055],[-67.91276,9.40667],[-67.91687,9.40918],[-67.9135,9.41226],[-67.91857,9.41394],[-67.91683,9.41646],[-67.92044,9.42089],[-67.9203,9.42305],[-67.91778,9.42309],[-67.92072,9.42954],[-67.91882,9.44144],[-67.92146,9.44087],[-67.92173,9.44446],[-67.92552,9.44755],[-67.92392,9.45081],[-67.92581,9.4553],[-67.91971,9.45408],[-67.92275,9.45912],[-67.92533,9.45913],[-67.92256,9.46169],[-67.92641,9.46622],[-67.92317,9.46933],[-67.92774,9.4724],[-67.92647,9.48166],[-67.9301,9.48565],[-67.93352,9.48568],[-67.93358,9.48862],[-67.94042,9.48883],[-67.94261,9.49415],[-67.95114,9.49486],[-67.95558,9.50821],[-67.95369,9.51186],[-67.95767,9.51526],[-67.96175,9.5138],[-67.96185,9.51927],[-67.95779,9.52125],[-67.96026,9.52583],[-67.95646,9.52665],[-67.95714,9.53117],[-67.96826,9.52846],[-67.97282,9.53591],[-67.97098,9.5382],[-67.97226,9.54118],[-67.96375,9.54291],[-67.95439,9.54973],[-67.95,9.54864],[-67.93437,9.55331],[-67.93427,9.55638],[-67.93993,9.55787],[-67.93886,9.56],[-67.92695,9.56123],[-67.92839,9.57074],[-67.93526,9.57633],[-67.93313,9.58152],[-67.93658,9.58936],[-67.93501,9.59357],[-67.93773,9.60083],[-67.92632,9.59934],[-67.92286,9.60356],[-67.92383,9.60864],[-67.91565,9.61609],[-67.90482,9.61497],[-67.89956,9.61941],[-67.89274,9.62058],[-67.88766,9.61887],[-67.8873,9.61438],[-67.88388,9.61344],[-67.88432,9.6102],[-67.88205,9.60936],[-67.8742,9.61336],[-67.87374,9.61693],[-67.87143,9.61398],[-67.86939,9.61755],[-67.86439,9.61524],[-67.85839,9.61808],[-67.85697,9.62113],[-67.85144,9.61836],[-67.84591,9.62494],[-67.83969,9.62333],[-67.83638,9.62856],[-67.8327,9.62379],[-67.83049,9.62592],[-67.82725,9.62507],[-67.8247,9.63003],[-67.82168,9.62827],[-67.81867,9.63195],[-67.81522,9.62998],[-67.81635,9.63938],[-67.81274,9.63992],[-67.81115,9.6454],[-67.80564,9.64552],[-67.80647,9.65043],[-67.79672,9.65373],[-67.79433,9.65231],[-67.79102,9.65713],[-67.78607,9.65604],[-67.78828,9.66003],[-67.78196,9.66404],[-67.77799,9.67079],[-67.77361,9.67099],[-67.76832,9.67691],[-67.76601,9.6759],[-67.75787,9.68256],[-67.75499,9.68251],[-67.75588,9.69337],[-67.75191,9.7003],[-67.75434,9.70486]]]}}]}