{"type":"FeatureCollection","features":[{"type":"Feature","id":"relation/11043134","properties":{"name":"Municipio Tinaquillo","level":6,"population":"97687"},"geometry":{"type":"Polygon","coordinates":[[[-68.14274,9.8241],[-68.14757,9.82807],[-68.14735,9.83178],[-68.14209,9.84015],[-68.13449,9.84308],[-68.13315,9.84807],[-68.13639,9.85308],[-68.13076,9.85475],[-68.13056,9.85998],[-68.12629,9.86529],[-68.12837,9.87606],[-68.13676,9.88828],[-68.14513,9.91838],[-68.16692,9.92267],[-68.17142,9.93154],[-68.16936,9.93771],[-68.17336,9.94066],[-68.18095,9.94012],[-68.18417,9.9443],[-68.18941,9.94422],[-68.19674,9.93947],[-68.20118,9.94144],[-68.20496,9.93909],[-68.20972,9.94784],[-68.20629,9.95031],[-68.20643,9.95341],[-68.21,9.95175],[-68.21229,9.9583],[-68.21722,9.95886],[-68.214,9.96057],[-68.21429,9.96528],[-68.21643,9.96448],[-68.22288,9.96876],[-68.22244,9.96296],[-68.22549,9.96591],[-68.23038,9.96392],[-68.23801,9.96517],[-68.24064,9.96642],[-68.23905,9.96999],[-68.24893,9.9808],[-68.25006,9.99327],[-68.2521,9.99513],[-68.24955,9.99945],[-68.25248,10.00147],[-68.24784,10.0014],[-68.25089,10.00662],[-68.24852,10.0084],[-68.2503,10.01003],[-68.24755,10.01784],[-68.24464,10.0206],[-68.24536,10.0252],[-68.23888,10.02622],[-68.23963,10.02799],[-68.23611,10.02879],[-68.23835,10.03002],[-68.23633,10.02995],[-68.2362,10.03258],[-68.23027,10.03424],[-68.23103,10.03897],[-68.22713,10.03776],[-68.22691,10.04149],[-68.22384,10.04155],[-68.22401,10.04506],[-68.21869,10.04485],[-68.21937,10.04796],[-68.21334,10.04971],[-68.21446,10.05249],[-68.21116,10.05194],[-68.20364,10.05931],[-68.20145,10.05886],[-68.20665,10.06157],[-68.2066,10.06552],[-68.21113,10.06799],[-68.21239,10.07383],[-68.21941,10.07783],[-68.22039,10.08103],[-68.22985,10.08031],[-68.23488,10.08557],[-68.24769,10.07453],[-68.25047,10.06869],[-68.26117,10.06663],[-68.26385,10.06363],[-68.27211,10.06518],[-68.27506,10.06363],[-68.28405,10.07195],[-68.28877,10.07229],[-68.29283,10.06935],[-68.29166,10.06298],[-68.30135,10.05898],[-68.31316,10.04982],[-68.32224,10.03432],[-68.33341,10.03234],[-68.3407,10.02766],[-68.34102,10.02442],[-68.33702,10.02156],[-68.33805,10.01864],[-68.33507,10.01366],[-68.33571,10.01136],[-68.33815,10.01188],[-68.33604,10.00827],[-68.33777,10.00525],[-68.343,10.00452],[-68.34094,9.99988],[-68.34717,9.99923],[-68.34914,9.99447],[-68.35211,9.99294],[-68.3535,9.99448],[-68.35373,9.99182],[-68.35611,9.99351],[-68.35603,9.99061],[-68.35885,9.99168],[-68.36092,9.98935],[-68.3648,9.99389],[-68.36847,9.99437],[-68.37009,9.98732],[-68.37715,9.98331],[-68.37628,9.98165],[-68.38128,9.98052],[-68.3827,9.97529],[-68.38472,9.97568],[-68.38712,9.97152],[-68.39188,9.97071],[-68.3937,9.9653],[-68.39668,9.96723],[-68.40199,9.96566],[-68.4039,9.9677],[-68.40597,9.96355],[-68.40589,9.96105],[-68.4037,9.96176],[-68.4046,9.95893],[-68.41381,9.95199],[-68.41545,9.95438],[-68.41689,9.95231],[-68.4193,9.95346],[-68.4188,9.95071],[-68.42965,9.93849],[-68.43121,9.93967],[-68.4392,9.93512],[-68.44005,9.93269],[-68.44247,9.93289],[-68.44254,9.92962],[-68.44688,9.92961],[-68.44961,9.92591],[-68.45442,9.92732],[-68.46981,9.91567],[-68.48006,9.91475],[-68.48269,9.91196],[-68.48189,9.90974],[-68.48439,9.91116],[-68.48712,9.9094],[-68.48581,9.90593],[-68.48899,9.90588],[-68.49115,9.90168],[-68.4534,9.88054],[-68.44588,9.87292],[-68.43868,9.87111],[-68.43378,9.87247],[-68.42714,9.86594],[-68.42074,9.86529],[-68.40916,9.85535],[-68.3813,9.84992],[-68.36774,9.8505],[-68.36702,9.84731],[-68.37003,9.84623],[-68.37196,9.83432],[-68.37596,9.8303],[-68.37523,9.82699],[-68.38009,9.82375],[-68.37938,9.81067],[-68.37247,9.79691],[-68.35874,9.79806],[-68.34837,9.79621],[-68.33794,9.80294],[-68.33476,9.79882],[-68.3336,9.80266],[-68.32848,9.80272],[-68.32682,9.80049],[-68.32356,9.80194],[-68.32104,9.79841],[-68.31451,9.80034],[-68.30945,9.79662],[-68.30767,9.79852],[-68.30426,9.7968],[-68.28479,9.80278],[-68.27137,9.80303],[-68.24034,9.8106],[-68.22453,9.80797],[-68.12596,9.8083],[-68.12278,9.81175],[-68.12584,9.81504],[-68.13226,9.81852],[-68.13454,9.81649],[-68.14274,9.8241]]]}},{"type":"Feature","id":"relation/11043135","properties":{"name":"Municipio Lima Blanco","level":6,"population":"9454"},"geometry":{"type":"Polygon","coordinates":[[[-68.47353,9.77701],[-68.48043,9.76145],[-68.47685,9.75957],[-68.46578,9.77176],[-68.46295,9.77106],[-68.45798,9.76083],[-68.45439,9.75943],[-68.45161,9.76807],[-68.44012,9.77218],[-68.43919,9.77701],[-68.43576,9.77736],[-68.4361,9.78372],[-68.42783,9.78725],[-68.38061,9.77385],[-68.37267,9.76361],[-68.36439,9.75853],[-68.33793,9.75742],[-68.32982,9.76213],[-68.31942,9.76026],[-68.3144,9.77302],[-68.30281,9.77178],[-68.30311,9.79742],[-68.30767,9.79852],[-68.3093,9.79657],[-68.31451,9.80034],[-68.32104,9.79841],[-68.32356,9.80194],[-68.32682,9.80049],[-68.32848,9.80272],[-68.3336,9.80266],[-68.33476,9.79882],[-68.33794,9.80294],[-68.34837,9.79621],[-68.37315,9.79722],[-68.37537,9.7997],[-68.37416,9.80357],[-68.37938,9.81067],[-68.38008,9.82386],[-68.37523,9.82699],[-68.37596,9.8303],[-68.37196,9.83432],[-68.37003,9.84623],[-68.36702,9.84731],[-68.36774,9.8505],[-68.3813,9.84992],[-68.40916,9.85535],[-68.42074,9.86529],[-68.42714,9.86594],[-68.43378,9.87247],[-68.43868,9.87111],[-68.44588,9.87292],[-68.4534,9.88054],[-68.49125,9.90109],[-68.49171,9.8881],[-68.49985,9.87357],[-68.49658,9.86066],[-68.5028,9.85149],[-68.50962,9.85655],[-68.51088,9.84895],[-68.50111,9.83152],[-68.4951,9.82937],[-68.4893,9.83083],[-68.48081,9.82675],[-68.48108,9.81918],[-68.47568,9.81658],[-68.4686,9.80591],[-68.46266,9.80182],[-68.46469,9.78784],[-68.47646,9.78144],[-68.47353,9.77701]]]}},{"type":"Feature","id":"relation/11043136","properties":{"name":"Municipio San Carlos","level":6,"population":"106760"},"geometry":{"type":"Polygon","coordinates":[[[-68.75543,9.86572],[-68.75695,9.86268],[-68.76215,9.86096],[-68.76749,9.85028],[-68.77374,9.84672],[-68.77123,9.83938],[-68.77494,9.8331],[-68.77474,9.82587],[-68.82745,9.72089],[-68.82809,9.71414],[-68.83245,9.71351],[-68.83367,9.70124],[-68.84019,9.69663],[-68.83913,9.68785],[-68.83206,9.6828],[-68.83399,9.67541],[-68.83128,9.67255],[-68.83523,9.66309],[-68.83182,9.65941],[-68.83251,9.65267],[-68.83681,9.64888],[-68.83803,9.64361],[-68.83514,9.63694],[-68.82697,9.6328],[-68.82371,9.62624],[-68.81868,9.6231],[-68.81668,9.61273],[-68.82047,9.60489],[-68.81566,9.59762],[-68.81135,9.59541],[-68.80566,9.59689],[-68.80276,9.59151],[-68.79937,9.59279],[-68.78338,9.5872],[-68.77485,9.58716],[-68.77475,9.5841],[-68.76992,9.58793],[-68.76495,9.58789],[-68.75823,9.57892],[-68.75809,9.5741],[-68.74086,9.56373],[-68.7383,9.55473],[-68.73983,9.54946],[-68.72962,9.54001],[-68.72878,9.52815],[-68.71739,9.54038],[-68.71355,9.5381],[-68.70149,9.54146],[-68.6967,9.53899],[-68.69258,9.54563],[-68.69056,9.54309],[-68.68657,9.54362],[-68.67486,9.55433],[-68.66909,9.55344],[-68.66437,9.55666],[-68.6497,9.55244],[-68.64942,9.55823],[-68.63868,9.56461],[-68.63604,9.56978],[-68.64026,9.5792],[-68.63708,9.58697],[-68.6398,9.5861],[-68.64066,9.5901],[-68.64316,9.58955],[-68.64493,9.59264],[-68.64314,9.59322],[-68.64537,9.59509],[-68.64496,9.60199],[-68.64397,9.60413],[-68.64037,9.60348],[-68.64011,9.6061],[-68.6381,9.60494],[-68.63639,9.60961],[-68.63125,9.61302],[-68.6306,9.61784],[-68.52108,9.5185],[-68.39582,9.54834],[-68.41315,9.55377],[-68.41856,9.55153],[-68.43258,9.55403],[-68.43625,9.55639],[-68.43445,9.55839],[-68.43987,9.56502],[-68.44118,9.56319],[-68.44506,9.56607],[-68.44944,9.56396],[-68.45067,9.56684],[-68.45206,9.56383],[-68.46161,9.5676],[-68.46667,9.56392],[-68.46892,9.56455],[-68.46855,9.56723],[-68.47184,9.56653],[-68.47762,9.57211],[-68.47712,9.5759],[-68.48119,9.57619],[-68.48347,9.58779],[-68.487,9.58937],[-68.48953,9.58752],[-68.49308,9.59078],[-68.49184,9.59415],[-68.49787,9.60232],[-68.49512,9.60604],[-68.49575,9.61556],[-68.50849,9.62351],[-68.51157,9.63069],[-68.50601,9.63911],[-68.50707,9.64819],[-68.50466,9.65227],[-68.50661,9.65457],[-68.50236,9.66067],[-68.50457,9.66944],[-68.50915,9.67191],[-68.51061,9.67643],[-68.51429,9.67645],[-68.51734,9.68229],[-68.51701,9.6953],[-68.51913,9.69764],[-68.51656,9.70048],[-68.50743,9.70138],[-68.50951,9.70299],[-68.50882,9.71243],[-68.50546,9.72149],[-68.50362,9.72163],[-68.50568,9.72493],[-68.50288,9.72567],[-68.50093,9.73013],[-68.5052,9.73295],[-68.49926,9.73493],[-68.50115,9.73697],[-68.49928,9.73837],[-68.50094,9.74443],[-68.49467,9.7556],[-68.49706,9.75972],[-68.49002,9.76279],[-68.48059,9.76048],[-68.47362,9.77371],[-68.47646,9.78144],[-68.46469,9.78784],[-68.46266,9.80182],[-68.4686,9.80591],[-68.47568,9.81658],[-68.48108,9.81918],[-68.48081,9.82675],[-68.4893,9.83083],[-68.4951,9.82937],[-68.50111,9.83152],[-68.51088,9.84895],[-68.50962,9.85655],[-68.5028,9.85149],[-68.49658,9.86066],[-68.49985,9.87357],[-68.49171,9.8881],[-68.49145,9.90082],[-68.51914,9.88758],[-68.52239,9.88703],[-68.52215,9.89091],[-68.52615,9.89688],[-68.531,9.89398],[-68.52933,9.89288],[-68.53093,9.88985],[-68.53343,9.89122],[-68.5393,9.88778],[-68.54215,9.88891],[-68.53782,9.89337],[-68.53968,9.90158],[-68.53586,9.906],[-68.53688,9.91255],[-68.53166,9.91663],[-68.52625,9.92829],[-68.52854,9.9351],[-68.53036,9.93405],[-68.53365,9.93788],[-68.54557,9.93109],[-68.55406,9.93272],[-68.55721,9.92985],[-68.56942,9.93515],[-68.57684,9.93456],[-68.57837,9.93744],[-68.59233,9.93219],[-68.60395,9.93154],[-68.60575,9.93888],[-68.61112,9.94524],[-68.61077,9.95654],[-68.61604,9.96056],[-68.62482,9.94924],[-68.64552,9.94163],[-68.65873,9.94525],[-68.66639,9.96536],[-68.6821,9.95222],[-68.68436,9.9453],[-68.70023,9.94212],[-68.71212,9.93618],[-68.71609,9.92679],[-68.71157,9.91852],[-68.71837,9.91174],[-68.72062,9.89974],[-68.71762,9.89018],[-68.72039,9.882],[-68.73849,9.87101],[-68.74667,9.87157],[-68.75543,9.86572]]]}},{"type":"Feature","id":"relation/11043137","properties":{"name":"Municipio Anzo\u00e1tegui","level":6,"population":"17030"},"geometry":{"type":"Polygon","coordinates":[[[-68.7574,9.49419],[-68.76009,9.49911],[-68.76638,9.49816],[-68.77248,9.50294],[-68.77671,9.50068],[-68.77838,9.50211],[-68.77456,9.50531],[-68.77288,9.50386],[-68.768,9.50778],[-68.74677,9.51445],[-68.73964,9.52003],[-68.73441,9.52046],[-68.73182,9.52775],[-68.72866,9.52958],[-68.72962,9.54001],[-68.7398,9.54938],[-68.7383,9.55473],[-68.74086,9.56373],[-68.75809,9.5741],[-68.75823,9.57892],[-68.76495,9.58789],[-68.76992,9.58793],[-68.77475,9.5841],[-68.77485,9.58716],[-68.78338,9.5872],[-68.79937,9.59279],[-68.80276,9.59151],[-68.80566,9.59689],[-68.81135,9.59541],[-68.81916,9.60094],[-68.82047,9.60498],[-68.81668,9.61273],[-68.81868,9.6231],[-68.82371,9.62624],[-68.82697,9.6328],[-68.83514,9.63694],[-68.83806,9.64374],[-68.83681,9.64888],[-68.83251,9.65267],[-68.83182,9.65941],[-68.83523,9.66309],[-68.83128,9.67255],[-68.83399,9.67541],[-68.83206,9.6828],[-68.83913,9.68785],[-68.84019,9.69663],[-68.83367,9.70124],[-68.83245,9.71351],[-68.82809,9.71414],[-68.82745,9.72089],[-68.77474,9.82587],[-68.77494,9.8331],[-68.77123,9.83938],[-68.77374,9.84672],[-68.76749,9.85028],[-68.76215,9.86096],[-68.75695,9.86268],[-68.75543,9.86572],[-68.75998,9.86971],[-68.76936,9.8718],[-68.77855,9.86229],[-68.78329,9.86239],[-68.79687,9.85438],[-68.80372,9.84349],[-68.8066,9.84564],[-68.80886,9.84405],[-68.82466,9.8464],[-68.82625,9.84838],[-68.83234,9.84394],[-68.84262,9.84422],[-68.84401,9.8385],[-68.85421,9.83884],[-68.8545,9.83531],[-68.85973,9.83419],[-68.86653,9.8433],[-68.88234,9.84231],[-68.88732,9.84591],[-68.89127,9.84167],[-68.89158,9.83762],[-68.90494,9.83487],[-68.92591,9.83607],[-68.92744,9.83837],[-68.93511,9.83672],[-68.94004,9.84173],[-68.94674,9.84189],[-68.97054,9.85101],[-68.97176,9.84353],[-68.97564,9.84234],[-68.9769,9.83818],[-68.97953,9.83919],[-68.9748,9.83359],[-68.97702,9.82507],[-68.9742,9.82225],[-68.97798,9.82278],[-68.97859,9.81805],[-68.97794,9.81084],[-68.97295,9.80792],[-68.97681,9.80334],[-68.97347,9.80054],[-68.97564,9.78918],[-68.97215,9.78735],[-68.98673,9.7861],[-68.98165,9.78292],[-68.98424,9.77832],[-68.97856,9.7766],[-68.97645,9.76923],[-68.978,9.76447],[-68.98296,9.76649],[-68.98675,9.76082],[-68.98344,9.75847],[-68.98013,9.74997],[-68.98332,9.74486],[-68.98371,9.73867],[-68.98155,9.73598],[-68.98763,9.73104],[-68.98796,9.72675],[-68.98535,9.72452],[-68.98764,9.71992],[-68.98183,9.7212],[-68.97748,9.71685],[-68.97359,9.72081],[-68.96956,9.71663],[-68.97112,9.7132],[-68.96416,9.70967],[-68.96535,9.70185],[-68.96149,9.69328],[-68.96738,9.6889],[-68.96236,9.68581],[-68.96571,9.67564],[-68.95944,9.66652],[-68.95023,9.65939],[-68.94762,9.64987],[-68.943,9.64682],[-68.94592,9.64411],[-68.9419,9.64262],[-68.9401,9.63725],[-68.9364,9.63454],[-68.93823,9.63081],[-68.93366,9.63108],[-68.93694,9.62885],[-68.93654,9.62654],[-68.93248,9.62863],[-68.93043,9.62473],[-68.93403,9.62462],[-68.93037,9.62202],[-68.92683,9.62404],[-68.92797,9.6204],[-68.92561,9.6212],[-68.92577,9.61774],[-68.92387,9.61926],[-68.92126,9.61677],[-68.92212,9.6132],[-68.92034,9.60939],[-68.91833,9.61086],[-68.91464,9.59921],[-68.91569,9.59579],[-68.91324,9.59495],[-68.91486,9.59044],[-68.91139,9.58946],[-68.91081,9.58145],[-68.90506,9.57636],[-68.90473,9.57475],[-68.91037,9.57282],[-68.90849,9.56711],[-68.90201,9.56389],[-68.90463,9.56092],[-68.90575,9.54439],[-68.90856,9.53664],[-68.90168,9.53069],[-68.89813,9.5207],[-68.89262,9.51733],[-68.89461,9.51483],[-68.89213,9.51164],[-68.89808,9.50947],[-68.89407,9.50381],[-68.89721,9.49217],[-68.89958,9.49234],[-68.88696,9.45871],[-68.89496,9.43059],[-68.89075,9.42393],[-68.73787,9.42373],[-68.73924,9.4256],[-68.73468,9.43898],[-68.7373,9.44022],[-68.73475,9.44143],[-68.73496,9.44778],[-68.73739,9.44903],[-68.73843,9.44643],[-68.74253,9.45056],[-68.73872,9.45454],[-68.73631,9.45331],[-68.73807,9.4718],[-68.7352,9.47703],[-68.7358,9.48084],[-68.73994,9.48761],[-68.75432,9.49068],[-68.7574,9.49419]]]}},{"type":"Feature","id":"relation/11043138","properties":{"name":"Municipio Ricaurte","level":6,"population":"12657"},"geometry":{"type":"Polygon","coordinates":[[[-68.66416,9.51099],[-68.66197,9.51394],[-68.66537,9.51255],[-68.66336,9.5167],[-68.66555,9.51822],[-68.66304,9.51921],[-68.66261,9.52292],[-68.65963,9.52036],[-68.66014,9.52673],[-68.65665,9.52801],[-68.6591,9.52831],[-68.66058,9.53222],[-68.6568,9.53457],[-68.65762,9.53742],[-68.6547,9.54115],[-68.656,9.54407],[-68.65059,9.54827],[-68.65089,9.55154],[-68.66512,9.55659],[-68.66909,9.55344],[-68.67486,9.55433],[-68.68657,9.54362],[-68.69056,9.54309],[-68.69258,9.54563],[-68.6967,9.53899],[-68.70149,9.54146],[-68.71355,9.5381],[-68.71739,9.54038],[-68.72018,9.53541],[-68.73182,9.52775],[-68.73441,9.52046],[-68.73964,9.52003],[-68.74677,9.51445],[-68.768,9.50778],[-68.77288,9.50386],[-68.77456,9.50531],[-68.7785,9.50186],[-68.77671,9.50068],[-68.77283,9.50301],[-68.7675,9.50092],[-68.76638,9.49816],[-68.76009,9.49911],[-68.75548,9.49131],[-68.74479,9.49013],[-68.73861,9.48678],[-68.73512,9.47751],[-68.73807,9.4718],[-68.73631,9.45331],[-68.73872,9.45454],[-68.74253,9.45056],[-68.73843,9.44643],[-68.73739,9.44903],[-68.73496,9.44778],[-68.73475,9.44143],[-68.7373,9.44022],[-68.73468,9.43898],[-68.73924,9.4256],[-68.73766,9.42387],[-68.89075,9.42393],[-68.89255,9.41646],[-68.8859,9.40231],[-68.87556,9.39666],[-68.86926,9.38565],[-68.86048,9.37756],[-68.85748,9.36954],[-68.82669,9.34231],[-68.7807,9.31849],[-68.76624,9.28918],[-68.74387,9.26526],[-68.73444,9.26067],[-68.73136,9.2644],[-68.72978,9.26221],[-68.72799,9.26355],[-68.7263,9.25642],[-68.71672,9.25314],[-68.71341,9.24936],[-68.70913,9.25315],[-68.69941,9.24845],[-68.69344,9.24862],[-68.69568,9.24722],[-68.69325,9.24419],[-68.69412,9.24121],[-68.68643,9.23895],[-68.68684,9.2431],[-68.6834,9.24304],[-68.6794,9.23886],[-68.68083,9.23354],[-68.67774,9.23582],[-68.67332,9.23251],[-68.67295,9.22952],[-68.66813,9.23171],[-68.66736,9.22756],[-68.65798,9.23229],[-68.65457,9.22778],[-68.65152,9.23047],[-68.649,9.22936],[-68.64586,9.22122],[-68.63977,9.21952],[-68.64152,9.22211],[-68.63849,9.22371],[-68.63476,9.22125],[-68.63308,9.22441],[-68.6317,9.21749],[-68.62769,9.21974],[-68.62171,9.21749],[-68.62114,9.20844],[-68.61477,9.20621],[-68.61298,9.19421],[-68.60642,9.19075],[-68.60292,9.18463],[-68.59376,9.18049],[-68.5968,9.17754],[-68.59848,9.1788],[-68.59447,9.17294],[-68.58405,9.17837],[-68.58131,9.17299],[-68.57434,9.1691],[-68.57549,9.16251],[-68.57362,9.15994],[-68.57712,9.15579],[-68.57222,9.14827],[-68.56883,9.14875],[-68.5693,9.14359],[-68.56284,9.13572],[-68.5621,9.12077],[-68.56866,9.11647],[-68.56449,9.11459],[-68.5682,9.11362],[-68.56382,9.11134],[-68.56645,9.1102],[-68.55873,9.11064],[-68.56314,9.1075],[-68.56173,9.10551],[-68.55878,9.10496],[-68.55879,9.10823],[-68.55657,9.1067],[-68.55523,9.11158],[-68.5504,9.11035],[-68.54921,9.11522],[-68.5487,9.11092],[-68.54638,9.11221],[-68.54495,9.11031],[-68.54604,9.11314],[-68.54305,9.11337],[-68.54446,9.11669],[-68.54201,9.11625],[-68.54221,9.11267],[-68.53833,9.11184],[-68.53955,9.10496],[-68.5308,9.1049],[-68.52558,9.09984],[-68.52681,9.09371],[-68.53049,9.09542],[-68.52892,9.09284],[-68.52313,9.09236],[-68.51864,9.09535],[-68.51554,9.09401],[-68.51492,9.0965],[-68.51403,9.09374],[-68.50948,9.092],[-68.5121,9.08758],[-68.50838,9.08472],[-68.50612,9.08667],[-68.50532,9.08254],[-68.50905,9.08144],[-68.50698,9.0773],[-68.50521,9.08014],[-68.50338,9.07688],[-68.5022,9.07968],[-68.50359,9.0755],[-68.5001,9.07585],[-68.49969,9.08275],[-68.49378,9.07953],[-68.49413,9.0765],[-68.49591,9.07671],[-68.49333,9.07208],[-68.49527,9.06839],[-68.48858,9.06819],[-68.49303,9.06134],[-68.47937,9.06067],[-68.4764,9.06194],[-68.47866,9.06472],[-68.4765,9.06471],[-68.47363,9.06017],[-68.47498,9.05836],[-68.47195,9.06154],[-68.47102,9.0577],[-68.47377,9.05795],[-68.46998,9.05527],[-68.4687,9.05951],[-68.46748,9.05704],[-68.39424,9.05747],[-68.40087,9.06689],[-68.40986,9.06968],[-68.41373,9.0775],[-68.42019,9.08103],[-68.42182,9.08352],[-68.42029,9.08499],[-68.42546,9.08748],[-68.42688,9.09379],[-68.43534,9.09682],[-68.43486,9.1006],[-68.43828,9.10314],[-68.43948,9.1127],[-68.43646,9.11938],[-68.43915,9.12454],[-68.43738,9.12701],[-68.43949,9.12836],[-68.43136,9.13491],[-68.4339,9.13611],[-68.43357,9.13989],[-68.43659,9.14333],[-68.43596,9.15774],[-68.43874,9.16074],[-68.43607,9.16414],[-68.44062,9.16577],[-68.4387,9.16702],[-68.44092,9.16848],[-68.43953,9.17264],[-68.44353,9.17211],[-68.44166,9.17358],[-68.4423,9.18036],[-68.44948,9.18828],[-68.46155,9.19515],[-68.46246,9.20209],[-68.46724,9.20511],[-68.46769,9.21401],[-68.47445,9.21535],[-68.47562,9.21778],[-68.48141,9.21748],[-68.48334,9.22173],[-68.48045,9.22396],[-68.48255,9.22422],[-68.48524,9.23222],[-68.49456,9.23127],[-68.49285,9.235],[-68.49451,9.23863],[-68.50462,9.24143],[-68.50626,9.24729],[-68.50847,9.24633],[-68.50856,9.24921],[-68.5109,9.25004],[-68.50989,9.25921],[-68.51709,9.26741],[-68.51331,9.27045],[-68.51105,9.26927],[-68.50459,9.27695],[-68.50551,9.27999],[-68.50881,9.28004],[-68.50744,9.28236],[-68.51023,9.28375],[-68.50939,9.28635],[-68.51421,9.29276],[-68.51798,9.29289],[-68.52199,9.30053],[-68.5271,9.29882],[-68.52662,9.30252],[-68.52972,9.30057],[-68.53152,9.30356],[-68.53527,9.30058],[-68.53767,9.30297],[-68.54045,9.30208],[-68.54568,9.31077],[-68.54746,9.30845],[-68.5508,9.30946],[-68.54844,9.31412],[-68.55231,9.31703],[-68.54931,9.3223],[-68.55532,9.32427],[-68.56047,9.32204],[-68.5648,9.32468],[-68.56605,9.33438],[-68.569,9.33654],[-68.57194,9.33374],[-68.57472,9.34189],[-68.57914,9.34482],[-68.5779,9.34729],[-68.58126,9.34712],[-68.5907,9.35777],[-68.58945,9.35958],[-68.59256,9.35991],[-68.59199,9.36273],[-68.58779,9.36463],[-68.59066,9.37038],[-68.60237,9.37724],[-68.60512,9.38266],[-68.62017,9.39071],[-68.62098,9.39786],[-68.62489,9.40104],[-68.62302,9.40294],[-68.62172,9.41998],[-68.62766,9.42838],[-68.63258,9.4313],[-68.63193,9.43494],[-68.65363,9.4366],[-68.65266,9.45013],[-68.66424,9.47633],[-68.66416,9.51099]]]}},{"type":"Feature","id":"relation/11043139","properties":{"name":"Municipio R\u00f3mulo Gallegos","level":6,"population":"18297"},"geometry":{"type":"Polygon","coordinates":[[[-68.40775,9.29399],[-68.40379,9.30583],[-68.40702,9.31652],[-68.39963,9.32665],[-68.40634,9.34363],[-68.39868,9.34876],[-68.39873,9.35534],[-68.39395,9.36396],[-68.39467,9.37743],[-68.39243,9.38202],[-68.39829,9.38935],[-68.39644,9.39013],[-68.39859,9.39602],[-68.39638,9.39799],[-68.39659,9.40501],[-68.40058,9.40563],[-68.40597,9.41673],[-68.39821,9.42343],[-68.40045,9.42841],[-68.397,9.43214],[-68.39829,9.43542],[-68.39251,9.43688],[-68.38968,9.4417],[-68.39046,9.44926],[-68.3884,9.44905],[-68.38796,9.45732],[-68.38969,9.46071],[-68.38708,9.46697],[-68.39179,9.47028],[-68.38788,9.47034],[-68.38501,9.47636],[-68.38237,9.47712],[-68.38232,9.48277],[-68.37904,9.48471],[-68.37749,9.48269],[-68.37739,9.4888],[-68.37547,9.48712],[-68.37007,9.49186],[-68.36632,9.48989],[-68.36319,9.49351],[-68.36381,9.49801],[-68.36634,9.49934],[-68.36449,9.50005],[-68.36603,9.50261],[-68.36254,9.51133],[-68.36545,9.51117],[-68.36658,9.51777],[-68.3677,9.51627],[-68.36948,9.51825],[-68.36792,9.52052],[-68.3702,9.52131],[-68.37027,9.51925],[-68.37135,9.52104],[-68.36949,9.5279],[-68.36416,9.52963],[-68.36512,9.53217],[-68.36249,9.53187],[-68.36084,9.53851],[-68.37175,9.54492],[-68.3709,9.54882],[-68.39455,9.54879],[-68.52108,9.5185],[-68.6306,9.61784],[-68.63198,9.61179],[-68.63639,9.60961],[-68.6381,9.60494],[-68.6413,9.60544],[-68.64059,9.60332],[-68.64421,9.60397],[-68.64588,9.59846],[-68.6433,9.58968],[-68.64075,9.59021],[-68.63969,9.58603],[-68.63708,9.58697],[-68.64026,9.5792],[-68.63647,9.56742],[-68.64949,9.55812],[-68.65059,9.54827],[-68.65574,9.54468],[-68.6568,9.53457],[-68.66058,9.53222],[-68.65678,9.52728],[-68.66014,9.52673],[-68.65963,9.52036],[-68.66261,9.52292],[-68.66304,9.51921],[-68.66555,9.51822],[-68.66336,9.5167],[-68.66537,9.51255],[-68.66252,9.51493],[-68.66189,9.5132],[-68.66418,9.51095],[-68.66424,9.47633],[-68.65266,9.45013],[-68.65363,9.4366],[-68.63193,9.43494],[-68.63258,9.4313],[-68.62766,9.42838],[-68.62172,9.41998],[-68.62302,9.40294],[-68.62489,9.40104],[-68.62098,9.39786],[-68.62017,9.39071],[-68.60512,9.38266],[-68.60237,9.37724],[-68.59066,9.37038],[-68.58779,9.36463],[-68.59199,9.36273],[-68.59256,9.35991],[-68.58945,9.35958],[-68.5907,9.35777],[-68.58126,9.34712],[-68.5779,9.34729],[-68.57914,9.34482],[-68.57472,9.34189],[-68.57194,9.33374],[-68.569,9.33654],[-68.56605,9.33438],[-68.5648,9.32468],[-68.56047,9.32204],[-68.55532,9.32427],[-68.54931,9.3223],[-68.55231,9.31703],[-68.54844,9.31412],[-68.5508,9.30946],[-68.54746,9.30845],[-68.54568,9.31077],[-68.54045,9.30208],[-68.53767,9.30297],[-68.53527,9.30058],[-68.53152,9.30356],[-68.52972,9.30057],[-68.52662,9.30252],[-68.5271,9.29882],[-68.52199,9.30053],[-68.51798,9.29289],[-68.51421,9.29276],[-68.50939,9.28635],[-68.51023,9.28375],[-68.50744,9.28236],[-68.50881,9.28004],[-68.50551,9.27999],[-68.50459,9.27695],[-68.51105,9.26927],[-68.51331,9.27045],[-68.51709,9.26741],[-68.50989,9.25921],[-68.5109,9.25004],[-68.50856,9.24921],[-68.50847,9.24633],[-68.50626,9.24729],[-68.50462,9.24143],[-68.49451,9.23863],[-68.49285,9.235],[-68.49456,9.23127],[-68.48524,9.23222],[-68.48255,9.22422],[-68.48045,9.22396],[-68.48334,9.22173],[-68.48141,9.21748],[-68.47562,9.21778],[-68.47445,9.21535],[-68.46769,9.21401],[-68.46724,9.20511],[-68.46246,9.20209],[-68.46155,9.19515],[-68.44948,9.18828],[-68.4423,9.18036],[-68.44166,9.17358],[-68.44353,9.17211],[-68.43953,9.17264],[-68.44092,9.16848],[-68.4387,9.16702],[-68.44062,9.16577],[-68.43607,9.16414],[-68.43874,9.16074],[-68.43596,9.15774],[-68.43659,9.14333],[-68.43357,9.13989],[-68.4339,9.13611],[-68.43136,9.13491],[-68.43949,9.12836],[-68.43738,9.12701],[-68.43915,9.12454],[-68.43646,9.11938],[-68.43948,9.1127],[-68.43828,9.10314],[-68.43486,9.1006],[-68.43534,9.09682],[-68.42688,9.09379],[-68.42546,9.08748],[-68.42029,9.08499],[-68.42182,9.08352],[-68.42019,9.08103],[-68.41373,9.0775],[-68.40986,9.06968],[-68.40087,9.06689],[-68.39424,9.05747],[-68.38264,9.06504],[-68.38166,9.07057],[-68.3755,9.06612],[-68.37037,9.06681],[-68.37048,9.06181],[-68.36611,9.05877],[-68.3635,9.0623],[-68.35966,9.06044],[-68.35711,9.06231],[-68.35821,9.065],[-68.37393,9.07266],[-68.37359,9.07925],[-68.37063,9.07793],[-68.36483,9.08151],[-68.37264,9.08506],[-68.37281,9.08941],[-68.37023,9.08937],[-68.37229,9.09445],[-68.37821,9.09119],[-68.379,9.09306],[-68.3746,9.09612],[-68.37878,9.09776],[-68.37915,9.10168],[-68.37534,9.10994],[-68.37164,9.10908],[-68.3715,9.11416],[-68.3645,9.11577],[-68.36139,9.12011],[-68.36306,9.12536],[-68.36113,9.12806],[-68.36473,9.13003],[-68.36352,9.13402],[-68.36616,9.13748],[-68.36817,9.1367],[-68.36842,9.1397],[-68.37149,9.13776],[-68.36979,9.14183],[-68.37519,9.14448],[-68.37318,9.14473],[-68.37397,9.1497],[-68.37199,9.14886],[-68.3714,9.15183],[-68.37504,9.15093],[-68.37795,9.15819],[-68.38244,9.16125],[-68.38149,9.16449],[-68.38432,9.16357],[-68.38743,9.16662],[-68.38638,9.17103],[-68.38947,9.17181],[-68.38556,9.17348],[-68.38831,9.17639],[-68.38818,9.1831],[-68.39374,9.18223],[-68.39557,9.18562],[-68.40181,9.18518],[-68.40089,9.18878],[-68.40387,9.18689],[-68.40351,9.19141],[-68.40859,9.18935],[-68.40711,9.1931],[-68.40316,9.19303],[-68.40147,9.19606],[-68.40408,9.20043],[-68.40644,9.19825],[-68.40545,9.20104],[-68.4109,9.20055],[-68.40777,9.20685],[-68.41268,9.20926],[-68.41275,9.21328],[-68.41942,9.21174],[-68.4185,9.21407],[-68.42202,9.21468],[-68.41966,9.22311],[-68.41764,9.22368],[-68.42028,9.2261],[-68.41642,9.23303],[-68.42041,9.23317],[-68.41821,9.24045],[-68.4211,9.24692],[-68.41754,9.24886],[-68.42239,9.25028],[-68.41962,9.25325],[-68.42487,9.25855],[-68.42672,9.26613],[-68.42124,9.26814],[-68.42,9.27332],[-68.41667,9.27399],[-68.41562,9.28585],[-68.41113,9.28811],[-68.40775,9.29399]]]}},{"type":"Feature","id":"relation/11043140","properties":{"name":"Municipio Tinaco","level":6,"population":"32564"},"geometry":{"type":"Polygon","coordinates":[[[-68.40775,9.29399],[-68.41113,9.28811],[-68.41562,9.28585],[-68.41667,9.27399],[-68.42,9.27332],[-68.42124,9.26814],[-68.42672,9.26613],[-68.42487,9.25855],[-68.41962,9.25325],[-68.42239,9.25028],[-68.41754,9.24886],[-68.4211,9.24692],[-68.41821,9.24045],[-68.42041,9.23317],[-68.41642,9.23303],[-68.42028,9.2261],[-68.41764,9.22368],[-68.41966,9.22311],[-68.42202,9.21468],[-68.4185,9.21407],[-68.41942,9.21174],[-68.41275,9.21328],[-68.41268,9.20926],[-68.40777,9.20685],[-68.4109,9.20055],[-68.40545,9.20104],[-68.40644,9.19825],[-68.40408,9.20043],[-68.40147,9.19606],[-68.40316,9.19303],[-68.40711,9.1931],[-68.40859,9.18935],[-68.40351,9.19141],[-68.40387,9.18689],[-68.40089,9.18878],[-68.40181,9.18518],[-68.39557,9.18562],[-68.39374,9.18223],[-68.38818,9.1831],[-68.38831,9.17639],[-68.38556,9.17348],[-68.38947,9.17181],[-68.38638,9.17103],[-68.38743,9.16662],[-68.38432,9.16357],[-68.38149,9.16449],[-68.38244,9.16125],[-68.37795,9.15819],[-68.37504,9.15093],[-68.37144,9.15189],[-68.37514,9.14406],[-68.36979,9.14183],[-68.37149,9.13776],[-68.3686,9.13975],[-68.3681,9.13662],[-68.36486,9.13652],[-68.36467,9.12979],[-68.36113,9.12806],[-68.36306,9.12536],[-68.36137,9.12018],[-68.36428,9.11595],[-68.3715,9.11416],[-68.37159,9.10913],[-68.37529,9.11001],[-68.37558,9.10589],[-68.37899,9.10266],[-68.37878,9.09776],[-68.37459,9.09625],[-68.37871,9.09155],[-68.37265,9.09465],[-68.37023,9.08949],[-68.37024,9.09381],[-68.36558,9.09618],[-68.36236,9.09451],[-68.35975,9.10186],[-68.35543,9.10427],[-68.35481,9.11563],[-68.34985,9.12067],[-68.35256,9.12236],[-68.34949,9.12382],[-68.35136,9.12668],[-68.34522,9.13319],[-68.34155,9.13346],[-68.3393,9.13806],[-68.34346,9.14079],[-68.33932,9.14469],[-68.34011,9.1487],[-68.34365,9.15098],[-68.34379,9.15909],[-68.3327,9.17173],[-68.32919,9.19129],[-68.32699,9.19374],[-68.32818,9.19751],[-68.3251,9.20127],[-68.32657,9.2081],[-68.32459,9.21014],[-68.32752,9.2109],[-68.32739,9.21542],[-68.33216,9.22004],[-68.33243,9.22728],[-68.33582,9.22812],[-68.33198,9.23335],[-68.33628,9.24968],[-68.33024,9.2547],[-68.33317,9.25924],[-68.33302,9.26438],[-68.34259,9.26871],[-68.34152,9.27724],[-68.34851,9.28084],[-68.34791,9.28432],[-68.35109,9.28226],[-68.35521,9.28399],[-68.35588,9.29902],[-68.35159,9.30145],[-68.35088,9.30541],[-68.34687,9.30536],[-68.34809,9.31021],[-68.34406,9.30716],[-68.33934,9.30929],[-68.34035,9.31158],[-68.33851,9.31282],[-68.33737,9.30836],[-68.33472,9.30939],[-68.33534,9.30659],[-68.33141,9.30666],[-68.32944,9.30418],[-68.33077,9.29785],[-68.32859,9.29537],[-68.32653,9.29764],[-68.32206,9.29452],[-68.32026,9.29965],[-68.31739,9.29754],[-68.31802,9.3018],[-68.31558,9.301],[-68.3119,9.30743],[-68.30842,9.3086],[-68.30924,9.31251],[-68.30583,9.31216],[-68.30475,9.31482],[-68.29784,9.31091],[-68.29599,9.31412],[-68.29301,9.31367],[-68.28341,9.31934],[-68.28282,9.32311],[-68.27931,9.32159],[-68.27441,9.3254],[-68.27776,9.33135],[-68.29255,9.34281],[-68.29274,9.34728],[-68.29641,9.35232],[-68.29122,9.3553],[-68.29978,9.36066],[-68.30538,9.37801],[-68.30841,9.38068],[-68.30526,9.38699],[-68.30829,9.38745],[-68.31717,9.39811],[-68.31687,9.40808],[-68.31352,9.4125],[-68.31358,9.41871],[-68.31062,9.42006],[-68.31302,9.42313],[-68.31266,9.43475],[-68.30596,9.44457],[-68.30723,9.44836],[-68.30139,9.45145],[-68.303,9.45994],[-68.29899,9.46832],[-68.30026,9.47095],[-68.28592,9.47601],[-68.27867,9.48711],[-68.26298,9.49503],[-68.25612,9.50366],[-68.24833,9.50804],[-68.21882,9.60699],[-68.20519,9.6618],[-68.3089,9.66571],[-68.30281,9.77178],[-68.30473,9.77306],[-68.31622,9.77219],[-68.31942,9.76026],[-68.32982,9.76213],[-68.33793,9.75742],[-68.3576,9.7597],[-68.36279,9.75818],[-68.37267,9.76361],[-68.38061,9.77385],[-68.42963,9.78727],[-68.43339,9.78327],[-68.4361,9.78372],[-68.43576,9.77736],[-68.43919,9.77701],[-68.44012,9.77218],[-68.45161,9.76807],[-68.45439,9.75943],[-68.45798,9.76083],[-68.46295,9.77106],[-68.46578,9.77176],[-68.47673,9.7596],[-68.48989,9.76279],[-68.4969,9.75993],[-68.49467,9.7556],[-68.50094,9.74443],[-68.49928,9.73837],[-68.50115,9.73697],[-68.49926,9.73493],[-68.5052,9.73295],[-68.50093,9.73013],[-68.50288,9.72567],[-68.50568,9.72493],[-68.50362,9.72163],[-68.50546,9.72149],[-68.50882,9.71243],[-68.50951,9.70299],[-68.50743,9.70138],[-68.51656,9.70048],[-68.51913,9.69764],[-68.51701,9.6953],[-68.51734,9.68229],[-68.51429,9.67645],[-68.51061,9.67643],[-68.50915,9.67191],[-68.50457,9.66944],[-68.50236,9.66067],[-68.50661,9.65457],[-68.50466,9.65227],[-68.50707,9.64819],[-68.50601,9.63911],[-68.51157,9.63069],[-68.50849,9.62351],[-68.49575,9.61556],[-68.49512,9.60604],[-68.49787,9.60232],[-68.49184,9.59415],[-68.49308,9.59078],[-68.48953,9.58752],[-68.487,9.58937],[-68.48347,9.58779],[-68.48119,9.57619],[-68.47712,9.5759],[-68.47729,9.57174],[-68.47112,9.56603],[-68.46855,9.56723],[-68.46892,9.56455],[-68.46667,9.56392],[-68.46161,9.5676],[-68.45206,9.56383],[-68.45067,9.56684],[-68.44944,9.56396],[-68.44519,9.56607],[-68.44118,9.56319],[-68.43789,9.5644],[-68.43441,9.55828],[-68.43573,9.55577],[-68.42587,9.55197],[-68.41315,9.55377],[-68.39582,9.54834],[-68.3709,9.54882],[-68.37175,9.54492],[-68.36082,9.53848],[-68.36249,9.53187],[-68.36512,9.53217],[-68.36416,9.52963],[-68.36949,9.5279],[-68.37135,9.52104],[-68.37027,9.51925],[-68.3702,9.52131],[-68.36792,9.52052],[-68.36948,9.51825],[-68.3677,9.51627],[-68.36658,9.51777],[-68.36545,9.51117],[-68.36254,9.51133],[-68.36603,9.50261],[-68.36449,9.50005],[-68.36634,9.49934],[-68.36381,9.49801],[-68.36319,9.49351],[-68.36632,9.48989],[-68.37007,9.49186],[-68.37547,9.48712],[-68.37739,9.4888],[-68.37749,9.48269],[-68.37904,9.48471],[-68.38232,9.48277],[-68.38237,9.47712],[-68.38501,9.47636],[-68.38788,9.47034],[-68.39179,9.47028],[-68.38708,9.46697],[-68.38969,9.46071],[-68.38796,9.45732],[-68.3884,9.44905],[-68.39046,9.44926],[-68.38968,9.4417],[-68.39251,9.43688],[-68.39829,9.43542],[-68.397,9.43214],[-68.40045,9.42841],[-68.39821,9.42343],[-68.40597,9.41673],[-68.40058,9.40563],[-68.39659,9.40501],[-68.39638,9.39799],[-68.39859,9.39602],[-68.39644,9.39013],[-68.39829,9.38935],[-68.39243,9.38202],[-68.39467,9.37743],[-68.39395,9.36396],[-68.39873,9.35534],[-68.39868,9.34876],[-68.40634,9.34363],[-68.39963,9.32665],[-68.40702,9.31652],[-68.40379,9.30583],[-68.40775,9.29399]]]}},{"type":"Feature","id":"relation/11043141","properties":{"name":"Municipio El Pao","level":6,"population":"16810"},"geometry":{"type":"Polygon","coordinates":[[[-68.02171,8.88707],[-68.02832,8.88306],[-68.02766,8.87884],[-68.03136,8.8746],[-68.02735,8.87068],[-68.02816,8.86554],[-68.04118,8.86578],[-68.04782,8.86025],[-68.05095,8.86187],[-68.05639,8.85937],[-68.05665,8.85538],[-68.05363,8.8544],[-68.05478,8.85265],[-68.05206,8.8532],[-68.05176,8.85006],[-68.05539,8.84817],[-68.05379,8.84613],[-68.05659,8.84644],[-68.05428,8.84263],[-68.05744,8.84314],[-68.05507,8.84073],[-68.05787,8.83953],[-68.05714,8.83696],[-68.05287,8.83713],[-68.05482,8.83424],[-68.05229,8.82972],[-68.05566,8.82766],[-68.05263,8.82701],[-68.05319,8.82219],[-68.05648,8.82122],[-68.05088,8.81999],[-68.05016,8.81741],[-68.05418,8.81564],[-68.05045,8.8132],[-68.05458,8.80593],[-68.05296,8.80335],[-68.05674,8.80555],[-68.05539,8.80151],[-68.05907,8.80124],[-68.05991,8.79678],[-68.06381,8.79621],[-68.06325,8.79256],[-68.06864,8.79301],[-68.06897,8.78962],[-68.07248,8.79135],[-68.07196,8.78579],[-68.07634,8.78767],[-68.07434,8.78303],[-68.07628,8.78078],[-68.07259,8.78084],[-68.07579,8.77455],[-68.07136,8.7742],[-68.0712,8.77226],[-68.07335,8.76978],[-68.07902,8.77192],[-68.07743,8.76741],[-68.07989,8.7661],[-68.07784,8.76509],[-68.08229,8.76844],[-68.08353,8.76263],[-68.08595,8.76137],[-68.08855,8.76399],[-68.09259,8.76276],[-68.09306,8.76047],[-68.09796,8.76133],[-68.09729,8.75869],[-68.10083,8.75536],[-68.09249,8.74988],[-68.0937,8.7449],[-68.08997,8.74304],[-68.09024,8.74055],[-68.08762,8.74071],[-68.09002,8.73771],[-68.08339,8.73059],[-68.08292,8.72586],[-68.08079,8.72706],[-68.08031,8.72448],[-68.0789,8.72613],[-68.07792,8.7244],[-68.07694,8.72874],[-68.07533,8.72709],[-68.07347,8.72873],[-68.07161,8.72603],[-68.07011,8.729],[-68.06827,8.72526],[-68.07067,8.72416],[-68.06947,8.72193],[-68.07355,8.72098],[-68.07293,8.71874],[-68.06692,8.71576],[-68.06712,8.7188],[-68.06406,8.71942],[-68.06265,8.71631],[-68.06474,8.71314],[-68.05809,8.71391],[-68.05884,8.70929],[-68.05528,8.70905],[-68.05868,8.70433],[-68.05491,8.7037],[-68.05955,8.70265],[-68.06013,8.69883],[-68.05808,8.69737],[-68.05985,8.69504],[-68.05772,8.68901],[-68.05452,8.68954],[-68.05604,8.68704],[-68.05215,8.68442],[-68.05358,8.68207],[-68.04956,8.68349],[-68.04919,8.67983],[-68.04475,8.68064],[-68.04187,8.68412],[-68.03891,8.68124],[-68.04004,8.67955],[-68.03759,8.68102],[-68.03463,8.67899],[-68.03315,8.68176],[-68.03292,8.67836],[-68.02985,8.68023],[-68.02689,8.67723],[-68.02682,8.68205],[-68.0241,8.67995],[-68.02345,8.68173],[-68.0222,8.67577],[-68.02666,8.67062],[-68.02568,8.66742],[-68.02015,8.66758],[-68.01738,8.66357],[-68.01258,8.67069],[-68.0109,8.66983],[-68.01005,8.67235],[-68.01378,8.67458],[-68.01198,8.68075],[-68.01739,8.68296],[-68.01916,8.68625],[-68.01677,8.68696],[-68.0161,8.6841],[-68.01197,8.68562],[-68.00834,8.68948],[-68.01076,8.69116],[-68.00198,8.69961],[-68.00361,8.70075],[-68.00495,8.69714],[-68.00477,8.70055],[-68.00766,8.69891],[-68.01192,8.70489],[-68.01178,8.70924],[-68.01599,8.70801],[-68.01865,8.71019],[-68.01351,8.71326],[-68.01917,8.71171],[-68.01928,8.71425],[-68.01641,8.71475],[-68.02208,8.72289],[-68.01968,8.73206],[-68.02278,8.73273],[-68.02264,8.72709],[-68.03074,8.7315],[-68.02826,8.73543],[-68.02676,8.73414],[-68.02584,8.74163],[-68.01917,8.74136],[-68.0214,8.73741],[-68.01682,8.73414],[-68.0085,8.74077],[-68.00669,8.74532],[-68.00825,8.74756],[-68.00939,8.74563],[-68.0132,8.74777],[-68.01696,8.74678],[-68.01336,8.75251],[-68.01515,8.75223],[-68.01795,8.76032],[-68.02139,8.75655],[-68.0249,8.75736],[-68.0273,8.76346],[-68.02431,8.76432],[-68.02663,8.76881],[-68.01694,8.76542],[-68.01054,8.77236],[-68.00971,8.77856],[-68.01266,8.77549],[-68.01379,8.77669],[-68.00532,8.78796],[-68.00703,8.78977],[-68.00015,8.79196],[-68.00305,8.79411],[-68.00215,8.79616],[-67.99731,8.797],[-67.99851,8.79889],[-67.99285,8.8031],[-67.99746,8.80478],[-67.99366,8.80727],[-67.99243,8.81293],[-67.99534,8.81839],[-67.99133,8.81763],[-67.99417,8.82661],[-67.98532,8.83101],[-67.98833,8.83684],[-67.99031,8.83607],[-67.99006,8.84011],[-67.9838,8.84025],[-67.98293,8.84394],[-67.98071,8.8428],[-67.98026,8.84558],[-67.97787,8.84532],[-67.97839,8.84973],[-67.97616,8.84931],[-67.97495,8.85531],[-67.97171,8.8564],[-67.97168,8.86512],[-67.96724,8.86593],[-67.96863,8.86769],[-67.96321,8.8796],[-67.96368,8.88335],[-67.97607,8.88203],[-67.97851,8.89539],[-67.98097,8.89704],[-67.97957,8.90997],[-67.97525,8.91742],[-67.97663,8.92099],[-67.97362,8.92183],[-67.97389,8.92447],[-67.97,8.92222],[-67.9642,8.92848],[-67.95758,8.93052],[-67.95274,8.92766],[-67.94867,8.92978],[-67.94852,8.93262],[-67.94177,8.93103],[-67.93791,8.93554],[-67.92974,8.9335],[-67.93035,8.93522],[-67.92757,8.9351],[-67.92051,8.94112],[-67.92139,8.94405],[-67.91944,8.94236],[-67.91758,8.94443],[-67.91884,8.94913],[-67.91579,8.9509],[-67.91319,8.95841],[-67.90581,8.96054],[-67.89808,8.97373],[-67.89253,8.9759],[-67.89104,8.98016],[-67.88753,8.97996],[-67.88734,8.98512],[-67.88137,8.98888],[-67.88345,8.99356],[-67.8816,8.99827],[-67.87937,9.0003],[-67.87559,8.99946],[-67.87516,9.00428],[-67.87171,9.00666],[-67.87339,9.0083],[-67.86816,9.01063],[-67.86832,9.01325],[-67.86464,9.0162],[-67.86673,9.02248],[-67.86405,9.04091],[-67.86648,9.04676],[-67.86288,9.05364],[-67.86404,9.0564],[-67.86085,9.05888],[-67.86072,9.06625],[-67.856,9.06814],[-67.85714,9.07456],[-67.85011,9.08513],[-67.85122,9.09138],[-67.84924,9.09316],[-67.85631,9.10073],[-67.85688,9.10558],[-67.85853,9.10454],[-67.86254,9.11],[-67.85599,9.11692],[-67.85599,9.12719],[-67.85864,9.12763],[-67.8578,9.13552],[-67.86231,9.14545],[-67.8611,9.15357],[-67.87531,9.17971],[-67.87197,9.18862],[-67.87471,9.19216],[-67.87423,9.1966],[-67.87803,9.19743],[-67.87748,9.19985],[-67.88022,9.20104],[-67.87641,9.20589],[-67.87731,9.21548],[-67.87994,9.21752],[-67.87657,9.21848],[-67.87631,9.22237],[-67.88185,9.2328],[-67.88625,9.25628],[-67.89081,9.25607],[-67.89364,9.25926],[-67.8926,9.26122],[-67.89752,9.26196],[-67.90159,9.26965],[-67.90567,9.26738],[-67.90632,9.27127],[-67.90817,9.26991],[-67.91372,9.27309],[-67.91156,9.27405],[-67.91599,9.27829],[-67.91475,9.28258],[-67.91868,9.28108],[-67.92073,9.28579],[-67.93678,9.29321],[-67.93952,9.29814],[-67.937,9.29969],[-67.94177,9.30163],[-67.94023,9.30532],[-67.94344,9.31066],[-67.94145,9.31128],[-67.94153,9.31621],[-67.94245,9.31857],[-67.94582,9.31791],[-67.94337,9.3204],[-67.94661,9.31991],[-67.94667,9.32559],[-67.94359,9.32463],[-67.94417,9.32884],[-67.94201,9.3292],[-67.94388,9.33243],[-67.94015,9.33479],[-67.94065,9.33771],[-67.93421,9.33846],[-67.93543,9.34297],[-67.93209,9.34255],[-67.932,9.34646],[-67.92777,9.34441],[-67.92362,9.35007],[-67.92451,9.35193],[-67.92088,9.35365],[-67.92156,9.35895],[-67.92306,9.35661],[-67.92506,9.35967],[-67.92268,9.36118],[-67.92206,9.36928],[-67.91953,9.37062],[-67.92324,9.37338],[-67.92031,9.37638],[-67.92169,9.38353],[-67.91986,9.38261],[-67.91706,9.38756],[-67.92073,9.38683],[-67.919,9.3907],[-67.92086,9.39253],[-67.91875,9.39453],[-67.92093,9.39723],[-67.91513,9.39958],[-67.91482,9.4055],[-67.91276,9.40667],[-67.91687,9.40918],[-67.9135,9.41226],[-67.91857,9.41394],[-67.91683,9.41646],[-67.92044,9.42089],[-67.9203,9.42305],[-67.91778,9.42309],[-67.92072,9.42954],[-67.91882,9.44144],[-67.92146,9.44087],[-67.92173,9.44446],[-67.92552,9.44755],[-67.92392,9.45081],[-67.92581,9.4553],[-67.91971,9.45408],[-67.92275,9.45912],[-67.92533,9.45913],[-67.92256,9.46169],[-67.92641,9.46622],[-67.92317,9.46933],[-67.92774,9.4724],[-67.92647,9.48166],[-67.9301,9.48565],[-67.93352,9.48568],[-67.93358,9.48862],[-67.94042,9.48883],[-67.94261,9.49415],[-67.95114,9.49486],[-67.95558,9.50821],[-67.95369,9.51186],[-67.95767,9.51526],[-67.96175,9.5138],[-67.96185,9.51927],[-67.95779,9.52125],[-67.96026,9.52583],[-67.95646,9.52665],[-67.95714,9.53117],[-67.96826,9.52846],[-67.97282,9.53591],[-67.97098,9.5382],[-67.97226,9.54118],[-67.96375,9.54291],[-67.95439,9.54973],[-67.95,9.54864],[-67.93437,9.55331],[-67.93427,9.55638],[-67.93993,9.55787],[-67.93886,9.56],[-67.92695,9.56123],[-67.92839,9.57074],[-67.93526,9.57633],[-67.93313,9.58152],[-67.93658,9.58936],[-67.93501,9.59357],[-67.93773,9.60083],[-67.92632,9.59934],[-67.92286,9.60356],[-67.92383,9.60864],[-67.91565,9.61609],[-67.90482,9.61497],[-67.89956,9.61941],[-67.89274,9.62058],[-67.88766,9.61887],[-67.8873,9.61438],[-67.88388,9.61344],[-67.88432,9.6102],[-67.88205,9.60936],[-67.8742,9.61336],[-67.87374,9.61693],[-67.87143,9.61398],[-67.86939,9.61755],[-67.86439,9.61524],[-67.85839,9.61808],[-67.85697,9.62113],[-67.85144,9.61836],[-67.84591,9.62494],[-67.83969,9.62333],[-67.83638,9.62856],[-67.8327,9.62379],[-67.83049,9.62592],[-67.82725,9.62507],[-67.8247,9.63003],[-67.82168,9.62827],[-67.81867,9.63195],[-67.81522,9.62998],[-67.81635,9.63938],[-67.81274,9.63992],[-67.81115,9.6454],[-67.80564,9.64552],[-67.80647,9.65043],[-67.79672,9.65373],[-67.79433,9.65231],[-67.79102,9.65713],[-67.78607,9.65604],[-67.78828,9.66003],[-67.78196,9.66404],[-67.77799,9.67079],[-67.77361,9.67099],[-67.76832,9.67691],[-67.76601,9.6759],[-67.75787,9.68256],[-67.75499,9.68251],[-67.75588,9.69337],[-67.75191,9.7003],[-67.76245,9.71686],[-67.75741,9.72458],[-67.76129,9.72607],[-67.76489,9.73266],[-67.76414,9.74047],[-67.7681,9.7413],[-67.76508,9.74966],[-67.76564,9.75958],[-67.76286,9.76219],[-67.78339,9.76469],[-67.78751,9.78216],[-67.79323,9.78066],[-67.79795,9.78353],[-67.79667,9.8018],[-67.8001,9.80846],[-67.80032,9.81543],[-67.80378,9.81911],[-67.79949,9.82408],[-67.79748,9.83306],[-67.80226,9.83699],[-67.80322,9.84696],[-67.80709,9.84854],[-67.81266,9.84286],[-67.82823,9.84007],[-67.83323,9.83549],[-67.84595,9.83502],[-67.86422,9.83825],[-67.86633,9.83495],[-67.8813,9.83319],[-67.89255,9.8232],[-67.90595,9.819],[-67.91057,9.81337],[-67.91728,9.81148],[-67.9252,9.8128],[-67.93186,9.81901],[-67.94516,9.8224],[-67.95507,9.83033],[-67.96817,9.82957],[-67.97582,9.82664],[-67.98293,9.83048],[-67.9914,9.82811],[-68.00543,9.83118],[-68.00827,9.84064],[-68.01415,9.84772],[-68.01505,9.86258],[-68.0065,9.87048],[-68.00427,9.8817],[-68.00796,9.87349],[-68.01202,9.8704],[-68.01641,9.87082],[-68.02218,9.86641],[-68.03907,9.86054],[-68.05083,9.86239],[-68.05912,9.85907],[-68.06677,9.86127],[-68.07853,9.85487],[-68.08269,9.8504],[-68.08251,9.84504],[-68.08646,9.84161],[-68.10071,9.83779],[-68.11818,9.8365],[-68.12145,9.84738],[-68.12651,9.84932],[-68.12373,9.86047],[-68.12916,9.86172],[-68.13076,9.85475],[-68.13643,9.85296],[-68.13315,9.84807],[-68.13449,9.84308],[-68.14223,9.84002],[-68.14781,9.82863],[-68.13454,9.81649],[-68.13226,9.81852],[-68.12584,9.81504],[-68.12278,9.81175],[-68.12596,9.8083],[-68.22453,9.80797],[-68.24034,9.8106],[-68.30311,9.79742],[-68.3089,9.66571],[-68.20519,9.6618],[-68.21882,9.60699],[-68.24833,9.50804],[-68.25612,9.50366],[-68.26298,9.49503],[-68.27867,9.48711],[-68.28592,9.47601],[-68.30026,9.47095],[-68.29899,9.46832],[-68.303,9.45994],[-68.30139,9.45145],[-68.30723,9.44836],[-68.30596,9.44457],[-68.31266,9.43475],[-68.31302,9.42313],[-68.31062,9.42006],[-68.31358,9.41871],[-68.31352,9.4125],[-68.31687,9.40808],[-68.31717,9.39811],[-68.30829,9.38745],[-68.30526,9.38699],[-68.30841,9.38068],[-68.30538,9.37801],[-68.29978,9.36066],[-68.29122,9.3553],[-68.29641,9.35232],[-68.29274,9.34728],[-68.29255,9.34281],[-68.27776,9.33135],[-68.27441,9.3254],[-68.27931,9.32159],[-68.28282,9.32311],[-68.28341,9.31934],[-68.29301,9.31367],[-68.29599,9.31412],[-68.29784,9.31091],[-68.30475,9.31482],[-68.30583,9.31216],[-68.30924,9.31251],[-68.30842,9.3086],[-68.3119,9.30743],[-68.31558,9.301],[-68.31802,9.3018],[-68.31739,9.29754],[-68.32026,9.29965],[-68.32206,9.29452],[-68.32653,9.29764],[-68.32859,9.29537],[-68.33077,9.29785],[-68.32944,9.30418],[-68.33141,9.30666],[-68.33534,9.30659],[-68.33472,9.30939],[-68.33737,9.30836],[-68.33851,9.31282],[-68.34035,9.31158],[-68.33934,9.30929],[-68.34406,9.30716],[-68.34809,9.31021],[-68.34687,9.30536],[-68.35088,9.30541],[-68.35159,9.30145],[-68.35588,9.29902],[-68.35521,9.28399],[-68.35109,9.28226],[-68.34791,9.28432],[-68.34851,9.28084],[-68.34152,9.27724],[-68.34259,9.26871],[-68.33302,9.26438],[-68.33317,9.25924],[-68.33024,9.2547],[-68.33628,9.24968],[-68.33198,9.23335],[-68.33582,9.22812],[-68.33243,9.22728],[-68.33216,9.22004],[-68.32739,9.21542],[-68.32752,9.2109],[-68.3246,9.21024],[-68.32657,9.2081],[-68.32489,9.20378],[-68.32818,9.19751],[-68.32699,9.19374],[-68.32919,9.19129],[-68.3327,9.17173],[-68.34379,9.15909],[-68.34365,9.15098],[-68.34011,9.1487],[-68.33932,9.14469],[-68.34346,9.14079],[-68.3393,9.13806],[-68.34155,9.13346],[-68.34522,9.13319],[-68.35136,9.12668],[-68.34949,9.12382],[-68.35256,9.12236],[-68.34985,9.12067],[-68.35481,9.11563],[-68.35543,9.10427],[-68.35975,9.10186],[-68.36236,9.09451],[-68.36558,9.09618],[-68.37024,9.09381],[-68.37039,9.08895],[-68.37286,9.08931],[-68.37264,9.08506],[-68.36761,9.08438],[-68.36485,9.08131],[-68.37434,9.07785],[-68.37248,9.07106],[-68.35821,9.065],[-68.35727,9.06172],[-68.35139,9.06412],[-68.34969,9.06756],[-68.34685,9.06504],[-68.34169,9.06595],[-68.34026,9.06245],[-68.3365,9.06128],[-68.33767,9.05954],[-68.33437,9.05482],[-68.32761,9.05746],[-68.32685,9.05454],[-68.32322,9.05579],[-68.32231,9.05363],[-68.31472,9.05232],[-68.31363,9.04924],[-68.31044,9.05042],[-68.30843,9.04539],[-68.29913,9.04674],[-68.29304,9.04399],[-68.29378,9.04099],[-68.28584,9.03816],[-68.27135,9.02494],[-68.25997,9.00593],[-68.24424,8.98662],[-68.19624,8.95919],[-68.18026,8.96301],[-68.12031,8.96246],[-68.08727,8.94728],[-68.07864,8.93808],[-68.07276,8.92574],[-68.06467,8.92232],[-68.02171,8.88707]]]}},{"type":"Feature","id":"relation/11043142","properties":{"name":"Municipio Girardot","level":6,"population":"11906"},"geometry":{"type":"Polygon","coordinates":[[[-68.02171,8.88707],[-68.06467,8.92232],[-68.07276,8.92574],[-68.07864,8.93808],[-68.08727,8.94728],[-68.11709,8.96169],[-68.18026,8.96301],[-68.19624,8.95919],[-68.23528,8.98005],[-68.25233,8.9958],[-68.27135,9.02494],[-68.28584,9.03816],[-68.29378,9.04099],[-68.29304,9.04399],[-68.29913,9.04674],[-68.30843,9.04539],[-68.31044,9.05042],[-68.31363,9.04924],[-68.31472,9.05232],[-68.32231,9.05363],[-68.32322,9.05579],[-68.32685,9.05454],[-68.32761,9.05746],[-68.33437,9.05482],[-68.33767,9.05954],[-68.3365,9.06128],[-68.34026,9.06245],[-68.34169,9.06595],[-68.34685,9.06504],[-68.34969,9.06756],[-68.35276,9.06334],[-68.35966,9.06044],[-68.3635,9.0623],[-68.36593,9.05873],[-68.37048,9.06181],[-68.37037,9.06681],[-68.3755,9.06612],[-68.38166,9.07057],[-68.38264,9.06504],[-68.39424,9.05747],[-68.46748,9.05704],[-68.4687,9.05951],[-68.46998,9.05527],[-68.47377,9.05795],[-68.47102,9.0577],[-68.47195,9.06154],[-68.47498,9.05836],[-68.47363,9.06017],[-68.4765,9.06471],[-68.47866,9.06472],[-68.4764,9.06194],[-68.47937,9.06067],[-68.49311,9.06138],[-68.48858,9.06819],[-68.49527,9.06839],[-68.49333,9.07208],[-68.49591,9.07671],[-68.49413,9.0765],[-68.49378,9.07953],[-68.49969,9.08275],[-68.5001,9.07585],[-68.50359,9.0755],[-68.5022,9.07968],[-68.50338,9.07688],[-68.50521,9.08014],[-68.50698,9.0773],[-68.50905,9.08144],[-68.50532,9.08254],[-68.50612,9.08667],[-68.50838,9.08472],[-68.5121,9.08758],[-68.50948,9.092],[-68.51403,9.09374],[-68.51492,9.0965],[-68.51554,9.09401],[-68.51864,9.09535],[-68.52313,9.09236],[-68.52892,9.09284],[-68.53049,9.09542],[-68.52681,9.09371],[-68.52558,9.09984],[-68.5308,9.1049],[-68.53955,9.10496],[-68.53833,9.11184],[-68.54221,9.11267],[-68.54201,9.11625],[-68.54446,9.11669],[-68.54305,9.11337],[-68.54604,9.11314],[-68.54503,9.11027],[-68.54638,9.11221],[-68.5487,9.11092],[-68.54898,9.11521],[-68.551,9.11379],[-68.55047,9.1103],[-68.55544,9.11145],[-68.55657,9.1067],[-68.5602,9.10761],[-68.55916,9.10478],[-68.56318,9.10727],[-68.55878,9.11071],[-68.56687,9.11054],[-68.56379,9.11127],[-68.56816,9.1137],[-68.56445,9.11443],[-68.56838,9.11773],[-68.56395,9.1185],[-68.5613,9.12557],[-68.56392,9.1293],[-68.5628,9.13557],[-68.5693,9.14359],[-68.56883,9.14875],[-68.57222,9.14827],[-68.57711,9.15574],[-68.57362,9.15994],[-68.57549,9.16251],[-68.57434,9.1691],[-68.58131,9.17299],[-68.58436,9.17836],[-68.58934,9.17435],[-68.60971,9.13935],[-68.61133,9.14243],[-68.61671,9.14245],[-68.62011,9.14587],[-68.62459,9.1414],[-68.62767,9.13584],[-68.62515,9.12859],[-68.63101,9.12682],[-68.62845,9.12325],[-68.63102,9.11463],[-68.63242,9.11295],[-68.63538,9.11664],[-68.63677,9.11542],[-68.63646,9.11032],[-68.63958,9.1057],[-68.64322,9.10829],[-68.64834,9.1033],[-68.65315,9.10922],[-68.66899,9.09892],[-68.66352,9.08903],[-68.65983,9.09133],[-68.65586,9.08366],[-68.65018,9.08816],[-68.64325,9.07804],[-68.64773,9.07462],[-68.64102,9.06602],[-68.65329,9.06028],[-68.63682,9.03597],[-68.64448,9.03003],[-68.64868,9.03655],[-68.65903,9.02954],[-68.65661,9.0266],[-68.66751,9.01931],[-68.66546,9.01607],[-68.66816,9.01394],[-68.65109,8.99348],[-68.6611,8.98502],[-68.65787,8.98523],[-68.65873,8.97551],[-68.65437,8.97242],[-68.6577,8.9632],[-68.64942,8.96044],[-68.64561,8.95268],[-68.64028,8.95298],[-68.63098,8.9478],[-68.62945,8.94293],[-68.63126,8.93719],[-68.62263,8.92486],[-68.62631,8.92224],[-68.6254,8.91723],[-68.62736,8.91428],[-68.62142,8.9104],[-68.62363,8.89882],[-68.61533,8.89427],[-68.61018,8.88446],[-68.60576,8.88554],[-68.60142,8.88019],[-68.60357,8.87238],[-68.59,8.8647],[-68.5871,8.86055],[-68.58377,8.86125],[-68.58339,8.85505],[-68.58044,8.85295],[-68.58243,8.8504],[-68.58057,8.84591],[-68.57255,8.84543],[-68.57066,8.82142],[-68.58289,8.81785],[-68.58416,8.79944],[-68.59048,8.79868],[-68.59353,8.80115],[-68.59597,8.79837],[-68.59899,8.80324],[-68.59971,8.80128],[-68.60186,8.80261],[-68.60122,8.79807],[-68.60386,8.80153],[-68.60582,8.79782],[-68.6191,8.80406],[-68.62473,8.80085],[-68.62609,8.80326],[-68.63044,8.80088],[-68.62934,8.79683],[-68.6309,8.79924],[-68.63474,8.79498],[-68.64168,8.79266],[-68.64222,8.78836],[-68.63962,8.78738],[-68.64144,8.77851],[-68.64823,8.77494],[-68.64948,8.77714],[-68.65455,8.77766],[-68.65652,8.77553],[-68.65464,8.77233],[-68.65966,8.77089],[-68.66018,8.76862],[-68.66353,8.76966],[-68.66852,8.76465],[-68.67264,8.7687],[-68.67474,8.76564],[-68.68739,8.76314],[-68.69016,8.75592],[-68.68898,8.74967],[-68.69729,8.74289],[-68.70399,8.74213],[-68.71173,8.74476],[-68.71803,8.73773],[-68.72107,8.73736],[-68.72801,8.73889],[-68.72642,8.74459],[-68.73034,8.74728],[-68.7331,8.74613],[-68.736,8.73854],[-68.73151,8.7356],[-68.73055,8.73027],[-68.72464,8.73009],[-68.72771,8.7237],[-68.71685,8.72639],[-68.71544,8.72218],[-68.72037,8.7216],[-68.72207,8.71771],[-68.71539,8.71769],[-68.71563,8.71044],[-68.70653,8.70964],[-68.70049,8.70416],[-68.70149,8.70164],[-68.69855,8.69896],[-68.68188,8.69983],[-68.67631,8.70704],[-68.66546,8.71113],[-68.65473,8.71169],[-68.64908,8.70481],[-68.64856,8.7],[-68.65354,8.69772],[-68.65127,8.6924],[-68.64804,8.6946],[-68.64687,8.69054],[-68.64802,8.66932],[-68.63878,8.66639],[-68.63405,8.65023],[-68.65189,8.64377],[-68.64284,8.63404],[-68.63225,8.63787],[-68.62504,8.63443],[-68.62183,8.63519],[-68.60925,8.62733],[-68.59927,8.62686],[-68.59395,8.63016],[-68.59589,8.63493],[-68.59398,8.63659],[-68.58444,8.63771],[-68.57884,8.63329],[-68.58337,8.62896],[-68.58143,8.62333],[-68.57313,8.61412],[-68.56717,8.61428],[-68.56074,8.61899],[-68.54804,8.61345],[-68.54851,8.60774],[-68.53741,8.59924],[-68.53124,8.59847],[-68.52924,8.60142],[-68.5142,8.60483],[-68.50646,8.59821],[-68.49456,8.60211],[-68.48828,8.59678],[-68.4736,8.59762],[-68.47055,8.59982],[-68.46676,8.60937],[-68.46254,8.60487],[-68.45945,8.60697],[-68.45181,8.60286],[-68.44177,8.60748],[-68.4375,8.60322],[-68.43013,8.60088],[-68.42482,8.5947],[-68.42073,8.59436],[-68.41558,8.60076],[-68.38584,8.60533],[-68.38306,8.61218],[-68.37987,8.6139],[-68.36799,8.61197],[-68.36172,8.60452],[-68.35713,8.60569],[-68.35599,8.60834],[-68.34796,8.60689],[-68.34144,8.60232],[-68.33759,8.60251],[-68.33244,8.59431],[-68.32482,8.59354],[-68.3242,8.59522],[-68.32746,8.59675],[-68.32349,8.60721],[-68.31017,8.6111],[-68.29847,8.59913],[-68.29838,8.59325],[-68.29456,8.59462],[-68.28213,8.58655],[-68.27138,8.59375],[-68.26325,8.59433],[-68.2649,8.60024],[-68.26196,8.60421],[-68.25917,8.60121],[-68.24508,8.59998],[-68.23366,8.58925],[-68.22762,8.5921],[-68.22207,8.59149],[-68.21459,8.59999],[-68.20995,8.60057],[-68.20839,8.6033],[-68.20465,8.60225],[-68.20048,8.59569],[-68.1938,8.60467],[-68.1877,8.60256],[-68.18565,8.60536],[-68.18132,8.60507],[-68.17915,8.60072],[-68.17767,8.60342],[-68.17062,8.6022],[-68.16929,8.60522],[-68.16077,8.60491],[-68.15656,8.5971],[-68.15207,8.59963],[-68.14632,8.59736],[-68.14802,8.60243],[-68.14599,8.60849],[-68.14476,8.60136],[-68.13987,8.59839],[-68.13764,8.59938],[-68.13744,8.5953],[-68.13401,8.59568],[-68.12659,8.6032],[-68.1252,8.59885],[-68.11776,8.59509],[-68.1162,8.59789],[-68.11792,8.60201],[-68.11167,8.60484],[-68.10974,8.60185],[-68.10476,8.60232],[-68.10897,8.59301],[-68.1057,8.59222],[-68.10507,8.59534],[-68.10338,8.59292],[-68.10136,8.59488],[-68.09846,8.59352],[-68.09881,8.59081],[-68.10251,8.58915],[-68.10125,8.58602],[-68.09779,8.588],[-68.09316,8.58505],[-68.08849,8.59009],[-68.08586,8.58814],[-68.09031,8.58276],[-68.0887,8.5777],[-68.08287,8.5797],[-68.07973,8.58372],[-68.06715,8.57229],[-68.05256,8.57818],[-68.05657,8.56333],[-68.04858,8.56068],[-68.05274,8.55286],[-68.05072,8.53846],[-68.04636,8.53446],[-68.03205,8.53333],[-68.03019,8.53725],[-68.02634,8.53881],[-68.02223,8.53402],[-68.02058,8.53576],[-68.02303,8.54141],[-68.01786,8.5433],[-68.01482,8.54123],[-68.01619,8.54868],[-68.0095,8.54985],[-68.01431,8.56109],[-68.01143,8.56096],[-68.00846,8.55511],[-68.00357,8.55379],[-67.99647,8.55841],[-67.99719,8.56025],[-68.00188,8.55891],[-67.99704,8.56714],[-67.9982,8.57339],[-67.99418,8.57933],[-68.00029,8.58547],[-68.00813,8.57591],[-68.01509,8.57563],[-68.01046,8.5863],[-68.01094,8.59015],[-68.02134,8.59323],[-68.01277,8.59723],[-68.01751,8.60333],[-68.01046,8.60941],[-68.01503,8.60769],[-68.01657,8.61232],[-68.01301,8.6115],[-68.01262,8.61347],[-68.01987,8.62214],[-68.00774,8.62713],[-68.00224,8.63306],[-68.0087,8.63821],[-68.00539,8.63897],[-68.00242,8.64424],[-68.002,8.65436],[-68.00975,8.6538],[-68.00725,8.65704],[-68.01413,8.65938],[-68.00851,8.66708],[-68.01196,8.67097],[-68.01738,8.66357],[-68.02015,8.66758],[-68.02581,8.66756],[-68.02666,8.67062],[-68.0222,8.67577],[-68.02335,8.68169],[-68.0241,8.67995],[-68.02682,8.68205],[-68.02689,8.67723],[-68.02985,8.68023],[-68.03292,8.67836],[-68.03315,8.68176],[-68.03463,8.67899],[-68.03759,8.68102],[-68.04004,8.67955],[-68.03891,8.68124],[-68.04187,8.68412],[-68.04475,8.68064],[-68.04919,8.67983],[-68.04956,8.68349],[-68.05358,8.68207],[-68.05215,8.68442],[-68.05604,8.68704],[-68.05452,8.68954],[-68.05772,8.68901],[-68.05985,8.69504],[-68.05808,8.69737],[-68.06013,8.69883],[-68.05955,8.70265],[-68.05491,8.7037],[-68.05868,8.70433],[-68.05528,8.70905],[-68.05884,8.70929],[-68.05809,8.71391],[-68.06474,8.71314],[-68.06265,8.71631],[-68.06406,8.71942],[-68.06712,8.7188],[-68.06692,8.71576],[-68.07293,8.71874],[-68.07355,8.72098],[-68.06947,8.72193],[-68.07067,8.72416],[-68.06827,8.72526],[-68.07011,8.729],[-68.07161,8.72603],[-68.07347,8.72873],[-68.07533,8.72709],[-68.07694,8.72874],[-68.07792,8.7244],[-68.0789,8.72613],[-68.08031,8.72448],[-68.08079,8.72706],[-68.08292,8.72586],[-68.08339,8.73059],[-68.09002,8.73771],[-68.08762,8.74071],[-68.09024,8.74055],[-68.08997,8.74304],[-68.0937,8.7449],[-68.09249,8.74988],[-68.10083,8.75547],[-68.09729,8.75869],[-68.09796,8.76133],[-68.09306,8.76047],[-68.09259,8.76276],[-68.08855,8.76399],[-68.08595,8.76137],[-68.08353,8.76263],[-68.08229,8.76844],[-68.07784,8.76509],[-68.07989,8.7661],[-68.07743,8.76741],[-68.07902,8.77192],[-68.07335,8.76978],[-68.0712,8.77226],[-68.07136,8.7742],[-68.07579,8.77455],[-68.07259,8.78084],[-68.07628,8.78078],[-68.07434,8.78303],[-68.07634,8.78767],[-68.07196,8.78579],[-68.07248,8.79135],[-68.06897,8.78962],[-68.06864,8.79301],[-68.06325,8.79256],[-68.06381,8.79621],[-68.05991,8.79678],[-68.05907,8.80124],[-68.05539,8.80151],[-68.05674,8.80555],[-68.05296,8.80335],[-68.05458,8.80593],[-68.05045,8.8132],[-68.05418,8.81564],[-68.05016,8.81741],[-68.05088,8.81999],[-68.05648,8.82122],[-68.05319,8.82219],[-68.05263,8.82701],[-68.05566,8.82766],[-68.05229,8.82972],[-68.05482,8.83424],[-68.05287,8.83713],[-68.05714,8.83696],[-68.05787,8.83953],[-68.05507,8.84073],[-68.05744,8.84314],[-68.05428,8.84263],[-68.05659,8.84644],[-68.05379,8.84613],[-68.05539,8.84817],[-68.05176,8.85006],[-68.05206,8.8532],[-68.05478,8.85265],[-68.05363,8.8544],[-68.05665,8.85538],[-68.05639,8.85937],[-68.05095,8.86187],[-68.04782,8.86025],[-68.04118,8.86578],[-68.02816,8.86554],[-68.02735,8.87068],[-68.03136,8.8746],[-68.02766,8.87884],[-68.02832,8.88306],[-68.02171,8.88707]]]}}]}