{"type":"FeatureCollection","features":[{"type":"Feature","id":"node/983827510","properties":{"name":"Tinaquillo","place":"city"},"geometry":{"type":"Point","coordinates":[-68.3075,9.91776]}},{"type":"Feature","id":"node/983827911","properties":{"name":"Macapo","place":"town"},"geometry":{"type":"Point","coordinates":[-68.43847,9.82523]}},{"type":"Feature","id":"node/1606614820","properties":{"name":"El Ba\u00fal","place":"city"},"geometry":{"type":"Point","coordinates":[-68.29557,8.96031]}},{"type":"Feature","id":"node/1611116408","properties":{"name":"Manrique","place":"town","population":"8000"},"geometry":{"type":"Point","coordinates":[-68.51538,9.81005]}},{"type":"Feature","id":"node/1998722294","properties":{"name":"Tinaco","place":"city"},"geometry":{"type":"Point","coordinates":[-68.4341,9.7004]}},{"type":"Feature","id":"node/3246357861","properties":{"name":"El Pao","place":"town"},"geometry":{"type":"Point","coordinates":[-68.12951,9.64093]}},{"type":"Feature","id":"node/3247283249","properties":{"name":"Las Vegas","place":"city","population":"12587"},"geometry":{"type":"Point","coordinates":[-68.63016,9.53686]}},{"type":"Feature","id":"node/3248394632","properties":{"name":"La Aguadita","place":"town"},"geometry":{"type":"Point","coordinates":[-68.38667,9.8144]}},{"type":"Feature","id":"node/3281411615","properties":{"name":"San Jos\u00e9 de Mapuey","place":"town"},"geometry":{"type":"Point","coordinates":[-68.63942,9.64694]}},{"type":"Feature","id":"node/3281421526","properties":{"name":"Camoruco","place":"town"},"geometry":{"type":"Point","coordinates":[-68.81903,9.65061]}},{"type":"Feature","id":"node/3347214939","properties":{"name":"El Topo","place":"town"},"geometry":{"type":"Point","coordinates":[-68.42022,9.7357]}},{"type":"Feature","id":"node/3356691924","properties":{"name":"La Blanca","place":"town"},"geometry":{"type":"Point","coordinates":[-68.60578,9.59033]}},{"type":"Feature","id":"node/3358908183","properties":{"name":"Apartaderos","place":"town"},"geometry":{"type":"Point","coordinates":[-68.94258,9.68262]}},{"type":"Feature","id":"node/3606233531","properties":{"name":"San Carlos","place":"city"},"geometry":{"type":"Point","coordinates":[-68.58696,9.66316]}},{"type":"Feature","id":"node/3793497483","properties":{"name":"Vallecito","place":"town"},"geometry":{"type":"Point","coordinates":[-68.45071,9.87959]}},{"type":"Feature","id":"node/3794312103","properties":{"name":"Los Leoncitos","place":"village"},"geometry":{"type":"Point","coordinates":[-68.3897,9.85618]}},{"type":"Feature","id":"node/5840141025","properties":{"name":"Cojedito","place":"town"},"geometry":{"type":"Point","coordinates":[-68.91749,9.62295]}},{"type":"Feature","id":"node/5265625310","properties":{"name":"Libertad","place":"town"},"geometry":{"type":"Point","coordinates":[-68.69227,9.35742]}},{"type":"Feature","id":"node/4697389229","properties":{"name":"Mapurite","place":"village"},"geometry":{"type":"Point","coordinates":[-68.70172,9.59186]}},{"type":"Feature","id":"node/5258177496","properties":{"name":"La Fe","place":"village"},"geometry":{"type":"Point","coordinates":[-67.97879,9.53014]}},{"type":"Feature","id":"node/5258187688","properties":{"name":"La Guama","place":"town"},"geometry":{"type":"Point","coordinates":[-68.11437,9.74718]}},{"type":"Feature","id":"node/5258218762","properties":{"name":"Ca\u00f1o Benito","place":"village"},"geometry":{"type":"Point","coordinates":[-68.15627,9.32998]}},{"type":"Feature","id":"node/5258232615","properties":{"name":"Orupe","place":"town"},"geometry":{"type":"Point","coordinates":[-68.50026,9.68233]}},{"type":"Feature","id":"node/5258232619","properties":{"name":"Lomas del Viento","place":"town"},"geometry":{"type":"Point","coordinates":[-68.48902,9.71474]}},{"type":"Feature","id":"node/5258241143","properties":{"name":"La Sierra","place":"village"},"geometry":{"type":"Point","coordinates":[-68.58703,9.89596]}},{"type":"Feature","id":"node/5258247560","properties":{"name":"El Cacao","place":"town"},"geometry":{"type":"Point","coordinates":[-68.66322,9.69462]}},{"type":"Feature","id":"node/5265625311","properties":{"name":"El Amparo","place":"town"},"geometry":{"type":"Point","coordinates":[-68.75919,9.3067]}},{"type":"Feature","id":"node/5265643309","properties":{"name":"El Muertico","place":"town"},"geometry":{"type":"Point","coordinates":[-68.6821,9.43091]}},{"type":"Feature","id":"node/5265643310","properties":{"name":"Campo Alegre","place":"town"},"geometry":{"type":"Point","coordinates":[-68.68102,9.47126]}},{"type":"Feature","id":"node/5265643311","properties":{"name":"Tirarigua (El Genare\u00f1o)","place":"town"},"geometry":{"type":"Point","coordinates":[-68.67731,9.39318]}},{"type":"Feature","id":"node/5270232699","properties":{"name":"Santa Teresa","place":"town"},"geometry":{"type":"Point","coordinates":[-68.8626,9.55519]}},{"type":"Feature","id":"node/5270567435","properties":{"name":"Carache","place":"town"},"geometry":{"type":"Point","coordinates":[-68.39664,9.93094]}},{"type":"Feature","id":"node/5270567436","properties":{"name":"La Pica","place":"village"},"geometry":{"type":"Point","coordinates":[-68.43071,9.91898]}},{"type":"Feature","id":"node/5370281643","properties":{"name":"Taguanes","place":"village"},"geometry":{"type":"Point","coordinates":[-68.2439,9.95742]}},{"type":"Feature","id":"node/5770475050","properties":{"name":"La Ceiba","place":"village"},"geometry":{"type":"Point","coordinates":[-67.88388,9.763]}},{"type":"Feature","id":"node/5770475249","properties":{"name":"Campo Alegre","place":"village"},"geometry":{"type":"Point","coordinates":[-67.83341,9.82752]}},{"type":"Feature","id":"node/5770475620","properties":{"name":"Terronal","place":"village"},"geometry":{"type":"Point","coordinates":[-67.84154,9.81328]}},{"type":"Feature","id":"node/5770476352","properties":{"name":"Chaparrote","place":"village"},"geometry":{"type":"Point","coordinates":[-67.84564,9.75575]}},{"type":"Feature","id":"node/5770476353","properties":{"name":"Corocito","place":"village"},"geometry":{"type":"Point","coordinates":[-67.82807,9.78358]}},{"type":"Feature","id":"node/5770476354","properties":{"name":"Comov\u00e9","place":"village"},"geometry":{"type":"Point","coordinates":[-67.82051,9.792]}},{"type":"Feature","id":"node/5770478686","properties":{"name":"Camoruco","place":"village"},"geometry":{"type":"Point","coordinates":[-67.78575,9.7051]}},{"type":"Feature","id":"node/5770481657","properties":{"name":"Hato Viejo","place":"village"},"geometry":{"type":"Point","coordinates":[-67.95892,9.62825]}},{"type":"Feature","id":"node/5816397592","properties":{"name":"El Amparo","place":"village"},"geometry":{"type":"Point","coordinates":[-68.24919,10.0469]}},{"type":"Feature","id":"node/5818210952","properties":{"name":"La Raya","place":"village"},"geometry":{"type":"Point","coordinates":[-68.02402,9.83674]}},{"type":"Feature","id":"node/5818214388","properties":{"name":"Garrido","place":"village"},"geometry":{"type":"Point","coordinates":[-68.17274,9.86484]}},{"type":"Feature","id":"node/5818214813","properties":{"name":"El Pauj\u00ed","place":"village"},"geometry":{"type":"Point","coordinates":[-68.15007,9.82993]}},{"type":"Feature","id":"node/5818218333","properties":{"name":"Los Pegones","place":"village"},"geometry":{"type":"Point","coordinates":[-68.3347,9.87576]}},{"type":"Feature","id":"node/5818218334","properties":{"name":"Los Monos","place":"village"},"geometry":{"type":"Point","coordinates":[-68.35057,9.85469]}},{"type":"Feature","id":"node/5818218335","properties":{"name":"La Guamita","place":"town"},"geometry":{"type":"Point","coordinates":[-68.33935,9.83884]}},{"type":"Feature","id":"node/5818218336","properties":{"name":"Sabaneta","place":"town"},"geometry":{"type":"Point","coordinates":[-68.37408,9.80546]}},{"type":"Feature","id":"node/5818218607","properties":{"name":"La Monta\u00f1ita","place":"village"},"geometry":{"type":"Point","coordinates":[-68.21285,9.7948]}},{"type":"Feature","id":"node/5818219654","properties":{"name":"Serrano","place":"village"},"geometry":{"type":"Point","coordinates":[-68.22028,9.81416]}},{"type":"Feature","id":"node/5818220001","properties":{"name":"Amador","place":"village"},"geometry":{"type":"Point","coordinates":[-68.19762,9.84269]}},{"type":"Feature","id":"node/5818220002","properties":{"name":"El Rinc\u00f3n","place":"village"},"geometry":{"type":"Point","coordinates":[-68.18224,9.84557]}},{"type":"Feature","id":"node/5818220004","properties":{"name":"Rond\u00f3n","place":"village"},"geometry":{"type":"Point","coordinates":[-68.15077,9.87807]}},{"type":"Feature","id":"node/5818220145","properties":{"name":"Los Colorados","place":"village"},"geometry":{"type":"Point","coordinates":[-68.19023,9.91028]}},{"type":"Feature","id":"node/5818220268","properties":{"name":"Ca\u00f1o Muerto","place":"village"},"geometry":{"type":"Point","coordinates":[-68.22555,9.90819]}},{"type":"Feature","id":"node/5818220269","properties":{"name":"Aguirre","place":"town"},"geometry":{"type":"Point","coordinates":[-68.24709,9.90883]}},{"type":"Feature","id":"node/5818220270","properties":{"name":"Ca\u00f1o de Indio","place":"town"},"geometry":{"type":"Point","coordinates":[-68.26297,9.89921]}},{"type":"Feature","id":"node/5818220309","properties":{"name":"El Baj\u00edo","place":"village"},"geometry":{"type":"Point","coordinates":[-68.25341,9.92974]}},{"type":"Feature","id":"node/5818220468","properties":{"name":"Marta","place":"village"},"geometry":{"type":"Point","coordinates":[-68.28574,9.96302]}},{"type":"Feature","id":"node/5820611469","properties":{"name":"Las Lomas","place":"village"},"geometry":{"type":"Point","coordinates":[-68.35217,9.76435]}},{"type":"Feature","id":"node/5820611631","properties":{"name":"Papel\u00f3n","place":"village"},"geometry":{"type":"Point","coordinates":[-68.29534,9.78534]}},{"type":"Feature","id":"node/5820611632","properties":{"name":"Las Queseras","place":"village"},"geometry":{"type":"Point","coordinates":[-68.31874,9.7883]}},{"type":"Feature","id":"node/5820611633","properties":{"name":"Higuerote","place":"village"},"geometry":{"type":"Point","coordinates":[-68.32375,9.77784]}},{"type":"Feature","id":"node/5820611635","properties":{"name":"Las Ca\u00f1adas","place":"village"},"geometry":{"type":"Point","coordinates":[-68.33661,9.78494]}},{"type":"Feature","id":"node/5820611636","properties":{"name":"Piedras Pintadas","place":"village"},"geometry":{"type":"Point","coordinates":[-68.35279,9.79124]}},{"type":"Feature","id":"node/5820611637","properties":{"name":"Las Palmas","place":"village"},"geometry":{"type":"Point","coordinates":[-68.37436,9.79069]}},{"type":"Feature","id":"node/5820611638","properties":{"name":"El Jabillo","place":"town"},"geometry":{"type":"Point","coordinates":[-68.40211,9.79862]}},{"type":"Feature","id":"node/5820611640","properties":{"name":"Camoruco","place":"village"},"geometry":{"type":"Point","coordinates":[-68.41306,9.76604]}},{"type":"Feature","id":"node/5820611641","properties":{"name":"Caramacate","place":"village"},"geometry":{"type":"Point","coordinates":[-68.41104,9.77223]}},{"type":"Feature","id":"node/5820612010","properties":{"name":"Las Lajitas","place":"village"},"geometry":{"type":"Point","coordinates":[-68.38258,9.73289]}},{"type":"Feature","id":"node/5820612011","properties":{"name":"Paja Brava","place":"village"},"geometry":{"type":"Point","coordinates":[-68.40254,9.7372]}},{"type":"Feature","id":"node/5820612572","properties":{"name":"El Taque","place":"village"},"geometry":{"type":"Point","coordinates":[-68.36213,9.7212]}},{"type":"Feature","id":"node/5820612581","properties":{"name":"Los Bagres","place":"village"},"geometry":{"type":"Point","coordinates":[-68.13787,9.81254]}},{"type":"Feature","id":"node/5820612799","properties":{"name":"Arag\u00fcita","place":"village"},"geometry":{"type":"Point","coordinates":[-68.0859,9.7728]}},{"type":"Feature","id":"node/5820613652","properties":{"name":"Lagunita","place":"village"},"geometry":{"type":"Point","coordinates":[-68.08033,9.80941]}},{"type":"Feature","id":"node/5820613754","properties":{"name":"Higuerotal","place":"village"},"geometry":{"type":"Point","coordinates":[-68.0489,9.82208]}},{"type":"Feature","id":"node/5820613758","properties":{"name":"Vallecito","place":"village"},"geometry":{"type":"Point","coordinates":[-68.0243,9.77803]}},{"type":"Feature","id":"node/5820613771","properties":{"name":"Monte Oscuro","place":"village"},"geometry":{"type":"Point","coordinates":[-68.00044,9.53004]}},{"type":"Feature","id":"node/5820613772","properties":{"name":"Santa Marta","place":"village"},"geometry":{"type":"Point","coordinates":[-68.06066,9.52575]}},{"type":"Feature","id":"node/5820613776","properties":{"name":"El Pueblito","place":"town"},"geometry":{"type":"Point","coordinates":[-68.11879,9.53895]}},{"type":"Feature","id":"node/5820613778","properties":{"name":"Mujica","place":"village"},"geometry":{"type":"Point","coordinates":[-68.08399,9.53376]}},{"type":"Feature","id":"node/5820613787","properties":{"name":"El Potrero","place":"village"},"geometry":{"type":"Point","coordinates":[-68.16483,9.5496]}},{"type":"Feature","id":"node/5820613789","properties":{"name":"Alto de Colmenares","place":"village"},"geometry":{"type":"Point","coordinates":[-68.1998,9.50943]}},{"type":"Feature","id":"node/5820614492","properties":{"name":"Caimancito","place":"village"},"geometry":{"type":"Point","coordinates":[-68.19467,9.68822]}},{"type":"Feature","id":"node/5820614493","properties":{"name":"Zambrano","place":"town"},"geometry":{"type":"Point","coordinates":[-68.17549,9.65435]}},{"type":"Feature","id":"node/5820614510","properties":{"name":"Sabana Afuera","place":"village"},"geometry":{"type":"Point","coordinates":[-68.12078,9.64782]}},{"type":"Feature","id":"node/5820614766","properties":{"name":"Cerrajones","place":"village"},"geometry":{"type":"Point","coordinates":[-68.13554,9.69525]}},{"type":"Feature","id":"node/5820614778","properties":{"name":"Parapara","place":"village"},"geometry":{"type":"Point","coordinates":[-68.30851,9.73615]}},{"type":"Feature","id":"node/5820615034","properties":{"name":"El Socorro","place":"village"},"geometry":{"type":"Point","coordinates":[-68.29221,9.73544]}},{"type":"Feature","id":"node/5820615037","properties":{"name":"Los Placeres","place":"village"},"geometry":{"type":"Point","coordinates":[-68.24016,9.75468]}},{"type":"Feature","id":"node/5820615760","properties":{"name":"Laya","place":"village"},"geometry":{"type":"Point","coordinates":[-68.23967,9.72952]}},{"type":"Feature","id":"node/5820615761","properties":{"name":"Las Lajitas","place":"village"},"geometry":{"type":"Point","coordinates":[-68.23092,9.74984]}},{"type":"Feature","id":"node/5820615816","properties":{"name":"Yag\u00fcita","place":"village"},"geometry":{"type":"Point","coordinates":[-68.20659,9.74006]}},{"type":"Feature","id":"node/5820617170","properties":{"name":"Chaparral","place":"village"},"geometry":{"type":"Point","coordinates":[-68.2128,9.72581]}},{"type":"Feature","id":"node/5820618096","properties":{"name":"Quebrada Amarilla","place":"village"},"geometry":{"type":"Point","coordinates":[-68.23298,9.91207]}},{"type":"Feature","id":"node/5820618101","properties":{"name":"Las Pi\u00f1as","place":"village"},"geometry":{"type":"Point","coordinates":[-68.22891,9.86521]}},{"type":"Feature","id":"node/5820618105","properties":{"name":"Carrizal","place":"village"},"geometry":{"type":"Point","coordinates":[-68.15476,9.74912]}},{"type":"Feature","id":"node/5820618106","properties":{"name":"El Gu\u00e1simo","place":"village"},"geometry":{"type":"Point","coordinates":[-68.15933,9.74027]}},{"type":"Feature","id":"node/5820618107","properties":{"name":"Bucaral","place":"village"},"geometry":{"type":"Point","coordinates":[-68.19237,9.7316]}},{"type":"Feature","id":"node/5820618690","properties":{"name":"La Tuna","place":"village"},"geometry":{"type":"Point","coordinates":[-68.17817,9.79122]}},{"type":"Feature","id":"node/5820696118","properties":{"name":"La Monta\u00f1ita","place":"village"},"geometry":{"type":"Point","coordinates":[-68.41562,9.9284]}},{"type":"Feature","id":"node/5820705089","properties":{"name":"La Pascua","place":"village"},"geometry":{"type":"Point","coordinates":[-68.43636,9.922]}},{"type":"Feature","id":"node/5820707049","properties":{"name":"Las Mesas","place":"village"},"geometry":{"type":"Point","coordinates":[-68.39687,9.87643]}},{"type":"Feature","id":"node/5820707982","properties":{"name":"Jirijuare","place":"village"},"geometry":{"type":"Point","coordinates":[-68.48966,9.8383]}},{"type":"Feature","id":"node/5820708159","properties":{"name":"Jiraco","place":"village"},"geometry":{"type":"Point","coordinates":[-68.46799,9.8469]}},{"type":"Feature","id":"node/5820708163","properties":{"name":"Monagas","place":"town"},"geometry":{"type":"Point","coordinates":[-68.40838,9.81378]}},{"type":"Feature","id":"node/5820708164","properties":{"name":"Potrerito","place":"village"},"geometry":{"type":"Point","coordinates":[-68.41968,9.80565]}},{"type":"Feature","id":"node/5820708170","properties":{"name":"Potero Largo","place":"village"},"geometry":{"type":"Point","coordinates":[-68.49879,9.81261]}},{"type":"Feature","id":"node/5820709253","properties":{"name":"El Valle","place":"village"},"geometry":{"type":"Point","coordinates":[-68.47229,9.79124]}},{"type":"Feature","id":"node/5820709630","properties":{"name":"La Danta","place":"village"},"geometry":{"type":"Point","coordinates":[-68.44223,9.77563]}},{"type":"Feature","id":"node/5823622280","properties":{"name":"El Tiestal","place":"village"},"geometry":{"type":"Point","coordinates":[-68.16347,8.71856]}},{"type":"Feature","id":"node/5823622281","properties":{"name":"El Pedinero","place":"village"},"geometry":{"type":"Point","coordinates":[-68.10935,8.69061]}},{"type":"Feature","id":"node/5823622691","properties":{"name":"Las Queseras","place":"village"},"geometry":{"type":"Point","coordinates":[-68.26438,8.91853]}},{"type":"Feature","id":"node/5823622692","properties":{"name":"La Nu\u00f1era","place":"village"},"geometry":{"type":"Point","coordinates":[-68.35007,8.86292]}},{"type":"Feature","id":"node/5823622694","properties":{"name":"La Portuguesa","place":"village"},"geometry":{"type":"Point","coordinates":[-68.32889,8.88639]}},{"type":"Feature","id":"node/5823622725","properties":{"name":"El Manire","place":"village"},"geometry":{"type":"Point","coordinates":[-68.31593,8.93646]}},{"type":"Feature","id":"node/5823622732","properties":{"name":"Sucre","place":"town"},"geometry":{"type":"Point","coordinates":[-68.39232,8.97417]}},{"type":"Feature","id":"node/5823623092","properties":{"name":"Quebrada de Agua","place":"village"},"geometry":{"type":"Point","coordinates":[-68.20236,8.95332]}},{"type":"Feature","id":"node/5823623719","properties":{"name":"Las Garzas","place":"village"},"geometry":{"type":"Point","coordinates":[-68.21554,9.20723]}},{"type":"Feature","id":"node/5823624024","properties":{"name":"Laguna Alta","place":"village"},"geometry":{"type":"Point","coordinates":[-68.22875,9.49273]}},{"type":"Feature","id":"node/5823624061","properties":{"name":"Jobito","place":"town"},"geometry":{"type":"Point","coordinates":[-68.16136,9.0272]}},{"type":"Feature","id":"node/5823624075","properties":{"name":"La Cruz","place":"town"},"geometry":{"type":"Point","coordinates":[-68.15368,9.19484]}},{"type":"Feature","id":"node/5823624088","properties":{"name":"Matapalos","place":"town"},"geometry":{"type":"Point","coordinates":[-68.16074,9.35725]}},{"type":"Feature","id":"node/5825469310","properties":{"name":"El Pedinero Sur","place":"village"},"geometry":{"type":"Point","coordinates":[-68.10515,8.67496]}},{"type":"Feature","id":"node/5825469311","properties":{"name":"Zanja de Lira","place":"village"},"geometry":{"type":"Point","coordinates":[-68.10821,8.65651]}},{"type":"Feature","id":"node/5832488901","properties":{"name":"La Dormidita","place":"village"},"geometry":{"type":"Point","coordinates":[-68.57883,8.64825]}},{"type":"Feature","id":"node/5834825685","properties":{"name":"El Urape","place":"village"},"geometry":{"type":"Point","coordinates":[-68.50487,8.71369]}},{"type":"Feature","id":"node/5834825686","properties":{"name":"Ca\u00f1aote","place":"village"},"geometry":{"type":"Point","coordinates":[-68.53159,8.71601]}},{"type":"Feature","id":"node/5834825688","properties":{"name":"Las Tejitas","place":"village"},"geometry":{"type":"Point","coordinates":[-68.62529,8.72133]}},{"type":"Feature","id":"node/5834825756","properties":{"name":"Garabato","place":"village"},"geometry":{"type":"Point","coordinates":[-68.67118,8.7388]}},{"type":"Feature","id":"node/5834825757","properties":{"name":"Caujarito","place":"village"},"geometry":{"type":"Point","coordinates":[-68.66156,8.7518]}},{"type":"Feature","id":"node/5838613031","properties":{"name":"Bejuquero","place":"town"},"geometry":{"type":"Point","coordinates":[-68.50793,9.04925]}},{"type":"Feature","id":"node/5838618146","properties":{"name":"Milagrito","place":"village"},"geometry":{"type":"Point","coordinates":[-68.62235,9.06182]}},{"type":"Feature","id":"node/5846476476","properties":{"name":"Asentamiento Conaima","place":"village"},"geometry":{"type":"Point","coordinates":[-68.52239,9.61729]}},{"type":"Feature","id":"node/5846477832","properties":{"name":"Puente Onoto","place":"town"},"geometry":{"type":"Point","coordinates":[-68.90284,9.68731]}},{"type":"Feature","id":"node/5846478075","properties":{"name":"El Penitente","place":"village"},"geometry":{"type":"Point","coordinates":[-68.80683,9.62018]}},{"type":"Feature","id":"node/5846478080","properties":{"name":"El Lim\u00f3n","place":"village"},"geometry":{"type":"Point","coordinates":[-68.59621,9.62863]}},{"type":"Feature","id":"node/5846478529","properties":{"name":"Aserradero","place":"village"},"geometry":{"type":"Point","coordinates":[-68.59445,9.53494]}},{"type":"Feature","id":"node/5846478537","properties":{"name":"Parcelamiento La Blanca","place":"village"},"geometry":{"type":"Point","coordinates":[-68.62468,9.57696]}},{"type":"Feature","id":"node/5846478540","properties":{"name":"Quitacalz\u00f3n","place":"village"},"geometry":{"type":"Point","coordinates":[-68.71777,9.45543]}},{"type":"Feature","id":"node/5846478541","properties":{"name":"Sabana Larga","place":"town"},"geometry":{"type":"Point","coordinates":[-68.71489,9.5139]}},{"type":"Feature","id":"node/5846478542","properties":{"name":"Ojo de Agua","place":"town"},"geometry":{"type":"Point","coordinates":[-68.70099,9.52526]}},{"type":"Feature","id":"node/5846478550","properties":{"name":"La Vig\u00eda","place":"town"},"geometry":{"type":"Point","coordinates":[-68.6503,9.48682]}},{"type":"Feature","id":"node/5846478551","properties":{"name":"Jebito","place":"village"},"geometry":{"type":"Point","coordinates":[-68.67367,9.52102]}},{"type":"Feature","id":"node/5846478552","properties":{"name":"Ca\u00f1o Hondo","place":"town"},"geometry":{"type":"Point","coordinates":[-68.66516,9.53135]}},{"type":"Feature","id":"node/5846478792","properties":{"name":"El Gu\u00e1simo Sur","place":"village"},"geometry":{"type":"Point","coordinates":[-68.64292,9.43558]}},{"type":"Feature","id":"node/5846478793","properties":{"name":"El Gu\u00e1simo Norte","place":"village"},"geometry":{"type":"Point","coordinates":[-68.64907,9.45007]}},{"type":"Feature","id":"node/5846478794","properties":{"name":"Punta Blanca","place":"village"},"geometry":{"type":"Point","coordinates":[-68.62524,9.44855]}},{"type":"Feature","id":"node/5846478795","properties":{"name":"Camoruquito","place":"village"},"geometry":{"type":"Point","coordinates":[-68.59859,9.41555]}},{"type":"Feature","id":"node/5846478876","properties":{"name":"Menudito","place":"village"},"geometry":{"type":"Point","coordinates":[-68.61664,9.36374]}},{"type":"Feature","id":"node/5846478879","properties":{"name":"Flor Amarillo","place":"village"},"geometry":{"type":"Point","coordinates":[-68.57977,9.39085]}},{"type":"Feature","id":"node/5846479018","properties":{"name":"Santoyero","place":"town"},"geometry":{"type":"Point","coordinates":[-68.65156,9.33588]}},{"type":"Feature","id":"node/5846479552","properties":{"name":"El Estero","place":"town"},"geometry":{"type":"Point","coordinates":[-68.76483,9.43329]}},{"type":"Feature","id":"node/5846479567","properties":{"name":"La Chivera","place":"village"},"geometry":{"type":"Point","coordinates":[-68.66764,9.56617]}},{"type":"Feature","id":"node/5846479939","properties":{"name":"Mata Oscura","place":"village"},"geometry":{"type":"Point","coordinates":[-68.78278,9.56165]}},{"type":"Feature","id":"node/5846479957","properties":{"name":"Vega Arriba","place":"village"},"geometry":{"type":"Point","coordinates":[-68.8922,9.49248]}},{"type":"Feature","id":"node/5846479958","properties":{"name":"Casa de Tejas","place":"village"},"geometry":{"type":"Point","coordinates":[-68.89824,9.5541]}},{"type":"Feature","id":"node/5846479960","properties":{"name":"La Chorrera","place":"town"},"geometry":{"type":"Point","coordinates":[-68.83704,9.49716]}},{"type":"Feature","id":"node/5846479968","properties":{"name":"El Ca\u00f1o","place":"village"},"geometry":{"type":"Point","coordinates":[-68.85048,9.54024]}},{"type":"Feature","id":"node/5846479969","properties":{"name":"Retajado","place":"village"},"geometry":{"type":"Point","coordinates":[-68.89635,9.56876]}},{"type":"Feature","id":"node/5846479970","properties":{"name":"El Pe\u00f1usco","place":"village"},"geometry":{"type":"Point","coordinates":[-68.90153,9.57408]}},{"type":"Feature","id":"node/5846479971","properties":{"name":"La Sabana","place":"village"},"geometry":{"type":"Point","coordinates":[-68.90816,9.58849]}},{"type":"Feature","id":"node/5852054648","properties":{"name":"El Fr\u00edo","place":"village"},"geometry":{"type":"Point","coordinates":[-68.62971,9.88739]}},{"type":"Feature","id":"node/5852054651","properties":{"name":"Campo Alegre","place":"village"},"geometry":{"type":"Point","coordinates":[-68.60989,9.85387]}},{"type":"Feature","id":"node/5852054653","properties":{"name":"Paja Brava","place":"village"},"geometry":{"type":"Point","coordinates":[-68.61227,9.84471]}},{"type":"Feature","id":"node/5852054656","properties":{"name":"La Veguita","place":"village"},"geometry":{"type":"Point","coordinates":[-68.67082,9.80082]}},{"type":"Feature","id":"node/5852054658","properties":{"name":"Ca\u00f1a Brava","place":"village"},"geometry":{"type":"Point","coordinates":[-68.66023,9.79142]}},{"type":"Feature","id":"node/5852054660","properties":{"name":"La Amarilla","place":"village"},"geometry":{"type":"Point","coordinates":[-68.70575,9.77836]}},{"type":"Feature","id":"node/5852055968","properties":{"name":"Palambra del Doctor","place":"village"},"geometry":{"type":"Point","coordinates":[-68.65498,9.73135]}},{"type":"Feature","id":"node/5852055971","properties":{"name":"El Potrero","place":"town"},"geometry":{"type":"Point","coordinates":[-68.61867,9.68691]}},{"type":"Feature","id":"node/5853661411","properties":{"name":"Cogollalito","place":"village"},"geometry":{"type":"Point","coordinates":[-68.6473,9.8817]}},{"type":"Feature","id":"node/5853661412","properties":{"name":"El Regalo","place":"village"},"geometry":{"type":"Point","coordinates":[-68.6675,9.8716]}},{"type":"Feature","id":"node/5853661413","properties":{"name":"Tucuragua","place":"village"},"geometry":{"type":"Point","coordinates":[-68.68844,9.87067]}},{"type":"Feature","id":"node/5853661806","properties":{"name":"Las Tres Personas","place":"village"},"geometry":{"type":"Point","coordinates":[-68.69039,9.8995]}},{"type":"Feature","id":"node/5853661994","properties":{"name":"Santa Cruz","place":"village"},"geometry":{"type":"Point","coordinates":[-68.67546,9.94312]}},{"type":"Feature","id":"node/5853661995","properties":{"name":"La Florida","place":"village"},"geometry":{"type":"Point","coordinates":[-68.67629,9.92687]}},{"type":"Feature","id":"node/5853669345","properties":{"name":"Nuevo Mundo","place":"village"},"geometry":{"type":"Point","coordinates":[-68.54372,9.859]}},{"type":"Feature","id":"node/5853669347","properties":{"name":"Quebrada Abajo","place":"village"},"geometry":{"type":"Point","coordinates":[-68.56524,9.81538]}},{"type":"Feature","id":"node/5853669354","properties":{"name":"Los Castores","place":"village"},"geometry":{"type":"Point","coordinates":[-68.50682,9.79386]}},{"type":"Feature","id":"node/5853669355","properties":{"name":"Cariquito","place":"village"},"geometry":{"type":"Point","coordinates":[-68.51435,9.7865]}},{"type":"Feature","id":"node/5853669356","properties":{"name":"La Hondonada","place":"town"},"geometry":{"type":"Point","coordinates":[-68.52654,9.75034]}},{"type":"Feature","id":"node/5853669358","properties":{"name":"Mango Redondo","place":"village"},"geometry":{"type":"Point","coordinates":[-68.52748,9.73771]}},{"type":"Feature","id":"node/5853669359","properties":{"name":"El Junquito","place":"village"},"geometry":{"type":"Point","coordinates":[-68.54988,9.71394]}},{"type":"Feature","id":"node/5853669533","properties":{"name":"Las Rosas","place":"village"},"geometry":{"type":"Point","coordinates":[-68.62468,9.75548]}},{"type":"Feature","id":"node/5853670471","properties":{"name":"El Cigarr\u00f3n","place":"village"},"geometry":{"type":"Point","coordinates":[-68.59011,9.79302]}},{"type":"Feature","id":"node/5853670472","properties":{"name":"La Palma","place":"village"},"geometry":{"type":"Point","coordinates":[-68.54229,9.72581]}},{"type":"Feature","id":"node/5853670473","properties":{"name":"La Mina","place":"village"},"geometry":{"type":"Point","coordinates":[-68.54651,9.75459]}},{"type":"Feature","id":"node/5853670474","properties":{"name":"Macanillas","place":"village"},"geometry":{"type":"Point","coordinates":[-68.57249,9.78148]}},{"type":"Feature","id":"node/5853670475","properties":{"name":"Ca\u00f1ada Seca","place":"village"},"geometry":{"type":"Point","coordinates":[-68.58253,9.72664]}},{"type":"Feature","id":"node/5853670476","properties":{"name":"El Charal","place":"village"},"geometry":{"type":"Point","coordinates":[-68.58765,9.70634]}},{"type":"Feature","id":"node/5853670723","properties":{"name":"Valle Hondo","place":"village"},"geometry":{"type":"Point","coordinates":[-68.5765,9.74685]}},{"type":"Feature","id":"node/5853670824","properties":{"name":"Solano","place":"village"},"geometry":{"type":"Point","coordinates":[-68.60762,9.75038]}},{"type":"Feature","id":"node/5853670825","properties":{"name":"Mariquita","place":"village"},"geometry":{"type":"Point","coordinates":[-68.61803,9.73213]}},{"type":"Feature","id":"node/5853670826","properties":{"name":"Manriquito","place":"village"},"geometry":{"type":"Point","coordinates":[-68.6108,9.7289]}},{"type":"Feature","id":"node/5853670836","properties":{"name":"Palmero","place":"village"},"geometry":{"type":"Point","coordinates":[-68.60575,9.72552]}},{"type":"Feature","id":"node/5853670837","properties":{"name":"Barro Negro","place":"town"},"geometry":{"type":"Point","coordinates":[-68.60516,9.70852]}},{"type":"Feature","id":"node/5853843125","properties":{"name":"Cocuy","place":"village"},"geometry":{"type":"Point","coordinates":[-68.73418,9.75131]}},{"type":"Feature","id":"node/5853843126","properties":{"name":"Santa Rosa","place":"village"},"geometry":{"type":"Point","coordinates":[-68.71543,9.73243]}},{"type":"Feature","id":"node/5853843166","properties":{"name":"T\u00edo Agust\u00edn","place":"village"},"geometry":{"type":"Point","coordinates":[-68.74986,9.71405]}},{"type":"Feature","id":"node/5853844416","properties":{"name":"El Algarrobo","place":"village"},"geometry":{"type":"Point","coordinates":[-68.76579,9.73103]}},{"type":"Feature","id":"node/5853845689","properties":{"name":"Buenos Aires","place":"village"},"geometry":{"type":"Point","coordinates":[-68.83108,9.75061]}},{"type":"Feature","id":"node/5853845888","properties":{"name":"Chorrer\u00f3n","place":"village"},"geometry":{"type":"Point","coordinates":[-68.90732,9.74332]}},{"type":"Feature","id":"node/5853845889","properties":{"name":"La Fe","place":"village"},"geometry":{"type":"Point","coordinates":[-68.92661,9.74336]}},{"type":"Feature","id":"node/5853845890","properties":{"name":"Aro\u00edta","place":"village"},"geometry":{"type":"Point","coordinates":[-68.92633,9.72661]}},{"type":"Feature","id":"node/5853845893","properties":{"name":"Las Palmas","place":"village"},"geometry":{"type":"Point","coordinates":[-68.97034,9.72879]}},{"type":"Feature","id":"node/5853846979","properties":{"name":"R\u00edo Claro Este","place":"village"},"geometry":{"type":"Point","coordinates":[-68.94499,9.78984]}},{"type":"Feature","id":"node/5853846981","properties":{"name":"R\u00edo Claro Oeste","place":"village"},"geometry":{"type":"Point","coordinates":[-68.96575,9.78707]}},{"type":"Feature","id":"node/6491272009","properties":{"name":"Barranca Amarilla","place":"village"},"geometry":{"type":"Point","coordinates":[-68.53744,9.8109]}},{"type":"Feature","id":"node/6491272010","properties":{"name":"Hacienda Vieja","place":"village"},"geometry":{"type":"Point","coordinates":[-68.53477,9.81751]}}]}