{"type":"FeatureCollection","features":[{"type":"Feature","id":"way/32589589","properties":{"name":"Eje Agr\u00edcola Cojedito","highway":"secondary","ref":"L-1"},"geometry":{"type":"LineString","coordinates":[[-68.93831,9.67393],[-68.93361,9.68438]]}},{"type":"Feature","id":"way/135561944","properties":{"name":"Autopista Jos\u00e9 Antonio P\u00e1ez","highway":"trunk","ref":"T-5"},"geometry":{"type":"LineString","coordinates":[[-68.60603,9.63915],[-68.62135,9.6434],[-68.64467,9.6417],[-68.67777,9.64304],[-68.69174,9.64567],[-68.71784,9.64539],[-68.72825,9.64718],[-68.74763,9.64666],[-68.77382,9.6483],[-68.78376,9.64696],[-68.79715,9.64772],[-68.80953,9.64655],[-68.84086,9.64786],[-68.86091,9.64664],[-68.86568,9.64837],[-68.87817,9.65954],[-68.89142,9.6655],[-68.89578,9.66622],[-68.91339,9.66401],[-68.9185,9.66431],[-68.93875,9.67218]]}},{"type":"Feature","id":"way/135561947","properties":{"name":"Carretera Vieja Acarigua - San Carlos","highway":"primary","ref":"T-5"},"geometry":{"type":"LineString","coordinates":[[-68.96286,9.68649],[-68.96237,9.68671]]}},{"type":"Feature","id":"way/148003726","properties":{"highway":"trunk_link","ref":"L-3"},"geometry":{"type":"LineString","coordinates":[[-68.57707,9.66661],[-68.57739,9.66695]]}},{"type":"Feature","id":"way/148639654","properties":{"name":"V\u00eda a El Pao","highway":"secondary","ref":"R-30"},"geometry":{"type":"LineString","coordinates":[[-68.25983,9.65383],[-68.25055,9.65251],[-68.24448,9.65345],[-68.19937,9.65181],[-68.19354,9.65365],[-68.17645,9.65296]]}},{"type":"Feature","id":"way/148639657","properties":{"name":"Carretera El Pao - La Guama","highway":"tertiary","ref":"R-16;R-30"},"geometry":{"type":"LineString","coordinates":[[-68.1296,9.64747],[-68.12945,9.64405]]}},{"type":"Feature","id":"way/148640999","properties":{"highway":"tertiary","ref":"R-13"},"geometry":{"type":"LineString","coordinates":[[-68.58907,9.67237],[-68.58927,9.67268]]}},{"type":"Feature","id":"way/148830901","properties":{"name":"Carretera Los Naranjos - El Pao","highway":"tertiary"},"geometry":{"type":"LineString","coordinates":[[-67.97416,9.87694],[-67.97488,9.87445],[-67.97246,9.869],[-67.97269,9.86548],[-67.97693,9.86204],[-67.9781,9.85844],[-67.97642,9.85289],[-67.97756,9.85015],[-67.97671,9.84592],[-67.98056,9.84338],[-67.98315,9.83972],[-67.98774,9.83685],[-67.99105,9.83271],[-67.98819,9.82864],[-67.9893,9.82469],[-67.99131,9.82285],[-67.9925,9.81938],[-67.99346,9.81553],[-67.99235,9.81242],[-67.99461,9.80763],[-67.9988,9.8039],[-67.99938,9.8019],[-68.00142,9.79993],[-68.00364,9.8],[-68.00368,9.79816],[-68.00473,9.79748],[-68.00586,9.79409],[-68.0055,9.79169],[-68.00654,9.78881],[-68.01405,9.78632],[-68.01491,9.78433],[-68.0177,9.78252],[-68.01944,9.77795],[-68.02243,9.77579],[-68.02368,9.77676],[-68.02278,9.77043],[-68.02088,9.76822],[-68.02444,9.76627],[-68.02624,9.76359],[-68.02547,9.76247],[-68.0265,9.75452],[-68.02888,9.75277],[-68.02837,9.75206],[-68.02958,9.7492],[-68.02839,9.74724],[-68.02873,9.74106],[-68.02969,9.73891]]}},{"type":"Feature","id":"way/150507927","properties":{"name":"Carretera Dominguera - Cumbito","highway":"tertiary","ref":"R-7"},"geometry":{"type":"LineString","coordinates":[[-67.97416,9.87694],[-67.97631,9.87543],[-67.97731,9.87675],[-67.97923,9.87659],[-67.98096,9.8748],[-67.98068,9.87339],[-67.982,9.87416],[-67.98306,9.87288],[-67.9862,9.87255],[-67.98747,9.87105],[-67.9901,9.87351],[-67.99099,9.8723],[-67.99312,9.8731],[-67.99424,9.87071],[-67.99627,9.87108],[-67.99741,9.8703],[-68.00098,9.87228],[-68.00463,9.87246],[-68.00836,9.87526],[-68.01263,9.87238],[-68.01596,9.87272],[-68.01718,9.87122],[-68.01923,9.87093],[-68.01999,9.86918],[-68.02251,9.86962],[-68.02137,9.86754],[-68.02817,9.8674],[-68.03789,9.86251],[-68.04194,9.86412],[-68.0475,9.86309],[-68.05063,9.86514],[-68.05542,9.86443],[-68.0604,9.86207],[-68.06329,9.86339],[-68.06759,9.86297],[-68.07147,9.86001],[-68.07296,9.86214],[-68.07543,9.86104],[-68.07875,9.86503],[-68.08261,9.86566],[-68.08316,9.868],[-68.07973,9.8721],[-68.08409,9.87374],[-68.08413,9.8755],[-68.08544,9.87675],[-68.08821,9.87697],[-68.08602,9.87903],[-68.08597,9.8877],[-68.08248,9.89534],[-68.07935,9.89734],[-68.07603,9.89802],[-68.07742,9.90286]]}},{"type":"Feature","id":"way/189163613","properties":{"highway":"tertiary","ref":"L-3;R-13;R-22"},"geometry":{"type":"LineString","coordinates":[[-68.58906,9.67223],[-68.58906,9.67223]]}},{"type":"Feature","id":"way/189163614","properties":{"name":"Redoma del Mango","highway":"trunk","ref":"T-5;L-3"},"geometry":{"type":"LineString","coordinates":[[-68.57765,9.66678],[-68.57765,9.66678]]}},{"type":"Feature","id":"way/189163616","properties":{"highway":"tertiary","ref":"R-13"},"geometry":{"type":"LineString","coordinates":[[-68.58927,9.67268],[-68.58925,9.67238]]}},{"type":"Feature","id":"way/189163618","properties":{"name":"Avenida Circunvalaci\u00f3n","highway":"tertiary","ref":"L-3"},"geometry":{"type":"LineString","coordinates":[[-68.58043,9.66945],[-68.58228,9.67076],[-68.58736,9.67113],[-68.58905,9.67226]]}},{"type":"Feature","id":"way/189164682","properties":{"name":"Distribuidor San Carlos","highway":"trunk_link"},"geometry":{"type":"LineString","coordinates":[[-68.59126,9.64],[-68.59256,9.63809],[-68.59403,9.63785]]}},{"type":"Feature","id":"way/189165122","properties":{"name":"Avenida Jos\u00e9 Laurencio Silva","highway":"primary","ref":"T-5"},"geometry":{"type":"LineString","coordinates":[[-68.59769,9.66148],[-68.59802,9.66174]]}},{"type":"Feature","id":"way/189165125","properties":{"name":"Avenida Jos\u00e9 Laurencio Silva","highway":"primary","ref":"T-5"},"geometry":{"type":"LineString","coordinates":[[-68.59802,9.66174],[-68.59871,9.66197]]}},{"type":"Feature","id":"way/189165131","properties":{"name":"Avenida Jos\u00e9 Laurencio Silva","highway":"primary","ref":"T-5"},"geometry":{"type":"LineString","coordinates":[[-68.59871,9.66197],[-68.59808,9.66155]]}},{"type":"Feature","id":"way/189165133","properties":{"name":"Avenida Jos\u00e9 Laurencio Silva","highway":"primary","ref":"T-5"},"geometry":{"type":"LineString","coordinates":[[-68.59787,9.66137],[-68.59662,9.65807],[-68.59216,9.65366],[-68.5908,9.6527],[-68.58891,9.65287]]}},{"type":"Feature","id":"way/189167218","properties":{"name":"Par Vial San Carlos - Tinaco","highway":"trunk","ref":"T-5"},"geometry":{"type":"LineString","coordinates":[[-68.44604,9.69769],[-68.45246,9.69403],[-68.45875,9.69487],[-68.46256,9.69399],[-68.48507,9.6797],[-68.50377,9.67644],[-68.50962,9.67387]]}},{"type":"Feature","id":"way/189167245","properties":{"highway":"tertiary","ref":"L-3"},"geometry":{"type":"LineString","coordinates":[[-68.58929,9.67232],[-68.58959,9.67222]]}},{"type":"Feature","id":"way/189167867","properties":{"name":"Avenida R\u00f3mulo Gallegos","highway":"trunk","ref":"T-5;L-2"},"geometry":{"type":"LineString","coordinates":[[-68.58891,9.65287],[-68.58846,9.65078],[-68.59126,9.64]]}},{"type":"Feature","id":"way/189167871","properties":{"name":"Avenida R\u00f3mulo Gallegos","highway":"primary","ref":"L-2"},"geometry":{"type":"LineString","coordinates":[[-68.60228,9.61239],[-68.60121,9.61805],[-68.59462,9.63029],[-68.59201,9.63717]]}},{"type":"Feature","id":"way/256535781","properties":{"name":"Carretera Nacional Tinaquillo - Campo Carabobo","highway":"trunk","ref":"T-5"},"geometry":{"type":"LineString","coordinates":[[-68.24127,9.95317],[-68.2506,9.95225],[-68.26028,9.94864],[-68.28859,9.92756]]}},{"type":"Feature","id":"way/258043227","properties":{"name":"Retorno","highway":"trunk_link","ref":"T-5"},"geometry":{"type":"LineString","coordinates":[[-68.55309,9.66747],[-68.55307,9.66777]]}},{"type":"Feature","id":"way/258043228","properties":{"name":"Retorno","highway":"trunk_link","ref":"T-5"},"geometry":{"type":"LineString","coordinates":[[-68.55586,9.66764],[-68.55587,9.66734]]}},{"type":"Feature","id":"way/258044468","properties":{"name":"Avenida Universidad","highway":"secondary","ref":"L-3"},"geometry":{"type":"LineString","coordinates":[[-68.58043,9.66945],[-68.5778,9.66668]]}},{"type":"Feature","id":"way/264771771","properties":{"name":"Autopista Jos\u00e9 Antonio P\u00e1ez","highway":"trunk","ref":"T-5"},"geometry":{"type":"LineString","coordinates":[[-68.60532,9.63906],[-68.60603,9.63915]]}},{"type":"Feature","id":"way/264771772","properties":{"name":"Autopista Jos\u00e9 Antonio P\u00e1ez","highway":"trunk","ref":"T-5"},"geometry":{"type":"LineString","coordinates":[[-68.60612,9.63907],[-68.60538,9.63898]]}},{"type":"Feature","id":"way/264771773","properties":{"name":"Autopista Jos\u00e9 Antonio P\u00e1ez","highway":"trunk","ref":"T-5"},"geometry":{"type":"LineString","coordinates":[[-68.60538,9.63898],[-68.59397,9.63763]]}},{"type":"Feature","id":"way/264771775","properties":{"name":"Avenida Universidad","highway":"secondary","ref":"L-3"},"geometry":{"type":"LineString","coordinates":[[-68.56968,9.68619],[-68.58033,9.67604],[-68.58033,9.66963]]}},{"type":"Feature","id":"way/264771776","properties":{"name":"Carretera San Carlos - Manrique","highway":"secondary","ref":"L-3"},"geometry":{"type":"LineString","coordinates":[[-68.56968,9.68619],[-68.56111,9.69587],[-68.55803,9.70422],[-68.54778,9.71135],[-68.54643,9.71639],[-68.54434,9.71835],[-68.54499,9.72155],[-68.54324,9.72475],[-68.53944,9.72642],[-68.53559,9.72982],[-68.52837,9.73107],[-68.52621,9.7473],[-68.52736,9.75084],[-68.52232,9.7565],[-68.521,9.76677],[-68.51709,9.77785],[-68.51752,9.78315],[-68.5137,9.78474],[-68.50982,9.78866],[-68.50896,9.79114]]}},{"type":"Feature","id":"way/264771780","properties":{"name":"Carretera Vieja Acarigua - San Carlos","highway":"primary","ref":"T-5"},"geometry":{"type":"LineString","coordinates":[[-68.60231,9.66092],[-68.60161,9.66126]]}},{"type":"Feature","id":"way/264771781","properties":{"highway":"trunk_link"},"geometry":{"type":"LineString","coordinates":[[-68.58283,9.65742],[-68.58358,9.6574]]}},{"type":"Feature","id":"way/264771782","properties":{"highway":"trunk_link"},"geometry":{"type":"LineString","coordinates":[[-68.58365,9.65734],[-68.58388,9.65676]]}},{"type":"Feature","id":"way/264771784","properties":{"name":"Carretera Regional San Carlos - Las Vegas","highway":"primary","ref":"L-2"},"geometry":{"type":"LineString","coordinates":[[-68.61792,9.56021],[-68.6174,9.56368],[-68.6084,9.58827],[-68.60228,9.61239]]}},{"type":"Feature","id":"way/264771785","properties":{"name":"Retorno de El Lim\u00f3n","highway":"primary_link","ref":"L-2"},"geometry":{"type":"LineString","coordinates":[[-68.59462,9.63029],[-68.59502,9.63067]]}},{"type":"Feature","id":"way/264771786","properties":{"name":"Retorno de El Lim\u00f3n","highway":"primary_link","ref":"L-2"},"geometry":{"type":"LineString","coordinates":[[-68.59624,9.62822],[-68.59594,9.6278]]}},{"type":"Feature","id":"way/289071667","properties":{"name":"Carretera Regional Tur\u00e9n - El Ba\u00fal","highway":"secondary"},"geometry":{"type":"LineString","coordinates":[[-68.30735,8.96339],[-68.30806,8.95519],[-68.30707,8.95271],[-68.29743,8.94682]]}},{"type":"Feature","id":"way/317559801","properties":{"name":"Autopista Jos\u00e9 Antonio P\u00e1ez","highway":"trunk","ref":"T-5"},"geometry":{"type":"LineString","coordinates":[[-68.9388,9.67209],[-68.91852,9.6642],[-68.91338,9.66391],[-68.89579,9.66612],[-68.89146,9.6654],[-68.87822,9.65945],[-68.86644,9.6488],[-68.8609,9.64655],[-68.84122,9.64778],[-68.80951,9.64644],[-68.79714,9.64761],[-68.78374,9.64686],[-68.77381,9.64819],[-68.74762,9.64655],[-68.72825,9.64707],[-68.71705,9.64523],[-68.69173,9.64557],[-68.67776,9.64294],[-68.64466,9.6416],[-68.62135,9.6433],[-68.60612,9.63907]]}},{"type":"Feature","id":"way/322380442","properties":{"name":"Variante de Tinaquillo","highway":"trunk","ref":"T-5"},"geometry":{"type":"LineString","coordinates":[[-68.31822,9.89886],[-68.31878,9.89836]]}},{"type":"Feature","id":"way/322380443","properties":{"name":"Variante de Tinaquillo","highway":"trunk","ref":"T-5"},"geometry":{"type":"LineString","coordinates":[[-68.31757,9.89917],[-68.318,9.89899]]}},{"type":"Feature","id":"way/322380445","properties":{"name":"Variante de Tinaquillo","highway":"trunk","ref":"T-5"},"geometry":{"type":"LineString","coordinates":[[-68.31733,9.89924],[-68.31757,9.89917]]}},{"type":"Feature","id":"way/322380446","properties":{"name":"Variante de Tinaquillo","highway":"trunk","ref":"T-5"},"geometry":{"type":"LineString","coordinates":[[-68.318,9.89899],[-68.31822,9.89886]]}},{"type":"Feature","id":"way/322380447","properties":{"name":"Distribuidor Apamates","highway":"trunk"},"geometry":{"type":"LineString","coordinates":[[-68.31988,9.89701],[-68.31982,9.89704]]}},{"type":"Feature","id":"way/322380448","properties":{"name":"Distribuidor Apamates","highway":"trunk_link"},"geometry":{"type":"LineString","coordinates":[[-68.31817,9.89921],[-68.31819,9.89902]]}},{"type":"Feature","id":"way/322380450","properties":{"name":"Distribuidor Apamates","highway":"trunk_link"},"geometry":{"type":"LineString","coordinates":[[-68.31819,9.89902],[-68.31807,9.89883]]}},{"type":"Feature","id":"way/322380451","properties":{"name":"Avenida Batalla de Taguanes","highway":"tertiary","ref":"L-4"},"geometry":{"type":"LineString","coordinates":[[-68.31388,9.90463],[-68.31367,9.90496]]}},{"type":"Feature","id":"way/322380452","properties":{"name":"Avenida Batalla de Taguanes","highway":"tertiary","ref":"L-4"},"geometry":{"type":"LineString","coordinates":[[-68.31367,9.90496],[-68.31292,9.90596]]}},{"type":"Feature","id":"way/322380453","properties":{"name":"Distribuidor Apamates","highway":"trunk_link"},"geometry":{"type":"LineString","coordinates":[[-68.31807,9.89883],[-68.31796,9.8988]]}},{"type":"Feature","id":"way/322380454","properties":{"name":"Distribuidor Apamates","highway":"trunk_link"},"geometry":{"type":"LineString","coordinates":[[-68.31768,9.89895],[-68.31745,9.89953]]}},{"type":"Feature","id":"way/322380457","properties":{"name":"Distribuidor Apamates","highway":"trunk_link"},"geometry":{"type":"LineString","coordinates":[[-68.3151,9.89988],[-68.31745,9.89953]]}},{"type":"Feature","id":"way/328501778","properties":{"name":"Carretera Regional Las Vegas - Libertad","highway":"primary","ref":"L-2"},"geometry":{"type":"LineString","coordinates":[[-68.6381,9.53398],[-68.63353,9.53572]]}},{"type":"Feature","id":"way/363030747","properties":{"name":"Eje Agr\u00edcola Sabana Larga","highway":"tertiary","ref":"R-28"},"geometry":{"type":"LineString","coordinates":[[-68.66274,9.53046],[-68.66892,9.537],[-68.67715,9.53561],[-68.68003,9.53345],[-68.68565,9.53374],[-68.69011,9.52823],[-68.69771,9.52617],[-68.70179,9.52649],[-68.70377,9.52238],[-68.71065,9.51947],[-68.7129,9.51629]]}},{"type":"Feature","id":"way/363030763","properties":{"name":"Carretera Regional Las Vegas - Libertad","highway":"primary","ref":"L-2"},"geometry":{"type":"LineString","coordinates":[[-68.6915,9.36241],[-68.69016,9.37688],[-68.69229,9.38077],[-68.69181,9.39708],[-68.68799,9.40635],[-68.6876,9.41157],[-68.68117,9.42842],[-68.68272,9.4355],[-68.67984,9.47077],[-68.68309,9.50281],[-68.67851,9.51476],[-68.6625,9.5308],[-68.65961,9.53186],[-68.63825,9.5341]]}},{"type":"Feature","id":"way/363031851","properties":{"name":"Eje Agr\u00edcola Cojedito","highway":"secondary","ref":"L-1"},"geometry":{"type":"LineString","coordinates":[[-68.9155,9.61784],[-68.9178,9.63043]]}},{"type":"Feature","id":"way/363219840","properties":{"name":"Eje Agr\u00edcola Quitacalz\u00f3n","highway":"tertiary","ref":"R-3"},"geometry":{"type":"LineString","coordinates":[[-68.68016,9.4749],[-68.68447,9.47159]]}},{"type":"Feature","id":"way/364978826","properties":{"name":"Autopista Jos\u00e9 Antonio P\u00e1ez","highway":"trunk","ref":"T-5"},"geometry":{"type":"LineString","coordinates":[[-68.96226,9.68456],[-68.96291,9.68475]]}},{"type":"Feature","id":"way/364978834","properties":{"name":"Autopista Jos\u00e9 Antonio P\u00e1ez","highway":"trunk","ref":"T-5"},"geometry":{"type":"LineString","coordinates":[[-68.93901,9.67232],[-68.9475,9.67508],[-68.96226,9.68456]]}},{"type":"Feature","id":"way/364978839","properties":{"name":"Autopista Jos\u00e9 Antonio P\u00e1ez","highway":"trunk","ref":"T-5"},"geometry":{"type":"LineString","coordinates":[[-68.96231,9.68446],[-68.94756,9.67498],[-68.93907,9.67222]]}},{"type":"Feature","id":"way/364978856","properties":{"name":"Autopista Jos\u00e9 Antonio P\u00e1ez","highway":"trunk","ref":"T-5"},"geometry":{"type":"LineString","coordinates":[[-68.96294,9.68463],[-68.96231,9.68446]]}},{"type":"Feature","id":"way/364978870","properties":{"name":"Autopista Jos\u00e9 Antonio P\u00e1ez","highway":"trunk","ref":"T-5"},"geometry":{"type":"LineString","coordinates":[[-68.93875,9.67218],[-68.93901,9.67232]]}},{"type":"Feature","id":"way/364978879","properties":{"name":"Autopista Jos\u00e9 Antonio P\u00e1ez","highway":"trunk","ref":"T-5"},"geometry":{"type":"LineString","coordinates":[[-68.93907,9.67222],[-68.9388,9.67209]]}},{"type":"Feature","id":"way/365121276","properties":{"name":"Carretera Vieja Acarigua - San Carlos","highway":"primary","ref":"T-5"},"geometry":{"type":"LineString","coordinates":[[-68.93361,9.68438],[-68.91026,9.68857],[-68.89474,9.68763],[-68.87872,9.67478],[-68.87454,9.67364],[-68.87137,9.66275],[-68.86349,9.65511],[-68.85788,9.65442],[-68.83389,9.65758],[-68.81754,9.65325],[-68.80818,9.65331],[-68.79979,9.64877],[-68.79329,9.65039],[-68.77567,9.65007],[-68.77021,9.64896],[-68.74817,9.64755],[-68.73139,9.64894],[-68.71114,9.64581],[-68.70422,9.6462]]}},{"type":"Feature","id":"way/365160224","properties":{"highway":"tertiary","ref":"L-3"},"geometry":{"type":"LineString","coordinates":[[-68.59761,9.66213],[-68.59802,9.66174]]}},{"type":"Feature","id":"way/365160225","properties":{"highway":"tertiary","ref":"L-3"},"geometry":{"type":"LineString","coordinates":[[-68.59773,9.66155],[-68.59761,9.66213]]}},{"type":"Feature","id":"way/365160230","properties":{"name":"Carretera Vieja Acarigua - San Carlos","highway":"primary","ref":"T-5"},"geometry":{"type":"LineString","coordinates":[[-68.60161,9.66126],[-68.59871,9.66197]]}},{"type":"Feature","id":"way/374470488","properties":{"name":"Avenida Universidad","highway":"secondary","ref":"L-3"},"geometry":{"type":"LineString","coordinates":[[-68.5799,9.6694],[-68.58023,9.66957]]}},{"type":"Feature","id":"way/374470490","properties":{"highway":"trunk_link"},"geometry":{"type":"LineString","coordinates":[[-68.58448,9.65617],[-68.58373,9.65596]]}},{"type":"Feature","id":"way/374470502","properties":{"name":"Avenida Universidad","highway":"secondary","ref":"L-3"},"geometry":{"type":"LineString","coordinates":[[-68.58035,9.66954],[-68.58039,9.66949]]}},{"type":"Feature","id":"way/374470507","properties":{"name":"Par Vial San Carlos - Tinaco","highway":"trunk","ref":"T-5"},"geometry":{"type":"LineString","coordinates":[[-68.50959,9.67381],[-68.50376,9.67637],[-68.48468,9.67977],[-68.46255,9.69392],[-68.45816,9.6948],[-68.45245,9.69394],[-68.44604,9.69769]]}},{"type":"Feature","id":"way/374470510","properties":{"name":"Avenida Universidad","highway":"secondary","ref":"L-3"},"geometry":{"type":"LineString","coordinates":[[-68.5799,9.6694],[-68.58079,9.67458],[-68.58025,9.67599],[-68.56968,9.68619]]}},{"type":"Feature","id":"way/374470511","properties":{"highway":"trunk_link"},"geometry":{"type":"LineString","coordinates":[[-68.58352,9.65636],[-68.58261,9.65725]]}},{"type":"Feature","id":"way/374472245","properties":{"highway":"trunk_link","ref":"T-5"},"geometry":{"type":"LineString","coordinates":[[-68.56871,9.66659],[-68.56844,9.66692]]}},{"type":"Feature","id":"way/374480738","properties":{"name":"Avenida Jos\u00e9 Laurencio Silva","highway":"trunk","ref":"T-5"},"geometry":{"type":"LineString","coordinates":[[-68.57771,9.66631],[-68.58249,9.65769],[-68.58894,9.65295]]}},{"type":"Feature","id":"way/374480740","properties":{"name":"Avenida Jos\u00e9 Laurencio Silva","highway":"primary","ref":"T-5"},"geometry":{"type":"LineString","coordinates":[[-68.58894,9.65295],[-68.59061,9.65274],[-68.59225,9.65388],[-68.59657,9.65819],[-68.59769,9.66148]]}},{"type":"Feature","id":"way/374480743","properties":{"name":"Avenida R\u00f3mulo Gallegos","highway":"trunk","ref":"T-5;L-2"},"geometry":{"type":"LineString","coordinates":[[-68.58882,9.65289],[-68.58886,9.65298]]}},{"type":"Feature","id":"way/374567176","properties":{"name":"Avenida Jos\u00e9 Laurencio Silva","highway":"trunk","ref":"T-5"},"geometry":{"type":"LineString","coordinates":[[-68.57923,9.66372],[-68.57909,9.66395]]}},{"type":"Feature","id":"way/374567177","properties":{"name":"Avenida Jos\u00e9 Laurencio Silva","highway":"trunk","ref":"T-5"},"geometry":{"type":"LineString","coordinates":[[-68.58891,9.65287],[-68.58231,9.6575],[-68.57923,9.66372]]}},{"type":"Feature","id":"way/374567182","properties":{"name":"Avenida Jos\u00e9 Laurencio Silva","highway":"trunk","ref":"T-5"},"geometry":{"type":"LineString","coordinates":[[-68.57909,9.66395],[-68.57744,9.66632]]}},{"type":"Feature","id":"way/374586808","properties":{"name":"Eje Rural Mariquita","highway":"tertiary","ref":"R-13"},"geometry":{"type":"LineString","coordinates":[[-68.59319,9.68867],[-68.59569,9.69587],[-68.59925,9.69849],[-68.60032,9.70041],[-68.60464,9.70241],[-68.60522,9.70567]]}},{"type":"Feature","id":"way/374602733","properties":{"highway":"tertiary","ref":"R-13"},"geometry":{"type":"LineString","coordinates":[[-68.58927,9.67268],[-68.59051,9.67523],[-68.59146,9.68391],[-68.59441,9.68775],[-68.59319,9.68867]]}},{"type":"Feature","id":"way/374602735","properties":{"name":"Avenida Circunvalaci\u00f3n","highway":"tertiary","ref":"L-3"},"geometry":{"type":"LineString","coordinates":[[-68.58959,9.67222],[-68.59235,9.66917],[-68.59273,9.66488],[-68.59761,9.66213]]}},{"type":"Feature","id":"way/374602737","properties":{"highway":"tertiary","ref":"L-3"},"geometry":{"type":"LineString","coordinates":[[-68.58959,9.67222],[-68.58928,9.67223]]}},{"type":"Feature","id":"way/374615982","properties":{"name":"Eje Rural Las Lomas","highway":"tertiary","ref":"R-8"},"geometry":{"type":"LineString","coordinates":[[-68.49178,9.71356],[-68.49962,9.67718]]}},{"type":"Feature","id":"way/374895285","properties":{"name":"Avenida Monagas","highway":"trunk","ref":"T-13"},"geometry":{"type":"LineString","coordinates":[[-68.42824,9.7083],[-68.42918,9.70426]]}},{"type":"Feature","id":"way/374895287","properties":{"highway":"trunk_link","ref":"T-5;T-13"},"geometry":{"type":"LineString","coordinates":[[-68.42885,9.70879],[-68.42824,9.7083]]}},{"type":"Feature","id":"way/374895288","properties":{"name":"Carretera Nacional San Carlos - Tinaco","highway":"trunk","ref":"T-5"},"geometry":{"type":"LineString","coordinates":[[-68.44604,9.69769],[-68.44144,9.70176],[-68.43438,9.70537]]}},{"type":"Feature","id":"way/374895289","properties":{"name":"Avenida Monagas","highway":"trunk","ref":"T-13"},"geometry":{"type":"LineString","coordinates":[[-68.42918,9.70426],[-68.42921,9.70372]]}},{"type":"Feature","id":"way/374895778","properties":{"name":"Avenida Monagas","highway":"trunk","ref":"T-13"},"geometry":{"type":"LineString","coordinates":[[-68.42921,9.70372],[-68.42946,9.69551],[-68.42401,9.69265]]}},{"type":"Feature","id":"way/374895783","properties":{"name":"Puente Tinaco","highway":"trunk","ref":"T-13"},"geometry":{"type":"LineString","coordinates":[[-68.42401,9.69265],[-68.42339,9.69237]]}},{"type":"Feature","id":"way/375575027","properties":{"name":"Carretera Nacional Tinaquillo - Tinaco","highway":"trunk","ref":"T-5"},"geometry":{"type":"LineString","coordinates":[[-68.39893,9.80194],[-68.39896,9.80139]]}},{"type":"Feature","id":"way/375575031","properties":{"name":"Carretera Nacional Tinaquillo - Tinaco","highway":"trunk","ref":"T-5"},"geometry":{"type":"LineString","coordinates":[[-68.37925,9.81418],[-68.37976,9.81404]]}},{"type":"Feature","id":"way/375575046","properties":{"name":"Carretera Nacional Tinaquillo - Tinaco","highway":"trunk","ref":"T-5"},"geometry":{"type":"LineString","coordinates":[[-68.41382,9.76546],[-68.41435,9.76516]]}},{"type":"Feature","id":"way/375575052","properties":{"name":"Carretera Nacional Tinaquillo - Tinaco","highway":"trunk","ref":"T-5"},"geometry":{"type":"LineString","coordinates":[[-68.32003,9.89682],[-68.32753,9.88835],[-68.33054,9.88024],[-68.34615,9.86054],[-68.34896,9.85527],[-68.35491,9.8506],[-68.36176,9.8389],[-68.36998,9.83007],[-68.37007,9.82255],[-68.37142,9.81847],[-68.37448,9.81718],[-68.37608,9.81508],[-68.37925,9.81418]]}},{"type":"Feature","id":"way/375575061","properties":{"name":"Carretera Nacional Tinaquillo - Tinaco","highway":"trunk","ref":"T-5"},"geometry":{"type":"LineString","coordinates":[[-68.41435,9.76516],[-68.41521,9.76253],[-68.41263,9.75936],[-68.41329,9.75003],[-68.41628,9.74774],[-68.41662,9.7399],[-68.42753,9.71034]]}},{"type":"Feature","id":"way/375575062","properties":{"name":"Carretera Nacional Tinaquillo - Tinaco","highway":"trunk","ref":"T-5"},"geometry":{"type":"LineString","coordinates":[[-68.39896,9.80139],[-68.40307,9.79564],[-68.40102,9.79021],[-68.40128,9.78741],[-68.40497,9.78619],[-68.40841,9.78624],[-68.41014,9.78389],[-68.40857,9.78047],[-68.41113,9.77312],[-68.40825,9.76918],[-68.40826,9.76777],[-68.41382,9.76546]]}},{"type":"Feature","id":"way/375575063","properties":{"name":"Carretera Nacional Tinaquillo - Tinaco","highway":"trunk","ref":"T-5"},"geometry":{"type":"LineString","coordinates":[[-68.37976,9.81404],[-68.38693,9.81335],[-68.39093,9.808],[-68.39525,9.80769],[-68.39613,9.80498],[-68.39893,9.80194]]}},{"type":"Feature","id":"way/375580463","properties":{"name":"Variante de Tinaquillo","highway":"trunk","ref":"T-5"},"geometry":{"type":"LineString","coordinates":[[-68.29116,9.92561],[-68.29103,9.92228]]}},{"type":"Feature","id":"way/375580467","properties":{"name":"Distribuidor El Baquiano","highway":"trunk_link"},"geometry":{"type":"LineString","coordinates":[[-68.29344,9.92418],[-68.29215,9.92436]]}},{"type":"Feature","id":"way/375580471","properties":{"name":"Retorno de El Baquiano","highway":"trunk_link"},"geometry":{"type":"LineString","coordinates":[[-68.28983,9.92579],[-68.29014,9.92639]]}},{"type":"Feature","id":"way/375580474","properties":{"name":"Avenida Batalla de Taguanes","highway":"tertiary","ref":"L-4"},"geometry":{"type":"LineString","coordinates":[[-68.29116,9.92561],[-68.29412,9.92404]]}},{"type":"Feature","id":"way/375580476","properties":{"name":"Variante de Tinaquillo","highway":"trunk","ref":"T-5"},"geometry":{"type":"LineString","coordinates":[[-68.29103,9.92228],[-68.29492,9.91428],[-68.30043,9.9125],[-68.3036,9.91043],[-68.30803,9.9036],[-68.31586,9.89964]]}},{"type":"Feature","id":"way/375580477","properties":{"name":"Eje Rural Ca\u00f1o de Indio","highway":"tertiary","ref":"R-26"},"geometry":{"type":"LineString","coordinates":[[-68.29488,9.91491],[-68.2942,9.91429]]}},{"type":"Feature","id":"way/375580482","properties":{"name":"Distribuidor Apamates","highway":"trunk_link"},"geometry":{"type":"LineString","coordinates":[[-68.31745,9.89953],[-68.31787,9.89957]]}},{"type":"Feature","id":"way/375580484","properties":{"name":"Distribuidor El Baquiano","highway":"trunk_link"},"geometry":{"type":"LineString","coordinates":[[-68.29107,9.92411],[-68.29022,9.92477]]}},{"type":"Feature","id":"way/375580488","properties":{"name":"Avenida Batalla de Taguanes","highway":"tertiary","ref":"L-4"},"geometry":{"type":"LineString","coordinates":[[-68.29385,9.92405],[-68.29203,9.92406],[-68.29101,9.92241]]}},{"type":"Feature","id":"way/375580497","properties":{"name":"Distribuidor El Baquiano","highway":"trunk_link"},"geometry":{"type":"LineString","coordinates":[[-68.29215,9.92436],[-68.29107,9.92411]]}},{"type":"Feature","id":"way/375580501","properties":{"name":"Variante de Tinaquillo","highway":"trunk","ref":"T-5"},"geometry":{"type":"LineString","coordinates":[[-68.31586,9.89964],[-68.31733,9.89924]]}},{"type":"Feature","id":"way/375580503","properties":{"name":"Eje Rural Ca\u00f1o de Indio","highway":"tertiary","ref":"R-26"},"geometry":{"type":"LineString","coordinates":[[-68.2942,9.91429],[-68.29306,9.91306],[-68.28904,9.91228],[-68.27473,9.90546],[-68.25915,9.9002]]}},{"type":"Feature","id":"way/375580504","properties":{"name":"Carretera Nacional Tinaquillo - Campo Carabobo","highway":"trunk","ref":"T-5"},"geometry":{"type":"LineString","coordinates":[[-68.28983,9.92579],[-68.28859,9.92756]]}},{"type":"Feature","id":"way/375592133","properties":{"name":"Eje Rural El Baj\u00edo","highway":"tertiary","ref":"R-26"},"geometry":{"type":"LineString","coordinates":[[-68.25485,9.93386],[-68.28126,9.92817]]}},{"type":"Feature","id":"way/375592136","properties":{"name":"Distribuidor Los Bomberos","highway":"trunk_link"},"geometry":{"type":"LineString","coordinates":[[-68.29601,9.91545],[-68.29478,9.91441]]}},{"type":"Feature","id":"way/375594313","properties":{"name":"Avenida Batalla de Taguanes","highway":"tertiary","ref":"L-4"},"geometry":{"type":"LineString","coordinates":[[-68.31388,9.90463],[-68.31747,9.90011]]}},{"type":"Feature","id":"way/375594314","properties":{"name":"Distribuidor Apamates","highway":"trunk_link"},"geometry":{"type":"LineString","coordinates":[[-68.31787,9.89957],[-68.31976,9.89717]]}},{"type":"Feature","id":"way/375594315","properties":{"name":"Avenida Batalla de Taguanes","highway":"tertiary","ref":"L-4"},"geometry":{"type":"LineString","coordinates":[[-68.31739,9.90006],[-68.31388,9.90463]]}},{"type":"Feature","id":"way/375966585","properties":{"name":"Avenida Jos\u00e9 Antonio P\u00e1ez","highway":"tertiary","ref":"L-4"},"geometry":{"type":"LineString","coordinates":[[-68.31399,9.9179],[-68.31912,9.9164],[-68.32465,9.91868],[-68.3301,9.91885],[-68.33424,9.92051],[-68.33673,9.92279]]}},{"type":"Feature","id":"way/376002533","properties":{"name":"Avenida Batalla de Taguanes","highway":"tertiary","ref":"L-4"},"geometry":{"type":"LineString","coordinates":[[-68.29865,9.92362],[-68.29924,9.9236]]}},{"type":"Feature","id":"way/376002539","properties":{"name":"Avenida Batalla de Taguanes","highway":"tertiary","ref":"L-4"},"geometry":{"type":"LineString","coordinates":[[-68.29412,9.92404],[-68.2944,9.92396]]}},{"type":"Feature","id":"way/376002549","properties":{"name":"Carretera Tinaquillo - Vallecito","highway":"tertiary","ref":"L-4"},"geometry":{"type":"LineString","coordinates":[[-68.33673,9.92279],[-68.34932,9.92635],[-68.36136,9.92432],[-68.36728,9.92578],[-68.37041,9.92819],[-68.3738,9.92917],[-68.39084,9.92924],[-68.39516,9.9274],[-68.40243,9.92866],[-68.41016,9.92737],[-68.41351,9.9289],[-68.41874,9.9266],[-68.42172,9.92183],[-68.42405,9.9219],[-68.42614,9.92051],[-68.42779,9.92105],[-68.43026,9.91827],[-68.43052,9.91566],[-68.43373,9.90886],[-68.43353,9.905],[-68.4316,9.90263],[-68.43409,9.90048],[-68.4337,9.89894],[-68.43586,9.89673],[-68.43476,9.89568],[-68.43495,9.89214],[-68.43268,9.88841],[-68.43966,9.88406],[-68.44143,9.88072],[-68.44627,9.87912],[-68.45101,9.87994]]}},{"type":"Feature","id":"way/376003164","properties":{"name":"Avenida Miranda","highway":"tertiary","ref":"L-4"},"geometry":{"type":"LineString","coordinates":[[-68.29934,9.9236],[-68.30409,9.91784]]}},{"type":"Feature","id":"way/376142827","properties":{"name":"Avenida Carabobo","highway":"tertiary","ref":"L-4"},"geometry":{"type":"LineString","coordinates":[[-68.31292,9.90596],[-68.31082,9.90725]]}},{"type":"Feature","id":"way/376142835","properties":{"name":"Avenida Carabobo","highway":"tertiary","ref":"L-4"},"geometry":{"type":"LineString","coordinates":[[-68.3105,9.90766],[-68.30899,9.90971]]}},{"type":"Feature","id":"way/376142839","properties":{"name":"Avenida Carabobo","highway":"tertiary","ref":"L-4"},"geometry":{"type":"LineString","coordinates":[[-68.31082,9.90725],[-68.3105,9.90766]]}},{"type":"Feature","id":"way/376381045","properties":{"name":"Eje Rural Ca\u00f1o de Indio","highway":"tertiary","ref":"R-26"},"geometry":{"type":"LineString","coordinates":[[-68.30133,9.91591],[-68.30085,9.91577]]}},{"type":"Feature","id":"way/376381050","properties":{"name":"Calle Cede\u00f1o","highway":"tertiary","ref":"R-26"},"geometry":{"type":"LineString","coordinates":[[-68.30085,9.91577],[-68.29618,9.91548]]}},{"type":"Feature","id":"way/376999729","properties":{"name":"Distribuidor Mata Oscura","highway":"trunk_link"},"geometry":{"type":"LineString","coordinates":[[-68.84306,9.6474],[-68.84268,9.64758]]}},{"type":"Feature","id":"way/376999731","properties":{"name":"Distribuidor Mata Oscura","highway":"trunk_link"},"geometry":{"type":"LineString","coordinates":[[-68.84284,9.64722],[-68.84244,9.64746]]}},{"type":"Feature","id":"way/376999736","properties":{"name":"Distribuidor Mata Oscura","highway":"trunk_link"},"geometry":{"type":"LineString","coordinates":[[-68.84475,9.6476],[-68.84306,9.6474]]}},{"type":"Feature","id":"way/377002169","properties":{"name":"Avenida R\u00f3mulo Gallegos","highway":"primary","ref":"L-2"},"geometry":{"type":"LineString","coordinates":[[-68.59126,9.64],[-68.59329,9.63402],[-68.60155,9.61776],[-68.60228,9.61239]]}},{"type":"Feature","id":"way/378355717","properties":{"name":"Avenida Batalla de Taguanes","highway":"tertiary","ref":"L-4"},"geometry":{"type":"LineString","coordinates":[[-68.29844,9.92361],[-68.29865,9.92362]]}},{"type":"Feature","id":"way/378355718","properties":{"name":"Avenida Batalla de Taguanes","highway":"tertiary","ref":"L-4"},"geometry":{"type":"LineString","coordinates":[[-68.2944,9.92396],[-68.29695,9.92358]]}},{"type":"Feature","id":"way/380773558","properties":{"name":"Distribuidor San Carlos","highway":"trunk_link"},"geometry":{"type":"LineString","coordinates":[[-68.59397,9.63763],[-68.59207,9.63766]]}},{"type":"Feature","id":"way/380773559","properties":{"name":"Distribuidor San Carlos","highway":"trunk_link"},"geometry":{"type":"LineString","coordinates":[[-68.59397,9.63763],[-68.59241,9.6365]]}},{"type":"Feature","id":"way/380773560","properties":{"name":"Distribuidor San Carlos","highway":"trunk_link"},"geometry":{"type":"LineString","coordinates":[[-68.59176,9.63766],[-68.59086,9.63661],[-68.59201,9.63717]]}},{"type":"Feature","id":"way/380773562","properties":{"name":"Autopista Jos\u00e9 Antonio P\u00e1ez","highway":"trunk","ref":"T-5"},"geometry":{"type":"LineString","coordinates":[[-68.59403,9.63785],[-68.60532,9.63906]]}},{"type":"Feature","id":"way/408004196","properties":{"name":"Avenida Universidad","highway":"secondary","ref":"L-3"},"geometry":{"type":"LineString","coordinates":[[-68.57738,9.66733],[-68.5799,9.6694]]}},{"type":"Feature","id":"way/408004479","properties":{"name":"Avenida Monagas","highway":"trunk","ref":"T-13"},"geometry":{"type":"LineString","coordinates":[[-68.42753,9.71034],[-68.42824,9.7083]]}},{"type":"Feature","id":"way/408005076","properties":{"name":"Distribuidor Apamates","highway":"trunk_link"},"geometry":{"type":"LineString","coordinates":[[-68.31745,9.89953],[-68.31739,9.90006]]}},{"type":"Feature","id":"way/409610336","properties":{"name":"Eje Agr\u00edcola Mapurite","highway":"tertiary","ref":"R-15"},"geometry":{"type":"LineString","coordinates":[[-68.67129,9.64401],[-68.67122,9.64391]]}},{"type":"Feature","id":"way/409610337","properties":{"name":"Eje Agr\u00edcola Mapurite","highway":"tertiary","ref":"R-15"},"geometry":{"type":"LineString","coordinates":[[-68.6716,9.64288],[-68.67169,9.64266]]}},{"type":"Feature","id":"way/409610338","properties":{"name":"Eje Agr\u00edcola Mapurite","highway":"tertiary","ref":"R-15"},"geometry":{"type":"LineString","coordinates":[[-68.67122,9.64391],[-68.67111,9.644]]}},{"type":"Feature","id":"way/409610339","properties":{"name":"Distribuidor Mapurite","highway":"trunk_link"},"geometry":{"type":"LineString","coordinates":[[-68.67266,9.64275],[-68.67202,9.64247]]}},{"type":"Feature","id":"way/409610340","properties":{"name":"Distribuidor Mapurite","highway":"trunk_link"},"geometry":{"type":"LineString","coordinates":[[-68.67179,9.6431],[-68.67265,9.64286]]}},{"type":"Feature","id":"way/409610341","properties":{"name":"Distribuidor Mapurite","highway":"trunk_link"},"geometry":{"type":"LineString","coordinates":[[-68.67144,9.64333],[-68.67179,9.6431]]}},{"type":"Feature","id":"way/409610342","properties":{"name":"Distribuidor Mapurite","highway":"trunk_link"},"geometry":{"type":"LineString","coordinates":[[-68.67063,9.64278],[-68.67128,9.64311]]}},{"type":"Feature","id":"way/409610343","properties":{"name":"Distribuidor Mapurite","highway":"trunk_link"},"geometry":{"type":"LineString","coordinates":[[-68.67202,9.64247],[-68.67174,9.64251]]}},{"type":"Feature","id":"way/409610344","properties":{"name":"Distribuidor Mapurite","highway":"trunk_link"},"geometry":{"type":"LineString","coordinates":[[-68.67174,9.64251],[-68.67149,9.64246]]}},{"type":"Feature","id":"way/409610345","properties":{"name":"Eje Agr\u00edcola Mapurite","highway":"tertiary","ref":"R-15"},"geometry":{"type":"LineString","coordinates":[[-68.67169,9.64266],[-68.67174,9.64251]]}},{"type":"Feature","id":"way/409610346","properties":{"name":"Distribuidor Mapurite","highway":"trunk_link"},"geometry":{"type":"LineString","coordinates":[[-68.67128,9.64311],[-68.67155,9.64304]]}},{"type":"Feature","id":"way/409610347","properties":{"name":"Distribuidor Mapurite","highway":"trunk_link"},"geometry":{"type":"LineString","coordinates":[[-68.67158,9.64295],[-68.67179,9.6431]]}},{"type":"Feature","id":"way/409610348","properties":{"name":"Distribuidor Mapurite","highway":"trunk_link"},"geometry":{"type":"LineString","coordinates":[[-68.67202,9.64247],[-68.67184,9.64224]]}},{"type":"Feature","id":"way/409610349","properties":{"name":"Distribuidor Mapurite","highway":"trunk_link"},"geometry":{"type":"LineString","coordinates":[[-68.67149,9.64246],[-68.67073,9.64268]]}},{"type":"Feature","id":"way/409610350","properties":{"name":"Distribuidor Mapurite","highway":"trunk_link"},"geometry":{"type":"LineString","coordinates":[[-68.67128,9.64311],[-68.67144,9.64333]]}},{"type":"Feature","id":"way/409610351","properties":{"name":"Distribuidor Mapurite","highway":"trunk_link"},"geometry":{"type":"LineString","coordinates":[[-68.67184,9.64224],[-68.67149,9.64246]]}},{"type":"Feature","id":"way/409610352","properties":{"name":"Eje Agr\u00edcola Mapurite","highway":"tertiary","ref":"R-15"},"geometry":{"type":"LineString","coordinates":[[-68.67122,9.64391],[-68.67144,9.64333]]}},{"type":"Feature","id":"way/409610902","properties":{"name":"Distribuidor Mata Oscura","highway":"trunk_link"},"geometry":{"type":"LineString","coordinates":[[-68.84217,9.64815],[-68.84234,9.64835]]}},{"type":"Feature","id":"way/409610903","properties":{"name":"Distribuidor Mata Oscura","highway":"trunk_link"},"geometry":{"type":"LineString","coordinates":[[-68.84271,9.64816],[-68.84444,9.64771]]}},{"type":"Feature","id":"way/409610904","properties":{"name":"Distribuidor Mata Oscura","highway":"trunk_link"},"geometry":{"type":"LineString","coordinates":[[-68.84249,9.648],[-68.84271,9.64816]]}},{"type":"Feature","id":"way/409610905","properties":{"name":"Distribuidor Mata Oscura","highway":"trunk_link"},"geometry":{"type":"LineString","coordinates":[[-68.84234,9.64835],[-68.84271,9.64816]]}},{"type":"Feature","id":"way/409610906","properties":{"name":"Distribuidor Mata Oscura","highway":"trunk_link"},"geometry":{"type":"LineString","coordinates":[[-68.84268,9.64758],[-68.84244,9.64746]]}},{"type":"Feature","id":"way/409610907","properties":{"name":"Distribuidor Mata Oscura","highway":"trunk_link"},"geometry":{"type":"LineString","coordinates":[[-68.84086,9.64786],[-68.84217,9.64815]]}},{"type":"Feature","id":"way/409610908","properties":{"name":"Distribuidor Mata Oscura","highway":"trunk_link"},"geometry":{"type":"LineString","coordinates":[[-68.84217,9.64815],[-68.84245,9.6481]]}},{"type":"Feature","id":"way/409611455","properties":{"name":"Distribuidor Apartaderos","highway":"trunk_link"},"geometry":{"type":"LineString","coordinates":[[-68.93742,9.67154],[-68.93855,9.67238]]}},{"type":"Feature","id":"way/409611456","properties":{"name":"Distribuidor Apartaderos","highway":"trunk_link"},"geometry":{"type":"LineString","coordinates":[[-68.93904,9.67269],[-68.94057,9.67297]]}},{"type":"Feature","id":"way/409611457","properties":{"name":"Distribuidor Apartaderos","highway":"trunk_link"},"geometry":{"type":"LineString","coordinates":[[-68.93858,9.67171],[-68.93743,9.67142]]}},{"type":"Feature","id":"way/409611458","properties":{"name":"Distribuidor Apartaderos","highway":"trunk_link"},"geometry":{"type":"LineString","coordinates":[[-68.94044,9.67279],[-68.93908,9.67193]]}},{"type":"Feature","id":"way/410110137","properties":{"highway":"trunk_link","ref":"T-5"},"geometry":{"type":"LineString","coordinates":[[-68.58871,9.65256],[-68.58864,9.65295]]}},{"type":"Feature","id":"way/410347759","properties":{"name":"V\u00eda a El Pao","highway":"secondary","ref":"R-30"},"geometry":{"type":"LineString","coordinates":[[-68.26179,9.65408],[-68.25983,9.65383]]}},{"type":"Feature","id":"way/410347760","properties":{"name":"V\u00eda a El Pao","highway":"secondary","ref":"R-30"},"geometry":{"type":"LineString","coordinates":[[-68.26028,9.65318],[-68.25983,9.65383]]}},{"type":"Feature","id":"way/410349284","properties":{"name":"Carretera Nacional de Los Llanos","highway":"trunk","ref":"T-13"},"geometry":{"type":"LineString","coordinates":[[-68.42339,9.69237],[-68.40478,9.68482],[-68.39122,9.68319],[-68.38792,9.68154],[-68.37657,9.67973],[-68.34291,9.6757],[-68.32556,9.66848],[-68.31361,9.66631],[-68.28961,9.65683],[-68.28257,9.66078],[-68.27358,9.65936],[-68.26179,9.65408]]}},{"type":"Feature","id":"way/410349285","properties":{"name":"Carretera Nacional de Los Llanos","highway":"trunk","ref":"T-13"},"geometry":{"type":"LineString","coordinates":[[-67.97185,9.53487],[-67.97171,9.53508]]}},{"type":"Feature","id":"way/410349288","properties":{"name":"Carretera Regional El Ba\u00fal - Las Galeras","highway":"primary","ref":"T-8"},"geometry":{"type":"LineString","coordinates":[[-68.16515,9.54864],[-68.16552,9.55051]]}},{"type":"Feature","id":"way/410349290","properties":{"name":"Carretera Regional El Ba\u00fal - Las Galeras","highway":"primary","ref":"T-8"},"geometry":{"type":"LineString","coordinates":[[-68.16515,9.54864],[-68.16389,9.54919]]}},{"type":"Feature","id":"way/441856568","properties":{"name":"Carretera Nacional Tinaquillo - Campo Carabobo","highway":"trunk","ref":"T-5"},"geometry":{"type":"LineString","coordinates":[[-68.21649,9.96478],[-68.21674,9.9647]]}},{"type":"Feature","id":"way/441856578","properties":{"name":"Carretera Nacional Tinaquillo - Campo Carabobo","highway":"trunk","ref":"T-5"},"geometry":{"type":"LineString","coordinates":[[-68.22244,9.96585],[-68.22271,9.96571]]}},{"type":"Feature","id":"way/441856584","properties":{"name":"Carretera Nacional Tinaquillo - Campo Carabobo","highway":"trunk","ref":"T-5"},"geometry":{"type":"LineString","coordinates":[[-68.22447,9.96522],[-68.22485,9.96511]]}},{"type":"Feature","id":"way/441856585","properties":{"name":"Carretera Nacional Tinaquillo - Campo Carabobo","highway":"trunk","ref":"T-5"},"geometry":{"type":"LineString","coordinates":[[-68.21674,9.9647],[-68.22014,9.96661],[-68.22244,9.96585]]}},{"type":"Feature","id":"way/441856586","properties":{"name":"Carretera Nacional Tinaquillo - Campo Carabobo","highway":"trunk","ref":"T-5"},"geometry":{"type":"LineString","coordinates":[[-68.22485,9.96511],[-68.22726,9.96367],[-68.22696,9.95869],[-68.23124,9.95461],[-68.23472,9.95331],[-68.24111,9.95318]]}},{"type":"Feature","id":"way/471701322","properties":{"name":"Carretera Nacional Tinaquillo - Campo Carabobo","highway":"trunk","ref":"T-5"},"geometry":{"type":"LineString","coordinates":[[-68.24111,9.95318],[-68.24127,9.95317]]}},{"type":"Feature","id":"way/475675083","properties":{"name":"Carretera El Pao - La Guama","highway":"tertiary","ref":"R-16"},"geometry":{"type":"LineString","coordinates":[[-68.1296,9.64747],[-68.13305,9.66712],[-68.13243,9.68314],[-68.13408,9.6962],[-68.13375,9.70107],[-68.13695,9.70697],[-68.14218,9.71137],[-68.14225,9.71319],[-68.13609,9.72167],[-68.13573,9.72428],[-68.13688,9.72901],[-68.13302,9.73493],[-68.133,9.73872],[-68.12491,9.73976],[-68.12023,9.74232],[-68.11768,9.74187],[-68.11552,9.74432]]}},{"type":"Feature","id":"way/476083031","properties":{"name":"Avenida Bol\u00edvar","highway":"primary","ref":"L-2"},"geometry":{"type":"LineString","coordinates":[[-68.69269,9.35359],[-68.69157,9.36169]]}},{"type":"Feature","id":"way/476083035","properties":{"name":"Avenida Bol\u00edvar","highway":"primary","ref":"L-2"},"geometry":{"type":"LineString","coordinates":[[-68.69157,9.36169],[-68.6915,9.36241]]}},{"type":"Feature","id":"way/476088546","properties":{"name":"Eje Agr\u00edcola Mapurite","highway":"tertiary","ref":"R-15"},"geometry":{"type":"LineString","coordinates":[[-68.71735,9.56358],[-68.72143,9.5543],[-68.73313,9.54402],[-68.76782,9.53715],[-68.79301,9.52902]]}},{"type":"Feature","id":"way/531492401","properties":{"name":"Avenida Carabobo","highway":"tertiary","ref":"L-4"},"geometry":{"type":"LineString","coordinates":[[-68.30899,9.90971],[-68.30746,9.91172]]}},{"type":"Feature","id":"way/543956324","properties":{"name":"Carretera Manrique - La Sierra","highway":"tertiary","ref":"R-19"},"geometry":{"type":"LineString","coordinates":[[-68.52219,9.81167],[-68.53168,9.81417],[-68.53329,9.8169],[-68.54039,9.8235],[-68.54157,9.8266],[-68.54736,9.83166],[-68.54931,9.83626],[-68.55124,9.83712],[-68.55084,9.84167],[-68.54881,9.84329],[-68.54727,9.85028],[-68.54586,9.85235],[-68.54558,9.85725],[-68.54277,9.86169],[-68.54348,9.86456],[-68.54489,9.86491],[-68.54438,9.86713],[-68.54568,9.86753],[-68.54577,9.87213],[-68.54675,9.87197],[-68.54777,9.8733],[-68.5483,9.87272]]}},{"type":"Feature","id":"way/544749241","properties":{"name":"Eje Agr\u00edcola Camoruquito","highway":"tertiary","ref":"R-5"},"geometry":{"type":"LineString","coordinates":[[-68.63353,9.53572],[-68.63417,9.53141],[-68.63258,9.52072],[-68.63369,9.51089]]}},{"type":"Feature","id":"way/544749243","properties":{"name":"Avenida R\u00f3mulo Gallegos","highway":"trunk","ref":"T-5;L-2"},"geometry":{"type":"LineString","coordinates":[[-68.59201,9.63717],[-68.58832,9.65077],[-68.58882,9.65289]]}},{"type":"Feature","id":"way/544749808","properties":{"highway":"primary_link","ref":"L-2"},"geometry":{"type":"LineString","coordinates":[[-68.69142,9.36214],[-68.69164,9.36217]]}},{"type":"Feature","id":"way/545283863","properties":{"name":"Eje Agr\u00edcola Santa Teresa","highway":"tertiary","ref":"L-1"},"geometry":{"type":"LineString","coordinates":[[-68.85932,9.55148],[-68.86455,9.55514],[-68.86781,9.56269],[-68.8767,9.56946],[-68.87886,9.57016],[-68.89747,9.56847],[-68.8996,9.57149]]}},{"type":"Feature","id":"way/545283864","properties":{"name":"Eje Agr\u00edcola El Estero","highway":"tertiary","ref":"L-1"},"geometry":{"type":"LineString","coordinates":[[-68.81322,9.50084],[-68.80518,9.48892],[-68.80417,9.48056],[-68.80162,9.47783],[-68.80108,9.47231],[-68.77784,9.4472]]}},{"type":"Feature","id":"way/545283867","properties":{"name":"Eje Agr\u00edcola Cojedito","highway":"secondary","ref":"L-1"},"geometry":{"type":"LineString","coordinates":[[-68.9178,9.63043],[-68.9177,9.63296],[-68.92005,9.63767],[-68.92067,9.64292],[-68.93472,9.65705],[-68.93799,9.66306],[-68.93886,9.67139]]}},{"type":"Feature","id":"way/545287451","properties":{"name":"Eje Agr\u00edcola Quitacalz\u00f3n","highway":"tertiary","ref":"R-3"},"geometry":{"type":"LineString","coordinates":[[-68.7622,9.4336],[-68.72096,9.45382]]}},{"type":"Feature","id":"way/545287452","properties":{"name":"Eje Agr\u00edcola Quitacalz\u00f3n","highway":"tertiary","ref":"R-3"},"geometry":{"type":"LineString","coordinates":[[-68.72096,9.45382],[-68.68447,9.47159]]}},{"type":"Feature","id":"way/545317420","properties":{"name":"Calle Vargas","highway":"tertiary","ref":"L-4;R-11"},"geometry":{"type":"LineString","coordinates":[[-68.31399,9.9179],[-68.31189,9.91483],[-68.30746,9.91172]]}},{"type":"Feature","id":"way/545317421","properties":{"name":"Avenida Carabobo","highway":"tertiary","ref":"L-4"},"geometry":{"type":"LineString","coordinates":[[-68.30746,9.91172],[-68.30692,9.91246]]}},{"type":"Feature","id":"way/545317423","properties":{"name":"Calle El Socorro","highway":"tertiary","ref":"L-4;R-11"},"geometry":{"type":"LineString","coordinates":[[-68.30692,9.91246],[-68.3118,9.9157],[-68.31374,9.91808]]}},{"type":"Feature","id":"way/545317424","properties":{"name":"Avenida Carabobo","highway":"tertiary","ref":"L-4"},"geometry":{"type":"LineString","coordinates":[[-68.30692,9.91246],[-68.29934,9.9236]]}},{"type":"Feature","id":"way/545317425","properties":{"name":"Calle P\u00e1ez","highway":"tertiary","ref":"L-4;R-11"},"geometry":{"type":"LineString","coordinates":[[-68.31374,9.91808],[-68.31399,9.9179]]}},{"type":"Feature","id":"way/581350264","properties":{"highway":"tertiary","ref":"R-26"},"geometry":{"type":"LineString","coordinates":[[-68.30205,9.91641],[-68.30133,9.91591]]}},{"type":"Feature","id":"way/581350272","properties":{"name":"Avenida Miranda","highway":"tertiary","ref":"L-4"},"geometry":{"type":"LineString","coordinates":[[-68.30409,9.91784],[-68.31292,9.90596]]}},{"type":"Feature","id":"way/581350276","properties":{"name":"Calle Cede\u00f1o","highway":"tertiary","ref":"R-26"},"geometry":{"type":"LineString","coordinates":[[-68.30409,9.91784],[-68.30205,9.91641]]}},{"type":"Feature","id":"way/615272056","properties":{"name":"Eje Rural El Baj\u00edo","highway":"tertiary","ref":"R-26"},"geometry":{"type":"LineString","coordinates":[[-68.25915,9.9002],[-68.258,9.91046]]}},{"type":"Feature","id":"way/615272059","properties":{"highway":"tertiary","ref":"R-26"},"geometry":{"type":"LineString","coordinates":[[-68.28126,9.92817],[-68.28364,9.93134]]}},{"type":"Feature","id":"way/615552476","properties":{"name":"Eje Rural El Socorro","highway":"tertiary","ref":"R-25"},"geometry":{"type":"LineString","coordinates":[[-68.29316,9.73365],[-68.29162,9.73174],[-68.29105,9.72891],[-68.28317,9.7256],[-68.28318,9.72331],[-68.28138,9.72191],[-68.28082,9.71934],[-68.27817,9.71832],[-68.27616,9.7146],[-68.27078,9.70937],[-68.27061,9.70806],[-68.2725,9.70614],[-68.27344,9.70221],[-68.27659,9.70033],[-68.27677,9.69904],[-68.27492,9.69577]]}},{"type":"Feature","id":"way/617227758","properties":{"name":"Eje Rural Taparo","highway":"tertiary","ref":"R-57"},"geometry":{"type":"LineString","coordinates":[[-68.71225,8.7052],[-68.69594,8.70313]]}},{"type":"Feature","id":"way/617227761","properties":{"name":"Eje Rural Urape","highway":"tertiary"},"geometry":{"type":"LineString","coordinates":[[-68.46998,8.70835],[-68.46962,8.70485],[-68.45947,8.69837],[-68.4546,8.69792],[-68.44863,8.69154],[-68.44376,8.69226],[-68.44004,8.69451],[-68.43119,8.68706],[-68.42731,8.68093],[-68.42104,8.67938],[-68.41249,8.67172],[-68.4038,8.67648],[-68.40194,8.67937],[-68.39992,8.68066],[-68.39343,8.67922],[-68.38655,8.68118],[-68.38243,8.67642],[-68.37707,8.67328],[-68.3625,8.66861],[-68.35536,8.66893]]}},{"type":"Feature","id":"way/617227762","properties":{"name":"Eje Rural Urape","highway":"tertiary"},"geometry":{"type":"LineString","coordinates":[[-68.69594,8.70313],[-68.69229,8.71531],[-68.68517,8.73058],[-68.68193,8.73136],[-68.66944,8.7314],[-68.66543,8.72802],[-68.65661,8.73258],[-68.64741,8.72964],[-68.64161,8.72903],[-68.63561,8.73062],[-68.61757,8.72204],[-68.60997,8.72036],[-68.60501,8.71706],[-68.59985,8.71631],[-68.59362,8.70976],[-68.57864,8.70403],[-68.56854,8.70581],[-68.56211,8.70582],[-68.55343,8.71042],[-68.54557,8.70878],[-68.53683,8.71234],[-68.53229,8.71557],[-68.51897,8.71803],[-68.51278,8.71588],[-68.51004,8.7121],[-68.50537,8.71096],[-68.4894,8.71321],[-68.48497,8.71251],[-68.48014,8.71307],[-68.47751,8.71268],[-68.47577,8.71045],[-68.46998,8.70835]]}},{"type":"Feature","id":"way/617662036","properties":{"name":"Carretera Regional Tur\u00e9n - El Ba\u00fal","highway":"secondary"},"geometry":{"type":"LineString","coordinates":[[-68.65807,9.0046],[-68.63171,8.96308]]}},{"type":"Feature","id":"way/617848342","properties":{"name":"Eje Agr\u00edcola Cojedito","highway":"secondary","ref":"L-1"},"geometry":{"type":"LineString","coordinates":[[-68.8996,9.57149],[-68.90614,9.58091],[-68.90584,9.58516],[-68.91008,9.59108],[-68.9133,9.59777],[-68.91272,9.60207],[-68.9155,9.61784]]}},{"type":"Feature","id":"way/617848345","properties":{"highway":"secondary","ref":"R-27"},"geometry":{"type":"LineString","coordinates":[[-68.90848,9.56736],[-68.90004,9.57087]]}},{"type":"Feature","id":"way/618101522","properties":{"name":"Carretera Regional Tur\u00e9n - El Ba\u00fal","highway":"secondary"},"geometry":{"type":"LineString","coordinates":[[-68.56492,8.98006],[-68.52999,9.02721],[-68.49609,9.05058]]}},{"type":"Feature","id":"way/618101661","properties":{"name":"Carretera Regional Tur\u00e9n - El Ba\u00fal","highway":"secondary"},"geometry":{"type":"LineString","coordinates":[[-68.49609,9.05058],[-68.49453,9.05023],[-68.47701,9.0368],[-68.45245,8.99829],[-68.40799,8.97561],[-68.38877,8.97411],[-68.38008,8.98058],[-68.37791,8.98337],[-68.36492,8.98316],[-68.36171,8.98003],[-68.35907,8.9808],[-68.35422,8.97862],[-68.34609,8.97878],[-68.34466,8.97689],[-68.34368,8.97188],[-68.34193,8.96945],[-68.33169,8.9646],[-68.31456,8.96552],[-68.30735,8.96339]]}},{"type":"Feature","id":"way/618101668","properties":{"name":"Carretera Regional Tur\u00e9n - El Ba\u00fal","highway":"secondary"},"geometry":{"type":"LineString","coordinates":[[-68.56553,8.97963],[-68.56492,8.98006]]}},{"type":"Feature","id":"way/618101683","properties":{"name":"Carretera Regional Tur\u00e9n - El Ba\u00fal","highway":"secondary"},"geometry":{"type":"LineString","coordinates":[[-68.63171,8.96308],[-68.56553,8.97963]]}},{"type":"Feature","id":"way/618101706","properties":{"name":"Eje Agr\u00edcola Santa Rosa","highway":"tertiary"},"geometry":{"type":"LineString","coordinates":[[-68.77538,9.26256],[-68.77041,9.2604],[-68.76577,9.256],[-68.74969,9.24568],[-68.72286,9.21762],[-68.70817,9.18899],[-68.69888,9.17835],[-68.69727,9.16788],[-68.66824,9.13061],[-68.66521,9.12629],[-68.66405,9.1219],[-68.64839,9.10281],[-68.63398,9.08281],[-68.63049,9.07547],[-68.56553,8.97963]]}},{"type":"Feature","id":"way/618560634","properties":{"name":"V\u00eda a La Vig\u00eda","highway":"tertiary","ref":"R-23"},"geometry":{"type":"LineString","coordinates":[[-68.63369,9.51089],[-68.63765,9.51135],[-68.6443,9.50894],[-68.65209,9.50175]]}},{"type":"Feature","id":"way/618560699","properties":{"highway":"trunk_link"},"geometry":{"type":"LineString","coordinates":[[-68.70331,9.64512],[-68.70374,9.64593]]}},{"type":"Feature","id":"way/619458071","properties":{"name":"V\u00eda a Aro\u00edta","highway":"tertiary"},"geometry":{"type":"LineString","coordinates":[[-68.94646,9.68672],[-68.94823,9.68911],[-68.95208,9.70244],[-68.9515,9.70474]]}},{"type":"Feature","id":"way/689279075","properties":{"name":"Puente El Ba\u00fal","highway":"primary","ref":"T-8"},"geometry":{"type":"LineString","coordinates":[[-68.28842,8.95308],[-68.28778,8.953]]}},{"type":"Feature","id":"way/689279076","properties":{"name":"Carretera Regional El Ba\u00fal - Las Galeras","highway":"primary","ref":"T-8"},"geometry":{"type":"LineString","coordinates":[[-68.28778,8.953],[-68.28537,8.95285],[-68.28457,8.95398],[-68.28724,8.9635],[-68.28918,8.96671],[-68.28767,8.96934],[-68.27953,8.97522],[-68.2681,8.98853],[-68.25785,8.99032],[-68.25197,8.98954],[-68.24883,8.9928],[-68.24857,8.99564],[-68.24558,8.99703],[-68.24246,8.99697],[-68.21497,8.99009],[-68.2081,8.98481],[-68.19996,8.97433],[-68.19801,8.97365],[-68.19429,8.97455],[-68.18872,8.97283],[-68.18622,8.97369],[-68.18366,8.97775],[-68.17982,8.98772],[-68.17382,8.99299],[-68.16538,9.01059],[-68.16218,9.01519],[-68.16023,9.03972],[-68.15152,9.05891],[-68.15681,9.17518],[-68.15533,9.18346],[-68.15374,9.1868],[-68.15315,9.19317],[-68.15698,9.20171],[-68.15888,9.21436],[-68.15876,9.22779],[-68.15681,9.23228],[-68.15149,9.23897],[-68.15023,9.24609],[-68.15163,9.26832],[-68.15067,9.27363],[-68.15283,9.31875],[-68.15365,9.32656],[-68.15863,9.33417],[-68.16115,9.35335],[-68.16017,9.35853],[-68.16116,9.36632],[-68.16298,9.37386],[-68.16992,9.42678],[-68.17142,9.43066],[-68.17859,9.48629],[-68.1782,9.49014],[-68.18015,9.49388],[-68.17581,9.5099],[-68.17304,9.51223],[-68.17147,9.51647],[-68.16953,9.53172],[-68.16482,9.53868],[-68.16515,9.54864]]}},{"type":"Feature","id":"way/699438748","properties":{"name":"Carretera Regional Tur\u00e9n - El Ba\u00fal","highway":"secondary"},"geometry":{"type":"LineString","coordinates":[[-68.70319,9.04926],[-68.65807,9.0046]]}},{"type":"Feature","id":"way/704271231","properties":{"name":"Puente Cojedes","highway":"primary","ref":"L-2;L-7"},"geometry":{"type":"LineString","coordinates":[[-68.7701,9.29661],[-68.76988,9.29684]]}},{"type":"Feature","id":"way/704271232","properties":{"name":"Carretera Regional Libertad - Santa Cruz","highway":"primary","ref":"L-2"},"geometry":{"type":"LineString","coordinates":[[-68.75285,9.30737],[-68.74879,9.3099],[-68.74041,9.31982],[-68.73101,9.32529],[-68.72491,9.3267],[-68.71241,9.33401],[-68.71,9.33743],[-68.69774,9.34866],[-68.69514,9.35248],[-68.69269,9.35359]]}},{"type":"Feature","id":"way/704281162","properties":{"highway":"secondary","ref":"R-27"},"geometry":{"type":"LineString","coordinates":[[-68.90004,9.57087],[-68.89986,9.57114]]}},{"type":"Feature","id":"way/704281163","properties":{"highway":"secondary","ref":"R-27"},"geometry":{"type":"LineString","coordinates":[[-68.89986,9.57114],[-68.8996,9.57149]]}},{"type":"Feature","id":"way/704281167","properties":{"highway":"secondary","ref":"R-27"},"geometry":{"type":"LineString","coordinates":[[-68.9087,9.56725],[-68.90848,9.56736]]}},{"type":"Feature","id":"way/763194509","properties":{"name":"Calle Silva","highway":"tertiary"},"geometry":{"type":"LineString","coordinates":[[-68.58795,9.65325],[-68.58792,9.65315]]}},{"type":"Feature","id":"way/778641361","properties":{"name":"Carretera Regional El Ba\u00fal - Arismendi","highway":"primary","ref":"T-8"},"geometry":{"type":"LineString","coordinates":[[-68.33421,8.86712],[-68.33192,8.88071],[-68.30962,8.92421],[-68.29573,8.95009],[-68.29234,8.95276],[-68.28842,8.95308]]}},{"type":"Feature","id":"way/778641362","properties":{"name":"Carretera Regional El Ba\u00fal - Arismendi","highway":"primary","ref":"T-8"},"geometry":{"type":"LineString","coordinates":[[-68.3343,8.86645],[-68.33421,8.86712]]}},{"type":"Feature","id":"way/778647025","properties":{"name":"Carretera Regional El Ba\u00fal - Arismendi","highway":"primary","ref":"T-8"},"geometry":{"type":"LineString","coordinates":[[-68.34861,8.77045],[-68.34492,8.79984],[-68.33793,8.83657],[-68.3343,8.86645]]}},{"type":"Feature","id":"way/778647026","properties":{"name":"Carretera Regional El Ba\u00fal - Arismendi","highway":"primary","ref":"T-8"},"geometry":{"type":"LineString","coordinates":[[-68.34865,8.77014],[-68.34861,8.77045]]}},{"type":"Feature","id":"way/778668589","properties":{"name":"Carretera Regional El Ba\u00fal - Arismendi","highway":"primary","ref":"T-8"},"geometry":{"type":"LineString","coordinates":[[-68.35922,8.60554],[-68.35852,8.62608],[-68.35568,8.65232],[-68.35484,8.68707],[-68.34865,8.77014]]}},{"type":"Feature","id":"way/778668590","properties":{"name":"Carretera Regional El Ba\u00fal - Arismendi","highway":"primary","ref":"T-8"},"geometry":{"type":"LineString","coordinates":[[-68.35927,8.60489],[-68.35922,8.60554]]}},{"type":"Feature","id":"way/849712097","properties":{"name":"Carretera San Carlos - Manrique","highway":"secondary","ref":"L-3"},"geometry":{"type":"LineString","coordinates":[[-68.50896,9.79114],[-68.50885,9.79134]]}},{"type":"Feature","id":"way/849712099","properties":{"name":"Carretera San Carlos - Manrique","highway":"secondary","ref":"L-3"},"geometry":{"type":"LineString","coordinates":[[-68.50885,9.79134],[-68.50647,9.79481],[-68.50897,9.79774],[-68.51088,9.80373],[-68.51365,9.80722]]}},{"type":"Feature","id":"way/850020766","properties":{"name":"Avenida Universidad","highway":"secondary","ref":"L-3"},"geometry":{"type":"LineString","coordinates":[[-68.57737,9.6672],[-68.57738,9.66733]]}},{"type":"Feature","id":"way/850020767","properties":{"name":"Avenida Universidad","highway":"secondary","ref":"L-3"},"geometry":{"type":"LineString","coordinates":[[-68.57739,9.6667],[-68.57737,9.6672]]}},{"type":"Feature","id":"way/850419823","properties":{"name":"Avenida Batalla de Taguanes","highway":"tertiary","ref":"L-4"},"geometry":{"type":"LineString","coordinates":[[-68.29924,9.9236],[-68.29864,9.9235]]}},{"type":"Feature","id":"way/850419824","properties":{"name":"Avenida Batalla de Taguanes","highway":"tertiary","ref":"L-4"},"geometry":{"type":"LineString","coordinates":[[-68.29864,9.9235],[-68.29844,9.9235]]}},{"type":"Feature","id":"way/850419825","properties":{"name":"Avenida Batalla de Taguanes","highway":"tertiary","ref":"L-4"},"geometry":{"type":"LineString","coordinates":[[-68.29844,9.9235],[-68.29385,9.92405]]}},{"type":"Feature","id":"way/850419826","properties":{"name":"Avenida Batalla de Taguanes","highway":"tertiary","ref":"L-4"},"geometry":{"type":"LineString","coordinates":[[-68.29695,9.92358],[-68.29844,9.92361]]}},{"type":"Feature","id":"way/850419827","properties":{"name":"Avenida Batalla de Taguanes","highway":"tertiary","ref":"L-4"},"geometry":{"type":"LineString","coordinates":[[-68.29934,9.9236],[-68.29924,9.9236]]}},{"type":"Feature","id":"way/853304201","properties":{"name":"Avenida Principal de Las Vegas","highway":"primary","ref":"L-2"},"geometry":{"type":"LineString","coordinates":[[-68.62568,9.54928],[-68.62564,9.54927]]}},{"type":"Feature","id":"way/856648242","properties":{"name":"V\u00eda a Aro\u00edta","highway":"tertiary"},"geometry":{"type":"LineString","coordinates":[[-68.9515,9.70474],[-68.95037,9.70707],[-68.94388,9.70956],[-68.94142,9.71333],[-68.9379,9.71613],[-68.93284,9.71948],[-68.92794,9.7209],[-68.92602,9.7243],[-68.92657,9.72786]]}},{"type":"Feature","id":"way/866478637","properties":{"name":"Distribuidor Apamates","highway":"trunk_link"},"geometry":{"type":"LineString","coordinates":[[-68.31747,9.90011],[-68.31787,9.89957]]}},{"type":"Feature","id":"way/876162102","properties":{"name":"V\u00eda a El Pao","highway":"secondary","ref":"R-30"},"geometry":{"type":"LineString","coordinates":[[-68.17633,9.65298],[-68.15708,9.65587],[-68.13536,9.64669]]}},{"type":"Feature","id":"way/876162103","properties":{"name":"V\u00eda a El Pao","highway":"secondary","ref":"R-30"},"geometry":{"type":"LineString","coordinates":[[-68.17645,9.65296],[-68.17633,9.65298]]}},{"type":"Feature","id":"way/942757687","properties":{"name":"Par Vial San Carlos - Tinaco","highway":"trunk","ref":"T-5"},"geometry":{"type":"LineString","coordinates":[[-68.57736,9.66642],[-68.55309,9.66747]]}},{"type":"Feature","id":"way/942757688","properties":{"name":"Par Vial San Carlos - Tinaco","highway":"trunk","ref":"T-5"},"geometry":{"type":"LineString","coordinates":[[-68.55307,9.66777],[-68.57738,9.66668]]}},{"type":"Feature","id":"way/942757689","properties":{"name":"Carretera Nacional San Carlos - Tinaco","highway":"trunk","ref":"T-5"},"geometry":{"type":"LineString","coordinates":[[-68.43438,9.70537],[-68.43395,9.70558]]}},{"type":"Feature","id":"way/942757690","properties":{"name":"Carretera Nacional San Carlos - Tinaco","highway":"trunk","ref":"T-5"},"geometry":{"type":"LineString","coordinates":[[-68.43395,9.70558],[-68.42885,9.70879]]}},{"type":"Feature","id":"way/942842879","properties":{"name":"Carretera Nacional de Los Llanos","highway":"trunk","ref":"T-13"},"geometry":{"type":"LineString","coordinates":[[-68.16389,9.54919],[-68.16032,9.54654],[-68.15574,9.54095],[-68.14798,9.53876],[-68.13753,9.53985],[-68.13254,9.5422],[-68.12536,9.5429],[-68.11605,9.53971],[-68.11232,9.54255],[-68.10976,9.54306],[-68.09017,9.53683],[-68.08275,9.53311],[-68.06996,9.5299],[-68.05646,9.52305],[-68.05066,9.52212],[-68.04354,9.52287],[-68.03715,9.52536],[-68.0299,9.52611],[-68.02131,9.52558],[-68.00891,9.5273],[-67.99949,9.53004],[-67.99192,9.53063],[-67.98191,9.52956],[-67.97511,9.53116],[-67.97185,9.53487]]}},{"type":"Feature","id":"way/942842880","properties":{"name":"Carretera Nacional de Los Llanos","highway":"trunk","ref":"T-13"},"geometry":{"type":"LineString","coordinates":[[-68.16552,9.55051],[-68.16389,9.54919]]}},{"type":"Feature","id":"way/942842881","properties":{"name":"Carretera Nacional de Los Llanos","highway":"trunk","ref":"T-13"},"geometry":{"type":"LineString","coordinates":[[-68.26028,9.65318],[-68.25104,9.64291],[-68.23946,9.63503],[-68.2002,9.58066],[-68.19695,9.57826],[-68.18995,9.5773],[-68.18799,9.57428],[-68.18463,9.57374],[-68.17218,9.56704],[-68.17025,9.55924],[-68.16552,9.55051]]}},{"type":"Feature","id":"way/942842882","properties":{"name":"Carretera Nacional de Los Llanos","highway":"trunk","ref":"T-13"},"geometry":{"type":"LineString","coordinates":[[-68.26179,9.65408],[-68.26028,9.65318]]}},{"type":"Feature","id":"way/942842885","properties":{"name":"Carretera Nacional San Carlos - Tinaco","highway":"trunk","ref":"T-5"},"geometry":{"type":"LineString","coordinates":[[-68.42885,9.70879],[-68.42753,9.71034]]}},{"type":"Feature","id":"way/942907596","properties":{"name":"Eje Agr\u00edcola El Estero","highway":"tertiary","ref":"L-1"},"geometry":{"type":"LineString","coordinates":[[-68.77784,9.4472],[-68.7622,9.4336]]}},{"type":"Feature","id":"way/942907600","properties":{"name":"Eje Agr\u00edcola Santa Teresa","highway":"tertiary","ref":"L-1"},"geometry":{"type":"LineString","coordinates":[[-68.84417,9.52212],[-68.84424,9.52703],[-68.84943,9.53206],[-68.84935,9.53638],[-68.85069,9.54211],[-68.85292,9.54575],[-68.85932,9.55148]]}},{"type":"Feature","id":"way/942907601","properties":{"name":"Eje Agr\u00edcola La Chorrera","highway":"tertiary","ref":"L-1"},"geometry":{"type":"LineString","coordinates":[[-68.85261,9.52211],[-68.84417,9.52212]]}},{"type":"Feature","id":"way/942907602","properties":{"name":"Eje Agr\u00edcola La Chorrera","highway":"tertiary","ref":"L-1"},"geometry":{"type":"LineString","coordinates":[[-68.81322,9.50084],[-68.82222,9.50423],[-68.8426,9.50494],[-68.84816,9.50801],[-68.84887,9.51247],[-68.85243,9.51897],[-68.85261,9.52211]]}},{"type":"Feature","id":"way/942907603","properties":{"name":"Distribuidor Apartaderos","highway":"trunk_link"},"geometry":{"type":"LineString","coordinates":[[-68.93908,9.67193],[-68.93887,9.67202]]}},{"type":"Feature","id":"way/942907604","properties":{"name":"Distribuidor Apartaderos","highway":"trunk_link"},"geometry":{"type":"LineString","coordinates":[[-68.93908,9.67193],[-68.93887,9.67168]]}},{"type":"Feature","id":"way/942907605","properties":{"name":"Distribuidor Apartaderos","highway":"trunk_link"},"geometry":{"type":"LineString","coordinates":[[-68.93887,9.67202],[-68.93858,9.67171]]}},{"type":"Feature","id":"way/942907606","properties":{"name":"Distribuidor Apartaderos","highway":"trunk_link"},"geometry":{"type":"LineString","coordinates":[[-68.93886,9.67139],[-68.93858,9.67171]]}},{"type":"Feature","id":"way/942907607","properties":{"name":"Distribuidor Apartaderos","highway":"trunk_link"},"geometry":{"type":"LineString","coordinates":[[-68.93884,9.67249],[-68.93904,9.67269]]}},{"type":"Feature","id":"way/942907608","properties":{"name":"Distribuidor Apartaderos","highway":"trunk_link"},"geometry":{"type":"LineString","coordinates":[[-68.93879,9.67275],[-68.93904,9.67269]]}},{"type":"Feature","id":"way/942907609","properties":{"name":"Distribuidor Apartaderos","highway":"trunk_link"},"geometry":{"type":"LineString","coordinates":[[-68.93855,9.67238],[-68.93885,9.67231]]}},{"type":"Feature","id":"way/942907610","properties":{"name":"Distribuidor Apartaderos","highway":"trunk_link"},"geometry":{"type":"LineString","coordinates":[[-68.93855,9.67238],[-68.93874,9.67294]]}},{"type":"Feature","id":"way/942907611","properties":{"name":"Distribuidor Mata Oscura","highway":"trunk_link"},"geometry":{"type":"LineString","coordinates":[[-68.84244,9.64746],[-68.84122,9.64778]]}},{"type":"Feature","id":"way/942907612","properties":{"name":"Distribuidor Mata Oscura","highway":"trunk_link"},"geometry":{"type":"LineString","coordinates":[[-68.84306,9.6474],[-68.84284,9.64722]]}},{"type":"Feature","id":"way/942907613","properties":{"highway":"trunk_link"},"geometry":{"type":"LineString","coordinates":[[-68.70374,9.64593],[-68.70422,9.6462]]}},{"type":"Feature","id":"way/942907614","properties":{"highway":"trunk_link"},"geometry":{"type":"LineString","coordinates":[[-68.70374,9.64593],[-68.70321,9.64625]]}},{"type":"Feature","id":"way/942907615","properties":{"name":"Distribuidor San Carlos","highway":"trunk_link"},"geometry":{"type":"LineString","coordinates":[[-68.59207,9.63766],[-68.59176,9.63766]]}},{"type":"Feature","id":"way/942907618","properties":{"name":"Carretera Vieja Acarigua - San Carlos","highway":"primary","ref":"T-5"},"geometry":{"type":"LineString","coordinates":[[-68.96237,9.68671],[-68.95953,9.68748],[-68.94735,9.68694],[-68.94117,9.68319],[-68.93361,9.68438]]}},{"type":"Feature","id":"way/942907619","properties":{"name":"Carretera San Carlos - El Cacao","highway":"secondary","ref":"R-19"},"geometry":{"type":"LineString","coordinates":[[-68.60543,9.65939],[-68.60678,9.66087],[-68.60824,9.66567],[-68.60905,9.67172],[-68.60824,9.6756],[-68.61089,9.67737],[-68.61599,9.68485],[-68.62093,9.68658],[-68.62866,9.68461],[-68.6353,9.68552],[-68.64582,9.6891],[-68.64947,9.6926],[-68.6523,9.6937],[-68.66083,9.69379]]}},{"type":"Feature","id":"way/942907620","properties":{"name":"Carretera Manrique - La Sierra","highway":"tertiary","ref":"R-19"},"geometry":{"type":"LineString","coordinates":[[-68.5483,9.87272],[-68.5488,9.87272]]}},{"type":"Feature","id":"way/942907621","properties":{"name":"Carretera Manrique - La Sierra","highway":"tertiary","ref":"R-19"},"geometry":{"type":"LineString","coordinates":[[-68.5488,9.87272],[-68.54977,9.87196],[-68.55104,9.87403],[-68.55106,9.87597],[-68.54928,9.87917],[-68.55083,9.88188],[-68.54936,9.8824],[-68.55214,9.88327],[-68.55754,9.88152],[-68.55969,9.88528],[-68.56447,9.88758],[-68.56574,9.89046],[-68.56894,9.89342],[-68.57068,9.89784],[-68.56891,9.89831],[-68.56793,9.90018],[-68.56922,9.89946],[-68.5727,9.90414],[-68.57523,9.90395]]}},{"type":"Feature","id":"way/942907622","properties":{"highway":"tertiary","ref":"R-19"},"geometry":{"type":"LineString","coordinates":[[-68.51488,9.80927],[-68.5153,9.81019]]}},{"type":"Feature","id":"way/942907623","properties":{"highway":"tertiary","ref":"R-19"},"geometry":{"type":"LineString","coordinates":[[-68.51365,9.80722],[-68.51395,9.80899],[-68.51488,9.80927]]}},{"type":"Feature","id":"way/942907624","properties":{"highway":"tertiary","ref":"R-19"},"geometry":{"type":"LineString","coordinates":[[-68.5153,9.81019],[-68.52219,9.81167]]}},{"type":"Feature","id":"way/942907627","properties":{"name":"Avenida Universidad","highway":"secondary","ref":"L-3"},"geometry":{"type":"LineString","coordinates":[[-68.58039,9.66949],[-68.58043,9.66945]]}},{"type":"Feature","id":"way/942907628","properties":{"name":"Avenida Universidad","highway":"secondary","ref":"L-3"},"geometry":{"type":"LineString","coordinates":[[-68.58023,9.66957],[-68.58035,9.66954]]}},{"type":"Feature","id":"way/942907629","properties":{"name":"Avenida Universidad","highway":"secondary","ref":"L-3"},"geometry":{"type":"LineString","coordinates":[[-68.58033,9.66963],[-68.58035,9.66954]]}},{"type":"Feature","id":"way/942907630","properties":{"name":"Avenida Jos\u00e9 Laurencio Silva","highway":"primary","ref":"T-5"},"geometry":{"type":"LineString","coordinates":[[-68.59808,9.66155],[-68.59787,9.66137]]}},{"type":"Feature","id":"way/942907631","properties":{"highway":"primary_link","ref":"T-5"},"geometry":{"type":"LineString","coordinates":[[-68.59802,9.66174],[-68.59808,9.66155]]}},{"type":"Feature","id":"way/942907632","properties":{"highway":"primary_link","ref":"T-5"},"geometry":{"type":"LineString","coordinates":[[-68.59787,9.66137],[-68.59769,9.66148]]}},{"type":"Feature","id":"way/942907633","properties":{"name":"Avenida Principal de Las Vegas","highway":"primary","ref":"L-2"},"geometry":{"type":"LineString","coordinates":[[-68.62193,9.55449],[-68.61792,9.56021]]}},{"type":"Feature","id":"way/942907635","properties":{"name":"Avenida Bol\u00edvar","highway":"primary","ref":"L-2"},"geometry":{"type":"LineString","coordinates":[[-68.6915,9.36241],[-68.69157,9.36169]]}},{"type":"Feature","id":"way/942907636","properties":{"name":"Carretera Regional Libertad - Santa Cruz","highway":"primary","ref":"L-2"},"geometry":{"type":"LineString","coordinates":[[-68.76243,9.30601],[-68.75285,9.30737]]}},{"type":"Feature","id":"way/942907637","properties":{"name":"Carretera Regional Libertad - Santa Cruz","highway":"primary","ref":"L-2"},"geometry":{"type":"LineString","coordinates":[[-68.76988,9.29684],[-68.76881,9.29828],[-68.76922,9.30171],[-68.7684,9.30392],[-68.7662,9.30547],[-68.76243,9.30601]]}},{"type":"Feature","id":"way/942907638","properties":{"name":"Carretera Regional Las Vegas - Libertad","highway":"primary","ref":"L-2"},"geometry":{"type":"LineString","coordinates":[[-68.63825,9.5341],[-68.6381,9.53398]]}},{"type":"Feature","id":"way/942907639","properties":{"name":"Avenida Principal de Las Vegas","highway":"primary","ref":"L-2"},"geometry":{"type":"LineString","coordinates":[[-68.63353,9.53572],[-68.62942,9.54094],[-68.62841,9.54382]]}},{"type":"Feature","id":"way/942907640","properties":{"name":"Avenida R\u00f3mulo Gallegos","highway":"trunk","ref":"T-5;L-2"},"geometry":{"type":"LineString","coordinates":[[-68.58894,9.65295],[-68.58891,9.65287]]}},{"type":"Feature","id":"way/942911613","properties":{"name":"Eje Agr\u00edcola Cojedito","highway":"secondary","ref":"L-1"},"geometry":{"type":"LineString","coordinates":[[-68.93874,9.67294],[-68.93831,9.67393]]}},{"type":"Feature","id":"way/942911614","properties":{"name":"Eje Agr\u00edcola Cojedito","highway":"secondary","ref":"L-1"},"geometry":{"type":"LineString","coordinates":[[-68.93879,9.67275],[-68.93874,9.67294]]}},{"type":"Feature","id":"way/942911615","properties":{"name":"Eje Agr\u00edcola Cojedito","highway":"secondary","ref":"L-1"},"geometry":{"type":"LineString","coordinates":[[-68.93884,9.67249],[-68.93879,9.67275]]}},{"type":"Feature","id":"way/942911616","properties":{"name":"Eje Agr\u00edcola Cojedito","highway":"secondary","ref":"L-1"},"geometry":{"type":"LineString","coordinates":[[-68.93886,9.67139],[-68.93887,9.67168]]}},{"type":"Feature","id":"way/942911617","properties":{"name":"Eje Agr\u00edcola Cojedito","highway":"secondary","ref":"L-1"},"geometry":{"type":"LineString","coordinates":[[-68.93887,9.67168],[-68.93887,9.67202]]}},{"type":"Feature","id":"way/942911618","properties":{"name":"Eje Agr\u00edcola Cojedito","highway":"secondary","ref":"L-1"},"geometry":{"type":"LineString","coordinates":[[-68.93887,9.67202],[-68.93885,9.67231]]}},{"type":"Feature","id":"way/942911619","properties":{"name":"Eje Agr\u00edcola Cojedito","highway":"secondary","ref":"L-1"},"geometry":{"type":"LineString","coordinates":[[-68.93885,9.67231],[-68.93884,9.67249]]}},{"type":"Feature","id":"way/942911624","properties":{"name":"Carretera Vieja Acarigua - San Carlos","highway":"primary","ref":"T-5"},"geometry":{"type":"LineString","coordinates":[[-68.70321,9.64625],[-68.68912,9.64701],[-68.68223,9.64461],[-68.64356,9.64276],[-68.62249,9.6508],[-68.60231,9.66092]]}},{"type":"Feature","id":"way/942911625","properties":{"name":"Carretera Vieja Acarigua - San Carlos","highway":"primary","ref":"T-5"},"geometry":{"type":"LineString","coordinates":[[-68.70422,9.6462],[-68.70321,9.64625]]}},{"type":"Feature","id":"way/942911626","properties":{"name":"Eje Agr\u00edcola Mapurite","highway":"tertiary","ref":"R-15"},"geometry":{"type":"LineString","coordinates":[[-68.67184,9.64224],[-68.68104,9.61748],[-68.69793,9.60229],[-68.70116,9.59524],[-68.70081,9.59018],[-68.70948,9.586],[-68.71332,9.58021],[-68.71502,9.56994],[-68.71735,9.56358]]}},{"type":"Feature","id":"way/942911627","properties":{"name":"Eje Agr\u00edcola Mapurite","highway":"tertiary","ref":"R-15"},"geometry":{"type":"LineString","coordinates":[[-68.67174,9.64251],[-68.67184,9.64224]]}},{"type":"Feature","id":"way/942911628","properties":{"name":"Eje Agr\u00edcola Mapurite","highway":"tertiary","ref":"R-15"},"geometry":{"type":"LineString","coordinates":[[-68.67158,9.64295],[-68.6716,9.64288]]}},{"type":"Feature","id":"way/942911629","properties":{"name":"Eje Agr\u00edcola Mapurite","highway":"tertiary","ref":"R-15"},"geometry":{"type":"LineString","coordinates":[[-68.67155,9.64304],[-68.67158,9.64295]]}},{"type":"Feature","id":"way/942911630","properties":{"name":"Eje Agr\u00edcola Mapurite","highway":"tertiary","ref":"R-15"},"geometry":{"type":"LineString","coordinates":[[-68.67144,9.64333],[-68.67155,9.64304]]}},{"type":"Feature","id":"way/974050753","properties":{"name":"Carretera Los Naranjos - El Pao","highway":"tertiary","ref":"R-30"},"geometry":{"type":"LineString","coordinates":[[-68.10221,9.67426],[-68.10853,9.66873],[-68.10882,9.66515],[-68.10638,9.66255],[-68.10674,9.65996],[-68.11425,9.65034],[-68.1161,9.64666],[-68.12488,9.64887],[-68.1296,9.64747]]}},{"type":"Feature","id":"way/974050754","properties":{"name":"Carretera Los Naranjos - El Pao","highway":"tertiary","ref":"R-30"},"geometry":{"type":"LineString","coordinates":[[-68.10184,9.67452],[-68.10221,9.67426]]}},{"type":"Feature","id":"way/974338067","properties":{"name":"Eje Agr\u00edcola Mapurite","highway":"tertiary","ref":"R-2;R-15"},"geometry":{"type":"LineString","coordinates":[[-68.79301,9.52902],[-68.79415,9.52232],[-68.8038,9.51663],[-68.80816,9.5049],[-68.81207,9.5031],[-68.81322,9.50084]]}},{"type":"Feature","id":"way/974398223","properties":{"name":"Carretera Los Naranjos - El Pao","highway":"tertiary","ref":"R-30"},"geometry":{"type":"LineString","coordinates":[[-68.03887,9.68577],[-68.04384,9.68305],[-68.05024,9.68178],[-68.05976,9.68178],[-68.06308,9.68074],[-68.06786,9.68291],[-68.07361,9.68182],[-68.08544,9.67389],[-68.08963,9.67647],[-68.09179,9.68164],[-68.09404,9.68387],[-68.09625,9.68282],[-68.09809,9.68319],[-68.0986,9.67924],[-68.10077,9.67759],[-68.10184,9.67452]]}},{"type":"Feature","id":"way/974398225","properties":{"name":"Eje Rural El Baj\u00edo","highway":"tertiary","ref":"R-26"},"geometry":{"type":"LineString","coordinates":[[-68.258,9.91046],[-68.25485,9.93386]]}},{"type":"Feature","id":"way/974399015","properties":{"name":"Carretera Vallecito - La Aguadita","highway":"tertiary","ref":"L-4"},"geometry":{"type":"LineString","coordinates":[[-68.45101,9.87994],[-68.45055,9.87492]]}},{"type":"Feature","id":"way/974401015","properties":{"name":"Carretera Nacional Tinaquillo - Campo Carabobo","highway":"trunk","ref":"T-5"},"geometry":{"type":"LineString","coordinates":[[-68.28859,9.92756],[-68.29116,9.92561]]}},{"type":"Feature","id":"way/974401016","properties":{"name":"Variante de Tinaquillo","highway":"trunk","ref":"T-5"},"geometry":{"type":"LineString","coordinates":[[-68.29103,9.92228],[-68.28983,9.92579]]}},{"type":"Feature","id":"way/974401017","properties":{"name":"Variante de Tinaquillo","highway":"trunk","ref":"T-5"},"geometry":{"type":"LineString","coordinates":[[-68.31878,9.89836],[-68.32003,9.89682]]}},{"type":"Feature","id":"way/1000588880","properties":{"name":"Distribuidor Los Bomberos","highway":"trunk_link"},"geometry":{"type":"LineString","coordinates":[[-68.29478,9.91441],[-68.29373,9.91378]]}},{"type":"Feature","id":"way/1000588881","properties":{"name":"Distribuidor Los Bomberos","highway":"trunk_link"},"geometry":{"type":"LineString","coordinates":[[-68.29373,9.91378],[-68.29407,9.91529]]}},{"type":"Feature","id":"way/1000588883","properties":{"name":"Distribuidor Los Bomberos","highway":"trunk_link"},"geometry":{"type":"LineString","coordinates":[[-68.29417,9.91513],[-68.29468,9.91488]]}},{"type":"Feature","id":"way/1001512213","properties":{"name":"Par Vial San Carlos - Tinaco","highway":"trunk","ref":"T-5"},"geometry":{"type":"LineString","coordinates":[[-68.50986,9.67369],[-68.50959,9.67381]]}},{"type":"Feature","id":"way/1001512214","properties":{"name":"Par Vial San Carlos - Tinaco","highway":"trunk","ref":"T-5"},"geometry":{"type":"LineString","coordinates":[[-68.55309,9.66747],[-68.52983,9.66888],[-68.51577,9.67113],[-68.50986,9.67369]]}},{"type":"Feature","id":"way/1001512215","properties":{"name":"Par Vial San Carlos - Tinaco","highway":"trunk","ref":"T-5"},"geometry":{"type":"LineString","coordinates":[[-68.50962,9.67387],[-68.50988,9.67375]]}},{"type":"Feature","id":"way/1001512216","properties":{"name":"Par Vial San Carlos - Tinaco","highway":"trunk","ref":"T-5"},"geometry":{"type":"LineString","coordinates":[[-68.50988,9.67375],[-68.51579,9.67119],[-68.53214,9.66862],[-68.55307,9.66777]]}},{"type":"Feature","id":"way/1050395154","properties":{"name":"Carretera Vallecito - La Aguadita","highway":"secondary","ref":"L-4"},"geometry":{"type":"LineString","coordinates":[[-68.45055,9.87492],[-68.4487,9.87275],[-68.44722,9.86683],[-68.44127,9.86288],[-68.44081,9.85982],[-68.43971,9.85894],[-68.43995,9.85437],[-68.43849,9.85203],[-68.43942,9.84955],[-68.44128,9.84796],[-68.44159,9.84464],[-68.44241,9.84516],[-68.4442,9.84404],[-68.44532,9.84509],[-68.44433,9.83906],[-68.44487,9.83708],[-68.43933,9.82848],[-68.43894,9.82631],[-68.43218,9.82265],[-68.42693,9.82283],[-68.42515,9.82392],[-68.42406,9.82242],[-68.42073,9.82219],[-68.4159,9.81853],[-68.41255,9.8176],[-68.40611,9.81174],[-68.40381,9.81092],[-68.40151,9.80745],[-68.40077,9.80281],[-68.39893,9.80198]]}},{"type":"Feature","id":"way/1050400530","properties":{"name":"Eje Rural de Laya","highway":"tertiary","ref":"R-9"},"geometry":{"type":"LineString","coordinates":[[-68.27492,9.69577],[-68.28009,9.69436],[-68.28299,9.69195],[-68.28172,9.68575],[-68.28346,9.68243],[-68.27861,9.67543],[-68.27871,9.66964],[-68.2813,9.66407],[-68.28131,9.66059]]}},{"type":"Feature","id":"way/1050400668","properties":{"highway":"tertiary"},"geometry":{"type":"LineString","coordinates":[[-68.34175,9.83682],[-68.3435,9.83947],[-68.34644,9.83914],[-68.34727,9.83994],[-68.34988,9.8469],[-68.35262,9.84631],[-68.357,9.84735]]}},{"type":"Feature","id":"way/1050407909","properties":{"name":"Eje Agr\u00edcola de Gu\u00e1simo","highway":"tertiary","ref":"R-23"},"geometry":{"type":"LineString","coordinates":[[-68.65144,9.48812],[-68.64778,9.50021],[-68.65209,9.50175]]}},{"type":"Feature","id":"way/1050408807","properties":{"name":"Eje Agr\u00edcola Tirarigua","highway":"tertiary","ref":"R-4"},"geometry":{"type":"LineString","coordinates":[[-68.65375,9.33689],[-68.67318,9.38803],[-68.67887,9.39205],[-68.6819,9.39656],[-68.69198,9.39219]]}},{"type":"Feature","id":"way/1059687584","properties":{"name":"Distribuidor Apamates","highway":"trunk_link"},"geometry":{"type":"LineString","coordinates":[[-68.31982,9.89704],[-68.31768,9.89895]]}},{"type":"Feature","id":"way/1059687585","properties":{"name":"Distribuidor Apamates","highway":"trunk_link"},"geometry":{"type":"LineString","coordinates":[[-68.31768,9.89895],[-68.3151,9.89988]]}},{"type":"Feature","id":"way/1070069777","properties":{"name":"Avenida Principal de Las Vegas","highway":"primary","ref":"L-2"},"geometry":{"type":"LineString","coordinates":[[-68.62552,9.54942],[-68.62193,9.55449]]}},{"type":"Feature","id":"way/1070069779","properties":{"name":"Avenida Principal de Las Vegas","highway":"primary","ref":"L-2"},"geometry":{"type":"LineString","coordinates":[[-68.62193,9.55449],[-68.62561,9.5495]]}},{"type":"Feature","id":"way/1070069781","properties":{"name":"Avenida Principal de Las Vegas","highway":"primary","ref":"L-2"},"geometry":{"type":"LineString","coordinates":[[-68.62564,9.54927],[-68.62552,9.54942]]}},{"type":"Feature","id":"way/1070069782","properties":{"name":"Avenida Principal de Las Vegas","highway":"primary","ref":"L-2"},"geometry":{"type":"LineString","coordinates":[[-68.62552,9.54942],[-68.62561,9.5495]]}},{"type":"Feature","id":"way/1070069783","properties":{"name":"Avenida Principal de Las Vegas","highway":"primary","ref":"L-2"},"geometry":{"type":"LineString","coordinates":[[-68.62841,9.54382],[-68.62564,9.54927]]}},{"type":"Feature","id":"way/1070069784","properties":{"name":"Avenida Principal de Las Vegas","highway":"primary","ref":"L-2"},"geometry":{"type":"LineString","coordinates":[[-68.62561,9.5495],[-68.62575,9.54938]]}},{"type":"Feature","id":"way/1070069785","properties":{"name":"Avenida Principal de Las Vegas","highway":"primary","ref":"L-2"},"geometry":{"type":"LineString","coordinates":[[-68.62575,9.54938],[-68.62568,9.54928]]}},{"type":"Feature","id":"way/1090775010","properties":{"highway":"secondary","ref":"R-30"},"geometry":{"type":"LineString","coordinates":[[-68.13536,9.64669],[-68.12966,9.64399]]}},{"type":"Feature","id":"way/1090775012","properties":{"highway":"secondary","ref":"R-30"},"geometry":{"type":"LineString","coordinates":[[-68.12945,9.64405],[-68.12966,9.64399]]}},{"type":"Feature","id":"way/1090775013","properties":{"highway":"secondary","ref":"R-30"},"geometry":{"type":"LineString","coordinates":[[-68.12966,9.64399],[-68.13536,9.64669]]}},{"type":"Feature","id":"way/1209110742","properties":{"name":"Eje Rural Ca\u00f1o de Indio","highway":"tertiary","ref":"R-26"},"geometry":{"type":"LineString","coordinates":[[-68.29618,9.91548],[-68.29488,9.91491]]}},{"type":"Feature","id":"way/1522043975","properties":{"name":"Carretera Los Naranjos - El Pao","highway":"tertiary"},"geometry":{"type":"LineString","coordinates":[[-68.02987,9.73849],[-68.03386,9.73166],[-68.03731,9.7177],[-68.03956,9.71605],[-68.03813,9.71475],[-68.03838,9.71316],[-68.03961,9.71271],[-68.03832,9.7119],[-68.03887,9.68577]]}},{"type":"Feature","id":"way/1522043976","properties":{"name":"Carretera Los Naranjos - El Pao","highway":"tertiary"},"geometry":{"type":"LineString","coordinates":[[-68.02969,9.73891],[-68.02987,9.73849]]}}]}