{"type":"FeatureCollection","features":[{"type":"Feature","id":"relation/2444378","properties":{"name":"Distrito Capital","level":4},"geometry":{"type":"Polygon","coordinates":[[[-66.87434,10.54246],[-66.88092,10.54054],[-66.89211,10.54724],[-66.91591,10.55336],[-66.93483,10.54931],[-66.93803,10.5459],[-66.95135,10.54432],[-66.95443,10.54834],[-66.96502,10.54876],[-66.97813,10.55606],[-66.98697,10.55585],[-66.9968,10.56369],[-67.00895,10.55969],[-67.01338,10.56541],[-67.01883,10.56713],[-67.0263,10.55116],[-67.01762,10.54609],[-67.01823,10.54168],[-67.02372,10.53962],[-67.02306,10.53785],[-67.02559,10.53859],[-67.02809,10.53325],[-67.03338,10.53401],[-67.04497,10.52957],[-67.04775,10.52283],[-67.05071,10.52325],[-67.05255,10.51953],[-67.06232,10.51462],[-67.05442,10.50271],[-67.05985,10.48621],[-67.05781,10.48126],[-67.05955,10.46484],[-67.09817,10.45954],[-67.10119,10.46147],[-67.11489,10.45709],[-67.11816,10.45856],[-67.14327,10.44936],[-67.14957,10.44167],[-67.15935,10.43997],[-67.16032,10.43693],[-67.15591,10.43003],[-67.15717,10.42691],[-67.15522,10.42309],[-67.16324,10.41314],[-67.15541,10.4114],[-67.1507,10.414],[-67.14612,10.40937],[-67.13968,10.40724],[-67.13434,10.40915],[-67.11522,10.40376],[-67.09219,10.40375],[-67.08836,10.40256],[-67.08662,10.39641],[-67.08143,10.39519],[-67.07992,10.39104],[-67.07021,10.39359],[-67.04305,10.38518],[-67.03518,10.39046],[-67.02714,10.39154],[-67.01999,10.38913],[-67.01616,10.38301],[-67.01217,10.38236],[-66.99742,10.38732],[-66.99263,10.39415],[-66.98285,10.39779],[-66.98159,10.40086],[-66.97914,10.39988],[-66.96524,10.41138],[-66.95925,10.41331],[-66.94964,10.42463],[-66.94217,10.4233],[-66.93245,10.41408],[-66.92169,10.41464],[-66.91925,10.41005],[-66.91445,10.41098],[-66.90954,10.40654],[-66.89912,10.40863],[-66.8942,10.4202],[-66.90114,10.42361],[-66.89619,10.4357],[-66.89562,10.45166],[-66.89208,10.4563],[-66.89028,10.46477],[-66.88191,10.47243],[-66.88426,10.47891],[-66.879,10.48705],[-66.88172,10.49038],[-66.8692,10.48755],[-66.8694,10.49831],[-66.8613,10.51246],[-66.86383,10.51461],[-66.86356,10.52011],[-66.86174,10.52044],[-66.86984,10.5342],[-66.87063,10.54542],[-66.87434,10.54246]]]}}]}