{"type":"FeatureCollection","features":[{"type":"Feature","id":"node/914310439","properties":{"name":"Caracas","place":"city","population":"3523959"},"geometry":{"type":"Point","coordinates":[-66.9146,10.50609]}},{"type":"Feature","id":"node/2055348442","properties":{"name":"El Junquito","place":"town"},"geometry":{"type":"Point","coordinates":[-67.08062,10.46143]}},{"type":"Feature","id":"node/5702376665","properties":{"name":"San Roque","place":"village"},"geometry":{"type":"Point","coordinates":[-66.99023,10.40938]}},{"type":"Feature","id":"node/5706993618","properties":{"name":"Conejo Blanco","place":"village"},"geometry":{"type":"Point","coordinates":[-66.92773,10.53698]}},{"type":"Feature","id":"node/5706993619","properties":{"name":"Las Canoas","place":"village"},"geometry":{"type":"Point","coordinates":[-66.93056,10.54481]}}]}