{"type":"FeatureCollection","features":[{"type":"Feature","id":"relation/2442705","properties":{"name":"Parroquia Caraballeda"},"geometry":{"type":"Polygon","coordinates":[[[-66.87133,10.61307],[-66.8683,10.60491],[-66.86456,10.60336],[-66.86336,10.60076],[-66.85834,10.59787],[-66.85128,10.60119],[-66.85973,10.58218],[-66.85911,10.5767],[-66.86355,10.57006],[-66.8637,10.55191],[-66.86269,10.54996],[-66.85962,10.5497],[-66.85536,10.54285],[-66.84772,10.53782],[-66.82184,10.54895],[-66.81414,10.5485],[-66.79902,10.54129],[-66.78851,10.54241],[-66.77889,10.54629],[-66.7786,10.54812],[-66.78927,10.56216],[-66.788,10.57174],[-66.78548,10.57626],[-66.79576,10.58647],[-66.80374,10.5915],[-66.79926,10.59469],[-66.79986,10.60058],[-66.80387,10.60856],[-66.80234,10.61966],[-66.81851,10.62137],[-66.82363,10.62451],[-66.8312,10.62353],[-66.83801,10.62945],[-66.84786,10.63157],[-66.86369,10.62628],[-66.86874,10.6213],[-66.87394,10.62128],[-66.87133,10.61307]]]}},{"type":"Feature","id":"relation/2442706","properties":{"name":"Parroquia Carayaca"},"geometry":{"type":"Polygon","coordinates":[[[-67.09414,10.58933],[-67.10495,10.59118],[-67.11008,10.58635],[-67.12465,10.58017],[-67.14181,10.57757],[-67.15935,10.572],[-67.16318,10.56871],[-67.1727,10.56935],[-67.1874,10.56418],[-67.20713,10.56575],[-67.21417,10.56355],[-67.2173,10.56026],[-67.22241,10.55977],[-67.23729,10.56427],[-67.24177,10.56305],[-67.24714,10.55843],[-67.25449,10.5589],[-67.26046,10.5552],[-67.28801,10.55514],[-67.3097,10.54941],[-67.33149,10.55259],[-67.34851,10.55257],[-67.35783,10.54824],[-67.37497,10.54521],[-67.37866,10.54271],[-67.39844,10.54274],[-67.4,10.52867],[-67.40304,10.52811],[-67.40245,10.52597],[-67.40541,10.52625],[-67.40676,10.52158],[-67.40494,10.51845],[-67.40901,10.51705],[-67.4076,10.51456],[-67.41215,10.5125],[-67.40746,10.50951],[-67.40938,10.50955],[-67.40891,10.50618],[-67.40467,10.50591],[-67.40179,10.50118],[-67.40022,10.50167],[-67.40061,10.49948],[-67.39825,10.49975],[-67.39787,10.49648],[-67.39382,10.49733],[-67.38948,10.49437],[-67.39119,10.49353],[-67.39098,10.48765],[-67.39293,10.48573],[-67.39053,10.48595],[-67.39019,10.48321],[-67.38664,10.4844],[-67.38249,10.48256],[-67.38398,10.47903],[-67.38148,10.47102],[-67.38269,10.4695],[-67.37989,10.46777],[-67.38081,10.46458],[-67.37865,10.4637],[-67.37977,10.46149],[-67.37706,10.45243],[-67.37271,10.45153],[-67.36914,10.44441],[-67.36327,10.44433],[-67.36311,10.43938],[-67.36107,10.43879],[-67.36369,10.43602],[-67.36121,10.43352],[-67.36346,10.42599],[-67.35977,10.42278],[-67.3612,10.41352],[-67.35923,10.41001],[-67.35282,10.40717],[-67.3458,10.39868],[-67.34799,10.38804],[-67.34022,10.39483],[-67.33843,10.39448],[-67.33152,10.40563],[-67.31178,10.41099],[-67.2908,10.42448],[-67.28594,10.42413],[-67.28176,10.42107],[-67.24542,10.42689],[-67.24157,10.42506],[-67.24136,10.42183],[-67.23073,10.41815],[-67.22963,10.4119],[-67.21996,10.41017],[-67.21811,10.41087],[-67.21633,10.41703],[-67.20869,10.41836],[-67.20973,10.42173],[-67.20507,10.42104],[-67.20117,10.42492],[-67.1953,10.42426],[-67.18357,10.42981],[-67.17072,10.4315],[-67.15963,10.4374],[-67.15935,10.43997],[-67.14957,10.44167],[-67.14327,10.44936],[-67.13076,10.45254],[-67.12123,10.45799],[-67.11489,10.45709],[-67.10119,10.46147],[-67.10237,10.48218],[-67.09916,10.49117],[-67.10093,10.49889],[-67.09402,10.49985],[-67.08784,10.49832],[-67.06177,10.50709],[-67.05592,10.50527],[-67.0622,10.51481],[-67.05255,10.51953],[-67.05071,10.52325],[-67.04775,10.52283],[-67.04497,10.52957],[-67.03338,10.53401],[-67.02809,10.53325],[-67.02559,10.53859],[-67.02306,10.53785],[-67.02372,10.53962],[-67.01823,10.54168],[-67.01762,10.54609],[-67.04434,10.55893],[-67.06233,10.55852],[-67.07063,10.56055],[-67.07633,10.55849],[-67.0859,10.54773],[-67.09178,10.54865],[-67.10444,10.55639],[-67.10638,10.55886],[-67.10538,10.56759],[-67.09742,10.57079],[-67.09216,10.57847],[-67.09414,10.58933]]]}},{"type":"Feature","id":"relation/2442707","properties":{"name":"Parroquia Carlos Soublette"},"geometry":{"type":"Polygon","coordinates":[[[-66.96309,10.5976],[-66.95897,10.6108],[-66.96082,10.61176],[-66.96427,10.60347],[-66.97484,10.59912],[-66.98009,10.58839],[-66.98101,10.58239],[-66.9741,10.57406],[-66.97508,10.55388],[-66.96502,10.54876],[-66.96309,10.5976]]]}},{"type":"Feature","id":"relation/2442708","properties":{"name":"Parroquia Caruao"},"geometry":{"type":"Polygon","coordinates":[[[-66.53559,10.55283],[-66.50465,10.54779],[-66.49847,10.545],[-66.49581,10.53895],[-66.48982,10.53687],[-66.48238,10.53716],[-66.47114,10.53189],[-66.46584,10.5362],[-66.45958,10.53627],[-66.4568,10.54084],[-66.45207,10.53931],[-66.44748,10.53364],[-66.441,10.53223],[-66.43028,10.53438],[-66.42505,10.54101],[-66.41992,10.54278],[-66.41515,10.54281],[-66.40934,10.53861],[-66.39367,10.53408],[-66.37761,10.53822],[-66.3697,10.53747],[-66.3588,10.5398],[-66.34985,10.53582],[-66.34641,10.52584],[-66.33531,10.52655],[-66.32901,10.52142],[-66.32558,10.52254],[-66.32019,10.51927],[-66.31717,10.52045],[-66.31637,10.52951],[-66.3136,10.53102],[-66.31296,10.53381],[-66.31484,10.54092],[-66.31879,10.5446],[-66.31791,10.54576],[-66.32179,10.54749],[-66.32188,10.55125],[-66.31985,10.55365],[-66.32136,10.55743],[-66.31779,10.55989],[-66.31938,10.56306],[-66.31737,10.56638],[-66.31447,10.56728],[-66.31424,10.57082],[-66.31157,10.57353],[-66.3117,10.57982],[-66.30817,10.5842],[-66.31078,10.58603],[-66.30892,10.58917],[-66.3126,10.59144],[-66.31004,10.5956],[-66.31205,10.5992],[-66.30931,10.60659],[-66.31009,10.61102],[-66.30646,10.61267],[-66.31172,10.61804],[-66.32204,10.62371],[-66.34997,10.61531],[-66.36206,10.61822],[-66.38043,10.629],[-66.38848,10.62968],[-66.40587,10.63764],[-66.41333,10.63907],[-66.42246,10.63587],[-66.43438,10.6367],[-66.44012,10.63456],[-66.45089,10.63837],[-66.45943,10.63686],[-66.47057,10.63951],[-66.47677,10.63722],[-66.49427,10.64013],[-66.55945,10.63595],[-66.55999,10.62399],[-66.55736,10.62137],[-66.55663,10.61635],[-66.5423,10.60798],[-66.54658,10.59811],[-66.53977,10.58232],[-66.54233,10.57769],[-66.54112,10.57439],[-66.54278,10.55944],[-66.53559,10.55283]]]}},{"type":"Feature","id":"relation/2442709","properties":{"name":"Parroquia Catia La Mar"},"geometry":{"type":"Polygon","coordinates":[[[-67.09253,10.57996],[-67.09742,10.57079],[-67.10538,10.56759],[-67.10638,10.55886],[-67.08966,10.5481],[-67.0859,10.54773],[-67.07633,10.55849],[-67.07063,10.56055],[-67.06233,10.55852],[-67.04434,10.55893],[-67.03131,10.5521],[-67.02623,10.55133],[-67.02169,10.56454],[-67.01883,10.56713],[-67.01338,10.56541],[-67.00895,10.55969],[-67.0093,10.56261],[-67.00745,10.5644],[-67.00744,10.56925],[-67.01037,10.57087],[-67.01599,10.58024],[-67.01826,10.58857],[-67.01571,10.59091],[-67.02408,10.60451],[-67.02969,10.60568],[-67.03284,10.62161],[-67.05343,10.60339],[-67.07012,10.5979],[-67.08065,10.59852],[-67.08831,10.59525],[-67.09414,10.58933],[-67.09253,10.57996]]]}},{"type":"Feature","id":"relation/2442710","properties":{"name":"Parroquia El Junko"},"geometry":{"type":"Polygon","coordinates":[[[-67.10018,10.48891],[-67.10215,10.48409],[-67.10276,10.46852],[-67.10068,10.46718],[-67.10119,10.46147],[-67.09817,10.45954],[-67.09201,10.46173],[-67.08901,10.46064],[-67.08252,10.46298],[-67.07863,10.46143],[-67.05955,10.46484],[-67.05781,10.48126],[-67.05985,10.48621],[-67.05442,10.50271],[-67.05592,10.50527],[-67.06177,10.50709],[-67.08784,10.49832],[-67.09402,10.49985],[-67.10093,10.49889],[-67.10018,10.48891]]]}},{"type":"Feature","id":"relation/2442711","properties":{"name":"Parroquia La Guaira"},"geometry":{"type":"Polygon","coordinates":[[[-66.91265,10.59425],[-66.9124,10.60145],[-66.90889,10.61227],[-66.91102,10.61379],[-66.92016,10.61447],[-66.92762,10.6116],[-66.93741,10.61146],[-66.94458,10.61544],[-66.95022,10.61614],[-66.95236,10.60651],[-66.94037,10.60066],[-66.93979,10.58721],[-66.93571,10.57885],[-66.93549,10.57382],[-66.92564,10.56627],[-66.91307,10.56523],[-66.91146,10.57314],[-66.9059,10.58187],[-66.90667,10.58888],[-66.91265,10.59425]]]}},{"type":"Feature","id":"relation/2442712","properties":{"name":"Parroquia Macuto"},"geometry":{"type":"Polygon","coordinates":[[[-66.91146,10.60385],[-66.91276,10.59445],[-66.90667,10.58888],[-66.9059,10.58187],[-66.91146,10.57314],[-66.91358,10.56438],[-66.91076,10.56383],[-66.90823,10.56022],[-66.90663,10.5518],[-66.89211,10.54724],[-66.88055,10.54051],[-66.86269,10.54996],[-66.86355,10.57006],[-66.85911,10.5767],[-66.85973,10.58218],[-66.85128,10.60119],[-66.85834,10.59787],[-66.8683,10.60491],[-66.87483,10.62132],[-66.87958,10.61974],[-66.88689,10.6211],[-66.90887,10.61228],[-66.91146,10.60385]]]}},{"type":"Feature","id":"relation/2442713","properties":{"name":"Parroquia Maiquet\u00eda"},"geometry":{"type":"Polygon","coordinates":[[[-66.95022,10.61614],[-66.9574,10.61325],[-66.96277,10.60127],[-66.9644,10.54891],[-66.95443,10.54834],[-66.9507,10.54432],[-66.94169,10.54679],[-66.93803,10.5459],[-66.93483,10.54931],[-66.91591,10.55336],[-66.91144,10.55096],[-66.90663,10.5518],[-66.90823,10.56022],[-66.91076,10.56383],[-66.92383,10.56546],[-66.93549,10.57382],[-66.93571,10.57885],[-66.93979,10.58721],[-66.94037,10.60066],[-66.95236,10.60651],[-66.95022,10.61614]]]}},{"type":"Feature","id":"relation/2442714","properties":{"name":"Parroquia Naiguat\u00e1"},"geometry":{"type":"Polygon","coordinates":[[[-66.80263,10.6112],[-66.80386,10.60851],[-66.79986,10.60058],[-66.79926,10.59469],[-66.80352,10.59091],[-66.79576,10.58647],[-66.78548,10.57626],[-66.788,10.57174],[-66.78927,10.56216],[-66.77841,10.54707],[-66.76842,10.54598],[-66.76495,10.54739],[-66.74851,10.54104],[-66.74177,10.54618],[-66.73456,10.54553],[-66.72961,10.54775],[-66.72013,10.54655],[-66.71366,10.54035],[-66.70951,10.53928],[-66.70079,10.54269],[-66.69481,10.54207],[-66.69135,10.54398],[-66.67685,10.54553],[-66.67362,10.54248],[-66.65445,10.54288],[-66.64692,10.53964],[-66.64146,10.53925],[-66.63637,10.54195],[-66.62564,10.54022],[-66.61643,10.54169],[-66.60504,10.53838],[-66.60206,10.53993],[-66.60112,10.54443],[-66.59123,10.55397],[-66.58258,10.55567],[-66.57094,10.54965],[-66.55113,10.54598],[-66.5402,10.54668],[-66.53559,10.55283],[-66.54278,10.55944],[-66.54112,10.57439],[-66.54233,10.57769],[-66.53977,10.58232],[-66.54658,10.59811],[-66.5423,10.60798],[-66.55663,10.61635],[-66.55736,10.62137],[-66.55999,10.62399],[-66.55945,10.63595],[-66.56774,10.63783],[-66.57868,10.6359],[-66.59175,10.63686],[-66.6093,10.63392],[-66.61667,10.63531],[-66.65183,10.63331],[-66.66654,10.6299],[-66.67408,10.63252],[-66.70178,10.63013],[-66.71659,10.63549],[-66.72404,10.63302],[-66.72778,10.62916],[-66.74079,10.63454],[-66.74832,10.63278],[-66.75802,10.62348],[-66.76595,10.6251],[-66.77309,10.62199],[-66.78307,10.62244],[-66.7971,10.619],[-66.80234,10.61966],[-66.80263,10.6112]]]}},{"type":"Feature","id":"relation/2442715","properties":{"name":"Parroquia Urimare"},"geometry":{"type":"Polygon","coordinates":[[[-67.00888,10.55968],[-67.00251,10.56334],[-66.99703,10.56373],[-66.99151,10.56106],[-66.98697,10.55585],[-66.97813,10.55606],[-66.97508,10.55388],[-66.9741,10.57406],[-66.98091,10.58203],[-66.98042,10.58742],[-66.97484,10.59912],[-66.96427,10.60347],[-66.96082,10.61176],[-66.9751,10.61645],[-66.98698,10.62281],[-66.99536,10.62023],[-67.01626,10.62421],[-67.02709,10.62124],[-67.03284,10.62161],[-67.02953,10.60538],[-67.02408,10.60451],[-67.01565,10.59079],[-67.01826,10.58857],[-67.01597,10.58018],[-67.01037,10.57087],[-67.00734,10.56895],[-67.00888,10.55968]]]}}]}