{"type":"FeatureCollection","features":[{"type":"Feature","id":"node/922792493","properties":{"name":"La Guaira","place":"town","population":"60792"},"geometry":{"type":"Point","coordinates":[-66.92964,10.60004]}},{"type":"Feature","id":"node/922792875","properties":{"name":"Maiquet\u00eda","place":"city","population":"87909"},"geometry":{"type":"Point","coordinates":[-66.95975,10.59661]}},{"type":"Feature","id":"node/922793109","properties":{"name":"Catia La Mar","place":"city","population":"661897"},"geometry":{"type":"Point","coordinates":[-67.01451,10.59927]}},{"type":"Feature","id":"node/922793743","properties":{"name":"Week-End","place":"suburb"},"geometry":{"type":"Point","coordinates":[-67.01438,10.59524]}},{"type":"Feature","id":"node/922794029","properties":{"name":"Guaracarumbo","place":"neighbourhood"},"geometry":{"type":"Point","coordinates":[-67.0146,10.59301]}},{"type":"Feature","id":"node/922826732","properties":{"name":"Los Corales","place":"suburb"},"geometry":{"type":"Point","coordinates":[-66.85653,10.61352]}},{"type":"Feature","id":"node/922827134","properties":{"name":"Caraballeda","place":"city"},"geometry":{"type":"Point","coordinates":[-66.84981,10.61284]}},{"type":"Feature","id":"node/922827498","properties":{"name":"Urbanizaci\u00f3n Caribe","place":"suburb"},"geometry":{"type":"Point","coordinates":[-66.83891,10.6132]}},{"type":"Feature","id":"node/922827873","properties":{"name":"Tanaguarena","place":"suburb"},"geometry":{"type":"Point","coordinates":[-66.82686,10.61193]}},{"type":"Feature","id":"node/922859238","properties":{"name":"Naiguat\u00e1","place":"town"},"geometry":{"type":"Point","coordinates":[-66.73945,10.62048]}},{"type":"Feature","id":"node/922889361","properties":{"name":"Los Caracas","place":"village"},"geometry":{"type":"Point","coordinates":[-66.57174,10.62453]}},{"type":"Feature","id":"node/924559348","properties":{"name":"El Palmar Oeste","place":"suburb"},"geometry":{"type":"Point","coordinates":[-66.86167,10.61102]}},{"type":"Feature","id":"node/924629548","properties":{"name":"El Palmar Este","place":"suburb"},"geometry":{"type":"Point","coordinates":[-66.84891,10.60962]}},{"type":"Feature","id":"node/925984786","properties":{"name":"Guamacho","place":"suburb"},"geometry":{"type":"Point","coordinates":[-66.86723,10.60854]}},{"type":"Feature","id":"node/925996101","properties":{"name":"Osma","place":"village"},"geometry":{"type":"Point","coordinates":[-66.51197,10.62378]}},{"type":"Feature","id":"node/925996270","properties":{"name":"Oritapo","place":"town"},"geometry":{"type":"Point","coordinates":[-66.4805,10.62216]}},{"type":"Feature","id":"node/925996286","properties":{"name":"La Virginia","place":"village"},"geometry":{"type":"Point","coordinates":[-66.37908,10.61178]}},{"type":"Feature","id":"node/925996385","properties":{"name":"Caruao","place":"town"},"geometry":{"type":"Point","coordinates":[-66.35199,10.60589]}},{"type":"Feature","id":"node/925996386","properties":{"name":"Chuspa","place":"town"},"geometry":{"type":"Point","coordinates":[-66.31369,10.6157]}},{"type":"Feature","id":"node/926004640","properties":{"name":"Negro Primero","place":"suburb"},"geometry":{"type":"Point","coordinates":[-67.03585,10.5938]}},{"type":"Feature","id":"node/1757127585","properties":{"name":"Puerto Cruz","place":"village"},"geometry":{"type":"Point","coordinates":[-67.34079,10.53173]}},{"type":"Feature","id":"node/1757127586","properties":{"name":"Puerto Maya","place":"village"},"geometry":{"type":"Point","coordinates":[-67.40161,10.52728]}},{"type":"Feature","id":"node/1757127589","properties":{"name":"Chichiriviche de la Costa","place":"village"},"geometry":{"type":"Point","coordinates":[-67.24203,10.54663]}},{"type":"Feature","id":"node/1844528697","properties":{"name":"La Sabana","place":"town"},"geometry":{"type":"Point","coordinates":[-66.38243,10.61824]}},{"type":"Feature","id":"node/2103744319","properties":{"name":"San Antonio de Galip\u00e1n","place":"village"},"geometry":{"type":"Point","coordinates":[-66.88835,10.55314]}},{"type":"Feature","id":"node/2391095652","properties":{"name":"Playa Grande","place":"suburb"},"geometry":{"type":"Point","coordinates":[-67.01599,10.60884]}},{"type":"Feature","id":"node/2746120091","properties":{"name":"Mamo","place":"suburb"},"geometry":{"type":"Point","coordinates":[-67.05899,10.58988]}},{"type":"Feature","id":"node/2746123103","properties":{"name":"Las Tunitas","place":"suburb"},"geometry":{"type":"Point","coordinates":[-67.06377,10.58881]}},{"type":"Feature","id":"node/2746128890","properties":{"name":"San Remo","place":"suburb"},"geometry":{"type":"Point","coordinates":[-67.06484,10.5818]}},{"type":"Feature","id":"node/2746128894","properties":{"name":"Marapa","place":"suburb"},"geometry":{"type":"Point","coordinates":[-67.05293,10.58085]}},{"type":"Feature","id":"node/2746128898","properties":{"name":"El Piache","place":"suburb"},"geometry":{"type":"Point","coordinates":[-67.05102,10.57641]}},{"type":"Feature","id":"node/2746128901","properties":{"name":"La Capilla","place":"suburb"},"geometry":{"type":"Point","coordinates":[-67.05716,10.58622]}},{"type":"Feature","id":"node/2746155744","properties":{"name":"Marapa Marina","place":"neighbourhood"},"geometry":{"type":"Point","coordinates":[-67.04097,10.59629]}},{"type":"Feature","id":"node/2746155749","properties":{"name":"Catamare","place":"suburb"},"geometry":{"type":"Point","coordinates":[-67.04399,10.59638]}},{"type":"Feature","id":"node/2746155754","properties":{"name":"Las Colinas","place":"suburb"},"geometry":{"type":"Point","coordinates":[-67.03514,10.60416]}},{"type":"Feature","id":"node/2747341733","properties":{"name":"Picure","place":"village"},"geometry":{"type":"Point","coordinates":[-67.09295,10.5772]}},{"type":"Feature","id":"node/2747341739","properties":{"name":"Las Salinas","place":"town"},"geometry":{"type":"Point","coordinates":[-67.11727,10.57212]}},{"type":"Feature","id":"node/2747979048","properties":{"name":"Macuto","place":"town"},"geometry":{"type":"Point","coordinates":[-66.89229,10.60647]}},{"type":"Feature","id":"node/2748027053","properties":{"name":"Anare","place":"village"},"geometry":{"type":"Point","coordinates":[-66.65006,10.62239]}},{"type":"Feature","id":"node/2775913355","properties":{"name":"Taguao","place":"town"},"geometry":{"type":"Point","coordinates":[-67.10413,10.57578]}},{"type":"Feature","id":"node/2778213237","properties":{"name":"Vista al Mar","place":"suburb"},"geometry":{"type":"Point","coordinates":[-67.07332,10.58185]}},{"type":"Feature","id":"node/2778460210","properties":{"name":"Tarmas","place":"village"},"geometry":{"type":"Point","coordinates":[-67.1403,10.53968]}},{"type":"Feature","id":"node/2778687661","properties":{"name":"La Zorra","place":"neighbourhood"},"geometry":{"type":"Point","coordinates":[-67.04024,10.59898]}},{"type":"Feature","id":"node/2778765925","properties":{"name":"Carayaca","place":"town"},"geometry":{"type":"Point","coordinates":[-67.12041,10.52936]}},{"type":"Feature","id":"node/2778771871","properties":{"name":"Punta de Mulatos","place":"suburb"},"geometry":{"type":"Point","coordinates":[-66.91659,10.60259]}},{"type":"Feature","id":"node/2780049958","properties":{"name":"La P\u00e1ez","place":"suburb"},"geometry":{"type":"Point","coordinates":[-67.02505,10.60093]}},{"type":"Feature","id":"node/2780706355","properties":{"name":"La Soublette","place":"neighbourhood"},"geometry":{"type":"Point","coordinates":[-67.03785,10.59428]}},{"type":"Feature","id":"node/2784602763","properties":{"name":"10 de Marzo","place":"neighbourhood"},"geometry":{"type":"Point","coordinates":[-66.97101,10.59844]}},{"type":"Feature","id":"node/2848141913","properties":{"name":"Puerto Carayaca","place":"town"},"geometry":{"type":"Point","coordinates":[-67.13225,10.56734]}},{"type":"Feature","id":"node/3450746518","properties":{"name":"Antiguo Carmen de Ur\u00eda","place":"hamlet"},"geometry":{"type":"Point","coordinates":[-66.78144,10.61191]}},{"type":"Feature","id":"node/3462600895","properties":{"name":"La Lucha","place":"suburb"},"geometry":{"type":"Point","coordinates":[-67.02046,10.60259]}},{"type":"Feature","id":"node/3994523057","properties":{"name":"Corralito","place":"village"},"geometry":{"type":"Point","coordinates":[-67.13593,10.50187]}},{"type":"Feature","id":"node/3994523058","properties":{"name":"San Rafael de los Molinos","place":"village"},"geometry":{"type":"Point","coordinates":[-67.12817,10.50689]}},{"type":"Feature","id":"node/3994643159","properties":{"name":"Caoma","place":"suburb"},"geometry":{"type":"Point","coordinates":[-67.12149,10.52108]}},{"type":"Feature","id":"node/3995954761","properties":{"name":"El Pozo","place":"village"},"geometry":{"type":"Point","coordinates":[-67.08888,10.54716]}},{"type":"Feature","id":"node/4000956160","properties":{"name":"Pariata","place":"suburb"},"geometry":{"type":"Point","coordinates":[-66.96716,10.59745]}},{"type":"Feature","id":"node/4272436505","properties":{"name":"Urbanizaci\u00f3n Marina","place":"neighbourhood"},"geometry":{"type":"Point","coordinates":[-67.04256,10.59793]}},{"type":"Feature","id":"node/4317775038","properties":{"name":"Ciudad Ch\u00e1vez","place":"neighbourhood"},"geometry":{"type":"Point","coordinates":[-67.02405,10.60677]}},{"type":"Feature","id":"node/4652621501","properties":{"name":"Oricao","place":"village"},"geometry":{"type":"Point","coordinates":[-67.18413,10.55328]}},{"type":"Feature","id":"node/4936775861","properties":{"name":"La Roraima","place":"suburb"},"geometry":{"type":"Point","coordinates":[-67.03828,10.59008]}},{"type":"Feature","id":"node/5429223709","properties":{"name":"El Pinar","place":"village"},"geometry":{"type":"Point","coordinates":[-67.16868,10.43452]}},{"type":"Feature","id":"node/5429223710","properties":{"name":"Petaquire","place":"village"},"geometry":{"type":"Point","coordinates":[-67.16606,10.45054]}},{"type":"Feature","id":"node/5429223711","properties":{"name":"Tibr\u00f3n Grande","place":"suburb"},"geometry":{"type":"Point","coordinates":[-67.08201,10.47735]}},{"type":"Feature","id":"node/5429224238","properties":{"name":"Tibroncito","place":"village"},"geometry":{"type":"Point","coordinates":[-67.11626,10.47385]}},{"type":"Feature","id":"node/5429224239","properties":{"name":"Pericoco","place":"village"},"geometry":{"type":"Point","coordinates":[-67.13926,10.46334]}},{"type":"Feature","id":"node/5429224240","properties":{"name":"El Junko","place":"suburb"},"geometry":{"type":"Point","coordinates":[-67.06527,10.47968]}},{"type":"Feature","id":"node/5429260337","properties":{"name":"Las Lapas","place":"village"},"geometry":{"type":"Point","coordinates":[-67.20603,10.44769]}},{"type":"Feature","id":"node/5429260338","properties":{"name":"Farall\u00f3n","place":"village"},"geometry":{"type":"Point","coordinates":[-67.18183,10.46316]}},{"type":"Feature","id":"node/5429260339","properties":{"name":"El Arbolito","place":"village"},"geometry":{"type":"Point","coordinates":[-67.1638,10.467]}},{"type":"Feature","id":"node/5429260390","properties":{"name":"La Pe\u00f1ita","place":"suburb"},"geometry":{"type":"Point","coordinates":[-67.24875,10.46403]}},{"type":"Feature","id":"node/5429260672","properties":{"name":"Tigre","place":"village"},"geometry":{"type":"Point","coordinates":[-67.27049,10.47078]}},{"type":"Feature","id":"node/5429260714","properties":{"name":"Aguacatal","place":"village"},"geometry":{"type":"Point","coordinates":[-67.27124,10.45468]}},{"type":"Feature","id":"node/5429260715","properties":{"name":"Las Conchitas","place":"village"},"geometry":{"type":"Point","coordinates":[-67.27253,10.46413]}},{"type":"Feature","id":"node/5429260716","properties":{"name":"Naranjal","place":"village"},"geometry":{"type":"Point","coordinates":[-67.28259,10.45481]}},{"type":"Feature","id":"node/5429260717","properties":{"name":"El Lim\u00f3n","place":"village"},"geometry":{"type":"Point","coordinates":[-67.29306,10.47158]}},{"type":"Feature","id":"node/5429260845","properties":{"name":"Los Rastrojos","place":"village"},"geometry":{"type":"Point","coordinates":[-67.32459,10.49882]}},{"type":"Feature","id":"node/5429295324","properties":{"name":"Los Cedros","place":"village"},"geometry":{"type":"Point","coordinates":[-67.18875,10.49375]}},{"type":"Feature","id":"node/5429295325","properties":{"name":"La Media Laguna","place":"village"},"geometry":{"type":"Point","coordinates":[-67.19253,10.48069]}},{"type":"Feature","id":"node/5429295326","properties":{"name":"Santa Rosa","place":"village"},"geometry":{"type":"Point","coordinates":[-67.18248,10.51424]}},{"type":"Feature","id":"node/5429295327","properties":{"name":"El Guaramo","place":"village"},"geometry":{"type":"Point","coordinates":[-67.1795,10.50284]}},{"type":"Feature","id":"node/5429295328","properties":{"name":"Guasca","place":"village"},"geometry":{"type":"Point","coordinates":[-67.14729,10.52956]}},{"type":"Feature","id":"node/5429295329","properties":{"name":"Tarma Abajo","place":"village"},"geometry":{"type":"Point","coordinates":[-67.14839,10.5487]}},{"type":"Feature","id":"node/5429295340","properties":{"name":"Zapateral","place":"suburb"},"geometry":{"type":"Point","coordinates":[-67.13314,10.54036]}},{"type":"Feature","id":"node/5429295341","properties":{"name":"San Miguel","place":"village"},"geometry":{"type":"Point","coordinates":[-67.27888,10.53673]}},{"type":"Feature","id":"node/5429327391","properties":{"name":"La Macanilla","place":"village"},"geometry":{"type":"Point","coordinates":[-67.16193,10.50408]}},{"type":"Feature","id":"node/5429327392","properties":{"name":"Altos de Caoma","place":"suburb"},"geometry":{"type":"Point","coordinates":[-67.12859,10.51441]}},{"type":"Feature","id":"node/5429327393","properties":{"name":"Tirima","place":"suburb"},"geometry":{"type":"Point","coordinates":[-67.11545,10.52602]}},{"type":"Feature","id":"node/5429327394","properties":{"name":"Las Granjas","place":"suburb"},"geometry":{"type":"Point","coordinates":[-67.11411,10.53651]}},{"type":"Feature","id":"node/5429327395","properties":{"name":"El Topo","place":"village"},"geometry":{"type":"Point","coordinates":[-67.10012,10.51894]}},{"type":"Feature","id":"node/5429327408","properties":{"name":"La Esperanza","place":"suburb"},"geometry":{"type":"Point","coordinates":[-67.07551,10.56693]}},{"type":"Feature","id":"node/5429327409","properties":{"name":"Tacoa","place":"suburb"},"geometry":{"type":"Point","coordinates":[-67.08218,10.58324]}},{"type":"Feature","id":"node/5429356770","properties":{"name":"Playa Verde","place":"suburb"},"geometry":{"type":"Point","coordinates":[-66.99882,10.60876]}},{"type":"Feature","id":"node/5429356771","properties":{"name":"Mare","place":"suburb"},"geometry":{"type":"Point","coordinates":[-66.97978,10.60665]}},{"type":"Feature","id":"node/5429356773","properties":{"name":"La Veguita","place":"neighbourhood"},"geometry":{"type":"Point","coordinates":[-67.01784,10.59835]}},{"type":"Feature","id":"node/5429356774","properties":{"name":"Los Olivos","place":"suburb"},"geometry":{"type":"Point","coordinates":[-67.01893,10.58527]}},{"type":"Feature","id":"node/5429356775","properties":{"name":"La Jungla","place":"suburb"},"geometry":{"type":"Point","coordinates":[-67.02091,10.58936]}},{"type":"Feature","id":"node/5429356776","properties":{"name":"Ezequiel Zamora","place":"suburb"},"geometry":{"type":"Point","coordinates":[-67.0174,10.58272]}},{"type":"Feature","id":"node/5429421450","properties":{"name":"Brisas del Aeropuerto","place":"suburb"},"geometry":{"type":"Point","coordinates":[-67.00432,10.59271]}},{"type":"Feature","id":"node/5429421451","properties":{"name":"Santa Eduvigis","place":"suburb"},"geometry":{"type":"Point","coordinates":[-66.99953,10.5931]}},{"type":"Feature","id":"node/5429421452","properties":{"name":"Solidaridad Vargas","place":"neighbourhood"},"geometry":{"type":"Point","coordinates":[-67.01137,10.5934]}},{"type":"Feature","id":"node/5429464673","properties":{"name":"Puerto de La Guaira","place":"neighbourhood"},"geometry":{"type":"Point","coordinates":[-66.94895,10.59899]}},{"type":"Feature","id":"node/5429664311","properties":{"name":"San Juli\u00e1n","place":"suburb"},"geometry":{"type":"Point","coordinates":[-66.84977,10.60013]}},{"type":"Feature","id":"node/5429664987","properties":{"name":"La Planta","place":"neighbourhood"},"geometry":{"type":"Point","coordinates":[-66.73873,10.61772]}},{"type":"Feature","id":"node/5429664988","properties":{"name":"Camur\u00ed Grande","place":"town"},"geometry":{"type":"Point","coordinates":[-66.7152,10.62066]}},{"type":"Feature","id":"node/5429664990","properties":{"name":"Quebrada Seca","place":"village"},"geometry":{"type":"Point","coordinates":[-66.55692,10.62465]}},{"type":"Feature","id":"node/5429664991","properties":{"name":"Urama","place":"village"},"geometry":{"type":"Point","coordinates":[-66.43574,10.62452]}},{"type":"Feature","id":"node/5429664995","properties":{"name":"San Jorge","place":"village"},"geometry":{"type":"Point","coordinates":[-66.34957,10.59672]}},{"type":"Feature","id":"node/5501491534","properties":{"name":"Las Angustias","place":"neighbourhood"},"geometry":{"type":"Point","coordinates":[-67.02468,10.60404]}},{"type":"Feature","id":"node/5501505780","properties":{"name":"Mirabal","place":"suburb"},"geometry":{"type":"Point","coordinates":[-67.0203,10.59384]}},{"type":"Feature","id":"node/5501505784","properties":{"name":"El Respiro","place":"suburb"},"geometry":{"type":"Point","coordinates":[-67.02211,10.5974]}},{"type":"Feature","id":"node/5501519237","properties":{"name":"La Aviaci\u00f3n","place":"neighbourhood"},"geometry":{"type":"Point","coordinates":[-66.98378,10.59583]}},{"type":"Feature","id":"node/5677447258","properties":{"name":"El Cura","place":"village"},"geometry":{"type":"Point","coordinates":[-66.33661,10.5885]}},{"type":"Feature","id":"node/5706992635","properties":{"name":"Guaracarumbo","place":"hamlet"},"geometry":{"type":"Point","coordinates":[-66.99266,10.57064]}},{"type":"Feature","id":"node/5706992636","properties":{"name":"Pedro Garc\u00eda","place":"hamlet"},"geometry":{"type":"Point","coordinates":[-66.9838,10.5734]}},{"type":"Feature","id":"node/5706992637","properties":{"name":"El Mamonal","place":"village"},"geometry":{"type":"Point","coordinates":[-66.97317,10.56828]}},{"type":"Feature","id":"node/5706992638","properties":{"name":"Zig Zag","place":"village"},"geometry":{"type":"Point","coordinates":[-66.97274,10.57559]}},{"type":"Feature","id":"node/5706992644","properties":{"name":"La Atl\u00e1ntida","place":"suburb"},"geometry":{"type":"Point","coordinates":[-67.03141,10.60549]}},{"type":"Feature","id":"node/5706992645","properties":{"name":"Canaima","place":"suburb"},"geometry":{"type":"Point","coordinates":[-66.97304,10.59443]}},{"type":"Feature","id":"node/5706992668","properties":{"name":"San Juan de Dios","place":"hamlet"},"geometry":{"type":"Point","coordinates":[-66.93684,10.58482]}},{"type":"Feature","id":"node/5706992675","properties":{"name":"El Caimito","place":"suburb"},"geometry":{"type":"Point","coordinates":[-66.85522,10.60611]}},{"type":"Feature","id":"node/5706993589","properties":{"name":"Cariaco","place":"village"},"geometry":{"type":"Point","coordinates":[-66.9076,10.58603]}},{"type":"Feature","id":"node/5706993612","properties":{"name":"Gato Negro","place":"village"},"geometry":{"type":"Point","coordinates":[-66.94341,10.55006]}},{"type":"Feature","id":"node/5706993613","properties":{"name":"El Pe\u00f1\u00f3n","place":"village"},"geometry":{"type":"Point","coordinates":[-66.93428,10.55612]}},{"type":"Feature","id":"node/5706993616","properties":{"name":"San Jos\u00e9 de Galip\u00e1n","place":"village"},"geometry":{"type":"Point","coordinates":[-66.89652,10.57319]}},{"type":"Feature","id":"node/5709882695","properties":{"name":"El Picure","place":"village"},"geometry":{"type":"Point","coordinates":[-67.1138,10.56089]}},{"type":"Feature","id":"node/5709883540","properties":{"name":"Chuparal","place":"village"},"geometry":{"type":"Point","coordinates":[-67.19015,10.53638]}},{"type":"Feature","id":"node/5709883541","properties":{"name":"Curiana","place":"village"},"geometry":{"type":"Point","coordinates":[-67.15541,10.52275]}},{"type":"Feature","id":"node/5709884266","properties":{"name":"Los Cedritos","place":"village"},"geometry":{"type":"Point","coordinates":[-67.1738,10.48435]}},{"type":"Feature","id":"node/5709885676","properties":{"name":"Petaquirito","place":"village"},"geometry":{"type":"Point","coordinates":[-67.29102,10.51796]}},{"type":"Feature","id":"node/5709885684","properties":{"name":"Cag\u00fcita","place":"village"},"geometry":{"type":"Point","coordinates":[-67.31997,10.51389]}},{"type":"Feature","id":"node/5709887200","properties":{"name":"La Requenera","place":"village"},"geometry":{"type":"Point","coordinates":[-67.37677,10.47321]}},{"type":"Feature","id":"node/5709887201","properties":{"name":"San Enrique","place":"village"},"geometry":{"type":"Point","coordinates":[-67.37552,10.45981]}},{"type":"Feature","id":"node/5709887971","properties":{"name":"Los Ri\u00edtos","place":"village"},"geometry":{"type":"Point","coordinates":[-67.29923,10.46366]}},{"type":"Feature","id":"node/5709888498","properties":{"name":"La Urbina","place":"village"},"geometry":{"type":"Point","coordinates":[-67.23414,10.45063]}},{"type":"Feature","id":"node/5709888743","properties":{"name":"El Cedrito","place":"village"},"geometry":{"type":"Point","coordinates":[-67.22262,10.4555]}},{"type":"Feature","id":"node/5709889230","properties":{"name":"El Raizudo","place":"village"},"geometry":{"type":"Point","coordinates":[-67.22469,10.47739]}},{"type":"Feature","id":"node/5709889654","properties":{"name":"La Laguna","place":"suburb"},"geometry":{"type":"Point","coordinates":[-67.25337,10.48351]}},{"type":"Feature","id":"node/5709889655","properties":{"name":"El Portachuelo","place":"village"},"geometry":{"type":"Point","coordinates":[-67.25339,10.45329]}},{"type":"Feature","id":"node/5709889656","properties":{"name":"El Tigre","place":"town"},"geometry":{"type":"Point","coordinates":[-67.24304,10.46745]}},{"type":"Feature","id":"node/5709889658","properties":{"name":"La Alegr\u00eda","place":"village"},"geometry":{"type":"Point","coordinates":[-67.22908,10.49161]}},{"type":"Feature","id":"node/5709889659","properties":{"name":"Los Tres Palos","place":"village"},"geometry":{"type":"Point","coordinates":[-67.23788,10.51875]}},{"type":"Feature","id":"node/5709889674","properties":{"name":"El Fraile","place":"village"},"geometry":{"type":"Point","coordinates":[-67.20354,10.55504]}},{"type":"Feature","id":"node/5709889686","properties":{"name":"El Sapo","place":"village"},"geometry":{"type":"Point","coordinates":[-67.15132,10.55932]}},{"type":"Feature","id":"node/5709889705","properties":{"name":"Las Adjuntas","place":"village"},"geometry":{"type":"Point","coordinates":[-67.13046,10.54918]}},{"type":"Feature","id":"node/5709889708","properties":{"name":"El Gu\u00e1ramo","place":"village"},"geometry":{"type":"Point","coordinates":[-67.17337,10.51563]}},{"type":"Feature","id":"node/5709889716","properties":{"name":"La Pe\u00f1a","place":"village"},"geometry":{"type":"Point","coordinates":[-67.15442,10.48013]}},{"type":"Feature","id":"node/5709889724","properties":{"name":"Cambural","place":"village"},"geometry":{"type":"Point","coordinates":[-67.21666,10.44098]}},{"type":"Feature","id":"node/5709889956","properties":{"name":"R\u00edo Arriba","place":"village"},"geometry":{"type":"Point","coordinates":[-67.19219,10.44019]}},{"type":"Feature","id":"node/5709889965","properties":{"name":"El Hord\u00f3n","place":"village"},"geometry":{"type":"Point","coordinates":[-67.1508,10.45169]}},{"type":"Feature","id":"node/5709890363","properties":{"name":"Yagrumal","place":"village"},"geometry":{"type":"Point","coordinates":[-67.11664,10.49216]}},{"type":"Feature","id":"node/5709890364","properties":{"name":"La Niebla","place":"town"},"geometry":{"type":"Point","coordinates":[-67.0927,10.49534]}},{"type":"Feature","id":"node/5709890395","properties":{"name":"La Monta\u00f1a","place":"neighbourhood"},"geometry":{"type":"Point","coordinates":[-67.03666,10.53741]}},{"type":"Feature","id":"node/5709890420","properties":{"name":"El Banqueo","place":"neighbourhood"},"geometry":{"type":"Point","coordinates":[-67.04821,10.53003]}},{"type":"Feature","id":"node/5709890656","properties":{"name":"Ciudad Caribia","place":"suburb","population":"9000"},"geometry":{"type":"Point","coordinates":[-67.03046,10.53474]}},{"type":"Feature","id":"node/7066661888","properties":{"name":"Todasana","place":"town"},"geometry":{"type":"Point","coordinates":[-66.45964,10.62495]}},{"type":"Feature","id":"node/7326552835","properties":{"name":"Sotavento I","place":"neighbourhood"},"geometry":{"type":"Point","coordinates":[-66.98965,10.59477]}},{"type":"Feature","id":"node/7330098297","properties":{"name":"Sotavento II","place":"neighbourhood"},"geometry":{"type":"Point","coordinates":[-66.99103,10.59337]}},{"type":"Feature","id":"node/7921991316","properties":{"name":"El Tr\u00e9bol","place":"suburb"},"geometry":{"type":"Point","coordinates":[-66.97773,10.59348]}},{"type":"Feature","id":"node/8826434050","properties":{"name":"El Tigrillo","place":"village"},"geometry":{"type":"Point","coordinates":[-66.76659,10.61413]}},{"type":"Feature","id":"node/8826434051","properties":{"name":"Punta Care","place":"village"},"geometry":{"type":"Point","coordinates":[-66.69167,10.62059]}},{"type":"Feature","id":"node/8883529701","properties":{"name":"Valle La Cruz","place":"neighbourhood"},"geometry":{"type":"Point","coordinates":[-67.01578,10.57868]}},{"type":"Feature","id":"node/8890309905","properties":{"name":"Quenepe","place":"neighbourhood"},"geometry":{"type":"Point","coordinates":[-66.95642,10.58867]}},{"type":"Feature","id":"node/8907430103","properties":{"name":"Descansadero","place":"hamlet"},"geometry":{"type":"Point","coordinates":[-66.72667,10.59131]}},{"type":"Feature","id":"node/9731335289","properties":{"name":"Montesano","place":"neighbourhood"},"geometry":{"type":"Point","coordinates":[-66.97811,10.59471]}},{"type":"Feature","id":"node/11607970517","properties":{"name":"Casco Central de Maiquet\u00eda","place":"neighbourhood"},"geometry":{"type":"Point","coordinates":[-66.95175,10.59577]}},{"type":"Feature","id":"node/11918743446","properties":{"name":"Marlboro","place":"neighbourhood"},"geometry":{"type":"Point","coordinates":[-66.98343,10.59174]}},{"type":"Feature","id":"node/11918743447","properties":{"name":"La Pedrera","place":"neighbourhood"},"geometry":{"type":"Point","coordinates":[-66.9785,10.59184]}},{"type":"Feature","id":"node/12467671031","properties":{"name":"Colinas de La Sabana","place":"neighbourhood"},"geometry":{"type":"Point","coordinates":[-66.39023,10.61924]}},{"type":"Feature","id":"node/12582451399","properties":{"name":"Las Casitas de Chuspa","place":"neighbourhood"},"geometry":{"type":"Point","coordinates":[-66.31189,10.60937]}},{"type":"Feature","id":"node/12582455091","properties":{"name":"Las Casitas","place":"neighbourhood"},"geometry":{"type":"Point","coordinates":[-66.35326,10.60593]}},{"type":"Feature","id":"node/13155500381","properties":{"name":"Terrazas de Alto Picure","place":"town"},"geometry":{"type":"Point","coordinates":[-67.0871,10.57174]}}]}