{"type":"FeatureCollection","features":[{"type":"Feature","id":"relation/272746","properties":{"name":"Aragua","level":4},"geometry":{"type":"Polygon","coordinates":[[[-67.16298,10.33209],[-67.16173,10.33617],[-67.16531,10.34526],[-67.16873,10.34754],[-67.1744,10.34658],[-67.17828,10.35118],[-67.18779,10.35342],[-67.19346,10.35993],[-67.20363,10.37894],[-67.20313,10.38833],[-67.21696,10.39906],[-67.21996,10.41017],[-67.22963,10.4119],[-67.23073,10.41815],[-67.24136,10.42183],[-67.24157,10.42506],[-67.24542,10.42689],[-67.28176,10.42107],[-67.28594,10.42413],[-67.29234,10.42399],[-67.31178,10.41099],[-67.33152,10.40563],[-67.33843,10.39448],[-67.34799,10.38804],[-67.3458,10.39868],[-67.3612,10.41352],[-67.35977,10.42278],[-67.36346,10.42599],[-67.36121,10.43352],[-67.36369,10.43602],[-67.36107,10.43879],[-67.36311,10.43938],[-67.36327,10.44433],[-67.36914,10.44441],[-67.37271,10.45153],[-67.37706,10.45243],[-67.37989,10.46777],[-67.38269,10.4695],[-67.38249,10.48256],[-67.39019,10.48321],[-67.39053,10.48595],[-67.39293,10.48573],[-67.38948,10.49437],[-67.39382,10.49733],[-67.39787,10.49648],[-67.39825,10.49975],[-67.40061,10.49948],[-67.40467,10.50591],[-67.40891,10.50618],[-67.40938,10.50955],[-67.40746,10.50951],[-67.41215,10.5125],[-67.4076,10.51456],[-67.40901,10.51705],[-67.405,10.51835],[-67.40657,10.52436],[-67.4,10.52867],[-67.39843,10.53513],[-67.39987,10.59306],[-67.45003,10.59264],[-67.47607,10.59547],[-67.52302,10.58447],[-67.54805,10.58451],[-67.59703,10.57089],[-67.61897,10.56893],[-67.63697,10.56114],[-67.6766,10.55794],[-67.71662,10.56273],[-67.73155,10.55935],[-67.76412,10.55695],[-67.79202,10.54847],[-67.83168,10.54406],[-67.85681,10.53856],[-67.85681,10.4785],[-67.86059,10.47636],[-67.86288,10.46627],[-67.86955,10.46453],[-67.87269,10.46054],[-67.87523,10.44967],[-67.87874,10.44511],[-67.8766,10.43821],[-67.87939,10.41649],[-67.87682,10.39348],[-67.88161,10.37258],[-67.86642,10.36781],[-67.85544,10.35776],[-67.83914,10.34823],[-67.83678,10.3409],[-67.80704,10.32873],[-67.79658,10.32807],[-67.79081,10.33713],[-67.78431,10.33784],[-67.78022,10.34416],[-67.7667,10.35062],[-67.75832,10.34607],[-67.75447,10.35008],[-67.74913,10.34834],[-67.74179,10.3437],[-67.726,10.3399],[-67.714,10.33284],[-67.70876,10.33374],[-67.70193,10.34008],[-67.69446,10.34275],[-67.68205,10.34158],[-67.67156,10.33362],[-67.66233,10.31406],[-67.65291,10.30477],[-67.65087,10.29587],[-67.65216,10.28133],[-67.66142,10.27946],[-67.66676,10.26243],[-67.67395,10.25721],[-67.66428,10.16004],[-67.66538,10.08441],[-67.67758,10.07662],[-67.67993,10.06778],[-67.68693,10.0684],[-67.69062,10.06593],[-67.69152,10.05921],[-67.68758,10.05742],[-67.68657,10.04765],[-67.68436,10.04502],[-67.68026,10.04586],[-67.68017,10.04388],[-67.68497,10.03409],[-67.69406,10.02676],[-67.6967,10.02136],[-67.69036,10.02301],[-67.68298,10.01939],[-67.67948,10.02534],[-67.67517,10.02675],[-67.66873,10.02479],[-67.6729,10.03022],[-67.67137,10.03154],[-67.66227,10.0252],[-67.6466,10.01914],[-67.64383,10.01334],[-67.63757,10.0134],[-67.62896,10.01739],[-67.61508,10.00826],[-67.61804,9.99895],[-67.60871,9.99513],[-67.58494,9.99589],[-67.57614,9.9988],[-67.56429,9.99395],[-67.55514,9.99763],[-67.5507,9.99555],[-67.54519,9.99801],[-67.53373,9.95491],[-67.5242,9.95049],[-67.51537,9.95501],[-67.50971,9.95357],[-67.50886,9.95576],[-67.50655,9.95518],[-67.50445,9.96149],[-67.49986,9.96246],[-67.49205,9.96896],[-67.47938,9.96565],[-67.47668,9.96813],[-67.47687,9.97182],[-67.46991,9.97802],[-67.46821,9.97661],[-67.46577,9.97938],[-67.45776,9.97997],[-67.45569,9.9771],[-67.4535,9.97893],[-67.44939,9.97675],[-67.44702,9.98254],[-67.4398,9.98527],[-67.43733,9.99305],[-67.43597,9.99142],[-67.43021,9.99348],[-67.42193,9.98933],[-67.42198,9.98617],[-67.41378,9.98348],[-67.41327,9.98047],[-67.40709,9.98059],[-67.40598,9.97643],[-67.40286,9.97713],[-67.38414,9.96691],[-67.3819,9.96209],[-67.3776,9.96011],[-67.37629,9.95434],[-67.364,9.95053],[-67.36346,9.94155],[-67.35804,9.94539],[-67.35701,9.94288],[-67.35337,9.94258],[-67.3552,9.94023],[-67.35182,9.93691],[-67.34619,9.93844],[-67.34556,9.93478],[-67.33889,9.93329],[-67.33505,9.92964],[-67.33546,9.92602],[-67.31452,9.9327],[-67.31071,9.93924],[-67.30755,9.93583],[-67.30266,9.94023],[-67.30224,9.93629],[-67.28957,9.93613],[-67.28903,9.93318],[-67.28357,9.93664],[-67.27282,9.93552],[-67.2707,9.92651],[-67.27479,9.91605],[-67.27348,9.91266],[-67.26924,9.91255],[-67.26417,9.90645],[-67.2475,9.91691],[-67.24599,9.92007],[-67.22927,9.92383],[-67.22332,9.93126],[-67.22057,9.92851],[-67.2165,9.93472],[-67.21269,9.93062],[-67.19315,9.93222],[-67.185,9.92878],[-67.17903,9.93096],[-67.16848,9.92665],[-67.16284,9.92958],[-67.15948,9.92651],[-67.1672,9.91711],[-67.16229,9.91189],[-67.16485,9.90862],[-67.17047,9.9074],[-67.16791,9.90212],[-67.1571,9.89447],[-67.157,9.88478],[-67.15978,9.88372],[-67.16085,9.87984],[-67.15934,9.87016],[-67.14912,9.86373],[-67.14479,9.8555],[-67.14977,9.85411],[-67.15005,9.83768],[-67.14443,9.83935],[-67.14433,9.83131],[-67.13615,9.8263],[-67.12959,9.82925],[-67.12744,9.82663],[-67.11271,9.82712],[-67.11117,9.8214],[-67.10614,9.82224],[-67.10643,9.81588],[-67.11306,9.81442],[-67.11223,9.80696],[-67.11416,9.80408],[-67.11205,9.79667],[-67.10666,9.79198],[-67.10447,9.78383],[-67.09687,9.78415],[-67.09658,9.78657],[-67.09272,9.78822],[-67.08742,9.78597],[-67.07861,9.78633],[-67.07664,9.79258],[-67.0695,9.7936],[-67.05638,9.78778],[-67.05457,9.78993],[-67.04973,9.78921],[-67.047,9.79413],[-67.04,9.79207],[-67.03471,9.78577],[-67.03648,9.77824],[-67.03237,9.77212],[-67.03381,9.76845],[-67.02908,9.7629],[-67.01942,9.7617],[-67.00387,9.75474],[-66.99641,9.75787],[-66.99191,9.75241],[-66.98288,9.7588],[-66.97429,9.75497],[-66.97078,9.74681],[-66.96527,9.74341],[-66.96269,9.72506],[-66.95677,9.72128],[-66.96238,9.69687],[-66.94212,9.6932],[-66.93828,9.69139],[-66.93752,9.68504],[-66.92824,9.68389],[-66.92534,9.68677],[-66.91998,9.68434],[-66.9153,9.68883],[-66.91325,9.68728],[-66.9075,9.68992],[-66.90352,9.68902],[-66.89468,9.69346],[-66.89296,9.68873],[-66.88469,9.69587],[-66.87885,9.69806],[-66.87738,9.69612],[-66.87074,9.70062],[-66.86233,9.69549],[-66.86019,9.68892],[-66.85515,9.68557],[-66.85773,9.68433],[-66.85469,9.68239],[-66.85702,9.67963],[-66.85274,9.6765],[-66.85544,9.67183],[-66.85277,9.67033],[-66.85368,9.66784],[-66.85017,9.66845],[-66.85081,9.66453],[-66.84687,9.66262],[-66.84812,9.66084],[-66.84523,9.65864],[-66.84516,9.65563],[-66.84968,9.65453],[-66.84782,9.64763],[-66.85162,9.64729],[-66.85249,9.6438],[-66.85124,9.64119],[-66.8472,9.64052],[-66.8502,9.63716],[-66.84486,9.63008],[-66.84629,9.62665],[-66.84382,9.62441],[-66.84455,9.6158],[-66.84874,9.61263],[-66.84613,9.60801],[-66.85929,9.59209],[-66.86394,9.58145],[-66.86812,9.57891],[-66.86803,9.57372],[-66.8812,9.54936],[-66.88681,9.543],[-66.89168,9.54324],[-66.88979,9.54028],[-66.89787,9.5326],[-66.90228,9.54303],[-66.90593,9.54152],[-66.9064,9.53788],[-66.91286,9.53763],[-66.91564,9.53998],[-66.9141,9.53401],[-66.92842,9.53984],[-66.93259,9.53803],[-66.936,9.53242],[-66.94122,9.5366],[-66.9404,9.53911],[-66.9469,9.53751],[-66.94842,9.53924],[-66.94887,9.53709],[-66.94367,9.53429],[-66.95047,9.53051],[-66.9548,9.53244],[-66.95682,9.52347],[-66.96723,9.51755],[-66.96864,9.51343],[-66.97457,9.51302],[-66.97555,9.51616],[-66.97692,9.50935],[-66.98311,9.51102],[-66.98752,9.50658],[-66.98703,9.50249],[-66.98278,9.50207],[-66.98254,9.49731],[-66.97791,9.50002],[-66.9745,9.49284],[-66.9823,9.49277],[-66.98148,9.48882],[-66.98553,9.48709],[-66.98101,9.4836],[-66.98406,9.48278],[-66.98555,9.47734],[-66.99225,9.47618],[-66.98963,9.4698],[-66.99502,9.47096],[-66.99721,9.4742],[-67.00081,9.47098],[-67.004,9.45838],[-67.00033,9.4555],[-67.00033,9.45199],[-66.94575,9.45252],[-66.92485,9.43929],[-66.92694,9.4342],[-66.93273,9.43179],[-66.93736,9.42184],[-66.93826,9.41541],[-66.9353,9.40779],[-66.92645,9.3979],[-66.91917,9.3944],[-66.91322,9.39677],[-66.89829,9.38368],[-66.83387,9.38788],[-66.67098,9.39013],[-66.65038,9.38819],[-66.59173,9.39393],[-66.59235,9.39556],[-66.58966,9.39597],[-66.59055,9.39904],[-66.58712,9.39627],[-66.58436,9.40368],[-66.58239,9.40294],[-66.58181,9.40495],[-66.58654,9.40657],[-66.58697,9.41117],[-66.58157,9.41378],[-66.57477,9.4258],[-66.57867,9.43026],[-66.57588,9.43376],[-66.57731,9.43623],[-66.56796,9.43726],[-66.57357,9.43986],[-66.57158,9.44501],[-66.5742,9.4459],[-66.56726,9.45146],[-66.56891,9.45205],[-66.56617,9.45454],[-66.56836,9.46088],[-66.56146,9.47283],[-66.56254,9.47475],[-66.56483,9.4722],[-66.56534,9.47541],[-66.55839,9.48439],[-66.5573,9.49136],[-66.55922,9.4996],[-66.56303,9.5007],[-66.56084,9.49823],[-66.56296,9.49648],[-66.56761,9.50311],[-66.57078,9.50171],[-66.56912,9.50419],[-66.57466,9.50887],[-66.57811,9.51802],[-66.58246,9.51994],[-66.57596,9.52687],[-66.57881,9.52845],[-66.57995,9.5258],[-66.58303,9.52663],[-66.58688,9.53665],[-66.58164,9.53664],[-66.57677,9.5404],[-66.57892,9.5439],[-66.57531,9.54874],[-66.57418,9.54315],[-66.56619,9.54894],[-66.57004,9.551],[-66.57151,9.55788],[-66.57358,9.55854],[-66.57359,9.55638],[-66.57551,9.55853],[-66.56767,9.56885],[-66.5696,9.57182],[-66.56688,9.57418],[-66.57004,9.57574],[-66.56777,9.58086],[-66.56096,9.58141],[-66.56185,9.58477],[-66.56513,9.58449],[-66.56232,9.58808],[-66.56642,9.58992],[-66.56446,9.59196],[-66.55897,9.58981],[-66.56059,9.59312],[-66.55337,9.59589],[-66.55438,9.59975],[-66.55222,9.60146],[-66.5563,9.60492],[-66.54644,9.61417],[-66.54959,9.61673],[-66.54717,9.6194],[-66.55263,9.62013],[-66.54917,9.62703],[-66.55119,9.62863],[-66.54875,9.63697],[-66.55032,9.63954],[-66.55295,9.63925],[-66.55343,9.64369],[-66.55758,9.64674],[-66.55509,9.65008],[-66.55654,9.65369],[-66.55268,9.65393],[-66.55854,9.65825],[-66.5567,9.65966],[-66.55791,9.66421],[-66.56161,9.66136],[-66.56925,9.6653],[-66.56733,9.66788],[-66.573,9.66609],[-66.57258,9.67254],[-66.57484,9.67278],[-66.57337,9.67771],[-66.58593,9.68437],[-66.59087,9.68858],[-66.59003,9.69007],[-66.59435,9.68962],[-66.59419,9.69289],[-66.59752,9.6944],[-66.59648,9.69638],[-66.60018,9.69559],[-66.6029,9.69771],[-66.6007,9.69907],[-66.602,9.70413],[-66.60486,9.70374],[-66.61201,9.7106],[-66.62204,9.7089],[-66.62165,9.71425],[-66.62344,9.71501],[-66.633,9.71333],[-66.63253,9.71673],[-66.62976,9.71785],[-66.63285,9.71964],[-66.63199,9.72255],[-66.62353,9.72642],[-66.62018,9.73234],[-66.62284,9.73416],[-66.62225,9.73699],[-66.62728,9.73653],[-66.62311,9.73898],[-66.6223,9.74274],[-66.62826,9.7536],[-66.62501,9.75674],[-66.62211,9.75457],[-66.61783,9.75634],[-66.62029,9.75749],[-66.6192,9.76154],[-66.62196,9.76058],[-66.62448,9.76477],[-66.62203,9.76862],[-66.62402,9.77356],[-66.6221,9.77801],[-66.61886,9.77987],[-66.61611,9.77762],[-66.617,9.77521],[-66.6105,9.77334],[-66.60385,9.77634],[-66.60379,9.7796],[-66.59886,9.78466],[-66.59821,9.79109],[-66.59875,9.79337],[-66.6025,9.79208],[-66.60353,9.79847],[-66.59857,9.8036],[-66.58441,9.80626],[-66.58845,9.81048],[-66.59185,9.8099],[-66.59808,9.818],[-66.5924,9.82733],[-66.58609,9.82772],[-66.58595,9.83229],[-66.57777,9.83213],[-66.57878,9.83667],[-66.57592,9.83952],[-66.5892,9.84343],[-66.59463,9.84754],[-66.59438,9.85143],[-66.60274,9.8659],[-66.59778,9.87211],[-66.60141,9.88742],[-66.59877,9.88716],[-66.59601,9.89218],[-66.60099,9.89849],[-66.60214,9.90336],[-66.6001,9.90842],[-66.6056,9.91193],[-66.6029,9.91587],[-66.60711,9.92431],[-66.60297,9.93355],[-66.60525,9.93656],[-66.60286,9.94017],[-66.60352,9.94779],[-66.60985,9.95484],[-66.6133,9.97177],[-66.62106,9.96847],[-66.63031,9.96765],[-66.63483,9.97017],[-66.6446,9.9683],[-66.64592,9.97221],[-66.65031,9.97487],[-66.65321,9.97361],[-66.66243,9.97783],[-66.66199,9.98069],[-66.68291,9.97512],[-66.68462,9.9792],[-66.69531,9.98288],[-66.7028,9.98316],[-66.70327,9.98135],[-66.70937,9.9878],[-66.72287,9.99235],[-66.73927,9.99035],[-66.74186,9.9879],[-66.7456,9.99712],[-66.76517,9.99846],[-66.76879,10.0073],[-66.77647,10.01295],[-66.77697,10.01628],[-66.78405,10.01515],[-66.78896,10.01044],[-66.80605,10.0133],[-66.80632,10.01576],[-66.81422,10.01552],[-66.81636,10.02156],[-66.82883,10.02736],[-66.83393,10.02532],[-66.84237,10.01436],[-66.8662,10.00017],[-66.87816,9.9981],[-66.89183,10.01322],[-66.90399,10.02111],[-66.91773,10.01729],[-66.93278,10.00872],[-66.93195,10.0143],[-66.92378,10.02582],[-66.93646,10.03989],[-66.94397,10.0381],[-66.96072,10.03975],[-66.96004,10.04327],[-66.96816,10.06953],[-66.9746,10.07148],[-66.98794,10.06888],[-66.99242,10.0705],[-67.00299,10.06034],[-67.01527,10.06526],[-67.0338,10.06705],[-67.0395,10.05969],[-67.04937,10.05937],[-67.05645,10.05633],[-67.07817,10.07459],[-67.08586,10.07627],[-67.10269,10.08674],[-67.11404,10.08804],[-67.11113,10.09497],[-67.10537,10.09816],[-67.105,10.10407],[-67.11833,10.11799],[-67.11598,10.12568],[-67.12695,10.13506],[-67.12814,10.14081],[-67.13954,10.15702],[-67.12822,10.16324],[-67.12052,10.17661],[-67.11272,10.18129],[-67.11034,10.19541],[-67.11222,10.20386],[-67.11682,10.21054],[-67.1157,10.21575],[-67.10244,10.22413],[-67.09538,10.23428],[-67.10018,10.24348],[-67.1114,10.25425],[-67.11744,10.2637],[-67.14825,10.28463],[-67.15334,10.29155],[-67.16769,10.29791],[-67.18328,10.29887],[-67.18755,10.32461],[-67.1828,10.32419],[-67.17404,10.32783],[-67.1726,10.32635],[-67.17241,10.32906],[-67.16874,10.32785],[-67.16699,10.33154],[-67.16549,10.3302],[-67.16298,10.33209]]]}}]}