{"type":"FeatureCollection","features":[{"type":"Feature","id":"relation/2256317","properties":{"name":"Municipio Tovar","level":6,"population":"14161"},"geometry":{"type":"Polygon","coordinates":[[[-67.42431,10.37467],[-67.40748,10.36356],[-67.40121,10.3563],[-67.40274,10.32882],[-67.39806,10.31376],[-67.36392,10.32509],[-67.34207,10.33515],[-67.32253,10.35303],[-67.3201,10.34757],[-67.31036,10.34883],[-67.30668,10.341],[-67.29952,10.33591],[-67.30162,10.33407],[-67.29695,10.33084],[-67.29218,10.32206],[-67.27891,10.32535],[-67.27344,10.34481],[-67.26593,10.344],[-67.26294,10.34799],[-67.24638,10.34769],[-67.23674,10.35437],[-67.23302,10.35275],[-67.23219,10.34941],[-67.22957,10.35215],[-67.22911,10.34787],[-67.22371,10.34625],[-67.21749,10.33476],[-67.21272,10.33225],[-67.20999,10.32112],[-67.20688,10.32334],[-67.19913,10.32182],[-67.19733,10.32547],[-67.19155,10.32374],[-67.18958,10.32602],[-67.1828,10.32419],[-67.17705,10.32735],[-67.1726,10.32635],[-67.17241,10.32906],[-67.16869,10.32787],[-67.16168,10.33532],[-67.16413,10.34367],[-67.16772,10.3473],[-67.17575,10.34724],[-67.17828,10.35118],[-67.18902,10.35427],[-67.19346,10.35993],[-67.20363,10.37894],[-67.20313,10.38833],[-67.21696,10.39906],[-67.21996,10.41017],[-67.22963,10.4119],[-67.23073,10.41815],[-67.24136,10.42183],[-67.24157,10.42506],[-67.24542,10.42689],[-67.28176,10.42107],[-67.28594,10.42413],[-67.29234,10.42399],[-67.31178,10.41099],[-67.33152,10.40563],[-67.33843,10.39448],[-67.34799,10.38804],[-67.3458,10.39868],[-67.3612,10.41352],[-67.35977,10.42278],[-67.36346,10.42599],[-67.36121,10.43352],[-67.36369,10.43602],[-67.36107,10.43879],[-67.36311,10.43938],[-67.36327,10.44433],[-67.36914,10.44441],[-67.37271,10.45153],[-67.37706,10.45243],[-67.37989,10.46777],[-67.38269,10.4695],[-67.38249,10.48256],[-67.39019,10.48321],[-67.39053,10.48595],[-67.39293,10.48573],[-67.38948,10.49437],[-67.39382,10.49733],[-67.39787,10.49648],[-67.39825,10.49975],[-67.40061,10.49948],[-67.40467,10.50591],[-67.40891,10.50618],[-67.40938,10.50955],[-67.40746,10.50951],[-67.41212,10.51239],[-67.4076,10.51456],[-67.40901,10.51705],[-67.40494,10.51845],[-67.40676,10.52158],[-67.40541,10.52625],[-67.4,10.52867],[-67.39844,10.54274],[-67.4163,10.54415],[-67.43308,10.54189],[-67.43908,10.54355],[-67.4561,10.53992],[-67.46219,10.54375],[-67.47188,10.54523],[-67.4694,10.53496],[-67.46259,10.52909],[-67.461,10.51439],[-67.46326,10.50777],[-67.45383,10.50238],[-67.44924,10.47942],[-67.44174,10.46559],[-67.43209,10.45551],[-67.42605,10.45433],[-67.42123,10.44923],[-67.41691,10.41808],[-67.40275,10.40059],[-67.40155,10.39082],[-67.40674,10.38938],[-67.42218,10.37808],[-67.42907,10.37644],[-67.42431,10.37467]]]}},{"type":"Feature","id":"relation/2256357","properties":{"name":"Municipio Bol\u00edvar","level":6,"population":"38047"},"geometry":{"type":"Polygon","coordinates":[[[-67.43295,10.1904],[-67.42348,10.19675],[-67.41009,10.19787],[-67.40846,10.20653],[-67.39443,10.20868],[-67.38842,10.2143],[-67.37322,10.20872],[-67.37226,10.21521],[-67.37597,10.21698],[-67.37368,10.22584],[-67.37805,10.23295],[-67.37941,10.2421],[-67.38313,10.24575],[-67.38259,10.25079],[-67.38978,10.25732],[-67.38913,10.26646],[-67.38266,10.27421],[-67.39084,10.28469],[-67.39431,10.28556],[-67.39249,10.29977],[-67.39793,10.30856],[-67.40652,10.29855],[-67.40687,10.29017],[-67.41607,10.27535],[-67.42248,10.27212],[-67.42903,10.27313],[-67.42726,10.26863],[-67.43007,10.25019],[-67.43502,10.24594],[-67.44072,10.23423],[-67.4463,10.23423],[-67.45509,10.22902],[-67.45303,10.21724],[-67.44863,10.21583],[-67.4483,10.21061],[-67.44665,10.21062],[-67.44981,10.20781],[-67.45114,10.20122],[-67.44839,10.1918],[-67.43899,10.18823],[-67.43295,10.1904]]]}},{"type":"Feature","id":"relation/2256363","properties":{"name":"Municipio Ribas","level":6,"population":"143501"},"geometry":{"type":"Polygon","coordinates":[[[-67.26677,10.18172],[-67.2769,10.18998],[-67.27094,10.20483],[-67.27202,10.21159],[-67.27727,10.21282],[-67.28696,10.22151],[-67.29254,10.23196],[-67.29463,10.24903],[-67.29875,10.25524],[-67.29409,10.25859],[-67.29652,10.26411],[-67.29576,10.27478],[-67.28868,10.27941],[-67.28644,10.29102],[-67.27536,10.31377],[-67.2793,10.32444],[-67.29218,10.32206],[-67.29695,10.33084],[-67.30162,10.33407],[-67.29952,10.33591],[-67.30668,10.341],[-67.31036,10.34883],[-67.3201,10.34757],[-67.32253,10.35303],[-67.34207,10.33515],[-67.36392,10.32509],[-67.39806,10.31376],[-67.39793,10.30856],[-67.39249,10.29977],[-67.39431,10.28556],[-67.39084,10.28469],[-67.38266,10.27421],[-67.38913,10.26646],[-67.38978,10.25732],[-67.38259,10.25079],[-67.38313,10.24575],[-67.37941,10.2421],[-67.37805,10.23295],[-67.37342,10.22492],[-67.37597,10.21698],[-67.37289,10.2161],[-67.37209,10.21306],[-67.37322,10.20872],[-67.37614,10.20873],[-67.38842,10.2143],[-67.39443,10.20868],[-67.40846,10.20653],[-67.41009,10.19787],[-67.42348,10.19675],[-67.43271,10.19162],[-67.43618,10.1822],[-67.43156,10.17711],[-67.41648,10.17258],[-67.41775,10.16179],[-67.41152,10.15218],[-67.40402,10.15239],[-67.39296,10.14185],[-67.38571,10.13833],[-67.37772,10.13875],[-67.37367,10.1436],[-67.36995,10.14337],[-67.36551,10.14008],[-67.36482,10.12976],[-67.34978,10.12572],[-67.34275,10.12614],[-67.3342,10.11101],[-67.331,10.09658],[-67.32391,10.0963],[-67.31604,10.10241],[-67.29873,10.10302],[-67.29249,10.09141],[-67.27795,10.09259],[-67.27442,10.08961],[-67.26471,10.08943],[-67.25837,10.0827],[-67.25035,10.08465],[-67.24356,10.08338],[-67.23214,10.08752],[-67.22742,10.08585],[-67.21582,10.08756],[-67.21069,10.08712],[-67.20411,10.0799],[-67.19905,10.0817],[-67.20765,10.17174],[-67.24883,10.17658],[-67.25984,10.17586],[-67.26677,10.18172]]]}},{"type":"Feature","id":"relation/2256364","properties":{"name":"Municipio Revenga","level":6,"population":"48800"},"geometry":{"type":"Polygon","coordinates":[[[-67.2769,10.18998],[-67.25984,10.17586],[-67.24883,10.17658],[-67.20765,10.17174],[-67.19473,10.24122],[-67.20076,10.28589],[-67.20404,10.29257],[-67.18622,10.31335],[-67.18755,10.32461],[-67.19733,10.32547],[-67.19913,10.32182],[-67.20688,10.32334],[-67.20999,10.32112],[-67.21272,10.33225],[-67.21749,10.33476],[-67.22371,10.34625],[-67.22911,10.34787],[-67.22957,10.35215],[-67.23219,10.34941],[-67.23302,10.35275],[-67.23657,10.35435],[-67.24638,10.34769],[-67.26294,10.34799],[-67.26593,10.344],[-67.27344,10.34481],[-67.2796,10.32466],[-67.27536,10.31377],[-67.28644,10.29102],[-67.28868,10.27941],[-67.29602,10.27389],[-67.29602,10.25993],[-67.29409,10.25859],[-67.29875,10.25524],[-67.29453,10.24867],[-67.29254,10.23196],[-67.28294,10.21702],[-67.2716,10.21042],[-67.27132,10.20329],[-67.2769,10.18998]]]}},{"type":"Feature","id":"relation/2256367","properties":{"name":"Municipio Sucre","level":6,"population":"114509"},"geometry":{"type":"Polygon","coordinates":[[[-67.47969,10.15159],[-67.50355,10.14194],[-67.50357,10.13827],[-67.50278,10.13605],[-67.49077,10.13614],[-67.46244,10.12923],[-67.46511,10.12053],[-67.4674,10.11958],[-67.4678,10.11242],[-67.46565,10.1112],[-67.4449,10.11359],[-67.4305,10.12236],[-67.4245,10.121],[-67.41927,10.12354],[-67.41017,10.12169],[-67.40333,10.12734],[-67.39342,10.12608],[-67.39277,10.13324],[-67.38591,10.13848],[-67.39296,10.14185],[-67.40402,10.15239],[-67.41152,10.15218],[-67.41775,10.16179],[-67.41648,10.17258],[-67.43156,10.17711],[-67.43618,10.1822],[-67.43295,10.1904],[-67.43899,10.18823],[-67.44839,10.1918],[-67.45114,10.20122],[-67.44988,10.20745],[-67.45929,10.20263],[-67.4614,10.19544],[-67.46784,10.19002],[-67.48242,10.18981],[-67.48883,10.18504],[-67.47969,10.15159]]]}},{"type":"Feature","id":"relation/2689580","properties":{"name":"Municipio Girardot","level":6,"population":"407109"},"geometry":{"type":"Polygon","coordinates":[[[-67.55348,10.24145],[-67.54999,10.2462],[-67.54261,10.24573],[-67.54021,10.2492],[-67.53754,10.25553],[-67.54257,10.26647],[-67.5344,10.28092],[-67.53021,10.28307],[-67.52663,10.29215],[-67.53116,10.30054],[-67.5295,10.30885],[-67.53178,10.31723],[-67.53058,10.34029],[-67.53398,10.34893],[-67.56108,10.36636],[-67.56847,10.38182],[-67.56932,10.39303],[-67.57436,10.39844],[-67.57161,10.40521],[-67.57398,10.42269],[-67.57235,10.44315],[-67.56811,10.45145],[-67.57144,10.46933],[-67.56774,10.48832],[-67.57327,10.49717],[-67.56868,10.51226],[-67.57426,10.52598],[-67.58332,10.51751],[-67.59006,10.51605],[-67.59718,10.52017],[-67.60378,10.52073],[-67.62226,10.51059],[-67.64315,10.51095],[-67.64425,10.5006],[-67.64962,10.49638],[-67.65211,10.4901],[-67.65043,10.48551],[-67.66232,10.46687],[-67.65238,10.44722],[-67.65327,10.44277],[-67.64466,10.43312],[-67.64442,10.42741],[-67.63711,10.42053],[-67.63203,10.40764],[-67.6342,10.40053],[-67.62929,10.39275],[-67.63668,10.37987],[-67.63316,10.3661],[-67.6125,10.35397],[-67.59724,10.33825],[-67.60596,10.33203],[-67.61267,10.30307],[-67.61553,10.30015],[-67.6176,10.28202],[-67.61591,10.27561],[-67.61841,10.27549],[-67.61416,10.2691],[-67.61546,10.26329],[-67.6273,10.26534],[-67.63628,10.26071],[-67.64252,10.26161],[-67.64608,10.26666],[-67.64691,10.27408],[-67.65267,10.28144],[-67.65662,10.27891],[-67.66142,10.27946],[-67.66676,10.26243],[-67.67395,10.25721],[-67.66822,10.19776],[-67.60396,10.20154],[-67.58028,10.20531],[-67.56987,10.21255],[-67.56918,10.21539],[-67.56361,10.21748],[-67.55595,10.22886],[-67.55348,10.24145]]]}},{"type":"Feature","id":"relation/9998350","properties":{"name":"Municipio Mari\u00f1o","level":6,"population":"211010"},"geometry":{"type":"Polygon","coordinates":[[[-67.42431,10.37467],[-67.42907,10.37644],[-67.42218,10.37808],[-67.40674,10.38938],[-67.40155,10.39082],[-67.40275,10.40059],[-67.41691,10.41808],[-67.42123,10.44923],[-67.42605,10.45433],[-67.43209,10.45551],[-67.44174,10.46559],[-67.44924,10.47942],[-67.45383,10.50238],[-67.46326,10.50777],[-67.461,10.51439],[-67.46259,10.52909],[-67.4694,10.53496],[-67.47188,10.54523],[-67.49958,10.53885],[-67.50536,10.53539],[-67.51083,10.53571],[-67.51718,10.53188],[-67.53643,10.53555],[-67.5495,10.5299],[-67.5592,10.53006],[-67.5649,10.52545],[-67.57426,10.52598],[-67.56868,10.51226],[-67.57327,10.49717],[-67.56774,10.48832],[-67.57144,10.46933],[-67.56811,10.45145],[-67.57235,10.44315],[-67.57398,10.42269],[-67.57161,10.40521],[-67.57436,10.39844],[-67.56932,10.39303],[-67.56847,10.38182],[-67.56108,10.36636],[-67.53398,10.34893],[-67.53058,10.34029],[-67.53178,10.31723],[-67.5295,10.30885],[-67.53116,10.30054],[-67.52663,10.29215],[-67.53021,10.28307],[-67.5344,10.28092],[-67.54257,10.26647],[-67.53754,10.25553],[-67.54021,10.2492],[-67.54261,10.24573],[-67.54999,10.2462],[-67.55229,10.24361],[-67.55595,10.22886],[-67.56221,10.22014],[-67.54933,10.21675],[-67.52474,10.21603],[-67.49916,10.21157],[-67.48894,10.18483],[-67.48242,10.18981],[-67.46784,10.19002],[-67.4614,10.19544],[-67.45929,10.20263],[-67.44796,10.20892],[-67.44863,10.21583],[-67.45327,10.21791],[-67.45475,10.22997],[-67.4463,10.23423],[-67.44072,10.23423],[-67.43502,10.24594],[-67.43007,10.25019],[-67.42726,10.26863],[-67.42903,10.27313],[-67.42248,10.27212],[-67.41607,10.27535],[-67.40687,10.29017],[-67.40652,10.29855],[-67.39793,10.30856],[-67.40274,10.32882],[-67.40121,10.3563],[-67.40748,10.36356],[-67.42431,10.37467]]]}},{"type":"Feature","id":"relation/9998351","properties":{"name":"Municipio Ocumare","level":6,"population":"12816"},"geometry":{"type":"Polygon","coordinates":[[[-67.83063,10.49067],[-67.839,10.49123],[-67.8442,10.48858],[-67.84685,10.47539],[-67.85056,10.48399],[-67.85681,10.4869],[-67.85681,10.4785],[-67.86059,10.47636],[-67.86091,10.4693],[-67.87269,10.46054],[-67.87523,10.44967],[-67.87874,10.44511],[-67.8766,10.43821],[-67.87939,10.41649],[-67.87682,10.39348],[-67.88161,10.37258],[-67.86642,10.36781],[-67.85544,10.35776],[-67.83914,10.34823],[-67.83678,10.3409],[-67.82351,10.33694],[-67.81059,10.32958],[-67.79658,10.32807],[-67.79081,10.33713],[-67.78431,10.33784],[-67.78022,10.34416],[-67.77094,10.34966],[-67.76608,10.35052],[-67.75832,10.34607],[-67.75447,10.35008],[-67.74179,10.3437],[-67.726,10.3399],[-67.714,10.33284],[-67.70876,10.33374],[-67.70193,10.34008],[-67.69231,10.34232],[-67.6881,10.34633],[-67.68623,10.35554],[-67.66983,10.36178],[-67.66742,10.36551],[-67.65478,10.36191],[-67.65057,10.36488],[-67.63553,10.36417],[-67.63316,10.3661],[-67.63668,10.37987],[-67.62929,10.39275],[-67.6342,10.40053],[-67.63203,10.40764],[-67.63711,10.42053],[-67.64442,10.42741],[-67.64466,10.43312],[-67.65327,10.44277],[-67.65238,10.44722],[-67.66232,10.46687],[-67.65043,10.48551],[-67.65211,10.4901],[-67.64962,10.49638],[-67.64425,10.5006],[-67.64315,10.51095],[-67.66407,10.50629],[-67.66861,10.50806],[-67.6888,10.50678],[-67.694,10.51018],[-67.7121,10.51269],[-67.71995,10.50702],[-67.73486,10.50919],[-67.74,10.50725],[-67.75538,10.50747],[-67.76063,10.50429],[-67.76962,10.50339],[-67.77388,10.49751],[-67.77959,10.49932],[-67.79133,10.49675],[-67.79915,10.4978],[-67.80631,10.49621],[-67.81085,10.49123],[-67.82309,10.49453],[-67.83063,10.49067]]]}},{"type":"Feature","id":"relation/11023948","properties":{"name":"Municipio Urdaneta","level":6,"population":"21271"},"geometry":{"type":"Polygon","coordinates":[[[-66.82697,9.70489],[-66.82999,9.70159],[-66.83081,9.69429],[-66.83515,9.69618],[-66.83695,9.69343],[-66.83493,9.6898],[-66.83856,9.69021],[-66.84123,9.6876],[-66.83885,9.68502],[-66.84236,9.68409],[-66.84016,9.67623],[-66.84399,9.67561],[-66.84692,9.66857],[-66.84561,9.66454],[-66.85108,9.66532],[-66.84523,9.65864],[-66.84516,9.65563],[-66.84968,9.65453],[-66.84782,9.64763],[-66.85162,9.64729],[-66.85249,9.6438],[-66.85124,9.64119],[-66.8472,9.64052],[-66.8502,9.63716],[-66.84486,9.63008],[-66.84629,9.62665],[-66.84382,9.62441],[-66.84455,9.6158],[-66.84874,9.61263],[-66.84613,9.60801],[-66.85929,9.59209],[-66.86394,9.58145],[-66.86812,9.57891],[-66.86803,9.57372],[-66.8812,9.54936],[-66.88681,9.543],[-66.89168,9.54324],[-66.88979,9.54028],[-66.89787,9.5326],[-66.90228,9.54303],[-66.90593,9.54152],[-66.9064,9.53788],[-66.91286,9.53763],[-66.91564,9.53998],[-66.9141,9.53401],[-66.92842,9.53984],[-66.93259,9.53803],[-66.936,9.53242],[-66.94122,9.5366],[-66.9404,9.53911],[-66.9469,9.53751],[-66.94842,9.53924],[-66.94887,9.53709],[-66.94367,9.53429],[-66.95047,9.53051],[-66.9548,9.53244],[-66.95682,9.52347],[-66.96723,9.51755],[-66.96864,9.51343],[-66.97457,9.51302],[-66.97555,9.51616],[-66.97692,9.50935],[-66.98311,9.51102],[-66.98752,9.50658],[-66.98703,9.50249],[-66.98278,9.50207],[-66.98254,9.49731],[-66.97791,9.50002],[-66.9745,9.49284],[-66.9823,9.49277],[-66.98148,9.48882],[-66.98553,9.48709],[-66.98101,9.4836],[-66.98406,9.48278],[-66.98555,9.47734],[-66.99225,9.47618],[-66.98963,9.4698],[-66.99502,9.47096],[-66.99721,9.4742],[-67.00081,9.47098],[-67.004,9.45838],[-67.00033,9.4555],[-67.00051,9.45217],[-66.94575,9.45252],[-66.92485,9.43929],[-66.92694,9.4342],[-66.93273,9.43179],[-66.93736,9.42184],[-66.93826,9.41541],[-66.9353,9.40779],[-66.92645,9.3979],[-66.91917,9.3944],[-66.91322,9.39677],[-66.89829,9.38368],[-66.83387,9.38788],[-66.67098,9.39013],[-66.65038,9.38819],[-66.59173,9.39393],[-66.59235,9.39556],[-66.58966,9.39597],[-66.59055,9.39904],[-66.58695,9.39638],[-66.58436,9.40368],[-66.58239,9.40294],[-66.58181,9.40495],[-66.58654,9.40657],[-66.58697,9.41117],[-66.58157,9.41378],[-66.57477,9.4258],[-66.57867,9.43026],[-66.57588,9.43376],[-66.57731,9.43623],[-66.56796,9.43726],[-66.57357,9.43986],[-66.57158,9.44501],[-66.5742,9.4459],[-66.56726,9.45146],[-66.56891,9.45205],[-66.56617,9.45454],[-66.56836,9.46088],[-66.56146,9.47283],[-66.56254,9.47475],[-66.56483,9.4722],[-66.56534,9.47541],[-66.55839,9.48439],[-66.5573,9.49136],[-66.55922,9.4996],[-66.56303,9.5007],[-66.56084,9.49823],[-66.56296,9.49648],[-66.56761,9.50311],[-66.57078,9.50171],[-66.56912,9.50419],[-66.57466,9.50887],[-66.57811,9.51802],[-66.58246,9.51994],[-66.57596,9.52687],[-66.57881,9.52845],[-66.57995,9.5258],[-66.58303,9.52663],[-66.58688,9.53665],[-66.58164,9.53664],[-66.57677,9.5404],[-66.57892,9.5439],[-66.57531,9.54874],[-66.57418,9.54315],[-66.56619,9.54894],[-66.57004,9.551],[-66.57151,9.55788],[-66.57358,9.55854],[-66.57359,9.55638],[-66.57551,9.55853],[-66.56767,9.56885],[-66.5696,9.57182],[-66.56688,9.57418],[-66.57004,9.57574],[-66.56777,9.58086],[-66.56096,9.58141],[-66.56185,9.58477],[-66.56513,9.58449],[-66.56232,9.58808],[-66.56642,9.58992],[-66.56446,9.59196],[-66.55897,9.58981],[-66.56059,9.59312],[-66.55337,9.59589],[-66.55438,9.59975],[-66.55222,9.60146],[-66.5563,9.60492],[-66.54644,9.61417],[-66.54959,9.61673],[-66.54717,9.6194],[-66.55263,9.62013],[-66.54917,9.62703],[-66.55119,9.62863],[-66.54875,9.63697],[-66.55032,9.63954],[-66.55295,9.63925],[-66.55343,9.64369],[-66.55758,9.64674],[-66.55509,9.65008],[-66.55654,9.65369],[-66.55268,9.65393],[-66.55854,9.65825],[-66.5567,9.65966],[-66.55791,9.66421],[-66.56161,9.66136],[-66.56925,9.6653],[-66.56733,9.66788],[-66.573,9.66609],[-66.57258,9.67254],[-66.57484,9.67278],[-66.57337,9.67771],[-66.58593,9.68437],[-66.59087,9.68858],[-66.59003,9.69007],[-66.59435,9.68962],[-66.59419,9.69289],[-66.59752,9.6944],[-66.59648,9.69638],[-66.60018,9.69559],[-66.6029,9.69771],[-66.6007,9.69907],[-66.602,9.70413],[-66.60486,9.70374],[-66.61201,9.7106],[-66.62204,9.7089],[-66.62165,9.71425],[-66.62344,9.71501],[-66.633,9.71333],[-66.63253,9.71673],[-66.62976,9.71785],[-66.63285,9.71964],[-66.63199,9.72255],[-66.62353,9.72642],[-66.62018,9.73234],[-66.62284,9.73416],[-66.62225,9.73699],[-66.62728,9.73653],[-66.62311,9.73898],[-66.6223,9.74274],[-66.62826,9.7536],[-66.62501,9.75674],[-66.62211,9.75457],[-66.61783,9.75634],[-66.62029,9.75749],[-66.6192,9.76154],[-66.62196,9.76058],[-66.62448,9.76477],[-66.62203,9.76862],[-66.62402,9.77356],[-66.6221,9.77801],[-66.61886,9.77987],[-66.61611,9.77762],[-66.617,9.77521],[-66.6105,9.77334],[-66.60385,9.77634],[-66.60379,9.7796],[-66.59886,9.78466],[-66.59821,9.79109],[-66.59875,9.79337],[-66.6025,9.79208],[-66.60353,9.79847],[-66.59857,9.8036],[-66.58441,9.80626],[-66.58845,9.81048],[-66.59185,9.8099],[-66.59808,9.818],[-66.5924,9.82733],[-66.58609,9.82772],[-66.58595,9.83229],[-66.57777,9.83213],[-66.57878,9.83667],[-66.57592,9.83952],[-66.5892,9.84343],[-66.59463,9.84754],[-66.59438,9.85143],[-66.60274,9.8659],[-66.59778,9.87211],[-66.60141,9.88742],[-66.59877,9.88716],[-66.59601,9.89218],[-66.60099,9.89849],[-66.60214,9.90336],[-66.6001,9.90842],[-66.6056,9.91193],[-66.6029,9.91587],[-66.60711,9.92431],[-66.60297,9.93355],[-66.60525,9.93656],[-66.60286,9.94017],[-66.60352,9.94779],[-66.60985,9.95484],[-66.6133,9.97177],[-66.62106,9.96847],[-66.63031,9.96765],[-66.63483,9.97017],[-66.6446,9.9683],[-66.64592,9.97221],[-66.65031,9.97487],[-66.65799,9.97496],[-66.67489,9.96617],[-66.67284,9.95429],[-66.66443,9.95106],[-66.66111,9.94115],[-66.65169,9.93514],[-66.65086,9.92837],[-66.65313,9.92407],[-66.65132,9.91673],[-66.65543,9.91582],[-66.65847,9.91905],[-66.66394,9.91986],[-66.67086,9.91221],[-66.67849,9.9089],[-66.68705,9.89084],[-66.69319,9.88605],[-66.69455,9.87834],[-66.70513,9.8669],[-66.70256,9.86067],[-66.70394,9.85688],[-66.71924,9.86052],[-66.72957,9.8513],[-66.72806,9.84544],[-66.71956,9.84764],[-66.71599,9.84528],[-66.71143,9.83715],[-66.71273,9.83098],[-66.70974,9.82793],[-66.7172,9.82142],[-66.71354,9.81784],[-66.71486,9.81482],[-66.72629,9.81138],[-66.72406,9.8058],[-66.72566,9.80118],[-66.72112,9.79034],[-66.72472,9.77255],[-66.73298,9.76511],[-66.73616,9.75769],[-66.74472,9.75402],[-66.74543,9.75542],[-66.74601,9.75087],[-66.75142,9.74983],[-66.75084,9.75431],[-66.75322,9.75634],[-66.76004,9.75452],[-66.76085,9.75623],[-66.76538,9.75142],[-66.77367,9.75167],[-66.77322,9.74859],[-66.7764,9.74858],[-66.77625,9.74573],[-66.77975,9.74375],[-66.78116,9.74604],[-66.7828,9.74434],[-66.78811,9.7462],[-66.79419,9.74157],[-66.80462,9.74009],[-66.80579,9.73313],[-66.81202,9.73528],[-66.81402,9.73312],[-66.8114,9.73112],[-66.81843,9.72822],[-66.82118,9.72972],[-66.82152,9.72684],[-66.81537,9.7224],[-66.81851,9.72012],[-66.82174,9.72261],[-66.82894,9.71985],[-66.83018,9.71553],[-66.8275,9.71086],[-66.83062,9.71028],[-66.82697,9.70489]]]}},{"type":"Feature","id":"relation/11023949","properties":{"name":"Municipio Camatagua","level":6,"population":"16627"},"geometry":{"type":"Polygon","coordinates":[[[-66.84695,9.89812],[-66.85277,9.90067],[-66.85523,9.90697],[-66.85798,9.90816],[-66.86405,9.90966],[-66.86784,9.90575],[-66.87628,9.90539],[-66.88974,9.9137],[-66.89795,9.90745],[-66.89775,9.88956],[-66.90321,9.88842],[-66.90813,9.88334],[-66.91199,9.89407],[-66.91748,9.89729],[-66.9239,9.89636],[-66.9285,9.90446],[-66.93387,9.90587],[-66.94148,9.90411],[-66.9465,9.90735],[-66.94812,9.90474],[-66.95293,9.90518],[-66.96103,9.91287],[-66.96559,9.90419],[-66.96348,9.90039],[-66.96601,9.89304],[-66.96965,9.89194],[-66.97783,9.9021],[-66.99389,9.89511],[-66.99935,9.8965],[-67.00624,9.90457],[-67.00979,9.9024],[-67.01299,9.90812],[-67.02708,9.90676],[-67.06153,9.88363],[-67.05549,9.87587],[-67.05813,9.87347],[-67.0605,9.87564],[-67.06705,9.87305],[-67.07582,9.87596],[-67.08967,9.86931],[-67.09279,9.86696],[-67.09125,9.85731],[-67.09687,9.85213],[-67.10257,9.8513],[-67.11112,9.84521],[-67.12121,9.82623],[-67.11271,9.82712],[-67.11117,9.8214],[-67.10614,9.82224],[-67.10643,9.81588],[-67.11306,9.81442],[-67.11367,9.80062],[-67.10206,9.78249],[-67.09272,9.78822],[-67.08742,9.78597],[-67.07861,9.78633],[-67.07664,9.79258],[-67.06522,9.79316],[-67.05638,9.78778],[-67.05457,9.78993],[-67.04973,9.78921],[-67.047,9.79413],[-67.04,9.79207],[-67.03471,9.78577],[-67.03648,9.77824],[-67.03237,9.77212],[-67.03381,9.76845],[-67.02908,9.7629],[-67.01942,9.7617],[-67.00387,9.75474],[-66.99641,9.75787],[-66.99191,9.75241],[-66.98288,9.7588],[-66.97429,9.75497],[-66.97078,9.74681],[-66.96527,9.74341],[-66.96269,9.72506],[-66.95677,9.72128],[-66.96238,9.69687],[-66.94212,9.6932],[-66.93828,9.69139],[-66.93752,9.68504],[-66.92824,9.68389],[-66.92534,9.68677],[-66.91998,9.68434],[-66.9153,9.68883],[-66.91325,9.68728],[-66.9075,9.68992],[-66.90352,9.68902],[-66.89468,9.69346],[-66.89296,9.68873],[-66.88469,9.69587],[-66.87885,9.69806],[-66.87738,9.69612],[-66.87074,9.70062],[-66.86233,9.69549],[-66.86019,9.68892],[-66.85515,9.68557],[-66.85773,9.68433],[-66.85469,9.68239],[-66.85702,9.67963],[-66.85274,9.6765],[-66.85544,9.67183],[-66.85277,9.67033],[-66.85368,9.66784],[-66.85035,9.66857],[-66.84924,9.66492],[-66.84604,9.66406],[-66.84692,9.66857],[-66.84399,9.67561],[-66.84016,9.67623],[-66.84236,9.68409],[-66.83885,9.68502],[-66.84123,9.6876],[-66.83856,9.69021],[-66.83493,9.6898],[-66.83695,9.69343],[-66.83515,9.69618],[-66.83081,9.69429],[-66.82999,9.70159],[-66.82697,9.70489],[-66.83062,9.71028],[-66.8275,9.71086],[-66.83018,9.71553],[-66.82894,9.71985],[-66.82174,9.72261],[-66.81851,9.72012],[-66.81541,9.72223],[-66.82152,9.72684],[-66.82118,9.72972],[-66.81843,9.72822],[-66.8114,9.73112],[-66.81402,9.73312],[-66.81202,9.73528],[-66.80579,9.73313],[-66.80462,9.74009],[-66.79419,9.74157],[-66.78811,9.7462],[-66.7828,9.74434],[-66.78116,9.74604],[-66.77975,9.74375],[-66.77625,9.74573],[-66.7764,9.74858],[-66.77322,9.74859],[-66.77367,9.75167],[-66.76538,9.75142],[-66.76085,9.75623],[-66.76004,9.75452],[-66.75322,9.75634],[-66.75084,9.75431],[-66.75142,9.74983],[-66.74601,9.75087],[-66.74543,9.75542],[-66.74472,9.75402],[-66.73616,9.75769],[-66.73298,9.76511],[-66.72472,9.77255],[-66.72112,9.79034],[-66.72566,9.80118],[-66.72406,9.8058],[-66.72629,9.81138],[-66.71486,9.81482],[-66.71354,9.81784],[-66.7172,9.82142],[-66.70974,9.82793],[-66.71273,9.83098],[-66.71143,9.83715],[-66.71599,9.84528],[-66.71956,9.84764],[-66.72806,9.84544],[-66.72957,9.8513],[-66.71924,9.86052],[-66.70372,9.85708],[-66.70258,9.86081],[-66.70513,9.8669],[-66.69455,9.87834],[-66.69319,9.88605],[-66.68705,9.89084],[-66.67849,9.9089],[-66.67086,9.91221],[-66.66394,9.91986],[-66.65847,9.91905],[-66.65543,9.91582],[-66.65152,9.91656],[-66.65313,9.9242],[-66.65086,9.92837],[-66.65169,9.93514],[-66.65832,9.9378],[-66.66438,9.95101],[-66.67284,9.95429],[-66.67462,9.96081],[-66.67414,9.9669],[-66.65798,9.97473],[-66.66243,9.97783],[-66.66199,9.98069],[-66.68291,9.97512],[-66.68462,9.9792],[-66.69531,9.98288],[-66.7028,9.98316],[-66.70327,9.98135],[-66.70847,9.98723],[-66.71187,9.98783],[-66.72445,9.97252],[-66.72883,9.97042],[-66.73481,9.97094],[-66.7471,9.96723],[-66.74948,9.97063],[-66.76109,9.9675],[-66.78641,9.96945],[-66.79942,9.95874],[-66.79923,9.95054],[-66.80825,9.94798],[-66.81248,9.93944],[-66.81062,9.93417],[-66.81552,9.92742],[-66.81535,9.92086],[-66.82072,9.91075],[-66.8234,9.91196],[-66.8338,9.9086],[-66.83712,9.90194],[-66.84695,9.89812]]]}},{"type":"Feature","id":"relation/11023950","properties":{"name":"Municipio San Casimiro","level":6,"population":"25540"},"geometry":{"type":"Polygon","coordinates":[[[-67.10506,9.90088],[-67.10567,9.89669],[-67.09942,9.89701],[-67.09896,9.89267],[-67.09249,9.88987],[-67.09292,9.88683],[-67.09889,9.88804],[-67.09749,9.88147],[-67.09913,9.873],[-67.10682,9.87395],[-67.10827,9.87128],[-67.10754,9.86881],[-67.10395,9.86881],[-67.10727,9.86486],[-67.10357,9.86196],[-67.1032,9.85624],[-67.09907,9.85385],[-67.09727,9.85639],[-67.09547,9.85308],[-67.09057,9.86025],[-67.09218,9.86767],[-67.07582,9.87596],[-67.06705,9.87305],[-67.0605,9.87564],[-67.05813,9.87347],[-67.05549,9.87587],[-67.06153,9.88363],[-67.03363,9.90098],[-67.0311,9.9046],[-67.01951,9.90826],[-67.01277,9.90802],[-67.00979,9.9024],[-67.00624,9.90457],[-66.99935,9.8965],[-66.99389,9.89511],[-66.97783,9.9021],[-66.96965,9.89194],[-66.96601,9.89304],[-66.96348,9.90039],[-66.96559,9.90419],[-66.96103,9.91287],[-66.95293,9.90518],[-66.94812,9.90474],[-66.9465,9.90735],[-66.94148,9.90411],[-66.93387,9.90587],[-66.9285,9.90446],[-66.9239,9.89636],[-66.91748,9.89729],[-66.91199,9.89407],[-66.90788,9.88339],[-66.90321,9.88842],[-66.89775,9.88956],[-66.89795,9.90745],[-66.88974,9.9137],[-66.87628,9.90539],[-66.86784,9.90575],[-66.86405,9.90966],[-66.85798,9.90816],[-66.85523,9.90697],[-66.85277,9.90067],[-66.84695,9.89812],[-66.83712,9.90194],[-66.8338,9.9086],[-66.8234,9.91196],[-66.82072,9.91075],[-66.81535,9.92086],[-66.81552,9.92742],[-66.81062,9.93417],[-66.81248,9.93944],[-66.80825,9.94798],[-66.79923,9.95054],[-66.79942,9.95874],[-66.78641,9.96945],[-66.76109,9.9675],[-66.74948,9.97063],[-66.7471,9.96723],[-66.73481,9.97094],[-66.72883,9.97042],[-66.72445,9.97252],[-66.7126,9.98763],[-66.72287,9.99235],[-66.73927,9.99035],[-66.74186,9.9879],[-66.7456,9.99712],[-66.76517,9.99846],[-66.76879,10.0073],[-66.77647,10.01295],[-66.77697,10.01628],[-66.78405,10.01515],[-66.78896,10.01044],[-66.80605,10.0133],[-66.80632,10.01576],[-66.81422,10.01552],[-66.81636,10.02156],[-66.82883,10.02736],[-66.83393,10.02532],[-66.84237,10.01436],[-66.8662,10.00017],[-66.87816,9.9981],[-66.89183,10.01322],[-66.90399,10.02111],[-66.91773,10.01729],[-66.93278,10.00872],[-66.93195,10.0143],[-66.92378,10.02582],[-66.93646,10.03989],[-66.94397,10.0381],[-66.96072,10.03975],[-66.96004,10.04327],[-66.96816,10.06953],[-66.9746,10.07148],[-66.98794,10.06888],[-66.99242,10.0705],[-67.00299,10.06034],[-67.01527,10.06526],[-67.0338,10.06705],[-67.0395,10.05969],[-67.04937,10.05937],[-67.05645,10.05633],[-67.06102,10.04222],[-67.05799,10.03278],[-67.06175,10.02831],[-67.06043,10.02465],[-67.06296,10.01946],[-67.06729,10.01621],[-67.06541,10.00514],[-67.07512,9.99711],[-67.07664,9.9866],[-67.07902,9.98181],[-67.08276,9.98004],[-67.08124,9.97502],[-67.08913,9.97272],[-67.09227,9.96434],[-67.10131,9.95906],[-67.09148,9.94554],[-67.09478,9.93623],[-67.09068,9.92925],[-67.09716,9.92275],[-67.09175,9.91145],[-67.0994,9.90814],[-67.10506,9.90088]]]}},{"type":"Feature","id":"relation/11023951","properties":{"name":"Municipio San Sebasti\u00e1n","level":6},"geometry":{"type":"Polygon","coordinates":[[[-67.12121,9.82623],[-67.11112,9.84521],[-67.10257,9.8513],[-67.09547,9.85308],[-67.09727,9.85639],[-67.09907,9.85385],[-67.1032,9.85624],[-67.10357,9.86196],[-67.10727,9.86486],[-67.10395,9.86881],[-67.10754,9.86881],[-67.10827,9.87128],[-67.10682,9.87395],[-67.09913,9.873],[-67.09749,9.88147],[-67.09889,9.88804],[-67.09238,9.88778],[-67.09312,9.89088],[-67.09896,9.89267],[-67.09942,9.89701],[-67.10598,9.89753],[-67.09955,9.90801],[-67.09175,9.91145],[-67.09716,9.92275],[-67.09068,9.92925],[-67.09478,9.93623],[-67.09148,9.94554],[-67.10131,9.95906],[-67.09227,9.96434],[-67.08913,9.97272],[-67.08124,9.97502],[-67.08276,9.98004],[-67.07902,9.98181],[-67.07664,9.9866],[-67.07512,9.99711],[-67.06541,10.00514],[-67.06729,10.01621],[-67.06296,10.01946],[-67.06043,10.02465],[-67.06175,10.02831],[-67.05799,10.03278],[-67.06102,10.04222],[-67.05645,10.05633],[-67.0776,10.07426],[-67.08586,10.07627],[-67.09733,10.08458],[-67.10881,10.08875],[-67.11616,10.08962],[-67.12273,10.08535],[-67.12752,10.08511],[-67.14047,10.08804],[-67.14844,10.08149],[-67.14797,10.07862],[-67.15313,10.07642],[-67.15587,10.07853],[-67.15953,10.07569],[-67.16211,10.07741],[-67.16254,10.07451],[-67.16565,10.07587],[-67.16628,10.07416],[-67.17989,10.07287],[-67.19463,10.07764],[-67.19835,10.08161],[-67.20591,10.08003],[-67.21102,10.08729],[-67.22742,10.08585],[-67.23214,10.08752],[-67.24356,10.08338],[-67.25035,10.08465],[-67.25837,10.0827],[-67.26471,10.08943],[-67.27442,10.08961],[-67.27795,10.09259],[-67.29249,10.09141],[-67.29873,10.10302],[-67.31604,10.10241],[-67.32391,10.0963],[-67.33258,10.09807],[-67.33278,10.09395],[-67.3289,10.08941],[-67.32758,10.08319],[-67.32215,10.07862],[-67.32338,10.07246],[-67.32114,10.07194],[-67.31493,10.06029],[-67.32926,10.05168],[-67.33183,10.04157],[-67.30639,10.04023],[-67.28909,10.02757],[-67.28636,10.02338],[-67.28581,10.01531],[-67.27671,10.01244],[-67.27645,10.00378],[-67.27946,9.9995],[-67.28629,9.99555],[-67.28803,9.98979],[-67.30208,9.97812],[-67.30676,9.96695],[-67.31156,9.96527],[-67.30475,9.94814],[-67.29987,9.94661],[-67.30253,9.9365],[-67.28957,9.93613],[-67.28903,9.93318],[-67.28357,9.93664],[-67.27228,9.93513],[-67.27341,9.93204],[-67.2707,9.92651],[-67.27479,9.91605],[-67.27348,9.91266],[-67.26924,9.91255],[-67.26417,9.90645],[-67.2475,9.91691],[-67.24599,9.92007],[-67.22927,9.92383],[-67.22332,9.93126],[-67.22057,9.92851],[-67.2165,9.93472],[-67.21269,9.93062],[-67.19315,9.93222],[-67.185,9.92878],[-67.17903,9.93096],[-67.16848,9.92665],[-67.16284,9.92958],[-67.15948,9.92651],[-67.1672,9.91711],[-67.16229,9.91189],[-67.16485,9.90862],[-67.17047,9.9074],[-67.16791,9.90212],[-67.1571,9.89447],[-67.157,9.88478],[-67.15978,9.88372],[-67.16085,9.87984],[-67.15934,9.87016],[-67.14912,9.86373],[-67.14479,9.8555],[-67.14977,9.85411],[-67.15005,9.83768],[-67.14443,9.83935],[-67.14433,9.83131],[-67.13839,9.82717],[-67.13525,9.82617],[-67.12959,9.82925],[-67.12744,9.82663],[-67.12121,9.82623]]]}},{"type":"Feature","id":"relation/11023952","properties":{"name":"Municipio Santos Michelena","level":6,"population":"38574"},"geometry":{"type":"Polygon","coordinates":[[[-67.11168,10.18913],[-67.11034,10.19541],[-67.11222,10.20386],[-67.11682,10.21054],[-67.11594,10.21497],[-67.10244,10.22413],[-67.09864,10.23199],[-67.09548,10.23379],[-67.10018,10.24348],[-67.1114,10.25425],[-67.11744,10.2637],[-67.14825,10.28463],[-67.15334,10.29155],[-67.16769,10.29791],[-67.18328,10.29887],[-67.18622,10.31335],[-67.20404,10.29257],[-67.20076,10.28589],[-67.19462,10.2492],[-67.20767,10.17187],[-67.19905,10.0817],[-67.19463,10.07764],[-67.17989,10.07287],[-67.16628,10.07416],[-67.16565,10.07587],[-67.16254,10.07451],[-67.16178,10.07754],[-67.15971,10.07566],[-67.15587,10.07853],[-67.15313,10.07642],[-67.14797,10.07862],[-67.14844,10.08149],[-67.14047,10.08804],[-67.13158,10.08508],[-67.12263,10.08539],[-67.11467,10.08933],[-67.11079,10.0953],[-67.10537,10.09816],[-67.10513,10.10437],[-67.11833,10.11799],[-67.11598,10.12568],[-67.12695,10.13506],[-67.12814,10.14081],[-67.13954,10.15702],[-67.12673,10.1646],[-67.12052,10.17661],[-67.11272,10.18129],[-67.11168,10.18913]]]}},{"type":"Feature","id":"relation/11023953","properties":{"name":"Municipio Zamora","level":6,"population":"144754"},"geometry":{"type":"Polygon","coordinates":[[[-67.48649,9.9671],[-67.47914,9.96579],[-67.47476,9.97417],[-67.46577,9.97938],[-67.45776,9.97997],[-67.45569,9.9771],[-67.4535,9.97893],[-67.44939,9.97675],[-67.44702,9.98254],[-67.4398,9.98527],[-67.43733,9.99305],[-67.43597,9.99142],[-67.42761,9.99315],[-67.42494,9.98935],[-67.42188,9.98927],[-67.42198,9.98617],[-67.41368,9.9834],[-67.41327,9.98047],[-67.40709,9.98059],[-67.40598,9.97643],[-67.40286,9.97713],[-67.38414,9.96691],[-67.3819,9.96209],[-67.3776,9.96011],[-67.37629,9.95434],[-67.364,9.95053],[-67.36346,9.94155],[-67.35804,9.94539],[-67.35701,9.94288],[-67.35337,9.94258],[-67.3552,9.94023],[-67.35182,9.93691],[-67.34619,9.93844],[-67.34556,9.93478],[-67.33889,9.93329],[-67.33505,9.92964],[-67.33546,9.92602],[-67.31452,9.9327],[-67.31087,9.9392],[-67.30625,9.9362],[-67.30122,9.94106],[-67.29987,9.94661],[-67.30475,9.94814],[-67.31156,9.96527],[-67.30676,9.96695],[-67.30208,9.97812],[-67.28803,9.98979],[-67.28629,9.99555],[-67.27946,9.9995],[-67.27645,10.00378],[-67.27671,10.01244],[-67.28581,10.01531],[-67.28636,10.02338],[-67.28909,10.02757],[-67.30639,10.04023],[-67.33183,10.04157],[-67.32926,10.05168],[-67.31493,10.06029],[-67.32114,10.07194],[-67.32338,10.07246],[-67.32215,10.07862],[-67.32758,10.08319],[-67.3289,10.08941],[-67.33275,10.09387],[-67.3342,10.11101],[-67.34275,10.12614],[-67.34978,10.12572],[-67.36482,10.12976],[-67.36551,10.14008],[-67.37228,10.14382],[-67.37772,10.13875],[-67.38847,10.1377],[-67.39355,10.13183],[-67.39342,10.12608],[-67.40333,10.12734],[-67.41017,10.12169],[-67.41927,10.12354],[-67.4245,10.121],[-67.4305,10.12236],[-67.43925,10.11548],[-67.463,10.11086],[-67.4678,10.11242],[-67.46799,10.11444],[-67.46244,10.12923],[-67.48134,10.13413],[-67.51279,10.13589],[-67.51496,10.13482],[-67.51469,10.13165],[-67.52978,10.13161],[-67.54562,10.13803],[-67.55247,10.13423],[-67.56613,10.13998],[-67.57376,10.1384],[-67.58485,10.14243],[-67.59509,10.13689],[-67.59961,10.13775],[-67.62344,10.16341],[-67.66428,10.16004],[-67.66538,10.08441],[-67.67758,10.07662],[-67.67993,10.06778],[-67.68693,10.0684],[-67.69062,10.06593],[-67.69152,10.05921],[-67.68758,10.05742],[-67.68657,10.04765],[-67.68436,10.04502],[-67.68026,10.04586],[-67.68017,10.04388],[-67.68497,10.03409],[-67.69406,10.02676],[-67.6967,10.02136],[-67.69036,10.02301],[-67.68298,10.01939],[-67.67948,10.02534],[-67.67517,10.02675],[-67.66873,10.02479],[-67.6729,10.03022],[-67.67137,10.03154],[-67.66227,10.0252],[-67.6466,10.01914],[-67.64383,10.01334],[-67.63757,10.0134],[-67.62896,10.01739],[-67.61508,10.00826],[-67.61804,9.99895],[-67.60871,9.99513],[-67.58494,9.99589],[-67.57614,9.9988],[-67.56429,9.99395],[-67.55514,9.99763],[-67.5507,9.99555],[-67.54519,9.99801],[-67.53373,9.95491],[-67.5242,9.95049],[-67.51537,9.95501],[-67.50971,9.95357],[-67.50886,9.95576],[-67.50655,9.95518],[-67.50445,9.96149],[-67.49986,9.96246],[-67.49224,9.96888],[-67.48674,9.96897],[-67.48649,9.9671]]]}},{"type":"Feature","id":"relation/11023954","properties":{"name":"Municipio Lamas","level":6,"population":"32981"},"geometry":{"type":"Polygon","coordinates":[[[-67.47969,10.15159],[-67.48921,10.1852],[-67.50107,10.18223],[-67.51145,10.18849],[-67.52361,10.18784],[-67.53305,10.17292],[-67.53458,10.13279],[-67.51469,10.13165],[-67.51496,10.13482],[-67.51279,10.13589],[-67.51073,10.13433],[-67.50278,10.13605],[-67.50355,10.14194],[-67.47969,10.15159]]]}},{"type":"Feature","id":"relation/11023955","properties":{"name":"Municipio Libertador","level":6,"population":"114355"},"geometry":{"type":"Polygon","coordinates":[[[-67.55655,10.13611],[-67.5524,10.13424],[-67.54562,10.13803],[-67.53458,10.13279],[-67.53305,10.17292],[-67.52444,10.18445],[-67.5232,10.19041],[-67.53671,10.20656],[-67.54106,10.20756],[-67.54522,10.20414],[-67.54749,10.20505],[-67.54963,10.20072],[-67.5542,10.20104],[-67.56132,10.19391],[-67.56298,10.19577],[-67.57874,10.19351],[-67.58589,10.19905],[-67.61126,10.20201],[-67.66822,10.19776],[-67.66428,10.16004],[-67.62344,10.16341],[-67.59961,10.13775],[-67.59492,10.13689],[-67.58485,10.14243],[-67.57376,10.1384],[-67.56613,10.13998],[-67.55655,10.13611]]]}},{"type":"Feature","id":"relation/11023956","properties":{"name":"Municipio Linares","level":6,"population":"123122"},"geometry":{"type":"Polygon","coordinates":[[[-67.50419,10.18396],[-67.50092,10.18223],[-67.48894,10.18483],[-67.49916,10.21157],[-67.52372,10.2159],[-67.5488,10.21668],[-67.56221,10.22014],[-67.58014,10.20537],[-67.60396,10.20154],[-67.58488,10.19876],[-67.57874,10.19351],[-67.56298,10.19577],[-67.56132,10.19391],[-67.5542,10.20104],[-67.54987,10.20058],[-67.54763,10.20496],[-67.54522,10.20414],[-67.54106,10.20756],[-67.53671,10.20656],[-67.52329,10.19117],[-67.52361,10.18784],[-67.51145,10.18849],[-67.50419,10.18396]]]}},{"type":"Feature","id":"relation/11210009","properties":{"name":"Municipio Iragorry","level":6,"population":"99852"},"geometry":{"type":"Polygon","coordinates":[[[-67.64678,10.27149],[-67.64252,10.26161],[-67.63628,10.26071],[-67.6273,10.26534],[-67.61546,10.26329],[-67.61416,10.2691],[-67.61841,10.27549],[-67.61591,10.27561],[-67.6176,10.28202],[-67.61553,10.30015],[-67.61267,10.30307],[-67.60596,10.33203],[-67.5984,10.33623],[-67.59735,10.33915],[-67.60414,10.34326],[-67.6125,10.35397],[-67.6222,10.35801],[-67.63172,10.36592],[-67.64169,10.36382],[-67.65057,10.36488],[-67.65478,10.36191],[-67.66742,10.36551],[-67.66983,10.36178],[-67.68623,10.35554],[-67.6881,10.34633],[-67.69231,10.34232],[-67.68205,10.34158],[-67.67156,10.33362],[-67.67103,10.32962],[-67.66625,10.32568],[-67.66233,10.31406],[-67.65291,10.30477],[-67.65087,10.29587],[-67.65216,10.28133],[-67.64678,10.27149]]]}}]}