{"type":"FeatureCollection","features":[{"type":"Feature","id":"node/333000089","properties":{"name":"Maracay","place":"city","population":"1425606"},"geometry":{"type":"Point","coordinates":[-67.58902,10.23751]}},{"type":"Feature","id":"node/333674478","properties":{"name":"Turmero","place":"city","population":"214798"},"geometry":{"type":"Point","coordinates":[-67.48658,10.22172]}},{"type":"Feature","id":"node/419774069","properties":{"name":"Bella Vista","place":"town"},"geometry":{"type":"Point","coordinates":[-67.44685,10.12375]}},{"type":"Feature","id":"node/419774075","properties":{"name":"Las Guasduas","place":"village"},"geometry":{"type":"Point","coordinates":[-67.48661,10.07402]}},{"type":"Feature","id":"node/419775502","properties":{"name":"Santa Cruz","place":"town"},"geometry":{"type":"Point","coordinates":[-67.51148,10.17902]}},{"type":"Feature","id":"node/423212899","properties":{"name":"La Esperanza","place":"town"},"geometry":{"type":"Point","coordinates":[-67.15594,10.20709]}},{"type":"Feature","id":"node/427733458","properties":{"name":"Magdaleno","place":"town"},"geometry":{"type":"Point","coordinates":[-67.61348,10.0973]}},{"type":"Feature","id":"node/615101291","properties":{"name":"El Lim\u00f3n","place":"city","population":"106166"},"geometry":{"type":"Point","coordinates":[-67.62986,10.29259]}},{"type":"Feature","id":"node/871573992","properties":{"name":"Colonia Tovar","place":"city"},"geometry":{"type":"Point","coordinates":[-67.28369,10.40866]}},{"type":"Feature","id":"node/1187141268","properties":{"name":"El Consejo","place":"town"},"geometry":{"type":"Point","coordinates":[-67.27199,10.23745]}},{"type":"Feature","id":"node/1192326636","properties":{"name":"Chuao","place":"village"},"geometry":{"type":"Point","coordinates":[-67.52761,10.49258]}},{"type":"Feature","id":"node/1257873534","properties":{"name":"La Victoria","place":"city","population":"171824"},"geometry":{"type":"Point","coordinates":[-67.32464,10.22768]}},{"type":"Feature","id":"node/1599415219","properties":{"name":"San Sebasti\u00e1n","place":"city"},"geometry":{"type":"Point","coordinates":[-67.17847,9.94982]}},{"type":"Feature","id":"node/1834063073","properties":{"name":"El Casta\u00f1o","place":"town"},"geometry":{"type":"Point","coordinates":[-67.36394,10.18866]}},{"type":"Feature","id":"node/1834063369","properties":{"name":"Guacamaya","place":"town"},"geometry":{"type":"Point","coordinates":[-67.31051,10.19949]}},{"type":"Feature","id":"node/1834063565","properties":{"name":"La Ceiba","place":"town"},"geometry":{"type":"Point","coordinates":[-67.3777,10.17854]}},{"type":"Feature","id":"node/1834063781","properties":{"name":"Los Budares","place":"village"},"geometry":{"type":"Point","coordinates":[-67.35944,10.19849]}},{"type":"Feature","id":"node/1834063864","properties":{"name":"Parcelamiento El Rosario","place":"village"},"geometry":{"type":"Point","coordinates":[-67.37482,10.1935]}},{"type":"Feature","id":"node/1834063871","properties":{"name":"San Jos\u00e9","place":"village"},"geometry":{"type":"Point","coordinates":[-67.35901,10.20393]}},{"type":"Feature","id":"node/1834063872","properties":{"name":"San Mateo","place":"city","population":"60080"},"geometry":{"type":"Point","coordinates":[-67.41802,10.21538]}},{"type":"Feature","id":"node/1834063876","properties":{"name":"Zuata","place":"town"},"geometry":{"type":"Point","coordinates":[-67.39268,10.16366]}},{"type":"Feature","id":"node/2187682263","properties":{"name":"Cagua","place":"city","population":"128505"},"geometry":{"type":"Point","coordinates":[-67.46068,10.17966]}},{"type":"Feature","id":"node/2518181948","properties":{"name":"Choron\u00ed","place":"town"},"geometry":{"type":"Point","coordinates":[-67.61245,10.48766]}},{"type":"Feature","id":"node/2671375603","properties":{"name":"Independencia","place":"town"},"geometry":{"type":"Point","coordinates":[-67.77333,10.48097]}},{"type":"Feature","id":"node/2671375604","properties":{"name":"Ocumare de La Costa","place":"town"},"geometry":{"type":"Point","coordinates":[-67.76808,10.46202]}},{"type":"Feature","id":"node/2756820692","properties":{"name":"Palo Negro","place":"city"},"geometry":{"type":"Point","coordinates":[-67.55343,10.16303]}},{"type":"Feature","id":"node/3144754587","properties":{"name":"Las Tejer\u00edas","place":"city","population":"43786"},"geometry":{"type":"Point","coordinates":[-67.17339,10.25339]}},{"type":"Feature","id":"node/3246392495","properties":{"name":"Camatagua","place":"city"},"geometry":{"type":"Point","coordinates":[-66.90512,9.7913]}},{"type":"Feature","id":"node/3246401261","properties":{"name":"San Francisco de Cara","place":"town"},"geometry":{"type":"Point","coordinates":[-66.83574,9.66174]}},{"type":"Feature","id":"node/3575812677","properties":{"name":"Santa Rita","place":"city","population":"151245"},"geometry":{"type":"Point","coordinates":[-67.55877,10.20687]}},{"type":"Feature","id":"node/3631538570","properties":{"name":"Puerto Colombia","place":"town"},"geometry":{"type":"Point","coordinates":[-67.60849,10.50416]}},{"type":"Feature","id":"node/3631550863","properties":{"name":"Tocor\u00f3n","place":"town"},"geometry":{"type":"Point","coordinates":[-67.5866,10.09226]}},{"type":"Feature","id":"node/3633729957","properties":{"name":"San Francisco de As\u00eds","place":"town"},"geometry":{"type":"Point","coordinates":[-67.55276,10.07511]}},{"type":"Feature","id":"node/3778332911","properties":{"name":"Villa de Cura","place":"city"},"geometry":{"type":"Point","coordinates":[-67.50246,10.03854]}},{"type":"Feature","id":"node/3844995067","properties":{"name":"Taguay","place":"town"},"geometry":{"type":"Point","coordinates":[-66.66858,9.77842]}},{"type":"Feature","id":"node/4247661281","properties":{"name":"Sabaneta","place":"town"},"geometry":{"type":"Point","coordinates":[-67.24411,10.24507]}},{"type":"Feature","id":"node/5252454709","properties":{"name":"Barbacoas","place":"town"},"geometry":{"type":"Point","coordinates":[-66.973,9.48043]}},{"type":"Feature","id":"node/5416642917","properties":{"name":"San Casimiro","place":"town"},"geometry":{"type":"Point","coordinates":[-67.01445,10.00178]}},{"type":"Feature","id":"node/5252354696","properties":{"name":"El Corozo","place":"village"},"geometry":{"type":"Point","coordinates":[-66.70119,9.39006]}},{"type":"Feature","id":"node/5252354697","properties":{"name":"Memo","place":"town"},"geometry":{"type":"Point","coordinates":[-66.60863,9.39413]}},{"type":"Feature","id":"node/5252354699","properties":{"name":"Chupul\u00fan","place":"village"},"geometry":{"type":"Point","coordinates":[-66.58867,9.45881]}},{"type":"Feature","id":"node/5252354700","properties":{"name":"El Peg\u00f3n","place":"village"},"geometry":{"type":"Point","coordinates":[-66.59256,9.43024]}},{"type":"Feature","id":"node/5252354701","properties":{"name":"La Pe\u00f1ita","place":"town"},"geometry":{"type":"Point","coordinates":[-66.58038,9.55808]}},{"type":"Feature","id":"node/5252454710","properties":{"name":"Los Dos Montes","place":"town"},"geometry":{"type":"Point","coordinates":[-66.81109,9.71958]}},{"type":"Feature","id":"node/5252454711","properties":{"name":"El Totumo","place":"town"},"geometry":{"type":"Point","coordinates":[-66.86721,9.56259]}},{"type":"Feature","id":"node/5252454712","properties":{"name":"El Play\u00f3n","place":"town"},"geometry":{"type":"Point","coordinates":[-66.87721,9.54171]}},{"type":"Feature","id":"node/5372748595","properties":{"name":"Guacamaya","place":"town"},"geometry":{"type":"Point","coordinates":[-67.65893,10.04915]}},{"type":"Feature","id":"node/5372748596","properties":{"name":"Tucupido","place":"village"},"geometry":{"type":"Point","coordinates":[-67.64889,10.08065]}},{"type":"Feature","id":"node/5410072770","properties":{"name":"La Boca","place":"village"},"geometry":{"type":"Point","coordinates":[-67.76114,10.48877]}},{"type":"Feature","id":"node/5410072771","properties":{"name":"Urbanizaci\u00f3n Cata","place":"village"},"geometry":{"type":"Point","coordinates":[-67.7398,10.48875]}},{"type":"Feature","id":"node/5410072772","properties":{"name":"Cata","place":"village"},"geometry":{"type":"Point","coordinates":[-67.73376,10.46235]}},{"type":"Feature","id":"node/5410072774","properties":{"name":"Cuyagua","place":"village"},"geometry":{"type":"Point","coordinates":[-67.70035,10.47925]}},{"type":"Feature","id":"node/5410072775","properties":{"name":"Aponte","place":"village"},"geometry":{"type":"Point","coordinates":[-67.76401,10.40977]}},{"type":"Feature","id":"node/5410072782","properties":{"name":"Cumboto","place":"town"},"geometry":{"type":"Point","coordinates":[-67.7918,10.40379]}},{"type":"Feature","id":"node/5411151944","properties":{"name":"El Cambur","place":"town"},"geometry":{"type":"Point","coordinates":[-67.44327,10.27663]}},{"type":"Feature","id":"node/5411239076","properties":{"name":"M\u00facura","place":"town"},"geometry":{"type":"Point","coordinates":[-67.49122,10.07871]}},{"type":"Feature","id":"node/5411239100","properties":{"name":"Casa Blanca","place":"village"},"geometry":{"type":"Point","coordinates":[-67.48222,10.09439]}},{"type":"Feature","id":"node/5412901360","properties":{"name":"Tremaria","place":"village"},"geometry":{"type":"Point","coordinates":[-67.60128,10.40519]}},{"type":"Feature","id":"node/5412901361","properties":{"name":"La Esmeralda","place":"village"},"geometry":{"type":"Point","coordinates":[-67.59978,10.41798]}},{"type":"Feature","id":"node/5412901362","properties":{"name":"Uraca","place":"village"},"geometry":{"type":"Point","coordinates":[-67.59806,10.42756]}},{"type":"Feature","id":"node/5412901363","properties":{"name":"Parapara","place":"village"},"geometry":{"type":"Point","coordinates":[-67.59845,10.44566]}},{"type":"Feature","id":"node/5412901364","properties":{"name":"El Placer","place":"village"},"geometry":{"type":"Point","coordinates":[-67.60023,10.45687]}},{"type":"Feature","id":"node/5412901365","properties":{"name":"La Soledad","place":"village"},"geometry":{"type":"Point","coordinates":[-67.60494,10.47554]}},{"type":"Feature","id":"node/5412943665","properties":{"name":"La Hu\u00e9rfana","place":"village"},"geometry":{"type":"Point","coordinates":[-67.59466,10.1236]}},{"type":"Feature","id":"node/5412966288","properties":{"name":"La Lagunita","place":"town"},"geometry":{"type":"Point","coordinates":[-67.45527,10.05799]}},{"type":"Feature","id":"node/5412966289","properties":{"name":"El Cortijo","place":"town"},"geometry":{"type":"Point","coordinates":[-67.41619,10.07631]}},{"type":"Feature","id":"node/5412966290","properties":{"name":"Los Bagres","place":"town"},"geometry":{"type":"Point","coordinates":[-67.37903,10.07249]}},{"type":"Feature","id":"node/5412966291","properties":{"name":"Sandoval","place":"village"},"geometry":{"type":"Point","coordinates":[-67.35797,10.0728]}},{"type":"Feature","id":"node/5412966292","properties":{"name":"La Candelaria","place":"town"},"geometry":{"type":"Point","coordinates":[-67.24736,10.11773]}},{"type":"Feature","id":"node/5412966319","properties":{"name":"Santa Luc\u00eda","place":"village"},"geometry":{"type":"Point","coordinates":[-67.22322,10.13637]}},{"type":"Feature","id":"node/5412966320","properties":{"name":"La Ceiba","place":"village"},"geometry":{"type":"Point","coordinates":[-67.25216,10.1317]}},{"type":"Feature","id":"node/5412972021","properties":{"name":"La Fundaci\u00f3n","place":"village"},"geometry":{"type":"Point","coordinates":[-67.26158,10.1395]}},{"type":"Feature","id":"node/5413111980","properties":{"name":"Santo Domingo","place":"town"},"geometry":{"type":"Point","coordinates":[-67.20696,10.24983]}},{"type":"Feature","id":"node/5416390408","properties":{"name":"La Gavillana","place":"town"},"geometry":{"type":"Point","coordinates":[-67.36947,10.26947]}},{"type":"Feature","id":"node/5416391641","properties":{"name":"Los Anaucos","place":"village"},"geometry":{"type":"Point","coordinates":[-67.38611,10.37141]}},{"type":"Feature","id":"node/5416391665","properties":{"name":"Monte Oscuro","place":"village"},"geometry":{"type":"Point","coordinates":[-67.40289,10.37536]}},{"type":"Feature","id":"node/5416391681","properties":{"name":"Pedregal","place":"village"},"geometry":{"type":"Point","coordinates":[-67.38117,10.32672]}},{"type":"Feature","id":"node/5416391682","properties":{"name":"El Tigre","place":"town"},"geometry":{"type":"Point","coordinates":[-67.32566,10.29903]}},{"type":"Feature","id":"node/5416391683","properties":{"name":"Pie del Cerro","place":"village"},"geometry":{"type":"Point","coordinates":[-67.32051,10.31623]}},{"type":"Feature","id":"node/5416391684","properties":{"name":"La Mora","place":"village"},"geometry":{"type":"Point","coordinates":[-67.32553,10.36388]}},{"type":"Feature","id":"node/5416391685","properties":{"name":"La Lagunita","place":"village"},"geometry":{"type":"Point","coordinates":[-67.32014,10.38737]}},{"type":"Feature","id":"node/5416391717","properties":{"name":"San Luis","place":"village"},"geometry":{"type":"Point","coordinates":[-67.37209,10.38218]}},{"type":"Feature","id":"node/5416552084","properties":{"name":"Quebrada Seca","place":"town"},"geometry":{"type":"Point","coordinates":[-67.26045,10.28078]}},{"type":"Feature","id":"node/5416552085","properties":{"name":"El Conde","place":"town"},"geometry":{"type":"Point","coordinates":[-67.2397,10.28664]}},{"type":"Feature","id":"node/5416552087","properties":{"name":"Curiepe","place":"town"},"geometry":{"type":"Point","coordinates":[-67.15047,10.24569]}},{"type":"Feature","id":"node/5416552088","properties":{"name":"Morocopo","place":"village"},"geometry":{"type":"Point","coordinates":[-67.19851,10.20888]}},{"type":"Feature","id":"node/5416552089","properties":{"name":"El Lim\u00f3n","place":"village"},"geometry":{"type":"Point","coordinates":[-67.21692,10.2046]}},{"type":"Feature","id":"node/5416552090","properties":{"name":"Agua Amarilla","place":"village"},"geometry":{"type":"Point","coordinates":[-67.1282,10.18465]}},{"type":"Feature","id":"node/5416552094","properties":{"name":"Tiarita","place":"village"},"geometry":{"type":"Point","coordinates":[-67.14051,10.1353]}},{"type":"Feature","id":"node/5416552095","properties":{"name":"Tiara","place":"town"},"geometry":{"type":"Point","coordinates":[-67.15574,10.13026]}},{"type":"Feature","id":"node/5416555024","properties":{"name":"Agua Fr\u00eda","place":"village"},"geometry":{"type":"Point","coordinates":[-67.17413,10.09904]}},{"type":"Feature","id":"node/5416555171","properties":{"name":"El Pa\u00edto","place":"village"},"geometry":{"type":"Point","coordinates":[-67.16463,10.13064]}},{"type":"Feature","id":"node/5416555191","properties":{"name":"Boca de Cagua","place":"village"},"geometry":{"type":"Point","coordinates":[-67.12318,10.23916]}},{"type":"Feature","id":"node/5416642423","properties":{"name":"Quebrada Honda","place":"village"},"geometry":{"type":"Point","coordinates":[-67.23111,9.93088]}},{"type":"Feature","id":"node/5416642840","properties":{"name":"Valladolid","place":"village"},"geometry":{"type":"Point","coordinates":[-67.11055,10.05821]}},{"type":"Feature","id":"node/5416642914","properties":{"name":"Vallecito","place":"town"},"geometry":{"type":"Point","coordinates":[-67.07139,9.92477]}},{"type":"Feature","id":"node/5416642915","properties":{"name":"El Chaparral","place":"village"},"geometry":{"type":"Point","coordinates":[-67.05509,9.92923]}},{"type":"Feature","id":"node/5416642918","properties":{"name":"El Loro","place":"village"},"geometry":{"type":"Point","coordinates":[-66.97316,10.0271]}},{"type":"Feature","id":"node/5416642919","properties":{"name":"G\u00fciripa","place":"town"},"geometry":{"type":"Point","coordinates":[-67.01589,10.04657]}},{"type":"Feature","id":"node/5416643014","properties":{"name":"Guambra","place":"village"},"geometry":{"type":"Point","coordinates":[-67.04474,10.04895]}},{"type":"Feature","id":"node/5416667908","properties":{"name":"El Rodeo","place":"village"},"geometry":{"type":"Point","coordinates":[-67.03889,9.93223]}},{"type":"Feature","id":"node/5416668456","properties":{"name":"M\u00facura","place":"village"},"geometry":{"type":"Point","coordinates":[-67.04095,9.91006]}},{"type":"Feature","id":"node/5416668621","properties":{"name":"Boca de Zuata","place":"village"},"geometry":{"type":"Point","coordinates":[-67.08968,9.88842]}},{"type":"Feature","id":"node/5416668624","properties":{"name":"Cogollar","place":"village"},"geometry":{"type":"Point","coordinates":[-66.98922,9.91997]}},{"type":"Feature","id":"node/5416668674","properties":{"name":"Paso de Cagua","place":"village"},"geometry":{"type":"Point","coordinates":[-66.95821,9.92956]}},{"type":"Feature","id":"node/5416668706","properties":{"name":"Valle Mor\u00edn","place":"town"},"geometry":{"type":"Point","coordinates":[-66.91972,9.91827]}},{"type":"Feature","id":"node/5416669039","properties":{"name":"Los Manires","place":"village"},"geometry":{"type":"Point","coordinates":[-66.84422,9.96459]}},{"type":"Feature","id":"node/5416669071","properties":{"name":"Buena Vista","place":"village"},"geometry":{"type":"Point","coordinates":[-66.83115,9.97113]}},{"type":"Feature","id":"node/5416669097","properties":{"name":"Las Ollas","place":"town"},"geometry":{"type":"Point","coordinates":[-66.80733,9.98621]}},{"type":"Feature","id":"node/5416669243","properties":{"name":"Cambural de Cataure","place":"village"},"geometry":{"type":"Point","coordinates":[-66.76197,9.97465]}},{"type":"Feature","id":"node/5416669244","properties":{"name":"El Caruto","place":"village"},"geometry":{"type":"Point","coordinates":[-66.78967,9.98869]}},{"type":"Feature","id":"node/5416718818","properties":{"name":"Camatag\u00fcita","place":"village"},"geometry":{"type":"Point","coordinates":[-66.90996,9.86153]}},{"type":"Feature","id":"node/5416718904","properties":{"name":"Correa","place":"village"},"geometry":{"type":"Point","coordinates":[-66.89111,9.76628]}},{"type":"Feature","id":"node/5416718905","properties":{"name":"Carmen de Cura","place":"town"},"geometry":{"type":"Point","coordinates":[-66.83371,9.79615]}},{"type":"Feature","id":"node/5416719040","properties":{"name":"La Concepci\u00f3n Norte","place":"village"},"geometry":{"type":"Point","coordinates":[-66.84609,9.80769]}},{"type":"Feature","id":"node/5416749122","properties":{"name":"Monte Oscuro","place":"village"},"geometry":{"type":"Point","coordinates":[-66.91709,9.5173]}},{"type":"Feature","id":"node/5416749628","properties":{"name":"El Palmar","place":"village"},"geometry":{"type":"Point","coordinates":[-66.76719,9.39322]}},{"type":"Feature","id":"node/5416841327","properties":{"name":"Los Algodones","place":"village"},"geometry":{"type":"Point","coordinates":[-66.75075,9.38886]}},{"type":"Feature","id":"node/5416841368","properties":{"name":"Cardoncito","place":"village"},"geometry":{"type":"Point","coordinates":[-66.60267,9.40648]}},{"type":"Feature","id":"node/5416841369","properties":{"name":"El P\u00e1jaro","place":"village"},"geometry":{"type":"Point","coordinates":[-66.59543,9.41744]}},{"type":"Feature","id":"node/5416841370","properties":{"name":"El Muerto","place":"village"},"geometry":{"type":"Point","coordinates":[-66.58256,9.44737]}},{"type":"Feature","id":"node/5416841371","properties":{"name":"El Toro","place":"village"},"geometry":{"type":"Point","coordinates":[-66.58311,9.48898]}},{"type":"Feature","id":"node/5416841372","properties":{"name":"El Roble","place":"town"},"geometry":{"type":"Point","coordinates":[-66.59949,9.44118]}},{"type":"Feature","id":"node/5416841390","properties":{"name":"El M\u00e9dano","place":"town"},"geometry":{"type":"Point","coordinates":[-66.5681,9.64195]}},{"type":"Feature","id":"node/5416841612","properties":{"name":"Paso de Los Conucos","place":"village"},"geometry":{"type":"Point","coordinates":[-66.63324,9.72632]}},{"type":"Feature","id":"node/5416841818","properties":{"name":"\u00d1are","place":"town"},"geometry":{"type":"Point","coordinates":[-66.76047,9.71279]}},{"type":"Feature","id":"node/5416841819","properties":{"name":"Pe\u00f1as Altas","place":"village"},"geometry":{"type":"Point","coordinates":[-66.81788,9.73656]}},{"type":"Feature","id":"node/5416841820","properties":{"name":"Paso de Cura","place":"town"},"geometry":{"type":"Point","coordinates":[-66.82973,9.75622]}},{"type":"Feature","id":"node/5425607018","properties":{"name":"Jabillal","place":"village"},"geometry":{"type":"Point","coordinates":[-67.13022,10.26125]}},{"type":"Feature","id":"node/5692788300","properties":{"name":"Pan de Az\u00facar","place":"town"},"geometry":{"type":"Point","coordinates":[-66.58383,9.58835]}},{"type":"Feature","id":"node/5692788310","properties":{"name":"El Roble","place":"village"},"geometry":{"type":"Point","coordinates":[-66.58436,9.47652]}},{"type":"Feature","id":"node/5692788704","properties":{"name":"Guabina","place":"village"},"geometry":{"type":"Point","coordinates":[-66.96989,9.50746]}},{"type":"Feature","id":"node/5692788936","properties":{"name":"Campo Alegre","place":"village"},"geometry":{"type":"Point","coordinates":[-66.72987,9.38949]}},{"type":"Feature","id":"node/5693092691","properties":{"name":"Los Cajones","place":"village"},"geometry":{"type":"Point","coordinates":[-66.86835,9.95667]}},{"type":"Feature","id":"node/5693092750","properties":{"name":"La Gavilana","place":"village"},"geometry":{"type":"Point","coordinates":[-66.91581,9.92958]}},{"type":"Feature","id":"node/5693092756","properties":{"name":"Los Guasdalotes","place":"village"},"geometry":{"type":"Point","coordinates":[-66.87425,9.92087]}},{"type":"Feature","id":"node/5693092959","properties":{"name":"El Coquere","place":"village"},"geometry":{"type":"Point","coordinates":[-66.70871,9.80171]}},{"type":"Feature","id":"node/5693093406","properties":{"name":"Ojo de Agua","place":"village"},"geometry":{"type":"Point","coordinates":[-66.87938,9.79326]}},{"type":"Feature","id":"node/5693093724","properties":{"name":"Sabana Larga","place":"village"},"geometry":{"type":"Point","coordinates":[-66.87665,9.82367]}},{"type":"Feature","id":"node/5693093747","properties":{"name":"El Jobal","place":"village"},"geometry":{"type":"Point","coordinates":[-66.95449,9.88614]}},{"type":"Feature","id":"node/5693093752","properties":{"name":"El Cogedero","place":"village"},"geometry":{"type":"Point","coordinates":[-66.98085,9.91701]}},{"type":"Feature","id":"node/5693561982","properties":{"name":"Las Rosas","place":"village"},"geometry":{"type":"Point","coordinates":[-66.98061,10.02064]}},{"type":"Feature","id":"node/5693562109","properties":{"name":"Bejucal","place":"village"},"geometry":{"type":"Point","coordinates":[-66.97241,10.00653]}},{"type":"Feature","id":"node/5693562110","properties":{"name":"Boca del Negro","place":"village"},"geometry":{"type":"Point","coordinates":[-66.99016,10.01124]}},{"type":"Feature","id":"node/5709887195","properties":{"name":"La Yabera","place":"village"},"geometry":{"type":"Point","coordinates":[-67.37913,10.42362]}},{"type":"Feature","id":"node/5709887198","properties":{"name":"Santa Elena","place":"village"},"geometry":{"type":"Point","coordinates":[-67.40827,10.4599]}},{"type":"Feature","id":"node/5709887199","properties":{"name":"La Providencia","place":"village"},"geometry":{"type":"Point","coordinates":[-67.38395,10.45179]}},{"type":"Feature","id":"node/5709887203","properties":{"name":"Las Mar\u00edas","place":"village"},"geometry":{"type":"Point","coordinates":[-67.36421,10.44433]}},{"type":"Feature","id":"node/5737216569","properties":{"name":"El Rosario","place":"village"},"geometry":{"type":"Point","coordinates":[-67.37943,10.37092]}},{"type":"Feature","id":"node/5737216589","properties":{"name":"La Entrada","place":"village"},"geometry":{"type":"Point","coordinates":[-67.34788,10.25537]}},{"type":"Feature","id":"node/5737216590","properties":{"name":"Sabaneta","place":"village"},"geometry":{"type":"Point","coordinates":[-67.34809,10.2666]}},{"type":"Feature","id":"node/5737216591","properties":{"name":"La Estancia","place":"village"},"geometry":{"type":"Point","coordinates":[-67.33964,10.27495]}},{"type":"Feature","id":"node/5737217652","properties":{"name":"El Pe\u00f1\u00f3n","place":"village"},"geometry":{"type":"Point","coordinates":[-67.34617,10.3716]}},{"type":"Feature","id":"node/5737217653","properties":{"name":"Gabante","place":"village"},"geometry":{"type":"Point","coordinates":[-67.34096,10.35739]}},{"type":"Feature","id":"node/5737218161","properties":{"name":"Atravesado","place":"village"},"geometry":{"type":"Point","coordinates":[-67.31677,10.37035]}},{"type":"Feature","id":"node/5737218162","properties":{"name":"Capachal","place":"village"},"geometry":{"type":"Point","coordinates":[-67.3077,10.38409]}},{"type":"Feature","id":"node/5737219342","properties":{"name":"El Pe\u00f1\u00f3n de Barrios","place":"village"},"geometry":{"type":"Point","coordinates":[-67.26108,10.27082]}},{"type":"Feature","id":"node/5737219344","properties":{"name":"El Caf\u00e9","place":"village"},"geometry":{"type":"Point","coordinates":[-67.26132,10.3009]}},{"type":"Feature","id":"node/5737219407","properties":{"name":"El Corozo","place":"village"},"geometry":{"type":"Point","coordinates":[-67.26038,10.29284]}},{"type":"Feature","id":"node/5737219408","properties":{"name":"La Pe\u00f1a del Tigre","place":"village"},"geometry":{"type":"Point","coordinates":[-67.17471,10.2793]}},{"type":"Feature","id":"node/5737219411","properties":{"name":"Trapiche del Medio","place":"town"},"geometry":{"type":"Point","coordinates":[-67.22373,10.24899]}},{"type":"Feature","id":"node/5737219415","properties":{"name":"El Picacho","place":"village"},"geometry":{"type":"Point","coordinates":[-67.22854,10.26727]}},{"type":"Feature","id":"node/5737219879","properties":{"name":"Los Angelinos","place":"village"},"geometry":{"type":"Point","coordinates":[-67.16796,10.29702]}},{"type":"Feature","id":"node/5737220234","properties":{"name":"La Esperanza","place":"village"},"geometry":{"type":"Point","coordinates":[-67.19103,10.31194]}},{"type":"Feature","id":"node/5737220263","properties":{"name":"Cerro Las Minas","place":"village"},"geometry":{"type":"Point","coordinates":[-67.22942,10.29959]}},{"type":"Feature","id":"node/5737220264","properties":{"name":"Buen Paso","place":"village"},"geometry":{"type":"Point","coordinates":[-67.22438,10.28606]}},{"type":"Feature","id":"node/5737220265","properties":{"name":"San Francisco","place":"village"},"geometry":{"type":"Point","coordinates":[-67.23439,10.28864]}},{"type":"Feature","id":"node/5737220270","properties":{"name":"La Llanera","place":"village"},"geometry":{"type":"Point","coordinates":[-67.22764,10.33193]}},{"type":"Feature","id":"node/5737220822","properties":{"name":"El Roble","place":"village"},"geometry":{"type":"Point","coordinates":[-67.22506,10.3767]}},{"type":"Feature","id":"node/5737220999","properties":{"name":"Cujicito","place":"village"},"geometry":{"type":"Point","coordinates":[-67.21189,10.35254]}},{"type":"Feature","id":"node/5737221000","properties":{"name":"Hern\u00e1ndez","place":"village"},"geometry":{"type":"Point","coordinates":[-67.21223,10.36704]}},{"type":"Feature","id":"node/5737221773","properties":{"name":"El Cedral","place":"village"},"geometry":{"type":"Point","coordinates":[-67.20551,10.35963]}},{"type":"Feature","id":"node/5737222127","properties":{"name":"Quiripital","place":"village"},"geometry":{"type":"Point","coordinates":[-67.18105,10.33339]}},{"type":"Feature","id":"node/5737222128","properties":{"name":"La Ci\u00e9naga","place":"village"},"geometry":{"type":"Point","coordinates":[-67.19178,10.34829]}},{"type":"Feature","id":"node/5737222261","properties":{"name":"Mel\u00e9ndez","place":"village"},"geometry":{"type":"Point","coordinates":[-67.17713,10.34704]}},{"type":"Feature","id":"node/5745529492","properties":{"name":"Los Cucharos","place":"town"},"geometry":{"type":"Point","coordinates":[-67.38612,10.21716]}},{"type":"Feature","id":"node/5745529493","properties":{"name":"Ingenio Bol\u00edvar","place":"village"},"geometry":{"type":"Point","coordinates":[-67.39943,10.21624]}},{"type":"Feature","id":"node/5745533801","properties":{"name":"El Manire","place":"village"},"geometry":{"type":"Point","coordinates":[-67.43801,10.29161]}},{"type":"Feature","id":"node/5745533802","properties":{"name":"Caruto","place":"village"},"geometry":{"type":"Point","coordinates":[-67.42415,10.28477]}},{"type":"Feature","id":"node/5745533804","properties":{"name":"El Plan","place":"village"},"geometry":{"type":"Point","coordinates":[-67.41759,10.29162]}},{"type":"Feature","id":"node/5745533805","properties":{"name":"Las Tablitas","place":"village"},"geometry":{"type":"Point","coordinates":[-67.41621,10.30328]}},{"type":"Feature","id":"node/5745533807","properties":{"name":"El Palmar","place":"village"},"geometry":{"type":"Point","coordinates":[-67.43389,10.32955]}},{"type":"Feature","id":"node/5745533808","properties":{"name":"Las Trojas","place":"village"},"geometry":{"type":"Point","coordinates":[-67.43782,10.34919]}},{"type":"Feature","id":"node/5745533810","properties":{"name":"Bras\u00e9n","place":"village"},"geometry":{"type":"Point","coordinates":[-67.40659,10.35984]}},{"type":"Feature","id":"node/5745533811","properties":{"name":"La Uni\u00f3n","place":"village"},"geometry":{"type":"Point","coordinates":[-67.42685,10.35106]}},{"type":"Feature","id":"node/5745533844","properties":{"name":"Cepe","place":"village"},"geometry":{"type":"Point","coordinates":[-67.50283,10.50767]}},{"type":"Feature","id":"node/5746684218","properties":{"name":"Valle de Z\u00e1rate","place":"village"},"geometry":{"type":"Point","coordinates":[-67.33216,10.15532]}},{"type":"Feature","id":"node/5746684236","properties":{"name":"Tasajera","place":"village"},"geometry":{"type":"Point","coordinates":[-67.2263,10.17903]}},{"type":"Feature","id":"node/5746684237","properties":{"name":"Guareima","place":"village"},"geometry":{"type":"Point","coordinates":[-67.28546,10.16708]}},{"type":"Feature","id":"node/5746684898","properties":{"name":"El Toro","place":"village"},"geometry":{"type":"Point","coordinates":[-67.29856,10.12098]}},{"type":"Feature","id":"node/5746684899","properties":{"name":"La Boca del Toro","place":"village"},"geometry":{"type":"Point","coordinates":[-67.2646,10.13543]}},{"type":"Feature","id":"node/5746685869","properties":{"name":"Guaip\u00f3","place":"village"},"geometry":{"type":"Point","coordinates":[-67.23416,10.09212]}},{"type":"Feature","id":"node/5746685870","properties":{"name":"El Pao de Z\u00e1rate","place":"village"},"geometry":{"type":"Point","coordinates":[-67.2413,10.1148]}},{"type":"Feature","id":"node/5746685871","properties":{"name":"San Francisco","place":"village"},"geometry":{"type":"Point","coordinates":[-67.26972,10.09975]}},{"type":"Feature","id":"node/5746686039","properties":{"name":"El Ocumo","place":"village"},"geometry":{"type":"Point","coordinates":[-67.35374,10.08022]}},{"type":"Feature","id":"node/5746686063","properties":{"name":"El Espinal","place":"village"},"geometry":{"type":"Point","coordinates":[-67.37223,10.0988]}},{"type":"Feature","id":"node/5746686077","properties":{"name":"Las Mercedes","place":"village"},"geometry":{"type":"Point","coordinates":[-67.37763,10.10215]}},{"type":"Feature","id":"node/5746686078","properties":{"name":"Pozo Azul","place":"town"},"geometry":{"type":"Point","coordinates":[-67.3852,10.10848]}},{"type":"Feature","id":"node/5746686081","properties":{"name":"Los Aguacates","place":"village"},"geometry":{"type":"Point","coordinates":[-67.42846,10.07293]}},{"type":"Feature","id":"node/5746686116","properties":{"name":"El Gu\u00e1simo","place":"village"},"geometry":{"type":"Point","coordinates":[-67.49217,10.12206]}},{"type":"Feature","id":"node/5746686120","properties":{"name":"El Tamarindo","place":"village"},"geometry":{"type":"Point","coordinates":[-67.46543,10.09956]}},{"type":"Feature","id":"node/5746686121","properties":{"name":"Santa Mar\u00eda","place":"village"},"geometry":{"type":"Point","coordinates":[-67.45704,10.10701]}},{"type":"Feature","id":"node/5746686127","properties":{"name":"Corocito","place":"town"},"geometry":{"type":"Point","coordinates":[-67.49525,10.16128]}},{"type":"Feature","id":"node/5747475475","properties":{"name":"El Pauj\u00ed","place":"village"},"geometry":{"type":"Point","coordinates":[-67.24494,10.17732]}},{"type":"Feature","id":"node/5747486383","properties":{"name":"El Socorro","place":"village"},"geometry":{"type":"Point","coordinates":[-67.25727,10.20331]}},{"type":"Feature","id":"node/5747486387","properties":{"name":"La Matica","place":"village"},"geometry":{"type":"Point","coordinates":[-67.20833,10.17676]}},{"type":"Feature","id":"node/5747487124","properties":{"name":"La Galindera","place":"village"},"geometry":{"type":"Point","coordinates":[-67.20547,10.19136]}},{"type":"Feature","id":"node/5747487125","properties":{"name":"Jabonera","place":"village"},"geometry":{"type":"Point","coordinates":[-67.1747,10.21149]}},{"type":"Feature","id":"node/5747487332","properties":{"name":"Corocito","place":"village"},"geometry":{"type":"Point","coordinates":[-67.11241,10.18966]}},{"type":"Feature","id":"node/5747487335","properties":{"name":"La Florida","place":"village"},"geometry":{"type":"Point","coordinates":[-67.14558,10.19862]}},{"type":"Feature","id":"node/5747488468","properties":{"name":"El Castillo","place":"village"},"geometry":{"type":"Point","coordinates":[-67.03506,10.02284]}},{"type":"Feature","id":"node/5747488469","properties":{"name":"Roncador","place":"village"},"geometry":{"type":"Point","coordinates":[-67.0449,10.02796]}},{"type":"Feature","id":"node/5747488918","properties":{"name":"El Horno","place":"village"},"geometry":{"type":"Point","coordinates":[-67.01624,10.03463]}},{"type":"Feature","id":"node/5747488920","properties":{"name":"Carutico","place":"village"},"geometry":{"type":"Point","coordinates":[-67.02533,10.0231]}},{"type":"Feature","id":"node/5747489121","properties":{"name":"Santa Mar\u00eda","place":"village"},"geometry":{"type":"Point","coordinates":[-67.03705,10.03495]}},{"type":"Feature","id":"node/5747489133","properties":{"name":"El Rodeo","place":"village"},"geometry":{"type":"Point","coordinates":[-67.16369,10.12383]}},{"type":"Feature","id":"node/5747489134","properties":{"name":"El Casta\u00f1o","place":"village"},"geometry":{"type":"Point","coordinates":[-67.16775,10.11778]}},{"type":"Feature","id":"node/5747490033","properties":{"name":"Raboncito","place":"village"},"geometry":{"type":"Point","coordinates":[-67.12822,10.10963]}},{"type":"Feature","id":"node/5747491597","properties":{"name":"Valle La Tarasca","place":"village"},"geometry":{"type":"Point","coordinates":[-67.17606,10.04865]}},{"type":"Feature","id":"node/5747491600","properties":{"name":"Los Morrocoyes","place":"village"},"geometry":{"type":"Point","coordinates":[-67.17952,10.00509]}},{"type":"Feature","id":"node/5747491601","properties":{"name":"Parag\u00fcita","place":"village"},"geometry":{"type":"Point","coordinates":[-67.32527,9.97204]}},{"type":"Feature","id":"node/5747491602","properties":{"name":"Piedra Pintada","place":"village"},"geometry":{"type":"Point","coordinates":[-67.30451,9.99493]}},{"type":"Feature","id":"node/5747492562","properties":{"name":"El Chino","place":"village"},"geometry":{"type":"Point","coordinates":[-67.30791,10.02365]}},{"type":"Feature","id":"node/5747492648","properties":{"name":"Cambural","place":"village"},"geometry":{"type":"Point","coordinates":[-67.21348,10.00508]}},{"type":"Feature","id":"node/5747494289","properties":{"name":"El Nicual","place":"village"},"geometry":{"type":"Point","coordinates":[-67.26535,10.05978]}},{"type":"Feature","id":"node/5747494292","properties":{"name":"La Palma","place":"village"},"geometry":{"type":"Point","coordinates":[-67.28152,10.03651]}},{"type":"Feature","id":"node/5747494299","properties":{"name":"Valle de La Cruz","place":"village"},"geometry":{"type":"Point","coordinates":[-67.24649,10.00558]}},{"type":"Feature","id":"node/5747494398","properties":{"name":"La Reinosa","place":"village"},"geometry":{"type":"Point","coordinates":[-67.31664,10.02992]}},{"type":"Feature","id":"node/5747494684","properties":{"name":"La Carolina","place":"village"},"geometry":{"type":"Point","coordinates":[-67.39321,10.00019]}},{"type":"Feature","id":"node/5747494719","properties":{"name":"La Puerta","place":"village"},"geometry":{"type":"Point","coordinates":[-67.49933,10.00027]}},{"type":"Feature","id":"node/5747494825","properties":{"name":"La Carita","place":"village"},"geometry":{"type":"Point","coordinates":[-67.43717,9.99795]}},{"type":"Feature","id":"node/5747494826","properties":{"name":"Campo Alegre","place":"village"},"geometry":{"type":"Point","coordinates":[-67.44189,10.00258]}},{"type":"Feature","id":"node/5747494827","properties":{"name":"Las Cocuizas","place":"village"},"geometry":{"type":"Point","coordinates":[-67.44627,10.01044]}},{"type":"Feature","id":"node/5750028438","properties":{"name":"P\u00edritu","place":"town"},"geometry":{"type":"Point","coordinates":[-67.37464,9.95769]}},{"type":"Feature","id":"node/5750028439","properties":{"name":"Pedregalito","place":"town"},"geometry":{"type":"Point","coordinates":[-67.38306,9.9661]}},{"type":"Feature","id":"node/5750028440","properties":{"name":"El Carmen","place":"village"},"geometry":{"type":"Point","coordinates":[-67.39449,9.97185]}},{"type":"Feature","id":"node/5750028441","properties":{"name":"La Cumbre","place":"village"},"geometry":{"type":"Point","coordinates":[-67.39823,9.98489]}},{"type":"Feature","id":"node/5750028796","properties":{"name":"Cogollal","place":"village"},"geometry":{"type":"Point","coordinates":[-67.51453,9.9778]}},{"type":"Feature","id":"node/5750028797","properties":{"name":"El Toro","place":"village"},"geometry":{"type":"Point","coordinates":[-67.51158,9.99282]}},{"type":"Feature","id":"node/5751745027","properties":{"name":"Paso Morocho","place":"village"},"geometry":{"type":"Point","coordinates":[-67.02495,9.98247]}},{"type":"Feature","id":"node/5751745042","properties":{"name":"El Lim\u00f3n","place":"village"},"geometry":{"type":"Point","coordinates":[-67.02997,9.91958]}},{"type":"Feature","id":"node/5751745043","properties":{"name":"La Mesa","place":"village"},"geometry":{"type":"Point","coordinates":[-67.00941,9.92373]}},{"type":"Feature","id":"node/5751745093","properties":{"name":"El Rinc\u00f3n","place":"village"},"geometry":{"type":"Point","coordinates":[-67.06377,9.91999]}},{"type":"Feature","id":"node/5751745235","properties":{"name":"Apamatico","place":"village"},"geometry":{"type":"Point","coordinates":[-67.32857,9.95346]}},{"type":"Feature","id":"node/5751745439","properties":{"name":"Carrizal","place":"village"},"geometry":{"type":"Point","coordinates":[-67.09554,9.91601]}},{"type":"Feature","id":"node/5751745441","properties":{"name":"Los Rastrojos","place":"village"},"geometry":{"type":"Point","coordinates":[-67.07814,9.88803]}},{"type":"Feature","id":"node/5773591188","properties":{"name":"Las Mercedes","place":"village"},"geometry":{"type":"Point","coordinates":[-67.5673,10.08454]}},{"type":"Feature","id":"node/5773591189","properties":{"name":"Rancho Grande","place":"town"},"geometry":{"type":"Point","coordinates":[-67.54133,10.06366]}},{"type":"Feature","id":"node/5773591190","properties":{"name":"Paig\u00fca","place":"village"},"geometry":{"type":"Point","coordinates":[-67.55107,10.05629]}},{"type":"Feature","id":"node/5773591192","properties":{"name":"La Pavona","place":"village"},"geometry":{"type":"Point","coordinates":[-67.57354,10.05059]}},{"type":"Feature","id":"node/5773594399","properties":{"name":"Cogollal","place":"village"},"geometry":{"type":"Point","coordinates":[-67.60008,10.02701]}},{"type":"Feature","id":"node/5773594578","properties":{"name":"Sabana Grande","place":"village"},"geometry":{"type":"Point","coordinates":[-67.68325,10.05185]}},{"type":"Feature","id":"node/5773594579","properties":{"name":"Agua Clara","place":"village"},"geometry":{"type":"Point","coordinates":[-67.65265,10.06607]}},{"type":"Feature","id":"node/5773594580","properties":{"name":"El Pedregal","place":"village"},"geometry":{"type":"Point","coordinates":[-67.65327,10.06037]}},{"type":"Feature","id":"node/5773594581","properties":{"name":"Asentamiento Arenales","place":"village"},"geometry":{"type":"Point","coordinates":[-67.60175,10.10573]}},{"type":"Feature","id":"node/5773619978","properties":{"name":"La Quinta","place":"town"},"geometry":{"type":"Point","coordinates":[-67.56156,10.15199]}},{"type":"Feature","id":"node/5773619979","properties":{"name":"Las Vegas","place":"town"},"geometry":{"type":"Point","coordinates":[-67.54908,10.15686]}},{"type":"Feature","id":"node/5774986153","properties":{"name":"Asentamiento Las Monjas","place":"village"},"geometry":{"type":"Point","coordinates":[-67.76904,10.43761]}},{"type":"Feature","id":"node/5774986161","properties":{"name":"Cansamacho La Trilla","place":"village"},"geometry":{"type":"Point","coordinates":[-67.75174,10.39441]}},{"type":"Feature","id":"node/5774986478","properties":{"name":"La Fundaci\u00f3n","place":"village"},"geometry":{"type":"Point","coordinates":[-67.60272,10.46173]}},{"type":"Feature","id":"node/5774986479","properties":{"name":"La Cesiva","place":"village"},"geometry":{"type":"Point","coordinates":[-67.58764,10.46571]}},{"type":"Feature","id":"node/5774986484","properties":{"name":"Payares","place":"village"},"geometry":{"type":"Point","coordinates":[-67.6013,10.46617]}},{"type":"Feature","id":"node/5774986518","properties":{"name":"Playa Chuao","place":"village"},"geometry":{"type":"Point","coordinates":[-67.54053,10.51866]}},{"type":"Feature","id":"node/5774986519","properties":{"name":"La Chivera","place":"village"},"geometry":{"type":"Point","coordinates":[-67.54576,10.51844]}},{"type":"Feature","id":"node/5774986521","properties":{"name":"Paraguata","place":"village"},"geometry":{"type":"Point","coordinates":[-67.52841,10.48343]}},{"type":"Feature","id":"node/6441805537","properties":{"name":"Cerro Taguaiguay","place":"village"},"geometry":{"type":"Point","coordinates":[-67.48268,10.15231]}},{"type":"Feature","id":"node/8008656076","properties":{"name":"Turagua","place":"town"},"geometry":{"type":"Point","coordinates":[-67.51344,10.13782]}},{"type":"Feature","id":"node/10764349846","properties":{"name":"La Suare\u00f1a","place":"village"},"geometry":{"type":"Point","coordinates":[-66.73419,9.71112]}}]}