{"type":"FeatureCollection","features":[{"type":"Feature","id":"relation/272673","properties":{"name":"Miranda","level":4},"geometry":{"type":"MultiPolygon","coordinates":[[[[-66.47114,10.53189],[-66.48238,10.53716],[-66.49581,10.53895],[-66.49847,10.545],[-66.51571,10.55049],[-66.53559,10.55283],[-66.5402,10.54668],[-66.55113,10.54598],[-66.57094,10.54965],[-66.58258,10.55567],[-66.59176,10.55381],[-66.60504,10.53838],[-66.61643,10.54169],[-66.62564,10.54022],[-66.63637,10.54195],[-66.64146,10.53925],[-66.64692,10.53964],[-66.65445,10.54288],[-66.67362,10.54248],[-66.67685,10.54553],[-66.70079,10.54269],[-66.70951,10.53928],[-66.72013,10.54655],[-66.72961,10.54775],[-66.73456,10.54553],[-66.74177,10.54618],[-66.74851,10.54104],[-66.758,10.54586],[-66.77542,10.54753],[-66.78851,10.54241],[-66.79902,10.54129],[-66.81414,10.5485],[-66.82166,10.54896],[-66.84772,10.53782],[-66.85569,10.54311],[-66.85962,10.5497],[-66.86515,10.54972],[-66.87099,10.54573],[-66.87076,10.53786],[-66.86648,10.52581],[-66.86174,10.52044],[-66.86356,10.52011],[-66.86383,10.51461],[-66.8613,10.51246],[-66.8694,10.49831],[-66.8692,10.48755],[-66.88172,10.49038],[-66.879,10.48705],[-66.88426,10.47891],[-66.88191,10.47243],[-66.89028,10.46477],[-66.89208,10.4563],[-66.89562,10.45166],[-66.89619,10.4357],[-66.90114,10.42361],[-66.8942,10.4202],[-66.89956,10.40844],[-66.90954,10.40654],[-66.91445,10.41098],[-66.91925,10.41005],[-66.92169,10.41464],[-66.93245,10.41408],[-66.94217,10.4233],[-66.94964,10.42463],[-66.95925,10.41331],[-66.96524,10.41138],[-66.97914,10.39988],[-66.98159,10.40086],[-66.98285,10.39779],[-66.99263,10.39415],[-66.99742,10.38732],[-67.01217,10.38236],[-67.01616,10.38301],[-67.01999,10.38913],[-67.02714,10.39154],[-67.03518,10.39046],[-67.04305,10.38518],[-67.07021,10.39359],[-67.07992,10.39104],[-67.08143,10.39519],[-67.08662,10.39641],[-67.08836,10.40256],[-67.09219,10.40375],[-67.11522,10.40376],[-67.13434,10.40915],[-67.13968,10.40724],[-67.15157,10.41415],[-67.15541,10.4114],[-67.16153,10.41233],[-67.16312,10.41381],[-67.15522,10.42309],[-67.15717,10.42691],[-67.15591,10.43003],[-67.16032,10.43693],[-67.17072,10.4315],[-67.18357,10.42981],[-67.19309,10.42487],[-67.20117,10.42492],[-67.20507,10.42104],[-67.20973,10.42173],[-67.2095,10.41763],[-67.21633,10.41703],[-67.21996,10.41017],[-67.21831,10.40147],[-67.20313,10.38833],[-67.20363,10.37894],[-67.19455,10.36151],[-67.18779,10.35342],[-67.17828,10.35118],[-67.1744,10.34658],[-67.16772,10.3473],[-67.16173,10.33617],[-67.16284,10.33222],[-67.16549,10.3302],[-67.16699,10.33154],[-67.16869,10.32787],[-67.17051,10.32945],[-67.1726,10.32635],[-67.17404,10.32783],[-67.1828,10.32419],[-67.18755,10.32461],[-67.18328,10.29887],[-67.16769,10.29791],[-67.15334,10.29155],[-67.14825,10.28463],[-67.11744,10.2637],[-67.1114,10.25425],[-67.10018,10.24348],[-67.09538,10.23428],[-67.10244,10.22413],[-67.1157,10.21575],[-67.11682,10.21054],[-67.11222,10.20386],[-67.11034,10.19541],[-67.11272,10.18129],[-67.12052,10.17661],[-67.12822,10.16324],[-67.13954,10.15702],[-67.12814,10.14081],[-67.12695,10.13506],[-67.11598,10.12568],[-67.11833,10.11799],[-67.105,10.10407],[-67.10537,10.09816],[-67.11079,10.0953],[-67.11486,10.08921],[-67.10269,10.08674],[-67.08586,10.07627],[-67.07817,10.07459],[-67.0581,10.05693],[-67.0395,10.05969],[-67.0338,10.06705],[-67.03079,10.06731],[-67.01527,10.06526],[-67.00299,10.06034],[-66.99242,10.0705],[-66.98794,10.06888],[-66.9746,10.07148],[-66.96816,10.06953],[-66.96004,10.04327],[-66.96072,10.03975],[-66.94397,10.0381],[-66.93646,10.03989],[-66.92378,10.02582],[-66.93195,10.0143],[-66.93278,10.00872],[-66.91773,10.01729],[-66.90399,10.02111],[-66.89183,10.01322],[-66.87816,9.9981],[-66.8662,10.00017],[-66.84237,10.01436],[-66.83393,10.02532],[-66.82883,10.02736],[-66.81636,10.02156],[-66.81422,10.01552],[-66.80632,10.01576],[-66.80605,10.0133],[-66.78896,10.01044],[-66.78405,10.01515],[-66.77697,10.01628],[-66.77647,10.01295],[-66.76879,10.0073],[-66.76517,9.99846],[-66.7456,9.99712],[-66.74186,9.9879],[-66.73927,9.99035],[-66.72287,9.99235],[-66.70937,9.9878],[-66.70327,9.98135],[-66.7028,9.98316],[-66.69531,9.98288],[-66.68462,9.9792],[-66.68291,9.97512],[-66.66199,9.98069],[-66.66243,9.97783],[-66.65321,9.97361],[-66.65031,9.97487],[-66.64592,9.97221],[-66.6446,9.9683],[-66.63483,9.97017],[-66.63031,9.96765],[-66.62106,9.96847],[-66.6059,9.97531],[-66.59513,9.97485],[-66.5868,9.98399],[-66.57406,9.97703],[-66.56308,9.97935],[-66.55167,9.9683],[-66.54686,9.96575],[-66.54025,9.96677],[-66.53346,9.97532],[-66.52942,9.97366],[-66.52112,9.97979],[-66.50978,9.97865],[-66.49118,9.99273],[-66.48896,10.00523],[-66.48439,10.00861],[-66.48702,10.01777],[-66.48125,10.02227],[-66.47141,10.02215],[-66.46428,10.01394],[-66.44661,10.01332],[-66.433,10.01897],[-66.43217,10.03204],[-66.4221,10.03282],[-66.40681,10.03999],[-66.39609,10.03799],[-66.38467,10.04123],[-66.36889,10.03449],[-66.36479,10.02851],[-66.34539,10.0265],[-66.34324,10.01972],[-66.33439,10.01621],[-66.33795,10.00346],[-66.33644,9.99884],[-66.32323,10.00337],[-66.31656,10.00271],[-66.31164,9.99628],[-66.28414,9.97657],[-66.27716,9.9854],[-66.25975,9.98287],[-66.24417,9.98874],[-66.23723,9.97928],[-66.23315,9.96833],[-66.22318,9.9691],[-66.22251,9.96382],[-66.21866,9.95933],[-66.21211,9.95818],[-66.20683,9.95074],[-66.20182,9.95483],[-66.19036,9.95744],[-66.1784,9.94971],[-66.16249,9.94588],[-66.15768,9.95006],[-66.15705,9.95707],[-66.1533,9.95962],[-66.15417,9.96342],[-66.15085,9.97335],[-66.14631,9.97692],[-66.132,9.96437],[-66.12864,9.96518],[-66.12379,9.95556],[-66.11282,9.95772],[-66.09698,9.95287],[-66.087,9.96591],[-66.0862,9.97022],[-66.07666,9.97011],[-66.06227,9.96597],[-66.0588,9.95712],[-66.04013,9.95292],[-66.03549,9.9541],[-66.01935,9.94886],[-66.00561,9.94068],[-65.99949,9.93999],[-65.99457,9.94334],[-65.9858,9.93715],[-65.97115,9.94412],[-65.95393,9.93721],[-65.94451,9.94586],[-65.94642,9.94816],[-65.94346,9.95154],[-65.93777,9.95082],[-65.93533,9.94664],[-65.9211,9.94577],[-65.9063,9.9504],[-65.90589,9.95488],[-65.89798,9.96451],[-65.88875,9.96809],[-65.87832,9.96327],[-65.87138,9.96724],[-65.86149,9.96693],[-65.85586,9.97013],[-65.82254,9.97124],[-65.81872,9.96235],[-65.80216,9.96135],[-65.80039,9.95579],[-65.79403,9.96193],[-65.79148,9.96165],[-65.7895,9.95739],[-65.7822,9.95556],[-65.77834,9.952],[-65.77496,9.94456],[-65.77015,9.94482],[-65.77199,9.94936],[-65.76964,9.95298],[-65.75838,9.94963],[-65.75641,9.94253],[-65.74799,9.94051],[-65.74604,9.9416],[-65.7482,9.94688],[-65.7447,9.94854],[-65.74618,9.9576],[-65.71614,9.96173],[-65.71597,9.96517],[-65.7083,9.97604],[-65.6926,9.97988],[-65.67608,9.97816],[-65.67655,9.97191],[-65.66957,9.96758],[-65.66773,9.95403],[-65.63626,9.95026],[-65.62874,9.95656],[-65.62855,9.9672],[-65.61593,9.97113],[-65.60913,9.97013],[-65.60469,9.97414],[-65.60096,9.98469],[-65.60237,9.9882],[-65.59956,9.99057],[-65.60488,9.9941],[-65.60368,10.00175],[-65.59548,10.00187],[-65.58469,10.00846],[-65.58249,10.00605],[-65.57953,10.00819],[-65.56973,10.00501],[-65.56599,10.00772],[-65.56198,10.00732],[-65.56226,10.00461],[-65.55308,10.0026],[-65.55125,10.00958],[-65.55443,10.01076],[-65.55293,10.01592],[-65.55164,10.01486],[-65.54879,10.01888],[-65.54668,10.01788],[-65.54664,10.02107],[-65.54512,10.01909],[-65.54117,10.02052],[-65.54254,10.02403],[-65.54048,10.02769],[-65.54225,10.02992],[-65.53947,10.03061],[-65.54183,10.03243],[-65.53758,10.03292],[-65.53878,10.03703],[-65.53512,10.0369],[-65.53465,10.04082],[-65.5367,10.04174],[-65.53119,10.04454],[-65.53251,10.04697],[-65.52897,10.05376],[-65.52269,10.05291],[-65.52203,10.05717],[-65.51823,10.05543],[-65.50974,10.05884],[-65.50656,10.06219],[-65.50979,10.06469],[-65.50487,10.06708],[-65.50431,10.06484],[-65.50235,10.06721],[-65.50056,10.06544],[-65.49965,10.06884],[-65.49504,10.06319],[-65.49692,10.07276],[-65.48898,10.06814],[-65.49089,10.07394],[-65.4864,10.07481],[-65.4929,10.07802],[-65.49171,10.08101],[-65.48005,10.08624],[-65.47551,10.08523],[-65.46882,10.09186],[-65.46559,10.09053],[-65.45627,10.09429],[-65.45573,10.10611],[-65.4509,10.1159],[-65.44806,10.11948],[-65.44617,10.11554],[-65.4399,10.11662],[-65.44147,10.12192],[-65.4347,10.12282],[-65.4323,10.12837],[-65.4209,10.19854],[-65.52626,10.2279],[-65.6229,10.25991],[-65.71742,10.29568],[-65.78805,10.32678],[-65.83762,10.35253],[-65.87637,10.37679],[-65.92212,10.41249],[-65.95107,10.44273],[-65.99549,10.46799],[-66.0295,10.49332],[-66.03414,10.49753],[-66.02037,10.50891],[-65.99476,10.54108],[-65.98863,10.55706],[-65.98717,10.5733],[-65.99065,10.59378],[-65.99925,10.61078],[-66.01821,10.6301],[-66.03782,10.64093],[-66.05859,10.64593],[-66.07662,10.64489],[-66.1103,10.65734],[-66.12931,10.65993],[-66.15851,10.66838],[-66.18692,10.6894],[-66.22203,10.70615],[-66.26002,10.70845],[-66.2958,10.70291],[-66.32892,10.69112],[-66.34226,10.68121],[-66.35163,10.67067],[-66.32204,10.62371],[-66.30646,10.61267],[-66.31009,10.61102],[-66.31205,10.5992],[-66.31004,10.5956],[-66.3126,10.59144],[-66.30892,10.58917],[-66.31078,10.58603],[-66.30817,10.5842],[-66.3117,10.57982],[-66.31447,10.56728],[-66.31938,10.56306],[-66.31779,10.55989],[-66.32136,10.55743],[-66.31985,10.55365],[-66.32179,10.54749],[-66.31791,10.54576],[-66.31296,10.53381],[-66.31637,10.52951],[-66.31717,10.52045],[-66.32901,10.52142],[-66.33582,10.52665],[-66.34641,10.52584],[-66.34985,10.53582],[-66.3588,10.5398],[-66.39367,10.53408],[-66.40934,10.53861],[-66.41515,10.54281],[-66.41992,10.54278],[-66.42505,10.54101],[-66.43028,10.53438],[-66.441,10.53223],[-66.44748,10.53364],[-66.45207,10.53931],[-66.4568,10.54084],[-66.45958,10.53627],[-66.46584,10.5362],[-66.47114,10.53189]]],[[[-66.0316,10.79885],[-66.03008,10.82177],[-66.03757,10.84366],[-66.05315,10.86264],[-66.07403,10.87386],[-66.09693,10.87615],[-66.1199,10.86918],[-66.13779,10.85434],[-66.14823,10.83475],[-66.15039,10.81063],[-66.14214,10.78665],[-66.12748,10.76857],[-66.10708,10.75745],[-66.08256,10.75509],[-66.06014,10.76222],[-66.04243,10.77718],[-66.0316,10.79885]]]]}}]}