{"type":"FeatureCollection","features":[{"type":"Feature","id":"relation/2458069","properties":{"name":"Municipio Carrizal","level":6,"population":"51712"},"geometry":{"type":"Polygon","coordinates":[[[-66.9827,10.3706],[-66.99185,10.37111],[-66.99219,10.3823],[-66.99767,10.38603],[-67.01217,10.38236],[-67.01683,10.38397],[-67.01888,10.3799],[-67.01803,10.37216],[-67.02311,10.36843],[-67.02118,10.36421],[-67.02324,10.35781],[-67.01969,10.35391],[-67.02292,10.35025],[-67.0151,10.35007],[-67.00917,10.33873],[-67.01121,10.32169],[-66.99982,10.31537],[-66.9989,10.31756],[-66.99441,10.31661],[-66.99462,10.31871],[-66.97909,10.32601],[-66.9731,10.33428],[-66.97359,10.34834],[-66.9692,10.35553],[-66.97107,10.35659],[-66.96732,10.35798],[-66.96994,10.36061],[-66.97373,10.35959],[-66.97262,10.36261],[-66.97505,10.36532],[-66.98284,10.35992],[-66.9825,10.36255],[-66.98583,10.36181],[-66.98605,10.36913],[-66.9827,10.3706]]]}},{"type":"Feature","id":"relation/2458293","properties":{"name":"Municipio El Hatillo","level":6,"population":"58156"},"geometry":{"type":"Polygon","coordinates":[[[-66.8217,10.4517],[-66.8238,10.45654],[-66.83175,10.45693],[-66.83316,10.45908],[-66.84135,10.45806],[-66.84888,10.45364],[-66.84854,10.45082],[-66.84293,10.44882],[-66.8465,10.44028],[-66.84526,10.43042],[-66.84831,10.42665],[-66.84669,10.42307],[-66.84269,10.42155],[-66.85109,10.41698],[-66.84387,10.41546],[-66.85291,10.40889],[-66.8484,10.40564],[-66.84704,10.39056],[-66.83557,10.38645],[-66.83224,10.38154],[-66.84074,10.36994],[-66.83322,10.36048],[-66.82475,10.36027],[-66.8226,10.35457],[-66.81506,10.35755],[-66.80798,10.35655],[-66.79837,10.36303],[-66.78145,10.36313],[-66.75703,10.36972],[-66.74681,10.36664],[-66.7413,10.36813],[-66.73445,10.36538],[-66.71476,10.36354],[-66.70997,10.36708],[-66.70547,10.3781],[-66.69424,10.3826],[-66.69385,10.38543],[-66.70185,10.38729],[-66.70382,10.3914],[-66.70974,10.39124],[-66.71006,10.39402],[-66.71183,10.39255],[-66.71747,10.39842],[-66.72382,10.39669],[-66.73783,10.40555],[-66.74231,10.40509],[-66.74342,10.40265],[-66.74573,10.40397],[-66.74484,10.40887],[-66.74749,10.40913],[-66.74705,10.41237],[-66.75438,10.4172],[-66.75475,10.42224],[-66.75985,10.4247],[-66.75794,10.42642],[-66.75901,10.42926],[-66.77289,10.4309],[-66.77745,10.43586],[-66.78089,10.43622],[-66.78232,10.44139],[-66.77873,10.45029],[-66.77975,10.45391],[-66.7878,10.45636],[-66.79193,10.45093],[-66.79663,10.44969],[-66.80601,10.45527],[-66.81103,10.45332],[-66.81685,10.45518],[-66.81948,10.4541],[-66.8188,10.45064],[-66.8217,10.4517]]]}},{"type":"Feature","id":"relation/3335672","properties":{"name":"Municipio Chacao","level":6,"population":"61213"},"geometry":{"type":"Polygon","coordinates":[[[-66.86979,10.49623],[-66.8692,10.48755],[-66.85483,10.48223],[-66.84369,10.48377],[-66.84254,10.48861],[-66.8408,10.48844],[-66.84322,10.49443],[-66.83796,10.50839],[-66.83767,10.52183],[-66.84069,10.53155],[-66.83839,10.53543],[-66.8392,10.54058],[-66.8485,10.53805],[-66.85569,10.54311],[-66.85975,10.54975],[-66.86617,10.54939],[-66.87099,10.54573],[-66.86984,10.5342],[-66.86174,10.52044],[-66.86356,10.52011],[-66.86383,10.51461],[-66.8613,10.51257],[-66.86979,10.49623]]]}},{"type":"Feature","id":"relation/3335760","properties":{"name":"Municipio Baruta","level":6,"population":"240755"},"geometry":{"type":"Polygon","coordinates":[[[-66.84418,10.38882],[-66.84819,10.39418],[-66.8484,10.40564],[-66.85291,10.40889],[-66.84387,10.41546],[-66.85109,10.41698],[-66.84269,10.42155],[-66.84669,10.42307],[-66.84831,10.42665],[-66.84526,10.43042],[-66.8465,10.44028],[-66.84293,10.44882],[-66.84854,10.45082],[-66.84888,10.45364],[-66.84135,10.45806],[-66.83316,10.45908],[-66.83175,10.45693],[-66.8238,10.45654],[-66.8217,10.4517],[-66.82215,10.45522],[-66.8182,10.45916],[-66.82327,10.46192],[-66.82681,10.46857],[-66.82896,10.47392],[-66.82768,10.47717],[-66.84464,10.48409],[-66.85483,10.48223],[-66.88172,10.49038],[-66.879,10.48705],[-66.88426,10.47891],[-66.88191,10.47243],[-66.89187,10.46204],[-66.89193,10.45672],[-66.8964,10.44799],[-66.89621,10.4356],[-66.90113,10.4238],[-66.8942,10.4202],[-66.89705,10.41096],[-66.89557,10.41226],[-66.89175,10.40845],[-66.88998,10.40216],[-66.89251,10.39901],[-66.89059,10.39615],[-66.89981,10.37716],[-66.89682,10.37008],[-66.89002,10.36889],[-66.8841,10.36364],[-66.8642,10.35533],[-66.85179,10.35664],[-66.84368,10.35436],[-66.84414,10.35245],[-66.83224,10.34733],[-66.82407,10.3404],[-66.81157,10.34562],[-66.80736,10.34131],[-66.80124,10.34115],[-66.80074,10.34334],[-66.79332,10.34538],[-66.79483,10.34794],[-66.78765,10.3477],[-66.78749,10.34939],[-66.78467,10.34652],[-66.77856,10.34795],[-66.7712,10.34599],[-66.76593,10.3521],[-66.76344,10.36743],[-66.78894,10.3621],[-66.79837,10.36303],[-66.80798,10.35655],[-66.81506,10.35755],[-66.82249,10.35454],[-66.82475,10.36027],[-66.83322,10.36048],[-66.84024,10.36913],[-66.83224,10.38154],[-66.83557,10.38645],[-66.84418,10.38882]]]}},{"type":"Feature","id":"relation/3335761","properties":{"name":"Municipio Sucre","level":6,"population":"600351"},"geometry":{"type":"Polygon","coordinates":[[[-66.82768,10.47717],[-66.82896,10.47392],[-66.82681,10.46857],[-66.82327,10.46192],[-66.8182,10.45916],[-66.82215,10.45522],[-66.8213,10.45013],[-66.81873,10.4507],[-66.81948,10.4541],[-66.81685,10.45518],[-66.81103,10.45332],[-66.80601,10.45527],[-66.79663,10.44969],[-66.79193,10.45093],[-66.7878,10.45636],[-66.77975,10.45391],[-66.77873,10.45029],[-66.78232,10.44139],[-66.78089,10.43622],[-66.77745,10.43586],[-66.77289,10.4309],[-66.75901,10.42926],[-66.75794,10.42642],[-66.75995,10.42487],[-66.75471,10.42219],[-66.75376,10.41642],[-66.74694,10.41224],[-66.74756,10.40927],[-66.74488,10.40894],[-66.7458,10.40411],[-66.74376,10.40264],[-66.74231,10.40509],[-66.73775,10.40553],[-66.72728,10.39809],[-66.72406,10.39857],[-66.72369,10.39667],[-66.71747,10.39842],[-66.71183,10.39255],[-66.71006,10.39402],[-66.70974,10.39124],[-66.70578,10.39122],[-66.70158,10.39993],[-66.69231,10.4045],[-66.69431,10.41556],[-66.70984,10.43485],[-66.70686,10.4429],[-66.71106,10.44615],[-66.71329,10.45637],[-66.71239,10.4636],[-66.70955,10.46546],[-66.72138,10.48194],[-66.71891,10.48639],[-66.72153,10.49716],[-66.71666,10.50695],[-66.71786,10.51202],[-66.71196,10.53966],[-66.72013,10.54655],[-66.74177,10.54618],[-66.74851,10.54104],[-66.758,10.54586],[-66.77542,10.54753],[-66.78851,10.54241],[-66.79902,10.54129],[-66.81414,10.5485],[-66.82166,10.54896],[-66.83732,10.54292],[-66.84069,10.53167],[-66.83767,10.52183],[-66.83796,10.50839],[-66.84309,10.49642],[-66.84313,10.49036],[-66.8408,10.48844],[-66.84254,10.48861],[-66.84369,10.48377],[-66.82768,10.47717]]]}},{"type":"Feature","id":"relation/3337388","properties":{"name":"Municipio Guaicaipuro","level":6,"population":"252242"},"geometry":{"type":"Polygon","coordinates":[[[-67.09807,10.23827],[-67.09536,10.23402],[-67.10244,10.22413],[-67.11594,10.21497],[-67.11682,10.21054],[-67.11222,10.20386],[-67.11034,10.19541],[-67.11272,10.18129],[-67.12052,10.17661],[-67.12822,10.16324],[-67.13954,10.15702],[-67.12814,10.14081],[-67.12695,10.13506],[-67.11598,10.12568],[-67.11833,10.11799],[-67.105,10.10407],[-67.10537,10.09816],[-67.11079,10.0953],[-67.11486,10.08921],[-67.10269,10.08674],[-67.08586,10.07627],[-67.07817,10.07459],[-67.05645,10.05633],[-67.04937,10.05937],[-67.0395,10.05969],[-67.0338,10.06705],[-67.03079,10.06731],[-67.01527,10.06526],[-67.00299,10.06034],[-66.99242,10.0705],[-66.99659,10.0794],[-66.99238,10.08949],[-66.99411,10.10258],[-66.99051,10.10868],[-66.99388,10.1139],[-66.99055,10.11919],[-66.9778,10.12425],[-66.96879,10.13904],[-66.96994,10.14295],[-66.975,10.14613],[-66.9796,10.14428],[-66.98773,10.14741],[-66.98459,10.15649],[-66.98591,10.16262],[-66.98176,10.16352],[-66.97816,10.16969],[-66.98172,10.17177],[-66.98053,10.17669],[-66.97575,10.18149],[-66.97446,10.18711],[-66.96967,10.19002],[-66.97404,10.19351],[-66.97721,10.20174],[-66.97413,10.20236],[-66.96773,10.21151],[-66.95566,10.21372],[-66.94984,10.21982],[-66.92722,10.21986],[-66.92318,10.2335],[-66.89424,10.24852],[-66.89405,10.25346],[-66.88887,10.26301],[-66.89036,10.27877],[-66.88871,10.28253],[-66.8813,10.28335],[-66.88263,10.29322],[-66.88045,10.30045],[-66.88634,10.3049],[-66.88095,10.30711],[-66.87836,10.31363],[-66.86835,10.31837],[-66.86817,10.3221],[-66.83471,10.33222],[-66.82408,10.34157],[-66.84844,10.35616],[-66.8642,10.35533],[-66.87247,10.36039],[-66.87653,10.36004],[-66.89002,10.36889],[-66.89682,10.37008],[-66.89705,10.37412],[-66.89982,10.37569],[-66.91051,10.37425],[-66.91863,10.37681],[-66.91985,10.36803],[-66.91293,10.36128],[-66.91807,10.35941],[-66.91771,10.35655],[-66.92311,10.357],[-66.94098,10.34541],[-66.94578,10.34551],[-66.95052,10.35404],[-66.95984,10.35214],[-66.96516,10.35439],[-66.96911,10.35322],[-66.96954,10.35503],[-66.97359,10.34834],[-66.9731,10.33428],[-66.97604,10.32927],[-66.99462,10.31871],[-66.99441,10.31661],[-66.99881,10.3176],[-66.99968,10.31533],[-67.01121,10.32169],[-67.00859,10.33292],[-67.01265,10.34738],[-67.0151,10.35007],[-67.02292,10.35025],[-67.01969,10.35391],[-67.02324,10.35781],[-67.02118,10.36421],[-67.02311,10.36843],[-67.01801,10.37221],[-67.01888,10.3799],[-67.01675,10.38498],[-67.01999,10.38913],[-67.03344,10.39108],[-67.04108,10.38757],[-67.04178,10.38507],[-67.07021,10.39359],[-67.07992,10.39104],[-67.08143,10.39519],[-67.08662,10.39641],[-67.08836,10.40256],[-67.09219,10.40375],[-67.11522,10.40376],[-67.13434,10.40915],[-67.13968,10.40724],[-67.15157,10.41415],[-67.15541,10.4114],[-67.16153,10.41233],[-67.16312,10.41381],[-67.15522,10.42309],[-67.15717,10.42691],[-67.15591,10.43003],[-67.16032,10.43693],[-67.17072,10.4315],[-67.18357,10.42981],[-67.1953,10.42426],[-67.20117,10.42492],[-67.20507,10.42104],[-67.20973,10.42173],[-67.20869,10.41836],[-67.21633,10.41703],[-67.21996,10.41017],[-67.21696,10.39906],[-67.20313,10.38833],[-67.20363,10.37894],[-67.20032,10.37506],[-67.20043,10.37046],[-67.18902,10.35427],[-67.17828,10.35118],[-67.1744,10.34658],[-67.16783,10.34738],[-67.16173,10.33617],[-67.16284,10.33222],[-67.16549,10.3302],[-67.16699,10.33154],[-67.16869,10.32787],[-67.17051,10.32945],[-67.1726,10.32635],[-67.17404,10.32783],[-67.1828,10.32419],[-67.18755,10.32461],[-67.18328,10.29887],[-67.16769,10.29791],[-67.15334,10.29155],[-67.14825,10.28463],[-67.11744,10.2637],[-67.09807,10.23827]]]}},{"type":"Feature","id":"relation/3337496","properties":{"name":"Municipio Los Salias","level":6,"population":"68255"},"geometry":{"type":"Polygon","coordinates":[[[-66.91078,10.40733],[-66.91445,10.41098],[-66.91925,10.41005],[-66.92169,10.41464],[-66.93245,10.41408],[-66.94217,10.4233],[-66.94964,10.42463],[-66.95925,10.41331],[-66.96524,10.41138],[-66.97914,10.39988],[-66.98159,10.40086],[-66.98285,10.39779],[-66.99263,10.39415],[-66.99742,10.38732],[-67.00722,10.38429],[-66.99767,10.38603],[-66.99219,10.3823],[-66.99185,10.37111],[-66.98146,10.37108],[-66.98633,10.36761],[-66.98592,10.36192],[-66.9825,10.36255],[-66.98284,10.35992],[-66.97505,10.36532],[-66.97262,10.36261],[-66.97373,10.35959],[-66.96994,10.36061],[-66.96732,10.35798],[-66.97107,10.35659],[-66.96911,10.35322],[-66.95052,10.35404],[-66.94578,10.34551],[-66.94098,10.34541],[-66.92562,10.35573],[-66.91883,10.35604],[-66.9172,10.36019],[-66.91353,10.36015],[-66.91385,10.36383],[-66.91985,10.36803],[-66.91863,10.37681],[-66.91051,10.37425],[-66.89982,10.37569],[-66.89059,10.39615],[-66.89251,10.39901],[-66.88998,10.40216],[-66.89132,10.40759],[-66.89557,10.41226],[-66.89956,10.40844],[-66.91078,10.40733]]]}},{"type":"Feature","id":"relation/3339667","properties":{"name":"Municipio Paz Castillo","level":6,"population":"111197"},"geometry":{"type":"Polygon","coordinates":[[[-66.57659,10.40178],[-66.59137,10.40952],[-66.60167,10.40789],[-66.61396,10.40988],[-66.61806,10.4081],[-66.62904,10.41023],[-66.64179,10.40312],[-66.66569,10.40918],[-66.67692,10.40692],[-66.69431,10.41556],[-66.69231,10.4045],[-66.70158,10.39993],[-66.7048,10.39151],[-66.70185,10.38729],[-66.69385,10.38543],[-66.69424,10.3826],[-66.70547,10.3781],[-66.71171,10.36472],[-66.71715,10.3631],[-66.75703,10.36972],[-66.76344,10.36743],[-66.76593,10.3521],[-66.75395,10.34476],[-66.74987,10.34494],[-66.7521,10.3411],[-66.74863,10.34106],[-66.76774,10.33011],[-66.76113,10.32774],[-66.76691,10.31696],[-66.76228,10.31037],[-66.76395,10.30855],[-66.76322,10.29846],[-66.76998,10.29265],[-66.78559,10.29636],[-66.7859,10.29333],[-66.79488,10.28906],[-66.79009,10.27056],[-66.78151,10.26119],[-66.7702,10.25916],[-66.77145,10.25257],[-66.77411,10.25155],[-66.77326,10.24224],[-66.75616,10.23923],[-66.74581,10.24246],[-66.74353,10.26469],[-66.71955,10.26117],[-66.72156,10.28035],[-66.71768,10.28014],[-66.71325,10.28625],[-66.70845,10.28491],[-66.70537,10.27789],[-66.69851,10.27147],[-66.6808,10.27102],[-66.67827,10.26681],[-66.67269,10.26795],[-66.67372,10.26542],[-66.66879,10.26316],[-66.66613,10.26697],[-66.66821,10.27341],[-66.6632,10.285],[-66.66483,10.28907],[-66.66303,10.2923],[-66.65969,10.28598],[-66.65037,10.28276],[-66.64679,10.27623],[-66.64862,10.27269],[-66.63887,10.2727],[-66.63492,10.27559],[-66.62926,10.27445],[-66.62712,10.26472],[-66.62125,10.26274],[-66.61629,10.25169],[-66.6108,10.25197],[-66.60824,10.2466],[-66.60338,10.24426],[-66.59964,10.24287],[-66.59464,10.24546],[-66.58818,10.2415],[-66.5795,10.24032],[-66.57629,10.24683],[-66.57176,10.24718],[-66.55968,10.24386],[-66.54548,10.23435],[-66.53354,10.22975],[-66.53026,10.2343],[-66.5223,10.23557],[-66.52177,10.24109],[-66.5257,10.24602],[-66.51165,10.25406],[-66.51102,10.25975],[-66.51525,10.26346],[-66.50654,10.27613],[-66.5144,10.27919],[-66.51662,10.28817],[-66.52044,10.29199],[-66.52061,10.29584],[-66.51405,10.30668],[-66.51602,10.32052],[-66.51342,10.32403],[-66.51502,10.32848],[-66.51119,10.33293],[-66.52469,10.33695],[-66.53033,10.3361],[-66.52931,10.34654],[-66.5336,10.34997],[-66.53968,10.36136],[-66.53974,10.38266],[-66.54239,10.38728],[-66.57659,10.40178]]]}},{"type":"Feature","id":"relation/3345533","properties":{"name":"Municipio Urdaneta","level":6,"population":"135432"},"geometry":{"type":"Polygon","coordinates":[[[-66.93208,10.2188],[-66.94984,10.21982],[-66.95566,10.21372],[-66.96773,10.21151],[-66.97413,10.20236],[-66.97721,10.20174],[-66.97404,10.19351],[-66.96967,10.19002],[-66.97446,10.18711],[-66.97575,10.18149],[-66.98053,10.17669],[-66.98172,10.17177],[-66.97816,10.16969],[-66.98176,10.16352],[-66.98591,10.16262],[-66.98459,10.15649],[-66.98773,10.14741],[-66.9796,10.14428],[-66.975,10.14613],[-66.96994,10.14295],[-66.96879,10.13904],[-66.97971,10.12234],[-66.98953,10.1198],[-66.99381,10.11406],[-66.99407,10.11148],[-66.99051,10.10868],[-66.99411,10.10258],[-66.99238,10.08949],[-66.99659,10.0794],[-66.99489,10.07231],[-66.98794,10.06888],[-66.9746,10.07148],[-66.96816,10.06953],[-66.96004,10.04327],[-66.96072,10.03975],[-66.94397,10.0381],[-66.93646,10.03989],[-66.93237,10.0354],[-66.92378,10.02582],[-66.93195,10.0143],[-66.93278,10.00872],[-66.90932,10.02045],[-66.90321,10.02088],[-66.89574,10.01536],[-66.88488,10.02727],[-66.88024,10.02802],[-66.87597,10.03338],[-66.86788,10.03708],[-66.86807,10.04065],[-66.85916,10.04909],[-66.85983,10.05423],[-66.85297,10.06014],[-66.84746,10.06974],[-66.84174,10.07162],[-66.83837,10.07925],[-66.84178,10.08656],[-66.85264,10.09068],[-66.85331,10.09338],[-66.84957,10.09755],[-66.85199,10.09759],[-66.85457,10.10488],[-66.85701,10.10551],[-66.85002,10.11113],[-66.8497,10.11929],[-66.83997,10.12667],[-66.84199,10.1291],[-66.83905,10.13226],[-66.84225,10.13535],[-66.84022,10.15623],[-66.85739,10.18074],[-66.85488,10.18801],[-66.85626,10.19138],[-66.8522,10.19736],[-66.85976,10.19861],[-66.86208,10.20173],[-66.86559,10.20064],[-66.87853,10.20707],[-66.87721,10.21024],[-66.89961,10.23906],[-66.89615,10.24431],[-66.89804,10.24684],[-66.92318,10.2335],[-66.9265,10.22045],[-66.93208,10.2188]]]}},{"type":"Feature","id":"relation/3349736","properties":{"name":"Municipio Independencia","level":6,"population":"138776"},"geometry":{"type":"Polygon","coordinates":[[[-66.71325,10.28625],[-66.71768,10.28014],[-66.72156,10.28035],[-66.71955,10.26117],[-66.74353,10.26469],[-66.74581,10.24246],[-66.73533,10.2457],[-66.7273,10.24301],[-66.70756,10.24265],[-66.70775,10.2326],[-66.70102,10.21173],[-66.70993,10.20199],[-66.7063,10.19614],[-66.71595,10.18944],[-66.71402,10.18213],[-66.69809,10.17278],[-66.69818,10.16948],[-66.69519,10.17025],[-66.69426,10.16579],[-66.69191,10.16603],[-66.69239,10.15829],[-66.68959,10.1577],[-66.68987,10.15268],[-66.68471,10.14772],[-66.68785,10.14012],[-66.68496,10.13792],[-66.68633,10.1356],[-66.684,10.13086],[-66.68736,10.12719],[-66.68359,10.12688],[-66.68229,10.12171],[-66.67758,10.11883],[-66.67969,10.1094],[-66.66813,10.10616],[-66.65667,10.10714],[-66.65289,10.10236],[-66.65292,10.09619],[-66.65029,10.09496],[-66.64379,10.09689],[-66.62627,10.09523],[-66.61312,10.09956],[-66.6092,10.09827],[-66.60451,10.10559],[-66.59759,10.10269],[-66.59751,10.09906],[-66.59366,10.09527],[-66.57644,10.08518],[-66.57491,10.07963],[-66.57006,10.07672],[-66.56031,10.07522],[-66.54782,10.0823],[-66.54487,10.0908],[-66.54128,10.0942],[-66.54148,10.10222],[-66.53527,10.10672],[-66.52662,10.10437],[-66.52471,10.10572],[-66.52621,10.10972],[-66.52218,10.1129],[-66.52207,10.12437],[-66.51754,10.13102],[-66.51531,10.14556],[-66.50309,10.16368],[-66.50541,10.16916],[-66.50931,10.16943],[-66.50882,10.17343],[-66.51349,10.18133],[-66.51299,10.18909],[-66.50796,10.19441],[-66.50759,10.19817],[-66.51154,10.2014],[-66.51088,10.20865],[-66.51452,10.20967],[-66.51147,10.21833],[-66.51429,10.23266],[-66.5201,10.23079],[-66.5196,10.23342],[-66.52986,10.23436],[-66.53387,10.22979],[-66.54548,10.23435],[-66.55968,10.24386],[-66.57176,10.24718],[-66.57629,10.24683],[-66.5795,10.24032],[-66.58818,10.2415],[-66.59464,10.24546],[-66.60012,10.24295],[-66.60816,10.24652],[-66.6108,10.25197],[-66.61629,10.25169],[-66.62125,10.26274],[-66.62712,10.26472],[-66.62926,10.27445],[-66.63492,10.27559],[-66.63887,10.2727],[-66.64862,10.27269],[-66.64679,10.27623],[-66.65037,10.28276],[-66.65969,10.28598],[-66.66303,10.2923],[-66.66483,10.28907],[-66.6632,10.285],[-66.66821,10.27341],[-66.66613,10.26697],[-66.66879,10.26316],[-66.67372,10.26542],[-66.67269,10.26795],[-66.67827,10.26681],[-66.6808,10.27102],[-66.69851,10.27147],[-66.70537,10.27789],[-66.70845,10.28491],[-66.71325,10.28625]]]}},{"type":"Feature","id":"relation/3349737","properties":{"name":"Municipio Bol\u00edvar","level":6,"population":"42597"},"geometry":{"type":"Polygon","coordinates":[[[-66.73986,10.15058],[-66.73975,10.14541],[-66.72837,10.13984],[-66.72792,10.13737],[-66.71903,10.14067],[-66.71663,10.13912],[-66.71892,10.13466],[-66.71508,10.13349],[-66.7164,10.11835],[-66.71305,10.1147],[-66.71498,10.11279],[-66.71202,10.1107],[-66.70564,10.1076],[-66.69917,10.10911],[-66.69453,10.10691],[-66.69239,10.10008],[-66.68091,10.10749],[-66.67736,10.11662],[-66.68263,10.12222],[-66.68348,10.12678],[-66.68736,10.12719],[-66.684,10.13086],[-66.68633,10.1356],[-66.68496,10.13792],[-66.68785,10.14012],[-66.68471,10.14772],[-66.68987,10.15268],[-66.68959,10.1577],[-66.69239,10.15829],[-66.69191,10.16603],[-66.69426,10.16579],[-66.69519,10.17025],[-66.69818,10.16948],[-66.69809,10.17278],[-66.71402,10.18213],[-66.71595,10.18944],[-66.7063,10.19614],[-66.70993,10.20199],[-66.70102,10.21173],[-66.70926,10.24337],[-66.7273,10.24301],[-66.73533,10.2457],[-66.75616,10.23923],[-66.77326,10.24224],[-66.77233,10.23202],[-66.79574,10.22741],[-66.80102,10.21749],[-66.7905,10.19038],[-66.78592,10.18644],[-66.78653,10.18137],[-66.7796,10.16806],[-66.78676,10.16137],[-66.78236,10.15664],[-66.7832,10.15092],[-66.77218,10.153],[-66.76914,10.14645],[-66.76557,10.14455],[-66.75065,10.14619],[-66.74669,10.15005],[-66.73986,10.15058]]]}},{"type":"Feature","id":"relation/3349738","properties":{"name":"Municipio Crist\u00f3bal Rojas","level":6,"population":"117888"},"geometry":{"type":"Polygon","coordinates":[[[-66.88806,10.22301],[-66.87721,10.21024],[-66.87853,10.20707],[-66.86559,10.20064],[-66.86208,10.20173],[-66.85925,10.19842],[-66.85013,10.19762],[-66.84571,10.19284],[-66.84296,10.19442],[-66.84026,10.19236],[-66.83712,10.19646],[-66.82995,10.19531],[-66.82759,10.21024],[-66.81838,10.21237],[-66.81963,10.22132],[-66.81118,10.22247],[-66.80929,10.22519],[-66.80408,10.22304],[-66.80102,10.21749],[-66.79574,10.22741],[-66.77233,10.23202],[-66.77411,10.25155],[-66.77145,10.25257],[-66.7702,10.25916],[-66.78151,10.26119],[-66.79009,10.27056],[-66.79488,10.28906],[-66.7859,10.29333],[-66.78559,10.29636],[-66.76998,10.29265],[-66.76322,10.29846],[-66.76395,10.30855],[-66.76228,10.31037],[-66.76691,10.31696],[-66.76113,10.32774],[-66.76774,10.33011],[-66.76036,10.33549],[-66.75014,10.3386],[-66.74865,10.34114],[-66.75185,10.34088],[-66.75231,10.3431],[-66.74982,10.34489],[-66.75395,10.34476],[-66.76546,10.35247],[-66.7712,10.34599],[-66.77856,10.34795],[-66.78467,10.34652],[-66.78749,10.34939],[-66.78765,10.3477],[-66.79476,10.34798],[-66.79332,10.34538],[-66.80074,10.34334],[-66.80133,10.34113],[-66.80736,10.34131],[-66.81046,10.34532],[-66.81565,10.34537],[-66.81541,10.3432],[-66.82821,10.33914],[-66.83471,10.33222],[-66.86817,10.3221],[-66.86835,10.31837],[-66.87845,10.31356],[-66.88095,10.30711],[-66.88634,10.3049],[-66.88045,10.30045],[-66.88263,10.29322],[-66.8813,10.28335],[-66.88871,10.28253],[-66.89036,10.27877],[-66.88887,10.26301],[-66.89405,10.25346],[-66.89424,10.24852],[-66.89804,10.24684],[-66.89615,10.24431],[-66.89961,10.23906],[-66.88806,10.22301]]]}},{"type":"Feature","id":"relation/3349785","properties":{"name":"Municipio Lander","level":6,"population":"144947"},"geometry":{"type":"Polygon","coordinates":[[[-66.85488,10.18801],[-66.85735,10.18384],[-66.85659,10.17884],[-66.84022,10.15623],[-66.84225,10.13535],[-66.83905,10.13226],[-66.84199,10.1291],[-66.83997,10.12667],[-66.8497,10.11929],[-66.85002,10.11113],[-66.85701,10.10551],[-66.85457,10.10488],[-66.85199,10.09759],[-66.84957,10.09755],[-66.85331,10.09338],[-66.85264,10.09068],[-66.84178,10.08656],[-66.83843,10.07857],[-66.84136,10.076],[-66.84174,10.07162],[-66.84746,10.06974],[-66.85297,10.06014],[-66.85983,10.05423],[-66.85916,10.04909],[-66.86807,10.04065],[-66.86788,10.03708],[-66.87597,10.03338],[-66.88024,10.02802],[-66.88488,10.02727],[-66.89574,10.01536],[-66.87816,9.9981],[-66.8662,10.00017],[-66.85436,10.00598],[-66.8522,10.01012],[-66.84237,10.01436],[-66.83393,10.02532],[-66.82883,10.02736],[-66.81636,10.02156],[-66.81422,10.01552],[-66.80632,10.01576],[-66.80605,10.0133],[-66.78896,10.01044],[-66.78405,10.01515],[-66.77697,10.01628],[-66.77647,10.01295],[-66.76879,10.0073],[-66.76517,9.99846],[-66.7456,9.99712],[-66.74186,9.9879],[-66.73927,9.99035],[-66.72287,9.99235],[-66.70937,9.9878],[-66.70327,9.98135],[-66.7028,9.98316],[-66.69531,9.98288],[-66.68462,9.9792],[-66.68291,9.97512],[-66.66199,9.98069],[-66.66243,9.97783],[-66.65321,9.97361],[-66.65031,9.97487],[-66.64592,9.97221],[-66.6446,9.9683],[-66.63483,9.97017],[-66.63031,9.96765],[-66.62106,9.96847],[-66.6059,9.97531],[-66.59513,9.97485],[-66.5868,9.98399],[-66.57406,9.97703],[-66.56308,9.97935],[-66.55167,9.9683],[-66.54511,9.96587],[-66.5384,9.96809],[-66.53346,9.97532],[-66.52942,9.97366],[-66.52112,9.97979],[-66.50722,9.97979],[-66.4902,9.99383],[-66.49133,9.99818],[-66.48896,10.00523],[-66.48439,10.00861],[-66.48702,10.01777],[-66.49449,10.01947],[-66.4986,10.01583],[-66.51296,10.0213],[-66.52721,10.02294],[-66.53163,10.03004],[-66.55196,10.03724],[-66.55279,10.0485],[-66.55655,10.04985],[-66.55719,10.05247],[-66.55289,10.05817],[-66.56079,10.06433],[-66.55882,10.06865],[-66.56103,10.07663],[-66.56808,10.07614],[-66.57491,10.07963],[-66.57644,10.08518],[-66.59366,10.09527],[-66.59751,10.09906],[-66.59759,10.10269],[-66.60451,10.10559],[-66.6092,10.09827],[-66.61312,10.09956],[-66.62627,10.09523],[-66.64379,10.09689],[-66.65029,10.09496],[-66.65292,10.09619],[-66.65289,10.10236],[-66.65667,10.10714],[-66.66813,10.10616],[-66.68022,10.11047],[-66.68091,10.10749],[-66.69239,10.10008],[-66.69453,10.10691],[-66.69917,10.10911],[-66.70564,10.1076],[-66.71498,10.11279],[-66.71299,10.11436],[-66.71701,10.12279],[-66.71508,10.13349],[-66.71874,10.1339],[-66.71663,10.13912],[-66.71857,10.1405],[-66.72792,10.13737],[-66.72837,10.13984],[-66.73975,10.14541],[-66.74112,10.15127],[-66.74717,10.14984],[-66.75065,10.14619],[-66.76557,10.14455],[-66.76914,10.14645],[-66.77218,10.153],[-66.7832,10.15092],[-66.78236,10.15664],[-66.78676,10.16137],[-66.7796,10.16806],[-66.78653,10.18137],[-66.78592,10.18644],[-66.7905,10.19038],[-66.80408,10.22304],[-66.80929,10.22519],[-66.81118,10.22247],[-66.81963,10.22132],[-66.81838,10.21237],[-66.82759,10.21024],[-66.82995,10.19531],[-66.83712,10.19646],[-66.84026,10.19236],[-66.84296,10.19442],[-66.84571,10.19284],[-66.85166,10.19752],[-66.85626,10.19138],[-66.85488,10.18801]]]}},{"type":"Feature","id":"relation/3349941","properties":{"name":"Municipio Plaza","level":6,"population":"209987"},"geometry":{"type":"Polygon","coordinates":[[[-66.65716,10.40631],[-66.65085,10.40663],[-66.64179,10.40312],[-66.62904,10.41023],[-66.61806,10.4081],[-66.61396,10.40988],[-66.60167,10.40789],[-66.59137,10.40952],[-66.58784,10.42151],[-66.59075,10.42622],[-66.58983,10.43008],[-66.57921,10.44537],[-66.57464,10.44281],[-66.56771,10.45397],[-66.58004,10.45611],[-66.58871,10.47611],[-66.58345,10.4799],[-66.58964,10.48984],[-66.60261,10.49762],[-66.60286,10.5155],[-66.59985,10.52093],[-66.60465,10.5298],[-66.60583,10.53846],[-66.61643,10.54169],[-66.62564,10.54022],[-66.63637,10.54195],[-66.64146,10.53925],[-66.64692,10.53964],[-66.65445,10.54288],[-66.67362,10.54248],[-66.67685,10.54553],[-66.71196,10.53966],[-66.71786,10.51202],[-66.71666,10.50695],[-66.72153,10.49716],[-66.71891,10.48639],[-66.72138,10.48194],[-66.70955,10.46546],[-66.71239,10.4636],[-66.71329,10.45637],[-66.71106,10.44615],[-66.70686,10.4429],[-66.70984,10.43485],[-66.69431,10.41556],[-66.67692,10.40692],[-66.66569,10.40918],[-66.65716,10.40631]]]}},{"type":"Feature","id":"relation/3351338","properties":{"name":"Municipio Zamora","level":6,"population":"187075"},"geometry":{"type":"Polygon","coordinates":[[[-66.51718,10.33447],[-66.50958,10.33337],[-66.50243,10.33872],[-66.50025,10.34381],[-66.49478,10.34511],[-66.49599,10.34724],[-66.49262,10.35091],[-66.49453,10.35186],[-66.49289,10.35694],[-66.49125,10.35512],[-66.49088,10.35781],[-66.48553,10.35744],[-66.4867,10.35873],[-66.48202,10.3608],[-66.48362,10.36486],[-66.47823,10.36295],[-66.47821,10.3693],[-66.47315,10.36684],[-66.4724,10.36937],[-66.46693,10.36955],[-66.46719,10.37655],[-66.461,10.3803],[-66.4551,10.37997],[-66.45129,10.38752],[-66.44113,10.38992],[-66.43076,10.38779],[-66.42125,10.39245],[-66.41278,10.38906],[-66.40683,10.38987],[-66.39867,10.40354],[-66.4032,10.40677],[-66.40044,10.42497],[-66.40528,10.44521],[-66.39688,10.44705],[-66.40166,10.45768],[-66.39523,10.45914],[-66.39533,10.45643],[-66.38803,10.45756],[-66.38816,10.46239],[-66.38383,10.46568],[-66.37282,10.4698],[-66.357,10.4705],[-66.35314,10.46862],[-66.35141,10.45949],[-66.33998,10.46284],[-66.33812,10.47088],[-66.32534,10.47453],[-66.31991,10.47899],[-66.31791,10.48936],[-66.33086,10.49937],[-66.33554,10.50851],[-66.33798,10.52126],[-66.34092,10.52596],[-66.34641,10.52584],[-66.35183,10.53746],[-66.36355,10.53943],[-66.39367,10.53408],[-66.41957,10.54281],[-66.42505,10.54101],[-66.43049,10.5343],[-66.44441,10.53259],[-66.4568,10.54084],[-66.45958,10.53627],[-66.46584,10.5362],[-66.47114,10.53189],[-66.48238,10.53716],[-66.49581,10.53895],[-66.49847,10.545],[-66.51571,10.55049],[-66.53559,10.55283],[-66.5402,10.54668],[-66.55113,10.54598],[-66.57094,10.54965],[-66.58258,10.55567],[-66.59176,10.55381],[-66.60112,10.54443],[-66.60155,10.54052],[-66.60583,10.53846],[-66.60465,10.5298],[-66.59985,10.52093],[-66.60286,10.5155],[-66.60261,10.49762],[-66.58964,10.48984],[-66.58345,10.4799],[-66.58871,10.47611],[-66.58004,10.45611],[-66.56771,10.45397],[-66.57464,10.44281],[-66.57921,10.44537],[-66.58983,10.43008],[-66.59075,10.42622],[-66.58784,10.42151],[-66.59137,10.40952],[-66.58499,10.4077],[-66.57259,10.39847],[-66.54239,10.38728],[-66.53974,10.38266],[-66.53968,10.36136],[-66.5336,10.34997],[-66.52931,10.34654],[-66.53033,10.3361],[-66.52469,10.33695],[-66.51718,10.33447]]]}},{"type":"Feature","id":"relation/3356595","properties":{"name":"Municipio Acevedo","level":6,"population":"87371"},"geometry":{"type":"Polygon","coordinates":[[[-66.11799,9.99999],[-66.10418,10.01531],[-66.11639,10.02456],[-66.11999,10.03686],[-66.12277,10.0363],[-66.12763,10.04107],[-66.12914,10.04901],[-66.13679,10.05651],[-66.14635,10.05758],[-66.15213,10.06314],[-66.14276,10.07753],[-66.12824,10.08792],[-66.12372,10.08871],[-66.11713,10.09888],[-66.10595,10.10312],[-66.09385,10.11229],[-66.09297,10.11532],[-66.08392,10.11989],[-66.07952,10.11643],[-66.07538,10.12064],[-66.07041,10.13145],[-66.07124,10.13513],[-66.07883,10.14279],[-66.07722,10.14683],[-66.08147,10.15815],[-66.0782,10.16324],[-66.07878,10.16974],[-66.0756,10.1714],[-66.06498,10.19159],[-66.07173,10.20656],[-66.10036,10.2179],[-66.11486,10.23821],[-66.1408,10.28761],[-66.18469,10.28842],[-66.19143,10.2849],[-66.19957,10.30727],[-66.20484,10.30709],[-66.20458,10.31361],[-66.21672,10.34475],[-66.2218,10.34302],[-66.2253,10.34891],[-66.23893,10.34709],[-66.23446,10.36102],[-66.2366,10.36868],[-66.24654,10.37768],[-66.2479,10.38238],[-66.24497,10.40241],[-66.25125,10.40741],[-66.253,10.41187],[-66.24993,10.41702],[-66.24625,10.41505],[-66.23837,10.41769],[-66.23027,10.41609],[-66.22567,10.41773],[-66.22457,10.43816],[-66.22838,10.44097],[-66.22924,10.45273],[-66.23769,10.45607],[-66.25281,10.45429],[-66.25313,10.45825],[-66.25801,10.46233],[-66.26271,10.45825],[-66.2659,10.46057],[-66.26774,10.45614],[-66.27755,10.4564],[-66.27644,10.46048],[-66.27926,10.46076],[-66.27878,10.46457],[-66.28402,10.4667],[-66.28441,10.47123],[-66.28764,10.47151],[-66.29495,10.47997],[-66.29954,10.4802],[-66.2993,10.48536],[-66.30471,10.49689],[-66.30034,10.51062],[-66.30471,10.51083],[-66.30319,10.51638],[-66.30535,10.52136],[-66.3139,10.51759],[-66.32188,10.51941],[-66.32471,10.52232],[-66.32901,10.52142],[-66.33531,10.52655],[-66.34092,10.52596],[-66.33086,10.49937],[-66.31791,10.48936],[-66.31991,10.47899],[-66.32534,10.47453],[-66.33812,10.47088],[-66.33998,10.46284],[-66.35141,10.45949],[-66.35314,10.46862],[-66.357,10.4705],[-66.37282,10.4698],[-66.38383,10.46568],[-66.38816,10.46239],[-66.38803,10.45756],[-66.39533,10.45643],[-66.39523,10.45914],[-66.40166,10.45768],[-66.39688,10.44705],[-66.40528,10.44521],[-66.40044,10.42497],[-66.4032,10.40677],[-66.39867,10.40354],[-66.40683,10.38987],[-66.41278,10.38906],[-66.42125,10.39245],[-66.43076,10.38779],[-66.44113,10.38992],[-66.4514,10.38746],[-66.4551,10.37997],[-66.461,10.3803],[-66.46719,10.37655],[-66.46693,10.36955],[-66.4724,10.36937],[-66.47315,10.36684],[-66.47821,10.3693],[-66.47823,10.36295],[-66.48362,10.36486],[-66.48202,10.3608],[-66.4867,10.35873],[-66.48553,10.35744],[-66.49088,10.35781],[-66.49125,10.35512],[-66.49289,10.35694],[-66.49453,10.35186],[-66.49262,10.35091],[-66.49599,10.34724],[-66.49478,10.34511],[-66.50025,10.34381],[-66.50198,10.33916],[-66.51485,10.32891],[-66.51341,10.32414],[-66.51602,10.32052],[-66.51579,10.30951],[-66.51405,10.30668],[-66.52061,10.29584],[-66.5204,10.29165],[-66.51662,10.28817],[-66.5144,10.27919],[-66.50654,10.27613],[-66.51525,10.26346],[-66.51102,10.25975],[-66.51165,10.25406],[-66.5257,10.24602],[-66.52132,10.23795],[-66.52437,10.23443],[-66.51953,10.23338],[-66.5201,10.23079],[-66.51429,10.23266],[-66.51245,10.22961],[-66.51327,10.22043],[-66.51148,10.21823],[-66.51452,10.20967],[-66.51088,10.20865],[-66.51154,10.2014],[-66.50759,10.19806],[-66.50796,10.19441],[-66.51299,10.18909],[-66.51349,10.18133],[-66.50882,10.17343],[-66.50931,10.16943],[-66.50541,10.16916],[-66.50309,10.16368],[-66.51531,10.14556],[-66.51754,10.13102],[-66.52207,10.12437],[-66.52218,10.1129],[-66.52621,10.10972],[-66.52471,10.10572],[-66.52662,10.10437],[-66.53527,10.10672],[-66.54148,10.10222],[-66.54128,10.0942],[-66.54487,10.0908],[-66.54782,10.0823],[-66.56031,10.07522],[-66.55882,10.06865],[-66.56079,10.06433],[-66.55289,10.05817],[-66.55719,10.05247],[-66.55655,10.04985],[-66.55279,10.0485],[-66.55334,10.03867],[-66.53163,10.03004],[-66.52721,10.02294],[-66.51296,10.0213],[-66.50139,10.0164],[-66.4986,10.01583],[-66.49449,10.01947],[-66.48749,10.01749],[-66.48125,10.02227],[-66.47202,10.02219],[-66.46428,10.01394],[-66.44661,10.01332],[-66.433,10.01897],[-66.4316,10.03229],[-66.4221,10.03282],[-66.40681,10.03999],[-66.39609,10.03799],[-66.38537,10.04121],[-66.37857,10.03987],[-66.37456,10.0358],[-66.36889,10.03449],[-66.36637,10.02915],[-66.34539,10.0265],[-66.34324,10.01972],[-66.33527,10.01749],[-66.33795,10.00346],[-66.33644,9.99884],[-66.32323,10.00337],[-66.31656,10.00271],[-66.31164,9.99628],[-66.28414,9.97657],[-66.27716,9.9854],[-66.25975,9.98287],[-66.24417,9.98874],[-66.23723,9.97928],[-66.23315,9.96833],[-66.22318,9.9691],[-66.22251,9.96382],[-66.21866,9.95933],[-66.21211,9.95818],[-66.20683,9.95074],[-66.20182,9.95483],[-66.19036,9.95744],[-66.1784,9.94971],[-66.16249,9.94588],[-66.15768,9.95006],[-66.15705,9.95707],[-66.1533,9.95962],[-66.15417,9.96342],[-66.15085,9.97335],[-66.14717,9.97694],[-66.132,9.96437],[-66.12864,9.96518],[-66.12542,9.95639],[-66.11282,9.95772],[-66.11067,9.96512],[-66.11322,9.96682],[-66.11505,9.97517],[-66.10719,9.98655],[-66.11753,9.99042],[-66.11799,9.99999]]]}},{"type":"Feature","id":"relation/3356952","properties":{"name":"Municipio Bri\u00f3n","level":6,"population":"58940"},"geometry":{"type":"MultiPolygon","coordinates":[[[[-66.09971,10.81976],[-66.0993,10.81428],[-66.09334,10.80601],[-66.08648,10.8054],[-66.08147,10.80957],[-66.0808,10.81676],[-66.08715,10.82509],[-66.09463,10.82553],[-66.09971,10.81976]]],[[[-66.01765,10.37946],[-66.01163,10.37977],[-66.01161,10.38376],[-66.00214,10.38056],[-66.0022,10.3832],[-65.99547,10.38385],[-65.9948,10.38914],[-65.99003,10.3881],[-65.98023,10.40091],[-66.0245,10.42653],[-66.06555,10.45777],[-66.08176,10.4751],[-66.08829,10.49535],[-66.09361,10.49981],[-66.10044,10.49967],[-66.10734,10.51901],[-66.10748,10.52223],[-66.09702,10.52268],[-66.08404,10.52822],[-66.07631,10.5361],[-66.05897,10.54159],[-66.04889,10.55317],[-66.04743,10.55929],[-66.04099,10.56287],[-66.03827,10.56776],[-66.03909,10.57876],[-66.04375,10.5854],[-66.05522,10.59372],[-66.06418,10.59596],[-66.07114,10.5924],[-66.07178,10.58389],[-66.07358,10.58408],[-66.09791,10.59928],[-66.11297,10.60161],[-66.12483,10.60919],[-66.13311,10.6084],[-66.158,10.61653],[-66.17203,10.61848],[-66.18638,10.62622],[-66.2129,10.64623],[-66.23477,10.65752],[-66.25793,10.65826],[-66.28411,10.65402],[-66.30187,10.64842],[-66.30888,10.64332],[-66.32204,10.62371],[-66.30646,10.61267],[-66.31009,10.61102],[-66.31205,10.5992],[-66.31004,10.5956],[-66.3126,10.59144],[-66.30892,10.58917],[-66.31078,10.58603],[-66.30817,10.5842],[-66.3117,10.57982],[-66.31447,10.56728],[-66.31938,10.56306],[-66.31779,10.55989],[-66.32136,10.55743],[-66.31985,10.55365],[-66.32179,10.54749],[-66.31791,10.54576],[-66.31296,10.53381],[-66.31637,10.52951],[-66.31717,10.52045],[-66.32019,10.51927],[-66.3139,10.51759],[-66.30535,10.52136],[-66.30319,10.51638],[-66.30471,10.51083],[-66.30034,10.51062],[-66.30471,10.49689],[-66.2993,10.48536],[-66.29954,10.4802],[-66.29495,10.47997],[-66.28764,10.47151],[-66.28441,10.47123],[-66.28402,10.4667],[-66.27878,10.46457],[-66.27926,10.46076],[-66.27644,10.46048],[-66.27755,10.4564],[-66.26774,10.45614],[-66.2659,10.46057],[-66.26271,10.45825],[-66.25801,10.46233],[-66.25313,10.45825],[-66.25281,10.45429],[-66.23769,10.45607],[-66.22924,10.45273],[-66.22838,10.44097],[-66.22457,10.43816],[-66.22567,10.41773],[-66.23027,10.41609],[-66.23837,10.41769],[-66.24625,10.41505],[-66.24993,10.41702],[-66.253,10.41187],[-66.25125,10.40741],[-66.24497,10.40241],[-66.2479,10.38238],[-66.24297,10.38125],[-66.23082,10.38476],[-66.2296,10.38208],[-66.205,10.3812],[-66.20446,10.37393],[-66.20055,10.37278],[-66.19719,10.37868],[-66.18135,10.39044],[-66.17634,10.38846],[-66.17551,10.3832],[-66.16638,10.38301],[-66.1596,10.39478],[-66.15394,10.39538],[-66.1514,10.39098],[-66.14163,10.39173],[-66.14065,10.38804],[-66.13279,10.38737],[-66.12978,10.38271],[-66.11655,10.38966],[-66.11541,10.39532],[-66.11761,10.39475],[-66.11887,10.39859],[-66.11597,10.40045],[-66.1132,10.39869],[-66.10265,10.40179],[-66.10275,10.39919],[-66.09651,10.39332],[-66.08513,10.39125],[-66.08267,10.39404],[-66.07939,10.39351],[-66.07773,10.40345],[-66.06874,10.42093],[-66.04836,10.40031],[-66.05011,10.39699],[-66.01765,10.37946]]]]}},{"type":"Feature","id":"relation/3356958","properties":{"name":"Municipio Andr\u00e9s Bello","level":6,"population":"20981"},"geometry":{"type":"Polygon","coordinates":[[[-66.11486,10.23821],[-66.10036,10.2179],[-66.07173,10.20656],[-66.06845,10.19928],[-66.04373,10.21731],[-66.04506,10.22075],[-66.04095,10.22127],[-66.04169,10.22428],[-66.03915,10.22208],[-66.03644,10.22469],[-66.03347,10.22365],[-66.03472,10.22649],[-66.0311,10.22844],[-66.02575,10.22675],[-66.0259,10.22935],[-66.02267,10.22806],[-66.01938,10.23164],[-66.01312,10.2319],[-66.00611,10.23848],[-66.00538,10.24399],[-66.00172,10.24354],[-66.00209,10.24882],[-65.99924,10.24995],[-66.00017,10.25455],[-65.99421,10.26346],[-65.99449,10.27006],[-65.9921,10.27329],[-65.99609,10.2873],[-65.9877,10.28988],[-65.98956,10.29378],[-65.98577,10.29509],[-65.98555,10.3014],[-65.98239,10.30258],[-65.98019,10.30737],[-65.98691,10.31072],[-65.9868,10.31435],[-65.99689,10.32408],[-65.99335,10.32855],[-66.00647,10.33744],[-66.00127,10.34388],[-66.009,10.34974],[-66.01022,10.35407],[-66.00341,10.35666],[-66.02423,10.36735],[-66.02137,10.37191],[-66.02229,10.37418],[-66.04884,10.3444],[-66.05396,10.344],[-66.05438,10.34056],[-66.05858,10.3423],[-66.05931,10.33801],[-66.06641,10.33076],[-66.07404,10.3288],[-66.06976,10.32248],[-66.06581,10.32481],[-66.06614,10.31952],[-66.06302,10.32324],[-66.06192,10.31886],[-66.05428,10.31512],[-66.05176,10.30459],[-66.04543,10.30179],[-66.04156,10.2957],[-66.04516,10.29239],[-66.04079,10.2884],[-66.04071,10.281],[-66.04571,10.28134],[-66.04399,10.27646],[-66.04739,10.27145],[-66.05009,10.27079],[-66.04998,10.27398],[-66.05236,10.27425],[-66.05446,10.2689],[-66.06487,10.26277],[-66.06599,10.25586],[-66.07026,10.25589],[-66.07681,10.24751],[-66.08232,10.24802],[-66.08472,10.24193],[-66.08739,10.24582],[-66.08972,10.24336],[-66.10252,10.24436],[-66.10642,10.24101],[-66.10877,10.24404],[-66.11486,10.23821]]]}},{"type":"Feature","id":"relation/3356959","properties":{"name":"Municipio P\u00e1ez","level":6,"population":"37944"},"geometry":{"type":"Polygon","coordinates":[[[-65.98673,10.39393],[-65.99038,10.38783],[-65.9948,10.38914],[-65.9951,10.38409],[-66.0022,10.3832],[-66.00169,10.38062],[-66.01161,10.38376],[-66.01163,10.37977],[-66.01813,10.37925],[-66.0225,10.37429],[-66.02137,10.37191],[-66.02423,10.36735],[-66.00341,10.35666],[-66.01022,10.35407],[-66.009,10.34974],[-66.00127,10.34388],[-66.00647,10.33744],[-65.99335,10.32855],[-65.99689,10.32408],[-65.9868,10.31435],[-65.98691,10.31072],[-65.98019,10.30737],[-65.98239,10.30258],[-65.98555,10.3014],[-65.98577,10.29509],[-65.98956,10.29378],[-65.9877,10.28988],[-65.99609,10.2873],[-65.9921,10.27329],[-65.99449,10.27006],[-65.99421,10.26346],[-66.00017,10.25455],[-65.99924,10.24995],[-66.00209,10.24882],[-66.00172,10.24354],[-66.00538,10.24399],[-66.00611,10.23848],[-66.01312,10.2319],[-66.01938,10.23164],[-66.02267,10.22806],[-66.0259,10.22935],[-66.02575,10.22675],[-66.0311,10.22844],[-66.03472,10.22649],[-66.03347,10.22365],[-66.03644,10.22469],[-66.03915,10.22208],[-66.04169,10.22428],[-66.04095,10.22127],[-66.04506,10.22075],[-66.04373,10.21731],[-66.06845,10.19928],[-66.06498,10.19159],[-66.0756,10.1714],[-66.07878,10.16974],[-66.0782,10.16324],[-66.08154,10.15752],[-66.07722,10.14683],[-66.07883,10.14279],[-66.07124,10.13513],[-66.07041,10.13145],[-66.07538,10.12064],[-66.07952,10.11643],[-66.08392,10.11989],[-66.09297,10.11532],[-66.09385,10.11229],[-66.10595,10.10312],[-66.11713,10.09888],[-66.12372,10.08871],[-66.12824,10.08792],[-66.14276,10.07753],[-66.15213,10.06314],[-66.14635,10.05758],[-66.13679,10.05651],[-66.12914,10.04901],[-66.12763,10.04107],[-66.12277,10.0363],[-66.11999,10.03686],[-66.11639,10.02456],[-66.10418,10.01531],[-66.11334,10.00309],[-66.11913,9.99921],[-66.11753,9.99042],[-66.10719,9.98655],[-66.11505,9.97517],[-66.11322,9.96682],[-66.11067,9.96512],[-66.11162,9.95618],[-66.09698,9.95287],[-66.087,9.96591],[-66.0862,9.97022],[-66.07666,9.97011],[-66.06227,9.96597],[-66.0588,9.95712],[-66.04013,9.95292],[-66.03549,9.9541],[-66.01935,9.94886],[-66.00561,9.94068],[-65.99949,9.93999],[-65.99457,9.94334],[-65.9858,9.93715],[-65.97115,9.94412],[-65.95393,9.93721],[-65.94451,9.94586],[-65.94642,9.94816],[-65.94346,9.95154],[-65.93777,9.95082],[-65.93533,9.94664],[-65.9211,9.94577],[-65.9063,9.9504],[-65.90589,9.95488],[-65.89798,9.96451],[-65.88875,9.96809],[-65.88856,9.972],[-65.89536,9.97781],[-65.8871,9.98219],[-65.88326,9.99686],[-65.88573,10.00213],[-65.89301,10.00489],[-65.88248,10.01487],[-65.88352,10.01987],[-65.88808,10.02255],[-65.87582,10.03172],[-65.88027,10.03976],[-65.87205,10.05259],[-65.87549,10.05894],[-65.88417,10.06181],[-65.88238,10.07234],[-65.87182,10.08089],[-65.85812,10.08486],[-65.85575,10.09096],[-65.84752,10.09794],[-65.84935,10.10456],[-65.85406,10.10604],[-65.85368,10.10839],[-65.85736,10.109],[-65.86007,10.11381],[-65.86482,10.1453],[-65.86142,10.15382],[-65.86128,10.16857],[-65.84845,10.21068],[-65.84435,10.21737],[-65.84538,10.22891],[-65.78433,10.18377],[-65.68531,10.19694],[-65.68412,10.21083],[-65.67845,10.22657],[-65.75464,10.25649],[-65.85114,10.30241],[-65.91543,10.34269],[-65.9568,10.3758],[-65.98023,10.40091],[-65.98673,10.39393]]]}},{"type":"Feature","id":"relation/3356996","properties":{"name":"Municipio Pedro Gual","level":6,"population":"21831"},"geometry":{"type":"Polygon","coordinates":[[[-65.60192,9.98167],[-65.60237,9.9882],[-65.59956,9.99057],[-65.60488,9.9941],[-65.60368,10.00175],[-65.59548,10.00187],[-65.58469,10.00846],[-65.58249,10.00605],[-65.57953,10.00819],[-65.56973,10.00501],[-65.56599,10.00772],[-65.56198,10.00732],[-65.56226,10.00461],[-65.55308,10.0026],[-65.55125,10.00958],[-65.55443,10.01076],[-65.55293,10.01592],[-65.55164,10.01486],[-65.54879,10.01888],[-65.54668,10.01788],[-65.54664,10.02107],[-65.54512,10.01909],[-65.54117,10.02052],[-65.54254,10.02403],[-65.54048,10.02769],[-65.54225,10.02992],[-65.53947,10.03061],[-65.54183,10.03243],[-65.53758,10.03292],[-65.53878,10.03703],[-65.53512,10.0369],[-65.53465,10.04082],[-65.5367,10.04174],[-65.53119,10.04454],[-65.53251,10.04697],[-65.52885,10.05388],[-65.52269,10.05291],[-65.52203,10.05717],[-65.51823,10.05543],[-65.50974,10.05884],[-65.50656,10.06219],[-65.50979,10.06469],[-65.50487,10.06708],[-65.50431,10.06484],[-65.50235,10.06721],[-65.50056,10.06544],[-65.49965,10.06884],[-65.49515,10.06312],[-65.49692,10.07276],[-65.48898,10.06814],[-65.49089,10.07394],[-65.4864,10.07481],[-65.4929,10.07802],[-65.49171,10.08101],[-65.48005,10.08624],[-65.47551,10.08523],[-65.46882,10.09186],[-65.46559,10.09053],[-65.45627,10.09429],[-65.45573,10.10611],[-65.44842,10.11931],[-65.44642,10.11564],[-65.44092,10.11611],[-65.43904,10.11747],[-65.44141,10.12199],[-65.43455,10.12297],[-65.42877,10.14864],[-65.54111,10.17987],[-65.67845,10.22657],[-65.68412,10.21083],[-65.68531,10.19694],[-65.78433,10.18377],[-65.84538,10.22891],[-65.84435,10.21737],[-65.84845,10.21068],[-65.86128,10.16857],[-65.86142,10.15382],[-65.86482,10.1453],[-65.86007,10.11381],[-65.85736,10.109],[-65.85368,10.10839],[-65.85406,10.10604],[-65.84935,10.10456],[-65.84752,10.09794],[-65.85575,10.09096],[-65.85812,10.08486],[-65.87182,10.08089],[-65.88238,10.07234],[-65.88417,10.06181],[-65.87549,10.05894],[-65.87205,10.05259],[-65.88027,10.03976],[-65.87582,10.03172],[-65.88808,10.02255],[-65.88352,10.01987],[-65.88248,10.01487],[-65.89301,10.00489],[-65.88573,10.00213],[-65.88326,9.99686],[-65.8871,9.98219],[-65.89536,9.97781],[-65.88856,9.972],[-65.88875,9.96809],[-65.87832,9.96327],[-65.87138,9.96724],[-65.86149,9.96693],[-65.85586,9.97013],[-65.82254,9.97124],[-65.81872,9.96235],[-65.80216,9.96135],[-65.80039,9.95579],[-65.79403,9.96193],[-65.79148,9.96165],[-65.7895,9.95739],[-65.7822,9.95556],[-65.77834,9.952],[-65.77496,9.94456],[-65.77015,9.94482],[-65.77199,9.94936],[-65.76964,9.95298],[-65.75838,9.94963],[-65.75641,9.94253],[-65.74799,9.94051],[-65.74604,9.9416],[-65.7482,9.94688],[-65.7447,9.94854],[-65.74618,9.9576],[-65.71614,9.96173],[-65.71597,9.96517],[-65.7083,9.97604],[-65.6926,9.97988],[-65.67608,9.97816],[-65.67655,9.97191],[-65.66957,9.96758],[-65.66773,9.95403],[-65.6378,9.94951],[-65.62874,9.95656],[-65.62855,9.9672],[-65.61593,9.97113],[-65.60913,9.97013],[-65.60469,9.97414],[-65.60192,9.98167]]]}},{"type":"Feature","id":"relation/3372159","properties":{"name":"Municipio Buroz","level":6,"population":"27515"},"geometry":{"type":"Polygon","coordinates":[[[-66.16474,10.38679],[-66.16638,10.38301],[-66.17539,10.38316],[-66.17634,10.38846],[-66.18135,10.39044],[-66.19719,10.37868],[-66.20055,10.37278],[-66.20446,10.37393],[-66.205,10.3812],[-66.2296,10.38208],[-66.23082,10.38476],[-66.24297,10.38125],[-66.2479,10.38238],[-66.24654,10.37768],[-66.2366,10.36868],[-66.23446,10.36102],[-66.23893,10.34709],[-66.2253,10.34891],[-66.2218,10.34302],[-66.21672,10.34475],[-66.20458,10.31361],[-66.20484,10.30709],[-66.19957,10.30727],[-66.19143,10.2849],[-66.18469,10.28842],[-66.1408,10.28761],[-66.11486,10.23821],[-66.10877,10.24404],[-66.10642,10.24101],[-66.10252,10.24436],[-66.08972,10.24336],[-66.08739,10.24582],[-66.08472,10.24193],[-66.08232,10.24802],[-66.07681,10.24751],[-66.07026,10.25589],[-66.06599,10.25586],[-66.06487,10.26277],[-66.05446,10.2689],[-66.05236,10.27425],[-66.04998,10.27398],[-66.05009,10.27079],[-66.04739,10.27145],[-66.04399,10.27646],[-66.04571,10.28134],[-66.04062,10.28139],[-66.04079,10.2884],[-66.04516,10.29239],[-66.04156,10.2957],[-66.04543,10.30179],[-66.05176,10.30459],[-66.05428,10.31512],[-66.06192,10.31886],[-66.06302,10.32324],[-66.06614,10.31952],[-66.06581,10.32481],[-66.06976,10.32248],[-66.07392,10.32907],[-66.06641,10.33076],[-66.05931,10.33801],[-66.05858,10.3423],[-66.05438,10.34056],[-66.05396,10.344],[-66.04884,10.3444],[-66.01765,10.37946],[-66.01826,10.38132],[-66.05011,10.39699],[-66.04836,10.40031],[-66.06874,10.42093],[-66.07773,10.40345],[-66.07939,10.39351],[-66.08267,10.39404],[-66.08513,10.39125],[-66.09651,10.39332],[-66.1029,10.40181],[-66.11192,10.39884],[-66.11788,10.39987],[-66.11887,10.39699],[-66.11541,10.39532],[-66.11655,10.38966],[-66.12957,10.38273],[-66.13279,10.38737],[-66.14065,10.38804],[-66.14163,10.39173],[-66.1514,10.39098],[-66.15411,10.39542],[-66.1596,10.39478],[-66.16474,10.38679]]]}}]}