{"type":"FeatureCollection","features":[{"type":"Feature","id":"node/266536622","properties":{"name":"Higuerote","place":"city"},"geometry":{"type":"Point","coordinates":[-66.10119,10.48779]}},{"type":"Feature","id":"node/266536821","properties":{"name":"La Fundaci\u00f3n","place":"town"},"geometry":{"type":"Point","coordinates":[-66.17406,10.39178]}},{"type":"Feature","id":"node/266536865","properties":{"name":"Tacarigua de Mamporal","place":"town"},"geometry":{"type":"Point","coordinates":[-66.15194,10.40136]}},{"type":"Feature","id":"node/608960199","properties":{"name":"Caucagua","place":"city"},"geometry":{"type":"Point","coordinates":[-66.37555,10.29163]}},{"type":"Feature","id":"node/834236574","properties":{"name":"Araira","place":"town"},"geometry":{"type":"Point","coordinates":[-66.4844,10.45155]}},{"type":"Feature","id":"node/871562380","properties":{"name":"El Jarillo","place":"village"},"geometry":{"type":"Point","coordinates":[-67.17734,10.35986]}},{"type":"Feature","id":"node/1213556010","properties":{"name":"San Antonio de Los Altos","place":"city"},"geometry":{"type":"Point","coordinates":[-66.96654,10.37513]}},{"type":"Feature","id":"node/1294003083","properties":{"name":"Puerto Franc\u00e9s","place":"village"},"geometry":{"type":"Point","coordinates":[-66.06824,10.57451]}},{"type":"Feature","id":"node/1294181189","properties":{"name":"Mamporal","place":"town"},"geometry":{"type":"Point","coordinates":[-66.13287,10.36574]}},{"type":"Feature","id":"node/1553065601","properties":{"name":"Los Colorados","place":"village"},"geometry":{"type":"Point","coordinates":[-67.09938,10.27287]}},{"type":"Feature","id":"node/1553065602","properties":{"name":"Los Teques","place":"city"},"geometry":{"type":"Point","coordinates":[-67.04531,10.34374]}},{"type":"Feature","id":"node/1658452186","properties":{"name":"Guatire","place":"city","population":"209438"},"geometry":{"type":"Point","coordinates":[-66.54311,10.46846]}},{"type":"Feature","id":"node/1958966047","properties":{"name":"Guarenas","place":"city","population":"264290"},"geometry":{"type":"Point","coordinates":[-66.60784,10.46629]}},{"type":"Feature","id":"node/1998482875","properties":{"name":"Santa Luc\u00eda del Tuy","place":"city"},"geometry":{"type":"Point","coordinates":[-66.65885,10.30602]}},{"type":"Feature","id":"node/1998482876","properties":{"name":"Santa Teresa del Tuy","place":"city"},"geometry":{"type":"Point","coordinates":[-66.67226,10.23886]}},{"type":"Feature","id":"node/2059463057","properties":{"name":"San Pedro de Los Altos","place":"town"},"geometry":{"type":"Point","coordinates":[-67.08569,10.36533]}},{"type":"Feature","id":"node/2137693418","properties":{"name":"Guayabal","place":"village"},"geometry":{"type":"Point","coordinates":[-66.30738,10.58651]}},{"type":"Feature","id":"node/3247456325","properties":{"name":"T\u00e1cata","place":"town"},"geometry":{"type":"Point","coordinates":[-67.00121,10.20254]}},{"type":"Feature","id":"node/3247469239","properties":{"name":"Tapipa","place":"village"},"geometry":{"type":"Point","coordinates":[-66.31165,10.22891]}},{"type":"Feature","id":"node/3361927701","properties":{"name":"Charallave","place":"city"},"geometry":{"type":"Point","coordinates":[-66.85866,10.24566]}},{"type":"Feature","id":"node/3580888002","properties":{"name":"Carrizal","place":"city"},"geometry":{"type":"Point","coordinates":[-66.99187,10.35199]}},{"type":"Feature","id":"node/3597445247","properties":{"name":"C\u00faa","place":"city"},"geometry":{"type":"Point","coordinates":[-66.88651,10.16537]}},{"type":"Feature","id":"node/3597445374","properties":{"name":"Ocumare del Tuy","place":"city"},"geometry":{"type":"Point","coordinates":[-66.77575,10.1137]}},{"type":"Feature","id":"node/3679163550","properties":{"name":"Paracotos","place":"city"},"geometry":{"type":"Point","coordinates":[-66.95127,10.26817]}},{"type":"Feature","id":"node/3737831922","properties":{"name":"R\u00edo Chico","place":"town"},"geometry":{"type":"Point","coordinates":[-65.97868,10.3196]}},{"type":"Feature","id":"node/3737836695","properties":{"name":"San Jos\u00e9 de Barlovento","place":"city"},"geometry":{"type":"Point","coordinates":[-65.99003,10.30399]}},{"type":"Feature","id":"node/3737851852","properties":{"name":"El Guapo","place":"town"},"geometry":{"type":"Point","coordinates":[-65.97234,10.14847]}},{"type":"Feature","id":"node/3737870946","properties":{"name":"Los Canales de R\u00edo Chico","place":"town"},"geometry":{"type":"Point","coordinates":[-65.95697,10.35566]}},{"type":"Feature","id":"node/4181265922","properties":{"name":"Chirimena","place":"town"},"geometry":{"type":"Point","coordinates":[-66.17037,10.60696]}},{"type":"Feature","id":"node/5234686148","properties":{"name":"San Francisco de Yare","place":"city"},"geometry":{"type":"Point","coordinates":[-66.74939,10.18015]}},{"type":"Feature","id":"node/5422987174","properties":{"name":"C\u00fapira","place":"town"},"geometry":{"type":"Point","coordinates":[-65.70119,10.15882]}},{"type":"Feature","id":"node/4340588689","properties":{"name":"Carenero","place":"town"},"geometry":{"type":"Point","coordinates":[-66.11414,10.53306]}},{"type":"Feature","id":"node/5256590740","properties":{"name":"Buena Vista","place":"village"},"geometry":{"type":"Point","coordinates":[-66.21463,9.97929]}},{"type":"Feature","id":"node/5256597292","properties":{"name":"La Marinera","place":"village"},"geometry":{"type":"Point","coordinates":[-66.18038,10.00479]}},{"type":"Feature","id":"node/5256597293","properties":{"name":"Cerro Pel\u00f3n","place":"village"},"geometry":{"type":"Point","coordinates":[-66.18322,10.01359]}},{"type":"Feature","id":"node/5256597294","properties":{"name":"La Palma","place":"village"},"geometry":{"type":"Point","coordinates":[-66.158,10.03527]}},{"type":"Feature","id":"node/5418349523","properties":{"name":"Los Chaguaramos","place":"village"},"geometry":{"type":"Point","coordinates":[-66.94649,10.04827]}},{"type":"Feature","id":"node/5418349524","properties":{"name":"Los Berros","place":"village"},"geometry":{"type":"Point","coordinates":[-66.93533,10.06885]}},{"type":"Feature","id":"node/5418349525","properties":{"name":"El Guan\u00e1bano","place":"village"},"geometry":{"type":"Point","coordinates":[-66.914,10.08811]}},{"type":"Feature","id":"node/5418349573","properties":{"name":"Quebrada Honda","place":"village"},"geometry":{"type":"Point","coordinates":[-66.90474,10.08861]}},{"type":"Feature","id":"node/5418349710","properties":{"name":"Campo Verde","place":"village"},"geometry":{"type":"Point","coordinates":[-66.8822,10.05181]}},{"type":"Feature","id":"node/5418349711","properties":{"name":"Barrialito","place":"village"},"geometry":{"type":"Point","coordinates":[-66.81508,10.10264]}},{"type":"Feature","id":"node/5418349712","properties":{"name":"Boca de Onza","place":"village"},"geometry":{"type":"Point","coordinates":[-66.8153,10.09001]}},{"type":"Feature","id":"node/5418350031","properties":{"name":"Palmira","place":"village"},"geometry":{"type":"Point","coordinates":[-66.86416,10.07449]}},{"type":"Feature","id":"node/5418350032","properties":{"name":"El Portachuelo","place":"town"},"geometry":{"type":"Point","coordinates":[-66.90626,10.10537]}},{"type":"Feature","id":"node/5418350033","properties":{"name":"Nueva C\u00faa","place":"town"},"geometry":{"type":"Point","coordinates":[-66.87976,10.13613]}},{"type":"Feature","id":"node/5418350121","properties":{"name":"Las Mercedes","place":"town"},"geometry":{"type":"Point","coordinates":[-66.85599,10.14235]}},{"type":"Feature","id":"node/5418350122","properties":{"name":"San Antonio","place":"town"},"geometry":{"type":"Point","coordinates":[-66.84593,10.1466]}},{"type":"Feature","id":"node/5418350177","properties":{"name":"La Mata","place":"town"},"geometry":{"type":"Point","coordinates":[-66.83447,10.17605]}},{"type":"Feature","id":"node/5418350191","properties":{"name":"Pi\u00f1ate","place":"town"},"geometry":{"type":"Point","coordinates":[-66.83046,10.14433]}},{"type":"Feature","id":"node/5418350192","properties":{"name":"Santa B\u00e1rbara","place":"town"},"geometry":{"type":"Point","coordinates":[-66.80688,10.13407]}},{"type":"Feature","id":"node/5418350194","properties":{"name":"Mendoza","place":"town"},"geometry":{"type":"Point","coordinates":[-66.83276,10.12495]}},{"type":"Feature","id":"node/5418365526","properties":{"name":"Pi\u00f1ango","place":"village"},"geometry":{"type":"Point","coordinates":[-66.95613,10.17857]}},{"type":"Feature","id":"node/5418365527","properties":{"name":"T\u00e1cata Arriba","place":"village"},"geometry":{"type":"Point","coordinates":[-67.01321,10.17363]}},{"type":"Feature","id":"node/5418365528","properties":{"name":"El Peg\u00f3n","place":"village"},"geometry":{"type":"Point","coordinates":[-67.03682,10.14404]}},{"type":"Feature","id":"node/5418365529","properties":{"name":"Altagracia de La Monta\u00f1a","place":"town"},"geometry":{"type":"Point","coordinates":[-67.05983,10.12853]}},{"type":"Feature","id":"node/5418365575","properties":{"name":"San Daniel","place":"village"},"geometry":{"type":"Point","coordinates":[-67.04525,10.09241]}},{"type":"Feature","id":"node/5418392760","properties":{"name":"La Democracia","place":"village"},"geometry":{"type":"Point","coordinates":[-66.68807,10.01513]}},{"type":"Feature","id":"node/5418392761","properties":{"name":"Quiripital","place":"village"},"geometry":{"type":"Point","coordinates":[-66.69163,10.02523]}},{"type":"Feature","id":"node/5418393127","properties":{"name":"S\u00facuta","place":"town"},"geometry":{"type":"Point","coordinates":[-66.73943,10.10015]}},{"type":"Feature","id":"node/5418423346","properties":{"name":"Pi\u00f1ango","place":"town"},"geometry":{"type":"Point","coordinates":[-66.71495,10.20469]}},{"type":"Feature","id":"node/5418423523","properties":{"name":"San Antonio de Yare","place":"town"},"geometry":{"type":"Point","coordinates":[-66.73011,10.21566]}},{"type":"Feature","id":"node/5418423540","properties":{"name":"La Curta","place":"village"},"geometry":{"type":"Point","coordinates":[-66.70147,10.22478]}},{"type":"Feature","id":"node/5418423541","properties":{"name":"Quebrada Seca","place":"town"},"geometry":{"type":"Point","coordinates":[-66.74263,10.20459]}},{"type":"Feature","id":"node/5418461942","properties":{"name":"Piloncito","place":"town"},"geometry":{"type":"Point","coordinates":[-66.79304,10.1535]}},{"type":"Feature","id":"node/5418461943","properties":{"name":"La Cabrera","place":"town"},"geometry":{"type":"Point","coordinates":[-66.80567,10.17168]}},{"type":"Feature","id":"node/5418461944","properties":{"name":"Vallecito","place":"town"},"geometry":{"type":"Point","coordinates":[-66.81578,10.17825]}},{"type":"Feature","id":"node/5418461956","properties":{"name":"Quebrada de C\u00faa","place":"town"},"geometry":{"type":"Point","coordinates":[-66.89808,10.19155]}},{"type":"Feature","id":"node/5418532726","properties":{"name":"La Magdalena","place":"village"},"geometry":{"type":"Point","coordinates":[-66.91111,10.23076]}},{"type":"Feature","id":"node/5418532727","properties":{"name":"El Vapor","place":"village"},"geometry":{"type":"Point","coordinates":[-66.89165,10.24131]}},{"type":"Feature","id":"node/5418532728","properties":{"name":"Las Brisas del Tuy","place":"town"},"geometry":{"type":"Point","coordinates":[-66.86863,10.28583]}},{"type":"Feature","id":"node/5418532729","properties":{"name":"Tierra Blanca","place":"town"},"geometry":{"type":"Point","coordinates":[-66.8638,10.27422]}},{"type":"Feature","id":"node/5418532730","properties":{"name":"El Algarrobo","place":"town"},"geometry":{"type":"Point","coordinates":[-66.86112,10.28064]}},{"type":"Feature","id":"node/5418572422","properties":{"name":"Los Anaucos","place":"village"},"geometry":{"type":"Point","coordinates":[-66.87188,10.30772]}},{"type":"Feature","id":"node/5418572442","properties":{"name":"Cortada de Matur\u00edn","place":"town"},"geometry":{"type":"Point","coordinates":[-66.89863,10.30661]}},{"type":"Feature","id":"node/5418572458","properties":{"name":"Palo Negro","place":"town"},"geometry":{"type":"Point","coordinates":[-67.01103,10.25919]}},{"type":"Feature","id":"node/5418572459","properties":{"name":"Taica","place":"village"},"geometry":{"type":"Point","coordinates":[-66.96446,10.2401]}},{"type":"Feature","id":"node/5418572686","properties":{"name":"Ocampo","place":"village"},"geometry":{"type":"Point","coordinates":[-67.0421,10.25881]}},{"type":"Feature","id":"node/5418572792","properties":{"name":"Cumbre Roja","place":"village"},"geometry":{"type":"Point","coordinates":[-67.06701,10.28048]}},{"type":"Feature","id":"node/5418789402","properties":{"name":"Cartanal","place":"town"},"geometry":{"type":"Point","coordinates":[-66.71215,10.26786]}},{"type":"Feature","id":"node/5418789403","properties":{"name":"El Carmen","place":"town"},"geometry":{"type":"Point","coordinates":[-66.72766,10.2944]}},{"type":"Feature","id":"node/5418789405","properties":{"name":"Tomuso","place":"town"},"geometry":{"type":"Point","coordinates":[-66.70474,10.2519]}},{"type":"Feature","id":"node/5418789406","properties":{"name":"Fuerte Guaicaipuro","place":"village"},"geometry":{"type":"Point","coordinates":[-66.76701,10.27063]}},{"type":"Feature","id":"node/5418789407","properties":{"name":"Caujarito","place":"town"},"geometry":{"type":"Point","coordinates":[-66.78356,10.25471]}},{"type":"Feature","id":"node/5418789408","properties":{"name":"La Virginia","place":"town"},"geometry":{"type":"Point","coordinates":[-66.67994,10.27303]}},{"type":"Feature","id":"node/5418789409","properties":{"name":"El Rosario de Soapire","place":"town"},"geometry":{"type":"Point","coordinates":[-66.70103,10.28412]}},{"type":"Feature","id":"node/5418789419","properties":{"name":"Las Lagunas","place":"town"},"geometry":{"type":"Point","coordinates":[-66.693,10.2524]}},{"type":"Feature","id":"node/5418789420","properties":{"name":"La Ceiba","place":"village"},"geometry":{"type":"Point","coordinates":[-66.7233,10.32294]}},{"type":"Feature","id":"node/5418789631","properties":{"name":"Las Adjuntas","place":"town"},"geometry":{"type":"Point","coordinates":[-66.63842,10.29694]}},{"type":"Feature","id":"node/5418789632","properties":{"name":"Santa Rita","place":"town"},"geometry":{"type":"Point","coordinates":[-66.6133,10.28159]}},{"type":"Feature","id":"node/5418789702","properties":{"name":"Boca de Siquire (Concepci\u00f3n)","place":"town"},"geometry":{"type":"Point","coordinates":[-66.62963,10.31932]}},{"type":"Feature","id":"node/5418789851","properties":{"name":"El Palmar","place":"town"},"geometry":{"type":"Point","coordinates":[-66.60643,10.34528]}},{"type":"Feature","id":"node/5418789894","properties":{"name":"Moca","place":"town"},"geometry":{"type":"Point","coordinates":[-66.59392,10.34293]}},{"type":"Feature","id":"node/5418789895","properties":{"name":"El Placer de Siquire","place":"town"},"geometry":{"type":"Point","coordinates":[-66.57609,10.34559]}},{"type":"Feature","id":"node/5418817318","properties":{"name":"El Nogal","place":"city"},"geometry":{"type":"Point","coordinates":[-66.64341,10.34103]}},{"type":"Feature","id":"node/5418817319","properties":{"name":"Trujillo","place":"village"},"geometry":{"type":"Point","coordinates":[-66.66532,10.38941]}},{"type":"Feature","id":"node/5418817320","properties":{"name":"La Lagunita","place":"city"},"geometry":{"type":"Point","coordinates":[-66.6985,10.41512]}},{"type":"Feature","id":"node/5418838418","properties":{"name":"Mampote","place":"town"},"geometry":{"type":"Point","coordinates":[-66.67339,10.4751]}},{"type":"Feature","id":"node/5418838419","properties":{"name":"La Estrella","place":"town"},"geometry":{"type":"Point","coordinates":[-66.66236,10.47382]}},{"type":"Feature","id":"node/5418838420","properties":{"name":"El Cercado","place":"village"},"geometry":{"type":"Point","coordinates":[-66.65112,10.47132]}},{"type":"Feature","id":"node/5418861459","properties":{"name":"G\u00fceime","place":"village"},"geometry":{"type":"Point","coordinates":[-66.63088,10.40667]}},{"type":"Feature","id":"node/5418861471","properties":{"name":"Taguacita (La Botica)","place":"village"},"geometry":{"type":"Point","coordinates":[-66.55353,10.21399]}},{"type":"Feature","id":"node/5418861472","properties":{"name":"Arag\u00fcita","place":"town"},"geometry":{"type":"Point","coordinates":[-66.46225,10.22462]}},{"type":"Feature","id":"node/5418861473","properties":{"name":"La Fila","place":"village"},"geometry":{"type":"Point","coordinates":[-66.42322,10.26105]}},{"type":"Feature","id":"node/5418861475","properties":{"name":"La Encrucijada","place":"village"},"geometry":{"type":"Point","coordinates":[-66.39832,10.30366]}},{"type":"Feature","id":"node/5420028471","properties":{"name":"Agua Fr\u00eda","place":"village"},"geometry":{"type":"Point","coordinates":[-66.41554,10.33257]}},{"type":"Feature","id":"node/5420028472","properties":{"name":"Chuspita","place":"town"},"geometry":{"type":"Point","coordinates":[-66.44625,10.33593]}},{"type":"Feature","id":"node/5420028475","properties":{"name":"Cupo","place":"town"},"geometry":{"type":"Point","coordinates":[-66.4764,10.39201]}},{"type":"Feature","id":"node/5420028482","properties":{"name":"Kempis","place":"town"},"geometry":{"type":"Point","coordinates":[-66.50226,10.40394]}},{"type":"Feature","id":"node/5420028483","properties":{"name":"Vuelta Grande","place":"town"},"geometry":{"type":"Point","coordinates":[-66.51548,10.41575]}},{"type":"Feature","id":"node/5422901340","properties":{"name":"Los Chaguaramos","place":"village"},"geometry":{"type":"Point","coordinates":[-66.35767,10.24962]}},{"type":"Feature","id":"node/5422901341","properties":{"name":"Ibarra","place":"town"},"geometry":{"type":"Point","coordinates":[-66.38866,10.25099]}},{"type":"Feature","id":"node/5422901342","properties":{"name":"Las Mercedes","place":"village"},"geometry":{"type":"Point","coordinates":[-66.37447,10.22158]}},{"type":"Feature","id":"node/5422901343","properties":{"name":"Mendoza","place":"village"},"geometry":{"type":"Point","coordinates":[-66.366,10.23925]}},{"type":"Feature","id":"node/5422901344","properties":{"name":"Tapipa Grande","place":"town"},"geometry":{"type":"Point","coordinates":[-66.34209,10.22304]}},{"type":"Feature","id":"node/5422901419","properties":{"name":"Ca\u00f1o Negro","place":"town"},"geometry":{"type":"Point","coordinates":[-66.29247,10.23782]}},{"type":"Feature","id":"node/5422903659","properties":{"name":"El Milano","place":"village"},"geometry":{"type":"Point","coordinates":[-66.29952,10.26195]}},{"type":"Feature","id":"node/5422903713","properties":{"name":"La Mensura","place":"village"},"geometry":{"type":"Point","coordinates":[-66.32824,10.19809]}},{"type":"Feature","id":"node/5422903714","properties":{"name":"El Oro","place":"village"},"geometry":{"type":"Point","coordinates":[-66.31891,10.19663]}},{"type":"Feature","id":"node/5422903912","properties":{"name":"Panaquire","place":"town"},"geometry":{"type":"Point","coordinates":[-66.24166,10.2175]}},{"type":"Feature","id":"node/5422904201","properties":{"name":"El Sapo","place":"village"},"geometry":{"type":"Point","coordinates":[-66.1692,10.18323]}},{"type":"Feature","id":"node/5422904435","properties":{"name":"La Maroma","place":"town"},"geometry":{"type":"Point","coordinates":[-66.15654,10.19567]}},{"type":"Feature","id":"node/5422904459","properties":{"name":"El Mango de Ocoita","place":"town"},"geometry":{"type":"Point","coordinates":[-66.13017,10.18419]}},{"type":"Feature","id":"node/5422904461","properties":{"name":"Calle Larga","place":"village"},"geometry":{"type":"Point","coordinates":[-66.08239,10.19695]}},{"type":"Feature","id":"node/5422904462","properties":{"name":"Pueblo Nuevo","place":"town"},"geometry":{"type":"Point","coordinates":[-66.12814,10.21643]}},{"type":"Feature","id":"node/5422904474","properties":{"name":"El Clavo","place":"town"},"geometry":{"type":"Point","coordinates":[-66.17413,10.2244]}},{"type":"Feature","id":"node/5422904494","properties":{"name":"Las Brisas","place":"village"},"geometry":{"type":"Point","coordinates":[-66.16405,10.25787]}},{"type":"Feature","id":"node/5422904495","properties":{"name":"Burguillos","place":"village"},"geometry":{"type":"Point","coordinates":[-66.15025,10.24967]}},{"type":"Feature","id":"node/5422904496","properties":{"name":"Cupertino","place":"village"},"geometry":{"type":"Point","coordinates":[-66.21557,10.22544]}},{"type":"Feature","id":"node/5422904510","properties":{"name":"Marcelo","place":"village"},"geometry":{"type":"Point","coordinates":[-66.21806,10.24195]}},{"type":"Feature","id":"node/5422904511","properties":{"name":"Merecure","place":"village"},"geometry":{"type":"Point","coordinates":[-66.20044,10.24111]}},{"type":"Feature","id":"node/5422984298","properties":{"name":"Juan D\u00edaz","place":"village"},"geometry":{"type":"Point","coordinates":[-66.09867,10.18709]}},{"type":"Feature","id":"node/5422984299","properties":{"name":"Ca\u00f1o M\u00e9ndez","place":"village"},"geometry":{"type":"Point","coordinates":[-66.07411,10.19002]}},{"type":"Feature","id":"node/5422984300","properties":{"name":"La Zona","place":"village"},"geometry":{"type":"Point","coordinates":[-66.06132,10.18114]}},{"type":"Feature","id":"node/5422984301","properties":{"name":"Rosario Abajo","place":"village"},"geometry":{"type":"Point","coordinates":[-66.0285,10.17058]}},{"type":"Feature","id":"node/5422984302","properties":{"name":"Los M\u00e9danos","place":"village"},"geometry":{"type":"Point","coordinates":[-66.00195,10.16471]}},{"type":"Feature","id":"node/5422984303","properties":{"name":"Las Mulas","place":"village"},"geometry":{"type":"Point","coordinates":[-66.00138,10.17597]}},{"type":"Feature","id":"node/5422986937","properties":{"name":"Bajo Seco","place":"village"},"geometry":{"type":"Point","coordinates":[-65.96767,10.13826]}},{"type":"Feature","id":"node/5422986938","properties":{"name":"El Guamito","place":"village"},"geometry":{"type":"Point","coordinates":[-65.9755,10.12798]}},{"type":"Feature","id":"node/5422986972","properties":{"name":"Guayas","place":"village"},"geometry":{"type":"Point","coordinates":[-66.08127,10.08321]}},{"type":"Feature","id":"node/5422987094","properties":{"name":"El Guapet\u00f3n","place":"village"},"geometry":{"type":"Point","coordinates":[-65.9039,10.14942]}},{"type":"Feature","id":"node/5422987097","properties":{"name":"Buenos Aires","place":"village"},"geometry":{"type":"Point","coordinates":[-65.83176,10.17725]}},{"type":"Feature","id":"node/5422987120","properties":{"name":"Santa Cruz","place":"village"},"geometry":{"type":"Point","coordinates":[-65.80794,10.17225]}},{"type":"Feature","id":"node/5422987121","properties":{"name":"Palmarito","place":"village"},"geometry":{"type":"Point","coordinates":[-65.79114,10.17398]}},{"type":"Feature","id":"node/5422987122","properties":{"name":"Chaguaramal","place":"village"},"geometry":{"type":"Point","coordinates":[-65.76991,10.16917]}},{"type":"Feature","id":"node/5422987124","properties":{"name":"Palo Blanco","place":"town"},"geometry":{"type":"Point","coordinates":[-65.70692,10.17227]}},{"type":"Feature","id":"node/5422987164","properties":{"name":"Machurucuto","place":"town"},"geometry":{"type":"Point","coordinates":[-65.6539,10.2034]}},{"type":"Feature","id":"node/5422987165","properties":{"name":"Playa Dorada","place":"village"},"geometry":{"type":"Point","coordinates":[-65.66235,10.20923]}},{"type":"Feature","id":"node/5422987567","properties":{"name":"Las Mercedes","place":"village"},"geometry":{"type":"Point","coordinates":[-65.71382,10.14309]}},{"type":"Feature","id":"node/5422987648","properties":{"name":"El Guacuco","place":"town"},"geometry":{"type":"Point","coordinates":[-65.65291,10.16472]}},{"type":"Feature","id":"node/5422987649","properties":{"name":"Bosquemar","place":"village"},"geometry":{"type":"Point","coordinates":[-65.59812,10.1828]}},{"type":"Feature","id":"node/5423298667","properties":{"name":"Merecure de La Vega","place":"town"},"geometry":{"type":"Point","coordinates":[-66.35156,10.32122]}},{"type":"Feature","id":"node/5423298669","properties":{"name":"La Cruz","place":"town"},"geometry":{"type":"Point","coordinates":[-66.31513,10.36097]}},{"type":"Feature","id":"node/5423298671","properties":{"name":"Araminita","place":"town"},"geometry":{"type":"Point","coordinates":[-66.30755,10.37579]}},{"type":"Feature","id":"node/5423298672","properties":{"name":"Yaguapa","place":"town"},"geometry":{"type":"Point","coordinates":[-66.29111,10.38799]}},{"type":"Feature","id":"node/5423298673","properties":{"name":"La Caramera","place":"town"},"geometry":{"type":"Point","coordinates":[-66.28631,10.37627]}},{"type":"Feature","id":"node/5423298674","properties":{"name":"El Caf\u00e9","place":"town"},"geometry":{"type":"Point","coordinates":[-66.2839,10.4089]}},{"type":"Feature","id":"node/5423298675","properties":{"name":"El Pe\u00f1\u00f3n","place":"town"},"geometry":{"type":"Point","coordinates":[-66.27845,10.41606]}},{"type":"Feature","id":"node/5423298676","properties":{"name":"Las Morochas","place":"town"},"geometry":{"type":"Point","coordinates":[-66.24616,10.41395]}},{"type":"Feature","id":"node/5423298677","properties":{"name":"Las Mart\u00ednez","place":"town"},"geometry":{"type":"Point","coordinates":[-66.19361,10.40137]}},{"type":"Feature","id":"node/5423298678","properties":{"name":"Gamelotal","place":"town"},"geometry":{"type":"Point","coordinates":[-66.20204,10.40392]}},{"type":"Feature","id":"node/5423298679","properties":{"name":"Las Gonz\u00e1lez","place":"town"},"geometry":{"type":"Point","coordinates":[-66.18432,10.40371]}},{"type":"Feature","id":"node/5423298959","properties":{"name":"Yaguapita Adentro","place":"village"},"geometry":{"type":"Point","coordinates":[-66.30367,10.31264]}},{"type":"Feature","id":"node/5424532750","properties":{"name":"Curiepe","place":"village"},"geometry":{"type":"Point","coordinates":[-66.16752,10.47393]}},{"type":"Feature","id":"node/5424533175","properties":{"name":"Salgado","place":"village"},"geometry":{"type":"Point","coordinates":[-66.21087,10.47423]}},{"type":"Feature","id":"node/5424533176","properties":{"name":"Pueblo Nuevo","place":"village"},"geometry":{"type":"Point","coordinates":[-66.23315,10.47589]}},{"type":"Feature","id":"node/5424533177","properties":{"name":"Birongo","place":"town"},"geometry":{"type":"Point","coordinates":[-66.23714,10.48224]}},{"type":"Feature","id":"node/5424533194","properties":{"name":"El Guindillo","place":"village"},"geometry":{"type":"Point","coordinates":[-66.24465,10.47332]}},{"type":"Feature","id":"node/5424533241","properties":{"name":"Tacarig\u00fcita","place":"village"},"geometry":{"type":"Point","coordinates":[-66.21471,10.44091]}},{"type":"Feature","id":"node/5424533274","properties":{"name":"Guatirito","place":"village"},"geometry":{"type":"Point","coordinates":[-66.24415,10.43645]}},{"type":"Feature","id":"node/5424533275","properties":{"name":"Capaya","place":"town"},"geometry":{"type":"Point","coordinates":[-66.27364,10.42924]}},{"type":"Feature","id":"node/5424533276","properties":{"name":"Buche","place":"village"},"geometry":{"type":"Point","coordinates":[-66.09511,10.54571]}},{"type":"Feature","id":"node/5424533277","properties":{"name":"Vista Linda","place":"village"},"geometry":{"type":"Point","coordinates":[-66.10675,10.54695]}},{"type":"Feature","id":"node/5424533279","properties":{"name":"Chirere","place":"village"},"geometry":{"type":"Point","coordinates":[-66.18378,10.61409]}},{"type":"Feature","id":"node/5424533280","properties":{"name":"Pueblo Seco","place":"village"},"geometry":{"type":"Point","coordinates":[-66.21191,10.57819]}},{"type":"Feature","id":"node/5424533281","properties":{"name":"Aricagua","place":"village"},"geometry":{"type":"Point","coordinates":[-66.23336,10.58111]}},{"type":"Feature","id":"node/5424570748","properties":{"name":"Sotillo","place":"town"},"geometry":{"type":"Point","coordinates":[-66.08594,10.39531]}},{"type":"Feature","id":"node/5424570749","properties":{"name":"Boca Vieja","place":"village"},"geometry":{"type":"Point","coordinates":[-66.05666,10.43663]}},{"type":"Feature","id":"node/5424570750","properties":{"name":"Gamelotal","place":"village"},"geometry":{"type":"Point","coordinates":[-66.10805,10.39292]}},{"type":"Feature","id":"node/5424570751","properties":{"name":"Bel\u00e9n","place":"village"},"geometry":{"type":"Point","coordinates":[-66.11279,10.38228]}},{"type":"Feature","id":"node/5424570752","properties":{"name":"Santa Rosal\u00eda","place":"village"},"geometry":{"type":"Point","coordinates":[-66.10715,10.36905]}},{"type":"Feature","id":"node/5424570776","properties":{"name":"La Maravilla","place":"town"},"geometry":{"type":"Point","coordinates":[-66.16911,10.36106]}},{"type":"Feature","id":"node/5424570777","properties":{"name":"El Bamb\u00fa","place":"town"},"geometry":{"type":"Point","coordinates":[-66.1529,10.36034]}},{"type":"Feature","id":"node/5424570778","properties":{"name":"Los Toros","place":"village"},"geometry":{"type":"Point","coordinates":[-66.2247,10.36355]}},{"type":"Feature","id":"node/5424570779","properties":{"name":"Los Serranos","place":"village"},"geometry":{"type":"Point","coordinates":[-66.19623,10.36228]}},{"type":"Feature","id":"node/5424570780","properties":{"name":"San Vicente","place":"town"},"geometry":{"type":"Point","coordinates":[-66.15898,10.37359]}},{"type":"Feature","id":"node/5424570781","properties":{"name":"El Placer","place":"village"},"geometry":{"type":"Point","coordinates":[-66.24683,10.37023]}},{"type":"Feature","id":"node/5424570783","properties":{"name":"Los Fern\u00e1ndez","place":"village"},"geometry":{"type":"Point","coordinates":[-66.25241,10.35679]}},{"type":"Feature","id":"node/5424570784","properties":{"name":"Los Zuritas","place":"village"},"geometry":{"type":"Point","coordinates":[-66.26854,10.3624]}},{"type":"Feature","id":"node/5424570785","properties":{"name":"El Blanquillo","place":"town"},"geometry":{"type":"Point","coordinates":[-66.27897,10.36848]}},{"type":"Feature","id":"node/5424570806","properties":{"name":"R\u00edo Negro","place":"town"},"geometry":{"type":"Point","coordinates":[-66.24923,10.31959]}},{"type":"Feature","id":"node/5424623992","properties":{"name":"Cogollal","place":"village"},"geometry":{"type":"Point","coordinates":[-66.10796,10.33978]}},{"type":"Feature","id":"node/5424623993","properties":{"name":"Los Vel\u00e1squez","place":"village"},"geometry":{"type":"Point","coordinates":[-66.08683,10.33864]}},{"type":"Feature","id":"node/5424623995","properties":{"name":"La Troja","place":"town"},"geometry":{"type":"Point","coordinates":[-66.07133,10.31783]}},{"type":"Feature","id":"node/5424623996","properties":{"name":"San Juan","place":"town"},"geometry":{"type":"Point","coordinates":[-66.06257,10.31112]}},{"type":"Feature","id":"node/5424623997","properties":{"name":"Los Hern\u00e1ndez","place":"village"},"geometry":{"type":"Point","coordinates":[-66.06325,10.27066]}},{"type":"Feature","id":"node/5424623998","properties":{"name":"El Colorado","place":"village"},"geometry":{"type":"Point","coordinates":[-66.10359,10.25818]}},{"type":"Feature","id":"node/5424624007","properties":{"name":"Palotal","place":"village"},"geometry":{"type":"Point","coordinates":[-66.04325,10.34913]}},{"type":"Feature","id":"node/5424624008","properties":{"name":"Campo Santo","place":"village"},"geometry":{"type":"Point","coordinates":[-66.03362,10.35664]}},{"type":"Feature","id":"node/5424624009","properties":{"name":"Los Galpones","place":"town"},"geometry":{"type":"Point","coordinates":[-66.0375,10.30572]}},{"type":"Feature","id":"node/5424624012","properties":{"name":"Caraquitas","place":"village"},"geometry":{"type":"Point","coordinates":[-66.04107,10.29259]}},{"type":"Feature","id":"node/5424624013","properties":{"name":"La Guairita","place":"village"},"geometry":{"type":"Point","coordinates":[-66.04272,10.27943]}},{"type":"Feature","id":"node/5424624014","properties":{"name":"El Tesoro","place":"village"},"geometry":{"type":"Point","coordinates":[-66.05349,10.26706]}},{"type":"Feature","id":"node/5424630541","properties":{"name":"La Madre Vieja","place":"village"},"geometry":{"type":"Point","coordinates":[-66.02347,10.3057]}},{"type":"Feature","id":"node/5424630542","properties":{"name":"La Defensa","place":"village"},"geometry":{"type":"Point","coordinates":[-66.01967,10.29732]}},{"type":"Feature","id":"node/5424630543","properties":{"name":"El Manguito","place":"village"},"geometry":{"type":"Point","coordinates":[-66.01933,10.28664]}},{"type":"Feature","id":"node/5424630551","properties":{"name":"La Monta\u00f1ita","place":"village"},"geometry":{"type":"Point","coordinates":[-66.02766,10.27463]}},{"type":"Feature","id":"node/5424630936","properties":{"name":"Urape","place":"village"},"geometry":{"type":"Point","coordinates":[-66.17846,10.2568]}},{"type":"Feature","id":"node/5424631036","properties":{"name":"Ca\u00f1o Negro","place":"village"},"geometry":{"type":"Point","coordinates":[-66.13849,10.24959]}},{"type":"Feature","id":"node/5424665267","properties":{"name":"Burgos","place":"village"},"geometry":{"type":"Point","coordinates":[-66.02002,10.26645]}},{"type":"Feature","id":"node/5424665268","properties":{"name":"Las Trincheras","place":"village"},"geometry":{"type":"Point","coordinates":[-66.02039,10.27767]}},{"type":"Feature","id":"node/5424665317","properties":{"name":"Pi\u00f1ango","place":"village"},"geometry":{"type":"Point","coordinates":[-66.00854,10.25955]}},{"type":"Feature","id":"node/5424665318","properties":{"name":"Las Delicias (La Fila)","place":"village"},"geometry":{"type":"Point","coordinates":[-66.02955,10.25845]}},{"type":"Feature","id":"node/5424665319","properties":{"name":"Arenitas","place":"village"},"geometry":{"type":"Point","coordinates":[-66.02139,10.24399]}},{"type":"Feature","id":"node/5424665321","properties":{"name":"Pueblo Nuevo","place":"town"},"geometry":{"type":"Point","coordinates":[-66.04215,10.24603]}},{"type":"Feature","id":"node/5424665324","properties":{"name":"El Olimpo","place":"village"},"geometry":{"type":"Point","coordinates":[-66.05043,10.21617]}},{"type":"Feature","id":"node/5424665325","properties":{"name":"El Conde","place":"village"},"geometry":{"type":"Point","coordinates":[-66.06584,10.21041]}},{"type":"Feature","id":"node/5424665327","properties":{"name":"Santa Fe","place":"village"},"geometry":{"type":"Point","coordinates":[-66.07145,10.2416]}},{"type":"Feature","id":"node/5424665328","properties":{"name":"Cumbo","place":"town"},"geometry":{"type":"Point","coordinates":[-66.0877,10.22883]}},{"type":"Feature","id":"node/5424665329","properties":{"name":"Cachipe","place":"village"},"geometry":{"type":"Point","coordinates":[-66.10238,10.21418]}},{"type":"Feature","id":"node/5424665332","properties":{"name":"Paparo","place":"town"},"geometry":{"type":"Point","coordinates":[-65.97298,10.36929]}},{"type":"Feature","id":"node/5424665333","properties":{"name":"Paparito","place":"town"},"geometry":{"type":"Point","coordinates":[-65.98794,10.38349]}},{"type":"Feature","id":"node/5424703872","properties":{"name":"Puerto Tuy","place":"town"},"geometry":{"type":"Point","coordinates":[-65.93296,10.33975]}},{"type":"Feature","id":"node/5424703873","properties":{"name":"Tacarigua de La Laguna","place":"town"},"geometry":{"type":"Point","coordinates":[-65.88203,10.3065]}},{"type":"Feature","id":"node/5424773884","properties":{"name":"Perdomo","place":"village"},"geometry":{"type":"Point","coordinates":[-65.98668,10.27218]}},{"type":"Feature","id":"node/5424775026","properties":{"name":"Campo Alegre","place":"village"},"geometry":{"type":"Point","coordinates":[-66.00843,10.22474]}},{"type":"Feature","id":"node/5424775027","properties":{"name":"Garc\u00eda","place":"village"},"geometry":{"type":"Point","coordinates":[-66.02425,10.21584]}},{"type":"Feature","id":"node/5424775051","properties":{"name":"Corozal","place":"village"},"geometry":{"type":"Point","coordinates":[-66.03138,10.20686]}},{"type":"Feature","id":"node/5424775061","properties":{"name":"La Guapa","place":"town"},"geometry":{"type":"Point","coordinates":[-65.9667,10.30083]}},{"type":"Feature","id":"node/5424775062","properties":{"name":"Herrera","place":"village"},"geometry":{"type":"Point","coordinates":[-65.96393,10.27106]}},{"type":"Feature","id":"node/5424775063","properties":{"name":"Palmira Arriba","place":"town"},"geometry":{"type":"Point","coordinates":[-65.95692,10.27165]}},{"type":"Feature","id":"node/5424775064","properties":{"name":"El Maimo","place":"village"},"geometry":{"type":"Point","coordinates":[-65.95715,10.26067]}},{"type":"Feature","id":"node/5424775065","properties":{"name":"San Antonio de R\u00edo Chico","place":"village"},"geometry":{"type":"Point","coordinates":[-65.9627,10.23788]}},{"type":"Feature","id":"node/5424775100","properties":{"name":"La Soledad","place":"village"},"geometry":{"type":"Point","coordinates":[-65.97898,10.21915]}},{"type":"Feature","id":"node/5424775101","properties":{"name":"San Fernando del Guapo","place":"town"},"geometry":{"type":"Point","coordinates":[-65.95035,10.19924]}},{"type":"Feature","id":"node/5424775102","properties":{"name":"El Cristo","place":"village"},"geometry":{"type":"Point","coordinates":[-65.95706,10.18932]}},{"type":"Feature","id":"node/5424775167","properties":{"name":"Los Cerros","place":"village"},"geometry":{"type":"Point","coordinates":[-65.91108,10.20687]}},{"type":"Feature","id":"node/5424775177","properties":{"name":"El Silencio","place":"village"},"geometry":{"type":"Point","coordinates":[-65.8989,10.21398]}},{"type":"Feature","id":"node/5424775207","properties":{"name":"Las Lapas","place":"village"},"geometry":{"type":"Point","coordinates":[-65.87699,10.25114]}},{"type":"Feature","id":"node/5424775208","properties":{"name":"Quebrada Fofa","place":"village"},"geometry":{"type":"Point","coordinates":[-66.31339,10.41678]}},{"type":"Feature","id":"node/5424775229","properties":{"name":"El Mahomo","place":"village"},"geometry":{"type":"Point","coordinates":[-66.35459,10.43884]}},{"type":"Feature","id":"node/5424775230","properties":{"name":"Macanilla","place":"village"},"geometry":{"type":"Point","coordinates":[-66.36951,10.44808]}},{"type":"Feature","id":"node/5424775231","properties":{"name":"San Jos\u00e9 de Chuspita","place":"village"},"geometry":{"type":"Point","coordinates":[-66.42148,10.45612]}},{"type":"Feature","id":"node/5424775232","properties":{"name":"Palmarito","place":"village"},"geometry":{"type":"Point","coordinates":[-66.40787,10.47089]}},{"type":"Feature","id":"node/5424775233","properties":{"name":"Revent\u00f3n","place":"village"},"geometry":{"type":"Point","coordinates":[-66.45161,10.4546]}},{"type":"Feature","id":"node/5424775234","properties":{"name":"Santa Rosal\u00eda","place":"town"},"geometry":{"type":"Point","coordinates":[-66.47475,10.44762]}},{"type":"Feature","id":"node/5424775235","properties":{"name":"Capayita","place":"village"},"geometry":{"type":"Point","coordinates":[-66.47215,10.45839]}},{"type":"Feature","id":"node/5424775238","properties":{"name":"Agua Sal","place":"town"},"geometry":{"type":"Point","coordinates":[-66.4897,10.52416]}},{"type":"Feature","id":"node/5425250542","properties":{"name":"La Solana","place":"village"},"geometry":{"type":"Point","coordinates":[-66.88517,10.30896]}},{"type":"Feature","id":"node/5425250543","properties":{"name":"Agua Fr\u00eda","place":"town"},"geometry":{"type":"Point","coordinates":[-66.89605,10.33814]}},{"type":"Feature","id":"node/5425250546","properties":{"name":"La Cumaca","place":"village"},"geometry":{"type":"Point","coordinates":[-66.8783,10.33829]}},{"type":"Feature","id":"node/5425250548","properties":{"name":"San Jos\u00e9 de Los Altos","place":"town"},"geometry":{"type":"Point","coordinates":[-66.90918,10.35127]}},{"type":"Feature","id":"node/5425250550","properties":{"name":"Hoyo de La Puerta","place":"town"},"geometry":{"type":"Point","coordinates":[-66.8887,10.38449]}},{"type":"Feature","id":"node/5425250553","properties":{"name":"San Diego de Los Altos","place":"town"},"geometry":{"type":"Point","coordinates":[-66.95493,10.34438]}},{"type":"Feature","id":"node/5425607019","properties":{"name":"Ca\u00f1ote","place":"village"},"geometry":{"type":"Point","coordinates":[-67.12494,10.26843]}},{"type":"Feature","id":"node/5425607020","properties":{"name":"Quebrada de Guayas","place":"village"},"geometry":{"type":"Point","coordinates":[-67.09283,10.28107]}},{"type":"Feature","id":"node/5425608521","properties":{"name":"Los Cedros","place":"village"},"geometry":{"type":"Point","coordinates":[-67.06242,10.30231]}},{"type":"Feature","id":"node/5425608522","properties":{"name":"Guaremal","place":"town"},"geometry":{"type":"Point","coordinates":[-67.03279,10.29851]}},{"type":"Feature","id":"node/5425608527","properties":{"name":"Lagunetica","place":"town"},"geometry":{"type":"Point","coordinates":[-67.09024,10.33473]}},{"type":"Feature","id":"node/5425608772","properties":{"name":"Laguneta","place":"village"},"geometry":{"type":"Point","coordinates":[-67.14999,10.33996]}},{"type":"Feature","id":"node/5429223707","properties":{"name":"Bajo Seco","place":"village"},"geometry":{"type":"Point","coordinates":[-67.20793,10.41852]}},{"type":"Feature","id":"node/5429223708","properties":{"name":"El P\u00e1ramo","place":"village"},"geometry":{"type":"Point","coordinates":[-67.19989,10.42395]}},{"type":"Feature","id":"node/5644370639","properties":{"name":"Playa Pintada","place":"village"},"geometry":{"type":"Point","coordinates":[-65.44322,10.13777]}},{"type":"Feature","id":"node/5644370640","properties":{"name":"La Vega","place":"village"},"geometry":{"type":"Point","coordinates":[-65.44475,10.11939]}},{"type":"Feature","id":"node/5651349814","properties":{"name":"San Juan","place":"village"},"geometry":{"type":"Point","coordinates":[-65.7715,10.07509]}},{"type":"Feature","id":"node/5651349815","properties":{"name":"Santa Rosa","place":"village"},"geometry":{"type":"Point","coordinates":[-65.74475,10.09887]}},{"type":"Feature","id":"node/5651349816","properties":{"name":"Montevideo","place":"village"},"geometry":{"type":"Point","coordinates":[-65.74167,10.10546]}},{"type":"Feature","id":"node/5651350180","properties":{"name":"Santa Luc\u00eda","place":"village"},"geometry":{"type":"Point","coordinates":[-65.64912,10.12551]}},{"type":"Feature","id":"node/5651350326","properties":{"name":"Valpara\u00edso","place":"village"},"geometry":{"type":"Point","coordinates":[-65.62361,10.08166]}},{"type":"Feature","id":"node/5651351421","properties":{"name":"Mundo Nuevo","place":"village"},"geometry":{"type":"Point","coordinates":[-65.66714,9.97595]}},{"type":"Feature","id":"node/5651351759","properties":{"name":"Alto Uchire","place":"village"},"geometry":{"type":"Point","coordinates":[-65.61765,9.98998]}},{"type":"Feature","id":"node/5651351960","properties":{"name":"San Antonio","place":"town"},"geometry":{"type":"Point","coordinates":[-65.55699,10.00977]}},{"type":"Feature","id":"node/5651354294","properties":{"name":"La Soledad","place":"village"},"geometry":{"type":"Point","coordinates":[-65.73985,9.97677]}},{"type":"Feature","id":"node/5651354295","properties":{"name":"Guarabe","place":"village"},"geometry":{"type":"Point","coordinates":[-65.75545,9.97898]}},{"type":"Feature","id":"node/5651354321","properties":{"name":"El Carmen","place":"village"},"geometry":{"type":"Point","coordinates":[-65.79134,9.98344]}},{"type":"Feature","id":"node/5651354322","properties":{"name":"Agua Negra","place":"village"},"geometry":{"type":"Point","coordinates":[-65.79747,9.98203]}},{"type":"Feature","id":"node/5651355269","properties":{"name":"Boca de Casupo","place":"village"},"geometry":{"type":"Point","coordinates":[-65.80768,10.01264]}},{"type":"Feature","id":"node/5651355272","properties":{"name":"R\u00edo Grande","place":"village"},"geometry":{"type":"Point","coordinates":[-65.81482,10.03102]}},{"type":"Feature","id":"node/5651356481","properties":{"name":"La Horqueta","place":"village"},"geometry":{"type":"Point","coordinates":[-65.97213,9.98457]}},{"type":"Feature","id":"node/5651356511","properties":{"name":"La Palmita","place":"village"},"geometry":{"type":"Point","coordinates":[-65.96434,10.29306]}},{"type":"Feature","id":"node/5651356513","properties":{"name":"Escurra","place":"village"},"geometry":{"type":"Point","coordinates":[-65.96706,10.2813]}},{"type":"Feature","id":"node/5651356536","properties":{"name":"El Cuarenta","place":"village"},"geometry":{"type":"Point","coordinates":[-65.97075,10.2568]}},{"type":"Feature","id":"node/5651356553","properties":{"name":"Ca\u00f1o Machado","place":"village"},"geometry":{"type":"Point","coordinates":[-65.97426,10.23762]}},{"type":"Feature","id":"node/5651356577","properties":{"name":"El Silencio","place":"village"},"geometry":{"type":"Point","coordinates":[-65.98143,10.22646]}},{"type":"Feature","id":"node/5651356578","properties":{"name":"Los Cerritos","place":"village"},"geometry":{"type":"Point","coordinates":[-65.95056,10.21228]}},{"type":"Feature","id":"node/5651356581","properties":{"name":"El Guapecero","place":"village"},"geometry":{"type":"Point","coordinates":[-65.96803,10.16326]}},{"type":"Feature","id":"node/5651356583","properties":{"name":"El Colorado","place":"village"},"geometry":{"type":"Point","coordinates":[-65.96298,10.1778]}},{"type":"Feature","id":"node/5651356584","properties":{"name":"Las Mercedes","place":"village"},"geometry":{"type":"Point","coordinates":[-65.96501,10.17227]}},{"type":"Feature","id":"node/5651356586","properties":{"name":"El Verde","place":"village"},"geometry":{"type":"Point","coordinates":[-65.94782,10.14823]}},{"type":"Feature","id":"node/5651356587","properties":{"name":"San Antonio del Guapo","place":"village"},"geometry":{"type":"Point","coordinates":[-65.95225,10.22976]}},{"type":"Feature","id":"node/5651356588","properties":{"name":"Ca\u00f1o Hondo","place":"village"},"geometry":{"type":"Point","coordinates":[-65.93655,10.23325]}},{"type":"Feature","id":"node/5651356599","properties":{"name":"Ca\u00f1o Arena","place":"village"},"geometry":{"type":"Point","coordinates":[-65.92121,10.2481]}},{"type":"Feature","id":"node/5651356607","properties":{"name":"Campo Verde","place":"village"},"geometry":{"type":"Point","coordinates":[-65.92769,10.1514]}},{"type":"Feature","id":"node/5651356608","properties":{"name":"Quebrada Honda","place":"village"},"geometry":{"type":"Point","coordinates":[-65.91744,10.15098]}},{"type":"Feature","id":"node/5651357024","properties":{"name":"Arenjes","place":"village"},"geometry":{"type":"Point","coordinates":[-65.90878,10.15118]}},{"type":"Feature","id":"node/5651357025","properties":{"name":"Ca\u00f1o Rico","place":"village"},"geometry":{"type":"Point","coordinates":[-65.8766,10.1533]}},{"type":"Feature","id":"node/5651357041","properties":{"name":"Tierra Adentro","place":"village"},"geometry":{"type":"Point","coordinates":[-65.84123,10.16146]}},{"type":"Feature","id":"node/5651357056","properties":{"name":"Palmarito Arriba","place":"village"},"geometry":{"type":"Point","coordinates":[-65.77334,10.15968]}},{"type":"Feature","id":"node/5651357057","properties":{"name":"Arenas","place":"village"},"geometry":{"type":"Point","coordinates":[-65.74075,10.17862]}},{"type":"Feature","id":"node/5651357058","properties":{"name":"Tucurebe","place":"village"},"geometry":{"type":"Point","coordinates":[-65.72725,10.18109]}},{"type":"Feature","id":"node/5651357059","properties":{"name":"Las Delicias","place":"village"},"geometry":{"type":"Point","coordinates":[-65.69909,10.17484]}},{"type":"Feature","id":"node/5651357113","properties":{"name":"El Coquito","place":"village"},"geometry":{"type":"Point","coordinates":[-65.70626,10.22624]}},{"type":"Feature","id":"node/5651357115","properties":{"name":"Agua Salada","place":"village"},"geometry":{"type":"Point","coordinates":[-65.68858,10.21943]}},{"type":"Feature","id":"node/5651357116","properties":{"name":"Las Mercedes","place":"village"},"geometry":{"type":"Point","coordinates":[-65.68124,10.18968]}},{"type":"Feature","id":"node/5667391516","properties":{"name":"Quebrada Seca","place":"village"},"geometry":{"type":"Point","coordinates":[-66.19824,9.99157]}},{"type":"Feature","id":"node/5668025862","properties":{"name":"Pele El Ojo","place":"village"},"geometry":{"type":"Point","coordinates":[-66.19884,10.24974]}},{"type":"Feature","id":"node/5668025863","properties":{"name":"El Potrero","place":"village"},"geometry":{"type":"Point","coordinates":[-66.19449,10.24765]}},{"type":"Feature","id":"node/5668025864","properties":{"name":"La Teja","place":"village"},"geometry":{"type":"Point","coordinates":[-66.19042,10.24447]}},{"type":"Feature","id":"node/5668025867","properties":{"name":"La Concepci\u00f3n","place":"village"},"geometry":{"type":"Point","coordinates":[-66.19806,10.22229]}},{"type":"Feature","id":"node/5668025868","properties":{"name":"El An\u00eds","place":"village"},"geometry":{"type":"Point","coordinates":[-66.20739,10.22126]}},{"type":"Feature","id":"node/5668025870","properties":{"name":"La Encrucijada","place":"village"},"geometry":{"type":"Point","coordinates":[-66.24055,10.2334]}},{"type":"Feature","id":"node/5668025873","properties":{"name":"La Monta\u00f1a","place":"village"},"geometry":{"type":"Point","coordinates":[-66.26263,10.22474]}},{"type":"Feature","id":"node/5668025899","properties":{"name":"El Pail\u00f3n","place":"village"},"geometry":{"type":"Point","coordinates":[-66.29968,10.27225]}},{"type":"Feature","id":"node/5668026842","properties":{"name":"El Pilar","place":"village"},"geometry":{"type":"Point","coordinates":[-66.30338,10.23303]}},{"type":"Feature","id":"node/5668026843","properties":{"name":"Boca de Caucagua","place":"village"},"geometry":{"type":"Point","coordinates":[-66.35749,10.22655]}},{"type":"Feature","id":"node/5668026852","properties":{"name":"Sol\u00f3rzano","place":"village"},"geometry":{"type":"Point","coordinates":[-66.35836,10.24525]}},{"type":"Feature","id":"node/5668026904","properties":{"name":"San Rafael","place":"village"},"geometry":{"type":"Point","coordinates":[-66.34903,10.2539]}},{"type":"Feature","id":"node/5668026909","properties":{"name":"Rengifo","place":"village"},"geometry":{"type":"Point","coordinates":[-66.39893,10.29762]}},{"type":"Feature","id":"node/5668026925","properties":{"name":"Altagracia","place":"village"},"geometry":{"type":"Point","coordinates":[-66.39933,10.28937]}},{"type":"Feature","id":"node/5668026927","properties":{"name":"Turupa","place":"village"},"geometry":{"type":"Point","coordinates":[-66.40033,10.27286]}},{"type":"Feature","id":"node/5668027233","properties":{"name":"El Trapiche","place":"town"},"geometry":{"type":"Point","coordinates":[-66.44004,10.20958]}},{"type":"Feature","id":"node/5668027236","properties":{"name":"Santa Mar\u00eda","place":"village"},"geometry":{"type":"Point","coordinates":[-66.45583,10.23251]}},{"type":"Feature","id":"node/5668027237","properties":{"name":"El Socorro","place":"village"},"geometry":{"type":"Point","coordinates":[-66.45029,10.2425]}},{"type":"Feature","id":"node/5668027391","properties":{"name":"Camar\u00f3n","place":"village"},"geometry":{"type":"Point","coordinates":[-66.43977,10.24929]}},{"type":"Feature","id":"node/5668027392","properties":{"name":"La Pereza","place":"village"},"geometry":{"type":"Point","coordinates":[-66.41804,10.26699]}},{"type":"Feature","id":"node/5668027393","properties":{"name":"Cipriano","place":"village"},"geometry":{"type":"Point","coordinates":[-66.4237,10.25403]}},{"type":"Feature","id":"node/5668027437","properties":{"name":"El Pe\u00f1\u00f3n","place":"village"},"geometry":{"type":"Point","coordinates":[-66.3906,10.23239]}},{"type":"Feature","id":"node/5668027438","properties":{"name":"Morocopo","place":"village"},"geometry":{"type":"Point","coordinates":[-66.40359,10.23771]}},{"type":"Feature","id":"node/5668027450","properties":{"name":"San Antonio","place":"village"},"geometry":{"type":"Point","coordinates":[-66.41137,10.22799]}},{"type":"Feature","id":"node/5668027453","properties":{"name":"Bol\u00edvar","place":"village"},"geometry":{"type":"Point","coordinates":[-66.39436,10.21261]}},{"type":"Feature","id":"node/5668027530","properties":{"name":"San Vicente","place":"village"},"geometry":{"type":"Point","coordinates":[-66.35466,10.18568]}},{"type":"Feature","id":"node/5668027548","properties":{"name":"El Pe\u00f1\u00f3n","place":"village"},"geometry":{"type":"Point","coordinates":[-66.29095,10.20509]}},{"type":"Feature","id":"node/5668027549","properties":{"name":"San Rafael","place":"village"},"geometry":{"type":"Point","coordinates":[-66.25652,10.20334]}},{"type":"Feature","id":"node/5668027550","properties":{"name":"Zamora","place":"village"},"geometry":{"type":"Point","coordinates":[-66.25285,10.21024]}},{"type":"Feature","id":"node/5668027597","properties":{"name":"Las S\u00e1bilas","place":"village"},"geometry":{"type":"Point","coordinates":[-66.21709,10.19997]}},{"type":"Feature","id":"node/5668027598","properties":{"name":"Urba","place":"village"},"geometry":{"type":"Point","coordinates":[-66.19389,10.19707]}},{"type":"Feature","id":"node/5668027603","properties":{"name":"Buena Vista","place":"village"},"geometry":{"type":"Point","coordinates":[-66.12146,10.21306]}},{"type":"Feature","id":"node/5668027658","properties":{"name":"Castillito","place":"village"},"geometry":{"type":"Point","coordinates":[-66.17497,10.20679]}},{"type":"Feature","id":"node/5668027660","properties":{"name":"Quebrada del Medio","place":"village"},"geometry":{"type":"Point","coordinates":[-66.15788,10.17976]}},{"type":"Feature","id":"node/5668027661","properties":{"name":"El Lim\u00f3n (Santa Elena)","place":"village"},"geometry":{"type":"Point","coordinates":[-66.07744,10.20214]}},{"type":"Feature","id":"node/5668027664","properties":{"name":"Rosario Arriba","place":"village"},"geometry":{"type":"Point","coordinates":[-66.0152,10.16923]}},{"type":"Feature","id":"node/5668027895","properties":{"name":"San Felipe","place":"village"},"geometry":{"type":"Point","coordinates":[-66.00968,10.12464]}},{"type":"Feature","id":"node/5668028110","properties":{"name":"Nueva Esperanza Oeste","place":"village"},"geometry":{"type":"Point","coordinates":[-66.23432,10.00368]}},{"type":"Feature","id":"node/5668028111","properties":{"name":"Nueva Esperanza Este","place":"village"},"geometry":{"type":"Point","coordinates":[-66.22494,10.00183]}},{"type":"Feature","id":"node/5668028221","properties":{"name":"El Macho","place":"village"},"geometry":{"type":"Point","coordinates":[-66.14945,10.03957]}},{"type":"Feature","id":"node/5668028580","properties":{"name":"La Oscurana","place":"village"},"geometry":{"type":"Point","coordinates":[-66.13494,10.02329]}},{"type":"Feature","id":"node/5668028581","properties":{"name":"Las Pariatas","place":"village"},"geometry":{"type":"Point","coordinates":[-66.15291,10.01758]}},{"type":"Feature","id":"node/5668028585","properties":{"name":"Pueblo Nuevo","place":"village"},"geometry":{"type":"Point","coordinates":[-66.18695,10.0498]}},{"type":"Feature","id":"node/5668028586","properties":{"name":"El Mango","place":"village"},"geometry":{"type":"Point","coordinates":[-66.20054,10.06684]}},{"type":"Feature","id":"node/5668028885","properties":{"name":"San Rafael","place":"village"},"geometry":{"type":"Point","coordinates":[-66.2117,10.07313]}},{"type":"Feature","id":"node/5668030162","properties":{"name":"La Sapera","place":"village"},"geometry":{"type":"Point","coordinates":[-66.23481,10.09637]}},{"type":"Feature","id":"node/5668030163","properties":{"name":"Boca de Paria","place":"village"},"geometry":{"type":"Point","coordinates":[-66.25159,10.11302]}},{"type":"Feature","id":"node/5668030164","properties":{"name":"El Rosario","place":"village"},"geometry":{"type":"Point","coordinates":[-66.25966,10.11538]}},{"type":"Feature","id":"node/5668030166","properties":{"name":"Boca de Apa","place":"village"},"geometry":{"type":"Point","coordinates":[-66.2844,10.11093]}},{"type":"Feature","id":"node/5668030167","properties":{"name":"El Jobito","place":"village"},"geometry":{"type":"Point","coordinates":[-66.27992,10.10528]}},{"type":"Feature","id":"node/5668030168","properties":{"name":"San Isidro","place":"village"},"geometry":{"type":"Point","coordinates":[-66.28324,10.05666]}},{"type":"Feature","id":"node/5668030302","properties":{"name":"El Parre\u00f1o","place":"village"},"geometry":{"type":"Point","coordinates":[-66.27878,10.06162]}},{"type":"Feature","id":"node/5668030303","properties":{"name":"El Torito","place":"village"},"geometry":{"type":"Point","coordinates":[-66.2311,10.06606]}},{"type":"Feature","id":"node/5668030306","properties":{"name":"Macanilla","place":"village"},"geometry":{"type":"Point","coordinates":[-66.2678,10.06115]}},{"type":"Feature","id":"node/5668030325","properties":{"name":"Palmira","place":"village"},"geometry":{"type":"Point","coordinates":[-66.27595,10.04349]}},{"type":"Feature","id":"node/5668031111","properties":{"name":"Vuelta Redonda","place":"village"},"geometry":{"type":"Point","coordinates":[-66.27215,10.0058]}},{"type":"Feature","id":"node/5668031112","properties":{"name":"Los Muerticos","place":"village"},"geometry":{"type":"Point","coordinates":[-66.26646,10.03627]}},{"type":"Feature","id":"node/5669398719","properties":{"name":"Cerro Prendido","place":"village"},"geometry":{"type":"Point","coordinates":[-66.26898,10.33067]}},{"type":"Feature","id":"node/5669401621","properties":{"name":"Carpintero","place":"village"},"geometry":{"type":"Point","coordinates":[-66.40361,10.31411]}},{"type":"Feature","id":"node/5669401622","properties":{"name":"Cupo de Marizapa","place":"town"},"geometry":{"type":"Point","coordinates":[-66.33785,10.26486]}},{"type":"Feature","id":"node/5669401651","properties":{"name":"Merecure El Centro","place":"village"},"geometry":{"type":"Point","coordinates":[-66.31131,10.28251]}},{"type":"Feature","id":"node/5669401837","properties":{"name":"Parcelamiento Caraballo","place":"town"},"geometry":{"type":"Point","coordinates":[-66.33049,10.30153]}},{"type":"Feature","id":"node/5669401838","properties":{"name":"Mesa de Urape","place":"village"},"geometry":{"type":"Point","coordinates":[-66.33223,10.33709]}},{"type":"Feature","id":"node/5669401839","properties":{"name":"Santa Elena","place":"village"},"geometry":{"type":"Point","coordinates":[-66.33225,10.34618]}},{"type":"Feature","id":"node/5669401841","properties":{"name":"Yaguapa Arriba","place":"village"},"geometry":{"type":"Point","coordinates":[-66.3215,10.32138]}},{"type":"Feature","id":"node/5669401842","properties":{"name":"Merecure Abajo","place":"village"},"geometry":{"type":"Point","coordinates":[-66.28726,10.28707]}},{"type":"Feature","id":"node/5669401843","properties":{"name":"El Consuelo","place":"village"},"geometry":{"type":"Point","coordinates":[-66.27846,10.27945]}},{"type":"Feature","id":"node/5669401844","properties":{"name":"Fajardo","place":"village"},"geometry":{"type":"Point","coordinates":[-66.26965,10.27155]}},{"type":"Feature","id":"node/5669402102","properties":{"name":"Ca\u00f1o Morado","place":"village"},"geometry":{"type":"Point","coordinates":[-66.25835,10.29083]}},{"type":"Feature","id":"node/5669402103","properties":{"name":"Yaguapa Abajo","place":"village"},"geometry":{"type":"Point","coordinates":[-66.27507,10.30502]}},{"type":"Feature","id":"node/5669402105","properties":{"name":"Rivero","place":"village"},"geometry":{"type":"Point","coordinates":[-66.08144,10.3226]}},{"type":"Feature","id":"node/5669402113","properties":{"name":"Parcelamiento Pueblo Nuevo","place":"village"},"geometry":{"type":"Point","coordinates":[-66.02597,10.36132]}},{"type":"Feature","id":"node/5669402120","properties":{"name":"La Guayana","place":"village"},"geometry":{"type":"Point","coordinates":[-66.17205,10.2602]}},{"type":"Feature","id":"node/5669402225","properties":{"name":"Los Chaguaramos","place":"village"},"geometry":{"type":"Point","coordinates":[-66.1261,10.24674]}},{"type":"Feature","id":"node/5669402227","properties":{"name":"Agua Salud","place":"village"},"geometry":{"type":"Point","coordinates":[-66.09045,10.26944]}},{"type":"Feature","id":"node/5669402237","properties":{"name":"Burguillos","place":"village"},"geometry":{"type":"Point","coordinates":[-66.01906,10.2706]}},{"type":"Feature","id":"node/5669402239","properties":{"name":"Carabobito","place":"village"},"geometry":{"type":"Point","coordinates":[-66.02725,10.26189]}},{"type":"Feature","id":"node/5669402245","properties":{"name":"R\u00edo Chico Arriba","place":"village"},"geometry":{"type":"Point","coordinates":[-65.98605,10.26191]}},{"type":"Feature","id":"node/5669402246","properties":{"name":"La Cuchilla","place":"village"},"geometry":{"type":"Point","coordinates":[-66.01601,10.22124]}},{"type":"Feature","id":"node/5677447525","properties":{"name":"Los Totumos","place":"village"},"geometry":{"type":"Point","coordinates":[-66.08024,10.54555]}},{"type":"Feature","id":"node/5677447557","properties":{"name":"Flores","place":"village"},"geometry":{"type":"Point","coordinates":[-66.13698,10.52951]}},{"type":"Feature","id":"node/5677447567","properties":{"name":"Don Blas","place":"village"},"geometry":{"type":"Point","coordinates":[-66.1607,10.49842]}},{"type":"Feature","id":"node/5677447702","properties":{"name":"Guaical","place":"village"},"geometry":{"type":"Point","coordinates":[-66.14112,10.48908]}},{"type":"Feature","id":"node/5677447709","properties":{"name":"Aurimar","place":"village"},"geometry":{"type":"Point","coordinates":[-66.135,10.47613]}},{"type":"Feature","id":"node/5677447710","properties":{"name":"Buena Vista","place":"village"},"geometry":{"type":"Point","coordinates":[-66.15111,10.47248]}},{"type":"Feature","id":"node/5677447711","properties":{"name":"El Pantano","place":"village"},"geometry":{"type":"Point","coordinates":[-66.14087,10.47595]}},{"type":"Feature","id":"node/5677447717","properties":{"name":"Las Colonias","place":"town"},"geometry":{"type":"Point","coordinates":[-66.09697,10.39946]}},{"type":"Feature","id":"node/5677447719","properties":{"name":"Peraza","place":"village"},"geometry":{"type":"Point","coordinates":[-66.14736,10.37831]}},{"type":"Feature","id":"node/5677447720","properties":{"name":"El Ladrillo","place":"village"},"geometry":{"type":"Point","coordinates":[-66.18348,10.36173]}},{"type":"Feature","id":"node/5677447821","properties":{"name":"Mazapa","place":"village"},"geometry":{"type":"Point","coordinates":[-66.14949,10.33711]}},{"type":"Feature","id":"node/5677447822","properties":{"name":"El Tigre","place":"village"},"geometry":{"type":"Point","coordinates":[-66.12144,10.34545]}},{"type":"Feature","id":"node/5677447823","properties":{"name":"El Toro","place":"village"},"geometry":{"type":"Point","coordinates":[-66.09154,10.35528]}},{"type":"Feature","id":"node/5677447825","properties":{"name":"La Mesa","place":"village"},"geometry":{"type":"Point","coordinates":[-66.19299,10.39144]}},{"type":"Feature","id":"node/5677447826","properties":{"name":"El Pauj\u00ed Adentro","place":"village"},"geometry":{"type":"Point","coordinates":[-66.26496,10.39895]}},{"type":"Feature","id":"node/5677447868","properties":{"name":"El Pauj\u00ed","place":"town"},"geometry":{"type":"Point","coordinates":[-66.27262,10.40192]}},{"type":"Feature","id":"node/5677447869","properties":{"name":"La Marturelera","place":"town"},"geometry":{"type":"Point","coordinates":[-66.234,10.41001]}},{"type":"Feature","id":"node/5677447870","properties":{"name":"Ambrosio","place":"village"},"geometry":{"type":"Point","coordinates":[-66.22973,10.40015]}},{"type":"Feature","id":"node/5677447896","properties":{"name":"Las Lapas","place":"village"},"geometry":{"type":"Point","coordinates":[-66.19748,10.35359]}},{"type":"Feature","id":"node/5677447897","properties":{"name":"El Patuco","place":"village"},"geometry":{"type":"Point","coordinates":[-66.21327,10.36953]}},{"type":"Feature","id":"node/5677447898","properties":{"name":"Casa Blanca","place":"village"},"geometry":{"type":"Point","coordinates":[-66.23828,10.37353]}},{"type":"Feature","id":"node/5677448032","properties":{"name":"Ca\u00f1a Amarga","place":"village"},"geometry":{"type":"Point","coordinates":[-66.25694,10.37029]}},{"type":"Feature","id":"node/5677448033","properties":{"name":"Ca\u00f1o Amarillo","place":"village"},"geometry":{"type":"Point","coordinates":[-66.26498,10.35321]}},{"type":"Feature","id":"node/5677448034","properties":{"name":"La Corcovada","place":"village"},"geometry":{"type":"Point","coordinates":[-66.28894,10.34335]}},{"type":"Feature","id":"node/5677448479","properties":{"name":"Los Tanquecitos","place":"village"},"geometry":{"type":"Point","coordinates":[-66.45958,10.36725]}},{"type":"Feature","id":"node/5677448578","properties":{"name":"El Empedrado","place":"village"},"geometry":{"type":"Point","coordinates":[-66.43143,10.34551]}},{"type":"Feature","id":"node/5677448579","properties":{"name":"Cerro Grande","place":"village"},"geometry":{"type":"Point","coordinates":[-66.40085,10.36382]}},{"type":"Feature","id":"node/5677448648","properties":{"name":"Ra\u00edz de Mato","place":"village"},"geometry":{"type":"Point","coordinates":[-66.41122,10.36275]}},{"type":"Feature","id":"node/5677448729","properties":{"name":"Miraflores","place":"village"},"geometry":{"type":"Point","coordinates":[-66.40313,10.34014]}},{"type":"Feature","id":"node/5677449240","properties":{"name":"Urape de Arriba","place":"village"},"geometry":{"type":"Point","coordinates":[-66.36757,10.36242]}},{"type":"Feature","id":"node/5677449241","properties":{"name":"Alto de Merecure","place":"village"},"geometry":{"type":"Point","coordinates":[-66.37908,10.37038]}},{"type":"Feature","id":"node/5677449525","properties":{"name":"Parque Agrinco","place":"village"},"geometry":{"type":"Point","coordinates":[-66.30524,10.35688]}},{"type":"Feature","id":"node/5677449526","properties":{"name":"La Coru\u00f1a","place":"town"},"geometry":{"type":"Point","coordinates":[-66.2958,10.37373]}},{"type":"Feature","id":"node/5677449527","properties":{"name":"Acevedo","place":"village"},"geometry":{"type":"Point","coordinates":[-66.29499,10.40819]}},{"type":"Feature","id":"node/5677449528","properties":{"name":"Ochoa","place":"village"},"geometry":{"type":"Point","coordinates":[-66.30333,10.40391]}},{"type":"Feature","id":"node/5677449529","properties":{"name":"Buena Vista","place":"village"},"geometry":{"type":"Point","coordinates":[-66.33998,10.43368]}},{"type":"Feature","id":"node/5677449532","properties":{"name":"Totumito","place":"village"},"geometry":{"type":"Point","coordinates":[-66.3548,10.44664]}},{"type":"Feature","id":"node/5677449638","properties":{"name":"Latoncito","place":"village"},"geometry":{"type":"Point","coordinates":[-66.44834,10.43398]}},{"type":"Feature","id":"node/5677449641","properties":{"name":"El Horno","place":"village"},"geometry":{"type":"Point","coordinates":[-66.45748,10.39592]}},{"type":"Feature","id":"node/5677450890","properties":{"name":"Cangrejo","place":"village"},"geometry":{"type":"Point","coordinates":[-66.45049,10.40952]}},{"type":"Feature","id":"node/5677450891","properties":{"name":"Quebrada Seca","place":"village"},"geometry":{"type":"Point","coordinates":[-66.43082,10.41461]}},{"type":"Feature","id":"node/5677451320","properties":{"name":"Las Tejer\u00edas","place":"village"},"geometry":{"type":"Point","coordinates":[-66.43266,10.40416]}},{"type":"Feature","id":"node/5677451630","properties":{"name":"Zambrano","place":"village"},"geometry":{"type":"Point","coordinates":[-66.4207,10.43094]}},{"type":"Feature","id":"node/5677451631","properties":{"name":"El Amarillo","place":"village"},"geometry":{"type":"Point","coordinates":[-66.45782,10.437]}},{"type":"Feature","id":"node/5677452348","properties":{"name":"La Ceiba","place":"village"},"geometry":{"type":"Point","coordinates":[-66.434,10.44451]}},{"type":"Feature","id":"node/5677452680","properties":{"name":"Casupal","place":"village"},"geometry":{"type":"Point","coordinates":[-66.41645,10.45076]}},{"type":"Feature","id":"node/5677452693","properties":{"name":"Carrizal","place":"village"},"geometry":{"type":"Point","coordinates":[-66.3986,10.43772]}},{"type":"Feature","id":"node/5677452694","properties":{"name":"Tacamajaco","place":"village"},"geometry":{"type":"Point","coordinates":[-66.39081,10.45219]}},{"type":"Feature","id":"node/5677452695","properties":{"name":"El Peladero","place":"village"},"geometry":{"type":"Point","coordinates":[-66.38781,10.4419]}},{"type":"Feature","id":"node/5677452696","properties":{"name":"El Salmer\u00f3n","place":"village"},"geometry":{"type":"Point","coordinates":[-66.37981,10.46737]}},{"type":"Feature","id":"node/5677452699","properties":{"name":"La Florida","place":"village"},"geometry":{"type":"Point","coordinates":[-66.3455,10.47842]}},{"type":"Feature","id":"node/5677452700","properties":{"name":"La Lucha","place":"village"},"geometry":{"type":"Point","coordinates":[-66.36294,10.48435]}},{"type":"Feature","id":"node/5677452755","properties":{"name":"El Viento","place":"village"},"geometry":{"type":"Point","coordinates":[-66.39984,10.49285]}},{"type":"Feature","id":"node/5677452874","properties":{"name":"El Lirial","place":"village"},"geometry":{"type":"Point","coordinates":[-66.42213,10.4881]}},{"type":"Feature","id":"node/5677452875","properties":{"name":"Los Morochos","place":"village"},"geometry":{"type":"Point","coordinates":[-66.4143,10.48461]}},{"type":"Feature","id":"node/5677452876","properties":{"name":"Campo Alegre","place":"village"},"geometry":{"type":"Point","coordinates":[-66.44641,10.44911]}},{"type":"Feature","id":"node/5677452885","properties":{"name":"Buena Vista","place":"village"},"geometry":{"type":"Point","coordinates":[-66.47502,10.49368]}},{"type":"Feature","id":"node/5677453375","properties":{"name":"Bautismo","place":"village"},"geometry":{"type":"Point","coordinates":[-66.48359,10.48042]}},{"type":"Feature","id":"node/5677453376","properties":{"name":"San Pablo","place":"village"},"geometry":{"type":"Point","coordinates":[-66.47181,10.46361]}},{"type":"Feature","id":"node/5677453584","properties":{"name":"R\u00edo Arriba","place":"village"},"geometry":{"type":"Point","coordinates":[-66.47248,10.4704]}},{"type":"Feature","id":"node/5677453585","properties":{"name":"Taparito","place":"village"},"geometry":{"type":"Point","coordinates":[-66.48699,10.44373]}},{"type":"Feature","id":"node/5677453736","properties":{"name":"Oruza Adentro","place":"village"},"geometry":{"type":"Point","coordinates":[-66.51031,10.38343]}},{"type":"Feature","id":"node/5677453740","properties":{"name":"R\u00edo Grande","place":"village"},"geometry":{"type":"Point","coordinates":[-66.52507,10.43919]}},{"type":"Feature","id":"node/5677453897","properties":{"name":"Tapaima","place":"village"},"geometry":{"type":"Point","coordinates":[-66.51133,10.43253]}},{"type":"Feature","id":"node/5677453898","properties":{"name":"Quebrada Seca","place":"village"},"geometry":{"type":"Point","coordinates":[-66.52637,10.41344]}},{"type":"Feature","id":"node/5677453899","properties":{"name":"El Tamarindo","place":"village"},"geometry":{"type":"Point","coordinates":[-66.50853,10.42524]}},{"type":"Feature","id":"node/5677453900","properties":{"name":"Arag\u00fcita","place":"town"},"geometry":{"type":"Point","coordinates":[-66.48919,10.39614]}},{"type":"Feature","id":"node/5677454036","properties":{"name":"Capayita","place":"village"},"geometry":{"type":"Point","coordinates":[-66.4604,10.34788]}},{"type":"Feature","id":"node/5677455201","properties":{"name":"Oruza","place":"village"},"geometry":{"type":"Point","coordinates":[-66.50145,10.39173]}},{"type":"Feature","id":"node/5677455709","properties":{"name":"El Lat\u00f3n","place":"village"},"geometry":{"type":"Point","coordinates":[-66.50029,10.30694]}},{"type":"Feature","id":"node/5677456165","properties":{"name":"Santa Rosal\u00eda","place":"village"},"geometry":{"type":"Point","coordinates":[-66.49766,10.26583]}},{"type":"Feature","id":"node/5677456265","properties":{"name":"El Trabajo","place":"village"},"geometry":{"type":"Point","coordinates":[-66.46447,10.25418]}},{"type":"Feature","id":"node/5677456268","properties":{"name":"Muruguata","place":"village"},"geometry":{"type":"Point","coordinates":[-66.47091,10.30512]}},{"type":"Feature","id":"node/5677456657","properties":{"name":"Casupo Arriba","place":"village"},"geometry":{"type":"Point","coordinates":[-66.43844,10.30054]}},{"type":"Feature","id":"node/5677456658","properties":{"name":"Mesa de Urape","place":"town"},"geometry":{"type":"Point","coordinates":[-66.33223,10.33709]}},{"type":"Feature","id":"node/5677456659","properties":{"name":"Santa Elena","place":"town"},"geometry":{"type":"Point","coordinates":[-66.33225,10.34618]}},{"type":"Feature","id":"node/5677456660","properties":{"name":"Yaguapita","place":"village"},"geometry":{"type":"Point","coordinates":[-66.34395,10.32828]}},{"type":"Feature","id":"node/5693557493","properties":{"name":"La Bonanza","place":"village"},"geometry":{"type":"Point","coordinates":[-66.89541,10.29325]}},{"type":"Feature","id":"node/5693557515","properties":{"name":"Los Lirios","place":"town"},"geometry":{"type":"Point","coordinates":[-66.93469,10.27815]}},{"type":"Feature","id":"node/5693558521","properties":{"name":"Buena Vista","place":"village"},"geometry":{"type":"Point","coordinates":[-66.8753,10.29637]}},{"type":"Feature","id":"node/5693558591","properties":{"name":"La Lagunita","place":"village"},"geometry":{"type":"Point","coordinates":[-66.86095,10.2909]}},{"type":"Feature","id":"node/5693558595","properties":{"name":"Mume Arriba","place":"village"},"geometry":{"type":"Point","coordinates":[-66.88507,10.22734]}},{"type":"Feature","id":"node/5693558804","properties":{"name":"Punta Brava","place":"village"},"geometry":{"type":"Point","coordinates":[-66.89092,10.23149]}},{"type":"Feature","id":"node/5693559054","properties":{"name":"Parques del Sur","place":"village"},"geometry":{"type":"Point","coordinates":[-66.93694,10.25037]}},{"type":"Feature","id":"node/5693559248","properties":{"name":"La Mota","place":"village"},"geometry":{"type":"Point","coordinates":[-66.97136,10.22999]}},{"type":"Feature","id":"node/5693559554","properties":{"name":"Las Tejer\u00edas","place":"village"},"geometry":{"type":"Point","coordinates":[-66.95366,10.23408]}},{"type":"Feature","id":"node/5693559915","properties":{"name":"Las Mayas","place":"village"},"geometry":{"type":"Point","coordinates":[-66.93059,10.20331]}},{"type":"Feature","id":"node/5693559916","properties":{"name":"Sacua Abajo","place":"village"},"geometry":{"type":"Point","coordinates":[-66.94004,10.21185]}},{"type":"Feature","id":"node/5693559918","properties":{"name":"La Cabrera","place":"village"},"geometry":{"type":"Point","coordinates":[-66.93443,10.23832]}},{"type":"Feature","id":"node/5693560026","properties":{"name":"Los Cuj\u00edes","place":"village"},"geometry":{"type":"Point","coordinates":[-67.01387,10.22821]}},{"type":"Feature","id":"node/5693560027","properties":{"name":"Piedras Azules","place":"village"},"geometry":{"type":"Point","coordinates":[-67.00815,10.21524]}},{"type":"Feature","id":"node/5693560067","properties":{"name":"La Palma","place":"village"},"geometry":{"type":"Point","coordinates":[-67.02193,10.17334]}},{"type":"Feature","id":"node/5693560068","properties":{"name":"R\u00edo Arriba","place":"village"},"geometry":{"type":"Point","coordinates":[-67.02062,10.15462]}},{"type":"Feature","id":"node/5693560073","properties":{"name":"Capayita","place":"village"},"geometry":{"type":"Point","coordinates":[-66.98125,10.18968]}},{"type":"Feature","id":"node/5693560074","properties":{"name":"Sabaneta","place":"town"},"geometry":{"type":"Point","coordinates":[-66.96405,10.18172]}},{"type":"Feature","id":"node/5693560528","properties":{"name":"Macag\u00fcita","place":"village"},"geometry":{"type":"Point","coordinates":[-66.9413,10.12738]}},{"type":"Feature","id":"node/5693561158","properties":{"name":"Aniagua","place":"village"},"geometry":{"type":"Point","coordinates":[-66.97154,10.10218]}},{"type":"Feature","id":"node/5693561159","properties":{"name":"Aniag\u00fcita","place":"village"},"geometry":{"type":"Point","coordinates":[-66.97811,10.09096]}},{"type":"Feature","id":"node/5693561161","properties":{"name":"Arag\u00fcita","place":"village"},"geometry":{"type":"Point","coordinates":[-66.90523,10.12622]}},{"type":"Feature","id":"node/5693561164","properties":{"name":"La Guadalupe","place":"village"},"geometry":{"type":"Point","coordinates":[-66.91278,10.09663]}},{"type":"Feature","id":"node/5693561167","properties":{"name":"Onza","place":"village"},"geometry":{"type":"Point","coordinates":[-66.87786,10.07206]}},{"type":"Feature","id":"node/5693561168","properties":{"name":"La Palmita","place":"village"},"geometry":{"type":"Point","coordinates":[-66.92595,10.08026]}},{"type":"Feature","id":"node/5693561892","properties":{"name":"Palacio","place":"village"},"geometry":{"type":"Point","coordinates":[-66.92579,10.05614]}},{"type":"Feature","id":"node/5693561893","properties":{"name":"La Providencia","place":"village"},"geometry":{"type":"Point","coordinates":[-66.92064,10.05065]}},{"type":"Feature","id":"node/5693561895","properties":{"name":"Mar\u00edn","place":"village"},"geometry":{"type":"Point","coordinates":[-66.92911,10.076]}},{"type":"Feature","id":"node/5693561980","properties":{"name":"Las Quebraditas","place":"village"},"geometry":{"type":"Point","coordinates":[-66.94781,10.06426]}},{"type":"Feature","id":"node/5694794113","properties":{"name":"Salamanca","place":"town"},"geometry":{"type":"Point","coordinates":[-66.81048,10.2017]}},{"type":"Feature","id":"node/5694794116","properties":{"name":"Las Tres Letras","place":"village"},"geometry":{"type":"Point","coordinates":[-66.8208,10.19209]}},{"type":"Feature","id":"node/5694798324","properties":{"name":"Mume","place":"village"},"geometry":{"type":"Point","coordinates":[-66.87192,10.18605]}},{"type":"Feature","id":"node/5694798340","properties":{"name":"La Aguada de Tovar","place":"town"},"geometry":{"type":"Point","coordinates":[-66.867,10.14542]}},{"type":"Feature","id":"node/5694798627","properties":{"name":"Los Grifales","place":"town"},"geometry":{"type":"Point","coordinates":[-66.81874,10.15]}},{"type":"Feature","id":"node/5694798750","properties":{"name":"Los Cerritos","place":"village"},"geometry":{"type":"Point","coordinates":[-66.79206,10.21637]}},{"type":"Feature","id":"node/5694798751","properties":{"name":"La Bos\u00faa","place":"village"},"geometry":{"type":"Point","coordinates":[-66.79007,10.20838]}},{"type":"Feature","id":"node/5694798851","properties":{"name":"La Aguada del Medio","place":"town"},"geometry":{"type":"Point","coordinates":[-66.75437,10.20971]}},{"type":"Feature","id":"node/5694798852","properties":{"name":"La Aguadita","place":"town"},"geometry":{"type":"Point","coordinates":[-66.73435,10.20724]}},{"type":"Feature","id":"node/5694798921","properties":{"name":"El Tigre","place":"town"},"geometry":{"type":"Point","coordinates":[-66.73649,10.22284]}},{"type":"Feature","id":"node/5694798922","properties":{"name":"La Pica","place":"town"},"geometry":{"type":"Point","coordinates":[-66.71296,10.22384]}},{"type":"Feature","id":"node/5694798926","properties":{"name":"El Hornito","place":"village"},"geometry":{"type":"Point","coordinates":[-66.69138,10.21612]}},{"type":"Feature","id":"node/5694798941","properties":{"name":"Pararrayos","place":"village"},"geometry":{"type":"Point","coordinates":[-66.72773,10.19537]}},{"type":"Feature","id":"node/5694798955","properties":{"name":"San Juan","place":"village"},"geometry":{"type":"Point","coordinates":[-66.72948,10.15773]}},{"type":"Feature","id":"node/5694799386","properties":{"name":"Tocor\u00f3n","place":"town"},"geometry":{"type":"Point","coordinates":[-66.71932,10.15267]}},{"type":"Feature","id":"node/5694799388","properties":{"name":"Quebrada de Miguel","place":"village"},"geometry":{"type":"Point","coordinates":[-66.70635,10.12397]}},{"type":"Feature","id":"node/5694799389","properties":{"name":"Zancudal","place":"village"},"geometry":{"type":"Point","coordinates":[-66.69935,10.11403]}},{"type":"Feature","id":"node/5694799687","properties":{"name":"El Carmen","place":"village"},"geometry":{"type":"Point","coordinates":[-66.72204,10.1109]}},{"type":"Feature","id":"node/5694799690","properties":{"name":"Caracarapa","place":"town"},"geometry":{"type":"Point","coordinates":[-66.74505,10.09588]}},{"type":"Feature","id":"node/5694799701","properties":{"name":"Hornito","place":"village"},"geometry":{"type":"Point","coordinates":[-66.73632,10.09108]}},{"type":"Feature","id":"node/5694799702","properties":{"name":"El Pe\u00f1\u00f3n","place":"village"},"geometry":{"type":"Point","coordinates":[-66.72605,10.08717]}},{"type":"Feature","id":"node/5694800189","properties":{"name":"Cenicero","place":"village"},"geometry":{"type":"Point","coordinates":[-66.70603,10.03297]}},{"type":"Feature","id":"node/5694800446","properties":{"name":"Los Confines","place":"village"},"geometry":{"type":"Point","coordinates":[-66.72729,10.01537]}},{"type":"Feature","id":"node/5694800851","properties":{"name":"San Vicente","place":"village"},"geometry":{"type":"Point","coordinates":[-66.74674,10.01146]}},{"type":"Feature","id":"node/5694800852","properties":{"name":"Caramacate","place":"village"},"geometry":{"type":"Point","coordinates":[-66.75561,10.01831]}},{"type":"Feature","id":"node/5694800861","properties":{"name":"La Aguadita","place":"village"},"geometry":{"type":"Point","coordinates":[-66.72951,10.05325]}},{"type":"Feature","id":"node/5694801056","properties":{"name":"Los Vegotes","place":"village"},"geometry":{"type":"Point","coordinates":[-66.71918,10.04399]}},{"type":"Feature","id":"node/5694801059","properties":{"name":"La Lima","place":"village"},"geometry":{"type":"Point","coordinates":[-66.7389,10.03335]}},{"type":"Feature","id":"node/5694802858","properties":{"name":"Los Pl\u00e1tanos","place":"village"},"geometry":{"type":"Point","coordinates":[-66.75014,10.04543]}},{"type":"Feature","id":"node/5694802859","properties":{"name":"Helechal","place":"village"},"geometry":{"type":"Point","coordinates":[-66.75108,10.06341]}},{"type":"Feature","id":"node/5694802860","properties":{"name":"Las Mercedes","place":"village"},"geometry":{"type":"Point","coordinates":[-66.75146,10.08235]}},{"type":"Feature","id":"node/5694803282","properties":{"name":"Sanguijuela","place":"village"},"geometry":{"type":"Point","coordinates":[-66.83034,10.063]}},{"type":"Feature","id":"node/5694803283","properties":{"name":"Ocumarito","place":"village"},"geometry":{"type":"Point","coordinates":[-66.84327,10.05466]}},{"type":"Feature","id":"node/5694803284","properties":{"name":"El Gu\u00e1simo","place":"village"},"geometry":{"type":"Point","coordinates":[-66.83095,10.03506]}},{"type":"Feature","id":"node/5694803285","properties":{"name":"Los Caimitos","place":"village"},"geometry":{"type":"Point","coordinates":[-66.86232,10.02403]}},{"type":"Feature","id":"node/5694804142","properties":{"name":"Agua Amarilla","place":"village"},"geometry":{"type":"Point","coordinates":[-66.85681,10.03153]}},{"type":"Feature","id":"node/5694804144","properties":{"name":"Las Palomas","place":"village"},"geometry":{"type":"Point","coordinates":[-66.81012,10.03136]}},{"type":"Feature","id":"node/5694804145","properties":{"name":"Caisita","place":"village"},"geometry":{"type":"Point","coordinates":[-66.80152,10.03724]}},{"type":"Feature","id":"node/5694804147","properties":{"name":"Bajo Seco","place":"village"},"geometry":{"type":"Point","coordinates":[-66.80077,10.05409]}},{"type":"Feature","id":"node/5694804181","properties":{"name":"La Palma","place":"village"},"geometry":{"type":"Point","coordinates":[-66.80631,10.06857]}},{"type":"Feature","id":"node/5694804184","properties":{"name":"Los Cajones","place":"village"},"geometry":{"type":"Point","coordinates":[-66.78325,10.07987]}},{"type":"Feature","id":"node/5694804442","properties":{"name":"Paraguas","place":"village"},"geometry":{"type":"Point","coordinates":[-66.83797,10.1029]}},{"type":"Feature","id":"node/5694804578","properties":{"name":"Loverita","place":"town"},"geometry":{"type":"Point","coordinates":[-66.80987,10.11746]}},{"type":"Feature","id":"node/5694804582","properties":{"name":"La Siempreviva","place":"village"},"geometry":{"type":"Point","coordinates":[-66.85304,10.12511]}},{"type":"Feature","id":"node/5696325420","properties":{"name":"Los Loros","place":"village"},"geometry":{"type":"Point","coordinates":[-66.55923,10.26292]}},{"type":"Feature","id":"node/5696327121","properties":{"name":"Urapal","place":"village"},"geometry":{"type":"Point","coordinates":[-66.5496,10.25209]}},{"type":"Feature","id":"node/5696327584","properties":{"name":"San Vicente","place":"town"},"geometry":{"type":"Point","coordinates":[-66.60013,10.25842]}},{"type":"Feature","id":"node/5696327735","properties":{"name":"Las Am\u00e9ricas","place":"village"},"geometry":{"type":"Point","coordinates":[-66.60733,10.33814]}},{"type":"Feature","id":"node/5696327736","properties":{"name":"La Cabrera","place":"village"},"geometry":{"type":"Point","coordinates":[-66.58692,10.33621]}},{"type":"Feature","id":"node/5696327767","properties":{"name":"Macanilla","place":"village"},"geometry":{"type":"Point","coordinates":[-66.56251,10.34365]}},{"type":"Feature","id":"node/5696328179","properties":{"name":"Las Mercedes","place":"village"},"geometry":{"type":"Point","coordinates":[-66.55037,10.30911]}},{"type":"Feature","id":"node/5696328180","properties":{"name":"Agua Amarilla","place":"town"},"geometry":{"type":"Point","coordinates":[-66.56973,10.33064]}},{"type":"Feature","id":"node/5696328201","properties":{"name":"Las Monjas","place":"village"},"geometry":{"type":"Point","coordinates":[-66.64708,10.26454]}},{"type":"Feature","id":"node/5696328212","properties":{"name":"El Volc\u00e1n","place":"village"},"geometry":{"type":"Point","coordinates":[-66.67532,10.28902]}},{"type":"Feature","id":"node/5696328309","properties":{"name":"Las Casitas","place":"village"},"geometry":{"type":"Point","coordinates":[-66.79739,10.31055]}},{"type":"Feature","id":"node/5696328528","properties":{"name":"La Florida","place":"village"},"geometry":{"type":"Point","coordinates":[-66.7224,10.31213]}},{"type":"Feature","id":"node/5696328529","properties":{"name":"El Alto de Soapire","place":"city"},"geometry":{"type":"Point","coordinates":[-66.72881,10.27622]}},{"type":"Feature","id":"node/5696328530","properties":{"name":"La Verota","place":"town"},"geometry":{"type":"Point","coordinates":[-66.75886,10.25477]}},{"type":"Feature","id":"node/5700867418","properties":{"place":"village"},"geometry":{"type":"Point","coordinates":[-66.71388,10.43418]}},{"type":"Feature","id":"node/5700867422","properties":{"name":"El Cedral","place":"village"},"geometry":{"type":"Point","coordinates":[-66.74156,10.37296]}},{"type":"Feature","id":"node/5700867537","properties":{"name":"Cujicito","place":"village"},"geometry":{"type":"Point","coordinates":[-66.68567,10.46985]}},{"type":"Feature","id":"node/5700867538","properties":{"name":"Izcaragua","place":"village"},"geometry":{"type":"Point","coordinates":[-66.69606,10.47737]}},{"type":"Feature","id":"node/5700867540","properties":{"name":"Ochoa","place":"village"},"geometry":{"type":"Point","coordinates":[-66.70462,10.47662]}},{"type":"Feature","id":"node/5700867541","properties":{"name":"Agua Amarilla","place":"village"},"geometry":{"type":"Point","coordinates":[-66.71231,10.47782]}},{"type":"Feature","id":"node/5700867552","properties":{"name":"Culebrillas","place":"village"},"geometry":{"type":"Point","coordinates":[-66.74853,10.51157]}},{"type":"Feature","id":"node/5700867571","properties":{"name":"London","place":"village"},"geometry":{"type":"Point","coordinates":[-66.73297,10.3575]}},{"type":"Feature","id":"node/5700867983","properties":{"name":"La Constancia","place":"village"},"geometry":{"type":"Point","coordinates":[-66.71033,10.40682]}},{"type":"Feature","id":"node/5700868408","properties":{"name":"Chaguaramos","place":"village"},"geometry":{"type":"Point","coordinates":[-66.71914,10.40576]}},{"type":"Feature","id":"node/5700868410","properties":{"name":"Campo Alegre","place":"village"},"geometry":{"type":"Point","coordinates":[-66.65603,10.42755]}},{"type":"Feature","id":"node/5700868874","properties":{"name":"Las Minas","place":"village"},"geometry":{"type":"Point","coordinates":[-66.65933,10.41997]}},{"type":"Feature","id":"node/5700870007","properties":{"name":"Sauce","place":"village"},"geometry":{"type":"Point","coordinates":[-66.65942,10.41197]}},{"type":"Feature","id":"node/5700870010","properties":{"name":"La Clavellina","place":"village"},"geometry":{"type":"Point","coordinates":[-66.62822,10.42977]}},{"type":"Feature","id":"node/5700870715","properties":{"name":"La Palma","place":"village"},"geometry":{"type":"Point","coordinates":[-66.62127,10.39329]}},{"type":"Feature","id":"node/5700870716","properties":{"name":"Ochoa","place":"village"},"geometry":{"type":"Point","coordinates":[-66.62501,10.40162]}},{"type":"Feature","id":"node/5700870848","properties":{"name":"Paradero","place":"village"},"geometry":{"type":"Point","coordinates":[-66.63217,10.41326]}},{"type":"Feature","id":"node/5700870849","properties":{"name":"El Socorro","place":"village"},"geometry":{"type":"Point","coordinates":[-66.63669,10.40929]}},{"type":"Feature","id":"node/5700870881","properties":{"name":"El Bucar\u00e9","place":"village"},"geometry":{"type":"Point","coordinates":[-66.59719,10.40952]}},{"type":"Feature","id":"node/5700870883","properties":{"name":"Los Aguacates","place":"village"},"geometry":{"type":"Point","coordinates":[-66.58514,10.40921]}},{"type":"Feature","id":"node/5700871512","properties":{"name":"El Eneal","place":"village"},"geometry":{"type":"Point","coordinates":[-66.56533,10.41083]}},{"type":"Feature","id":"node/5700872435","properties":{"name":"Jeric\u00f3","place":"village"},"geometry":{"type":"Point","coordinates":[-66.55269,10.42245]}},{"type":"Feature","id":"node/5700872436","properties":{"name":"Casa Amarilla","place":"village"},"geometry":{"type":"Point","coordinates":[-66.57545,10.40874]}},{"type":"Feature","id":"node/5700872916","properties":{"name":"La Palmita Sur","place":"village"},"geometry":{"type":"Point","coordinates":[-66.5484,10.39486]}},{"type":"Feature","id":"node/5700873317","properties":{"name":"La Palmita Norte","place":"village"},"geometry":{"type":"Point","coordinates":[-66.55367,10.39623]}},{"type":"Feature","id":"node/5700873622","properties":{"name":"La Laguna","place":"village"},"geometry":{"type":"Point","coordinates":[-66.51373,10.36675]}},{"type":"Feature","id":"node/5700873656","properties":{"name":"Tumuso","place":"village"},"geometry":{"type":"Point","coordinates":[-66.57133,10.36671]}},{"type":"Feature","id":"node/5700873689","properties":{"name":"San Jos\u00e9","place":"village"},"geometry":{"type":"Point","coordinates":[-66.57288,10.35437]}},{"type":"Feature","id":"node/5700873735","properties":{"name":"San Vicente","place":"town"},"geometry":{"type":"Point","coordinates":[-66.68225,10.39807]}},{"type":"Feature","id":"node/5700873736","properties":{"name":"Arenaza","place":"village"},"geometry":{"type":"Point","coordinates":[-66.64841,10.36856]}},{"type":"Feature","id":"node/5700873737","properties":{"name":"La Florida","place":"town"},"geometry":{"type":"Point","coordinates":[-66.64338,10.36459]}},{"type":"Feature","id":"node/5700873817","properties":{"name":"Pichao","place":"village"},"geometry":{"type":"Point","coordinates":[-66.63243,10.3419]}},{"type":"Feature","id":"node/5702376668","properties":{"name":"IVIC","place":"village"},"geometry":{"type":"Point","coordinates":[-66.97624,10.39771]}},{"type":"Feature","id":"node/5702376699","properties":{"name":"El Vapor","place":"village"},"geometry":{"type":"Point","coordinates":[-66.88044,10.33133]}},{"type":"Feature","id":"node/5702376702","properties":{"name":"El Aguacatal","place":"village"},"geometry":{"type":"Point","coordinates":[-66.92199,10.326]}},{"type":"Feature","id":"node/5702376704","properties":{"name":"Macarizagua","place":"village"},"geometry":{"type":"Point","coordinates":[-66.88545,10.34724]}},{"type":"Feature","id":"node/5702378992","properties":{"name":"Alto de La Loma","place":"town"},"geometry":{"type":"Point","coordinates":[-66.87095,10.37204]}},{"type":"Feature","id":"node/5702379033","properties":{"name":"San Jos\u00e9","place":"village"},"geometry":{"type":"Point","coordinates":[-66.92131,10.35847]}},{"type":"Feature","id":"node/5702379034","properties":{"name":"La Manguita","place":"village"},"geometry":{"type":"Point","coordinates":[-66.92383,10.36736]}},{"type":"Feature","id":"node/5702379051","properties":{"name":"La Pepina","place":"village"},"geometry":{"type":"Point","coordinates":[-66.94676,10.33038]}},{"type":"Feature","id":"node/5702379052","properties":{"name":"La Media Agua","place":"town"},"geometry":{"type":"Point","coordinates":[-66.9639,10.33015]}},{"type":"Feature","id":"node/5702379055","properties":{"name":"El Cerro","place":"village"},"geometry":{"type":"Point","coordinates":[-66.9665,10.3168]}},{"type":"Feature","id":"node/5702379057","properties":{"name":"Guareguare","place":"village"},"geometry":{"type":"Point","coordinates":[-66.97635,10.29763]}},{"type":"Feature","id":"node/5702379067","properties":{"name":"El Pe\u00f1\u00f3n","place":"town"},"geometry":{"type":"Point","coordinates":[-66.93125,10.32424]}},{"type":"Feature","id":"node/5702379068","properties":{"name":"Cocorote","place":"village"},"geometry":{"type":"Point","coordinates":[-66.93086,10.31324]}},{"type":"Feature","id":"node/5702379238","properties":{"name":"Chupul\u00fan","place":"village"},"geometry":{"type":"Point","coordinates":[-66.94369,10.28671]}},{"type":"Feature","id":"node/5702379472","properties":{"name":"Popuere","place":"village"},"geometry":{"type":"Point","coordinates":[-66.93261,10.29111]}},{"type":"Feature","id":"node/5737219229","properties":{"name":"El Mogote","place":"village"},"geometry":{"type":"Point","coordinates":[-67.05342,10.24248]}},{"type":"Feature","id":"node/5737219232","properties":{"name":"Limoncito","place":"village"},"geometry":{"type":"Point","coordinates":[-67.06239,10.29389]}},{"type":"Feature","id":"node/5737219234","properties":{"name":"Boquer\u00f3n","place":"village"},"geometry":{"type":"Point","coordinates":[-67.07771,10.27504]}},{"type":"Feature","id":"node/5737219339","properties":{"name":"Los L\u00edmites","place":"village"},"geometry":{"type":"Point","coordinates":[-67.11747,10.26579]}},{"type":"Feature","id":"node/5737219715","properties":{"name":"La Ermita","place":"village"},"geometry":{"type":"Point","coordinates":[-67.13352,10.3191]}},{"type":"Feature","id":"node/5737220827","properties":{"name":"La Enea","place":"village"},"geometry":{"type":"Point","coordinates":[-67.18283,10.36976]}},{"type":"Feature","id":"node/5737222262","properties":{"name":"Quebrada Honda","place":"village"},"geometry":{"type":"Point","coordinates":[-67.15545,10.3443]}},{"type":"Feature","id":"node/5737222263","properties":{"name":"El Azufral","place":"village"},"geometry":{"type":"Point","coordinates":[-67.16063,10.351]}},{"type":"Feature","id":"node/5737222272","properties":{"name":"Las Lajas","place":"village"},"geometry":{"type":"Point","coordinates":[-67.13346,10.33626]}},{"type":"Feature","id":"node/5737222274","properties":{"name":"La Florida","place":"village"},"geometry":{"type":"Point","coordinates":[-67.09181,10.35959]}},{"type":"Feature","id":"node/5737222275","properties":{"name":"Las Guamas","place":"village"},"geometry":{"type":"Point","coordinates":[-67.09692,10.35028]}},{"type":"Feature","id":"node/5737222276","properties":{"name":"Pozo de Rosas","place":"village"},"geometry":{"type":"Point","coordinates":[-67.10994,10.35125]}},{"type":"Feature","id":"node/5737222277","properties":{"name":"Garabato","place":"village"},"geometry":{"type":"Point","coordinates":[-67.10539,10.36539]}},{"type":"Feature","id":"node/5747487333","properties":{"name":"Cagua de Las Mercedes","place":"village"},"geometry":{"type":"Point","coordinates":[-67.11402,10.21545]}},{"type":"Feature","id":"node/5747487620","properties":{"name":"San Andr\u00e9s","place":"village"},"geometry":{"type":"Point","coordinates":[-67.11647,10.13298]}},{"type":"Feature","id":"node/5747487621","properties":{"name":"El Amparo","place":"village"},"geometry":{"type":"Point","coordinates":[-67.0914,10.13357]}},{"type":"Feature","id":"node/5747487626","properties":{"name":"Las Delicias","place":"village"},"geometry":{"type":"Point","coordinates":[-67.07499,10.13184]}},{"type":"Feature","id":"node/5747487627","properties":{"name":"El Bagre","place":"village"},"geometry":{"type":"Point","coordinates":[-67.05707,10.12172]}},{"type":"Feature","id":"node/5747487629","properties":{"name":"Guare","place":"village"},"geometry":{"type":"Point","coordinates":[-67.04688,10.10999]}},{"type":"Feature","id":"node/5747487630","properties":{"name":"Los Amarillos","place":"village"},"geometry":{"type":"Point","coordinates":[-67.0481,10.10099]}},{"type":"Feature","id":"node/5747488272","properties":{"name":"El Gu\u00e1simo","place":"village"},"geometry":{"type":"Point","coordinates":[-67.02976,10.08669]}},{"type":"Feature","id":"node/5747488273","properties":{"name":"Las Dolores","place":"village"},"geometry":{"type":"Point","coordinates":[-67.01789,10.07814]}},{"type":"Feature","id":"node/5747488274","properties":{"name":"Bucarito","place":"village"},"geometry":{"type":"Point","coordinates":[-67.03626,10.08363]}},{"type":"Feature","id":"node/8822836230","properties":{"name":"Santa B\u00e1rbara","place":"village"},"geometry":{"type":"Point","coordinates":[-65.93798,10.21791]}},{"type":"Feature","id":"node/11599918095","properties":{"name":"Guaremal Afuera","place":"village"},"geometry":{"type":"Point","coordinates":[-67.04458,10.30976]}}]}