{"type":"FeatureCollection","features":[{"type":"Feature","id":"relation/2442703","properties":{"name":"Municipio Vargas","level":6,"population":"352920"},"geometry":{"type":"Polygon","coordinates":[[[-67.40641,10.52043],[-67.405,10.51835],[-67.40922,10.51667],[-67.40765,10.51449],[-67.41224,10.51371],[-67.40746,10.50951],[-67.40935,10.50961],[-67.40906,10.50636],[-67.4046,10.50585],[-67.3973,10.49605],[-67.39382,10.49733],[-67.38948,10.49437],[-67.39304,10.48589],[-67.39053,10.48595],[-67.39019,10.48321],[-67.38249,10.48256],[-67.38269,10.4695],[-67.37989,10.46777],[-67.37706,10.45243],[-67.37271,10.45153],[-67.36914,10.44441],[-67.36296,10.44394],[-67.36311,10.43938],[-67.36105,10.43868],[-67.36368,10.43614],[-67.36121,10.43352],[-67.36347,10.42604],[-67.35977,10.42278],[-67.36123,10.41362],[-67.3458,10.39868],[-67.34799,10.38804],[-67.33843,10.39448],[-67.33152,10.40563],[-67.31178,10.41099],[-67.29103,10.42442],[-67.28176,10.42107],[-67.24542,10.42689],[-67.24157,10.42506],[-67.24136,10.42183],[-67.23073,10.41815],[-67.22963,10.4119],[-67.22217,10.40964],[-67.21811,10.41087],[-67.21633,10.41703],[-67.20869,10.41836],[-67.20973,10.42173],[-67.20507,10.42104],[-67.20117,10.42492],[-67.1953,10.42426],[-67.18357,10.42981],[-67.17072,10.4315],[-67.15963,10.4374],[-67.15935,10.43997],[-67.14957,10.44167],[-67.14327,10.44936],[-67.13076,10.45254],[-67.12123,10.45799],[-67.11489,10.45709],[-67.10119,10.46147],[-67.09817,10.45954],[-67.05955,10.46484],[-67.05781,10.48126],[-67.05985,10.48621],[-67.05442,10.50271],[-67.06232,10.51462],[-67.05255,10.51953],[-67.05071,10.52325],[-67.04775,10.52283],[-67.04497,10.52957],[-67.03338,10.53401],[-67.02809,10.53325],[-67.02559,10.53859],[-67.02306,10.53785],[-67.02372,10.53962],[-67.01823,10.54168],[-67.01762,10.54609],[-67.0263,10.55116],[-67.02159,10.56474],[-67.01746,10.56774],[-67.00895,10.55969],[-66.9968,10.56369],[-66.98697,10.55585],[-66.97813,10.55606],[-66.96502,10.54876],[-66.95443,10.54834],[-66.95135,10.54432],[-66.93803,10.5459],[-66.93483,10.54931],[-66.91591,10.55336],[-66.89211,10.54724],[-66.88055,10.54051],[-66.87434,10.54246],[-66.86617,10.54939],[-66.85975,10.54975],[-66.85569,10.54311],[-66.84772,10.53782],[-66.82166,10.54896],[-66.81414,10.5485],[-66.79902,10.54129],[-66.78851,10.54241],[-66.77542,10.54753],[-66.758,10.54586],[-66.74851,10.54104],[-66.74177,10.54618],[-66.73456,10.54553],[-66.72961,10.54775],[-66.72013,10.54655],[-66.70951,10.53928],[-66.70079,10.54269],[-66.67685,10.54553],[-66.67362,10.54248],[-66.65445,10.54288],[-66.64692,10.53964],[-66.64146,10.53925],[-66.63637,10.54195],[-66.62564,10.54022],[-66.61643,10.54169],[-66.60504,10.53838],[-66.59176,10.55381],[-66.5828,10.55565],[-66.57094,10.54965],[-66.55113,10.54598],[-66.5402,10.54668],[-66.53579,10.5527],[-66.53145,10.5529],[-66.50444,10.54772],[-66.49847,10.545],[-66.49581,10.53895],[-66.48238,10.53716],[-66.47114,10.53189],[-66.46584,10.5362],[-66.45958,10.53627],[-66.4568,10.54084],[-66.45207,10.53931],[-66.44748,10.53364],[-66.441,10.53223],[-66.43028,10.53438],[-66.42505,10.54101],[-66.41992,10.54278],[-66.41515,10.54281],[-66.40934,10.53861],[-66.39367,10.53408],[-66.3588,10.5398],[-66.34985,10.53582],[-66.34641,10.52584],[-66.33531,10.52655],[-66.32901,10.52142],[-66.32558,10.52254],[-66.32019,10.51927],[-66.31717,10.52045],[-66.31637,10.52951],[-66.31296,10.53381],[-66.31791,10.54576],[-66.32179,10.54749],[-66.31985,10.55365],[-66.32136,10.55743],[-66.31779,10.55989],[-66.31938,10.56306],[-66.31447,10.56728],[-66.3117,10.57982],[-66.30817,10.5842],[-66.31078,10.58603],[-66.30892,10.58917],[-66.3126,10.59144],[-66.31004,10.5956],[-66.31205,10.5992],[-66.31009,10.61102],[-66.30646,10.61267],[-66.32204,10.62371],[-66.34997,10.61531],[-66.35428,10.6163],[-66.36206,10.61822],[-66.38043,10.629],[-66.38848,10.62968],[-66.40587,10.63764],[-66.41451,10.63914],[-66.42246,10.63587],[-66.43438,10.6367],[-66.44012,10.63456],[-66.44972,10.63823],[-66.45943,10.63686],[-66.46939,10.63949],[-66.47677,10.63722],[-66.50498,10.6402],[-66.55637,10.63582],[-66.5701,10.63791],[-66.6093,10.63392],[-66.65183,10.63331],[-66.66654,10.6299],[-66.67408,10.63252],[-66.70178,10.63013],[-66.71659,10.63549],[-66.72404,10.63302],[-66.72778,10.62916],[-66.74079,10.63454],[-66.7493,10.63213],[-66.75613,10.624],[-66.76712,10.62497],[-66.77309,10.62199],[-66.78307,10.62244],[-66.7971,10.619],[-66.81851,10.62137],[-66.82363,10.62451],[-66.8312,10.62353],[-66.83696,10.62891],[-66.84668,10.63164],[-66.8623,10.62696],[-66.86874,10.6213],[-66.88689,10.6211],[-66.90889,10.61227],[-66.9156,10.61464],[-66.93741,10.61146],[-66.9492,10.61619],[-66.9549,10.61516],[-66.95897,10.6108],[-66.98582,10.62258],[-66.99536,10.62023],[-67.01744,10.62423],[-67.03552,10.62049],[-67.05343,10.60339],[-67.07012,10.5979],[-67.08179,10.5982],[-67.09414,10.58933],[-67.10495,10.59118],[-67.11008,10.58635],[-67.12216,10.58104],[-67.14181,10.57757],[-67.15935,10.572],[-67.16318,10.56871],[-67.1727,10.56935],[-67.1874,10.56418],[-67.2083,10.56558],[-67.21892,10.55985],[-67.23846,10.56412],[-67.24714,10.55843],[-67.25449,10.5589],[-67.26046,10.5552],[-67.28801,10.55514],[-67.3097,10.54941],[-67.33149,10.55259],[-67.34968,10.55245],[-67.37866,10.54271],[-67.39844,10.54274],[-67.4,10.52867],[-67.40541,10.52625],[-67.40641,10.52043]]]}}]}