{"type":"FeatureCollection","features":[{"type":"Feature","id":"relation/272744","properties":{"name":"Lara","level":4},"geometry":{"type":"Polygon","coordinates":[[[-69.20796,10.08738],[-69.21064,10.08778],[-69.21268,10.08331],[-69.21598,10.08468],[-69.21675,10.0889],[-69.21289,10.09052],[-69.2155,10.09324],[-69.21608,10.10474],[-69.22114,10.10983],[-69.22263,10.11673],[-69.20519,10.1271],[-69.2037,10.13741],[-69.19263,10.13687],[-69.18711,10.14182],[-69.17914,10.1444],[-69.17415,10.14169],[-69.16767,10.1452],[-69.16151,10.13196],[-69.15415,10.13519],[-69.14265,10.13071],[-69.13066,10.14132],[-69.1189,10.14324],[-69.11996,10.15381],[-69.11398,10.15911],[-69.11699,10.16915],[-69.11089,10.18261],[-69.11474,10.18881],[-69.11063,10.19777],[-69.10556,10.20002],[-69.0989,10.20749],[-69.09499,10.22052],[-69.09545,10.23284],[-69.092,10.23513],[-69.07895,10.23418],[-69.07369,10.23682],[-69.04111,10.2349],[-69.03414,10.24054],[-69.03106,10.23942],[-69.02561,10.24679],[-69.02577,10.25853],[-69.02143,10.26463],[-69.02164,10.27273],[-69.01673,10.28709],[-69.03033,10.29862],[-69.02651,10.31562],[-69.02655,10.32999],[-69.02934,10.33152],[-69.0268,10.34197],[-69.02906,10.346],[-69.02704,10.35667],[-69.03088,10.36367],[-69.02864,10.37438],[-69.03026,10.38244],[-69.04023,10.38584],[-69.03412,10.39637],[-69.03443,10.40125],[-69.03098,10.40394],[-69.03084,10.40828],[-69.03942,10.41982],[-69.04693,10.41458],[-69.05313,10.40071],[-69.05926,10.40197],[-69.06288,10.40672],[-69.06933,10.40528],[-69.07479,10.40721],[-69.07705,10.40484],[-69.07983,10.40854],[-69.07789,10.41346],[-69.07934,10.41715],[-69.0632,10.43784],[-69.06296,10.45071],[-69.05817,10.45132],[-69.05423,10.456],[-69.05537,10.46062],[-69.05911,10.46303],[-69.05885,10.47079],[-69.05333,10.47639],[-69.0549,10.48002],[-69.03965,10.50522],[-69.04232,10.51954],[-69.0265,10.5255],[-69.00955,10.5279],[-69.00398,10.53244],[-68.99909,10.53127],[-68.99787,10.53619],[-69.00152,10.54463],[-68.9966,10.54728],[-68.99257,10.55462],[-68.98644,10.556],[-68.9806,10.55236],[-68.97984,10.55587],[-68.97272,10.55192],[-68.96555,10.5592],[-68.95538,10.55865],[-68.94954,10.54805],[-68.94632,10.54714],[-68.9427,10.54735],[-68.93144,10.55768],[-68.9226,10.55456],[-68.89757,10.57748],[-68.89027,10.59053],[-68.88316,10.59612],[-68.88245,10.60835],[-68.87509,10.61443],[-68.8778,10.62811],[-68.8826,10.63384],[-68.87916,10.63757],[-68.87587,10.64928],[-68.88622,10.64959],[-68.8928,10.65244],[-68.89031,10.66267],[-68.89361,10.66436],[-68.89306,10.66854],[-68.89031,10.66901],[-68.89057,10.67756],[-68.8933,10.68228],[-68.89478,10.68042],[-68.89647,10.6827],[-68.89438,10.68398],[-68.89964,10.68713],[-68.89923,10.6893],[-68.9017,10.68906],[-68.90347,10.69413],[-68.91272,10.69399],[-68.91919,10.69806],[-68.93046,10.6933],[-68.93861,10.69489],[-68.94098,10.69823],[-68.94518,10.69687],[-68.95149,10.69932],[-68.95633,10.69565],[-68.96218,10.69684],[-68.96213,10.6909],[-68.96642,10.69359],[-68.97163,10.69185],[-68.9698,10.6981],[-68.97613,10.69408],[-68.98262,10.69699],[-68.98593,10.69298],[-68.98866,10.69679],[-68.99481,10.69296],[-68.99945,10.698],[-69.00691,10.69472],[-69.00915,10.69945],[-69.01135,10.69402],[-69.01905,10.69343],[-69.01765,10.68878],[-69.01924,10.68682],[-69.02525,10.69221],[-69.02555,10.68529],[-69.03038,10.69168],[-69.03014,10.68534],[-69.03554,10.68832],[-69.03436,10.68246],[-69.04147,10.68365],[-69.04403,10.68094],[-69.04686,10.68155],[-69.04682,10.67838],[-69.05172,10.67928],[-69.05465,10.67639],[-69.05851,10.67935],[-69.05994,10.67766],[-69.0568,10.67657],[-69.05775,10.6735],[-69.06289,10.67584],[-69.06474,10.6681],[-69.07198,10.66817],[-69.06757,10.66177],[-69.07671,10.66028],[-69.08106,10.66216],[-69.07983,10.66562],[-69.08497,10.66605],[-69.08225,10.67395],[-69.08844,10.67309],[-69.08715,10.6775],[-69.08301,10.67597],[-69.08349,10.68284],[-69.09021,10.68042],[-69.0905,10.68589],[-69.09542,10.68274],[-69.09827,10.68822],[-69.10073,10.68562],[-69.09817,10.68154],[-69.10178,10.6794],[-69.10437,10.67973],[-69.10356,10.68285],[-69.10731,10.68569],[-69.11303,10.68188],[-69.11989,10.68092],[-69.11902,10.68611],[-69.12416,10.68463],[-69.12692,10.69197],[-69.12908,10.68869],[-69.12682,10.68512],[-69.13006,10.68376],[-69.13454,10.69315],[-69.13624,10.68642],[-69.14644,10.6838],[-69.14916,10.68535],[-69.14753,10.68906],[-69.15123,10.69071],[-69.15345,10.6837],[-69.15901,10.68535],[-69.16062,10.69037],[-69.16959,10.68406],[-69.17092,10.68547],[-69.16755,10.69207],[-69.17024,10.69444],[-69.17141,10.68879],[-69.1771,10.69118],[-69.17823,10.68799],[-69.1833,10.68539],[-69.18601,10.68892],[-69.18654,10.69553],[-69.19164,10.69179],[-69.19784,10.69597],[-69.19976,10.69181],[-69.21099,10.69305],[-69.21162,10.69994],[-69.21651,10.7042],[-69.22242,10.70098],[-69.22384,10.69516],[-69.23367,10.6976],[-69.23009,10.69315],[-69.2331,10.68976],[-69.24116,10.69806],[-69.24555,10.69176],[-69.25486,10.69303],[-69.2535,10.6982],[-69.25793,10.7016],[-69.27328,10.69697],[-69.27753,10.70082],[-69.28068,10.69806],[-69.28658,10.70098],[-69.29197,10.69746],[-69.29626,10.70299],[-69.30335,10.7025],[-69.30691,10.70077],[-69.30682,10.69474],[-69.31041,10.69977],[-69.31575,10.70217],[-69.31919,10.69884],[-69.32322,10.69925],[-69.32469,10.70439],[-69.33077,10.70095],[-69.33214,10.69676],[-69.33438,10.69891],[-69.33398,10.70277],[-69.33768,10.7006],[-69.34448,10.70662],[-69.34975,10.70192],[-69.35364,10.70534],[-69.35801,10.70213],[-69.36527,10.70585],[-69.37575,10.70709],[-69.38064,10.71225],[-69.38184,10.70617],[-69.39338,10.70439],[-69.39684,10.70907],[-69.40126,10.71051],[-69.40834,10.70791],[-69.41105,10.70416],[-69.42124,10.70403],[-69.42371,10.70102],[-69.43468,10.70365],[-69.44122,10.69906],[-69.44485,10.70159],[-69.44915,10.69884],[-69.45356,10.70012],[-69.46223,10.69011],[-69.50495,10.6941],[-69.51446,10.6906],[-69.51815,10.68571],[-69.51883,10.67697],[-69.52117,10.67615],[-69.52625,10.68245],[-69.52069,10.68798],[-69.52209,10.68943],[-69.51732,10.69219],[-69.51728,10.70179],[-69.51925,10.70418],[-69.51717,10.70681],[-69.52144,10.70955],[-69.52018,10.71199],[-69.5246,10.71863],[-69.52081,10.72324],[-69.51743,10.72349],[-69.51844,10.72475],[-69.51378,10.72972],[-69.5182,10.73278],[-69.51479,10.73833],[-69.51698,10.74203],[-69.52129,10.73952],[-69.54542,10.74523],[-69.55459,10.73706],[-69.54682,10.72998],[-69.54797,10.7241],[-69.55584,10.71812],[-69.56463,10.72134],[-69.57746,10.71876],[-69.58456,10.71334],[-69.58513,10.70799],[-69.5976,10.70295],[-69.59601,10.71211],[-69.60099,10.71648],[-69.59857,10.72931],[-69.60419,10.73256],[-69.60782,10.73167],[-69.61432,10.73861],[-69.62871,10.73812],[-69.6341,10.74363],[-69.64651,10.74298],[-69.67774,10.72242],[-69.69031,10.7205],[-69.69649,10.727],[-69.69889,10.73737],[-69.6965,10.74616],[-69.69377,10.74817],[-69.69545,10.7523],[-69.70014,10.75388],[-69.71324,10.74667],[-69.72507,10.7448],[-69.73299,10.74697],[-69.74013,10.74605],[-69.75045,10.73729],[-69.7534,10.73835],[-69.7679,10.73086],[-69.77568,10.7234],[-69.77816,10.72526],[-69.78759,10.7141],[-69.79335,10.71218],[-69.79787,10.71391],[-69.79791,10.71172],[-69.80358,10.71129],[-69.81781,10.70431],[-69.82367,10.70461],[-69.83185,10.71643],[-69.84165,10.72343],[-69.83849,10.7331],[-69.8522,10.73522],[-69.85524,10.73177],[-69.85269,10.72883],[-69.85628,10.72197],[-69.8673,10.72096],[-69.86621,10.71227],[-69.86926,10.7086],[-69.88964,10.70407],[-69.89386,10.70715],[-69.90375,10.69766],[-69.92134,10.68936],[-69.92566,10.69313],[-69.93639,10.68804],[-69.94139,10.68863],[-69.95158,10.70123],[-69.96194,10.69781],[-69.9731,10.69095],[-69.97996,10.68217],[-69.98982,10.67706],[-70.01567,10.67119],[-70.01612,10.66597],[-70.03196,10.6547],[-70.04225,10.65595],[-70.05039,10.64541],[-70.05949,10.64016],[-70.06617,10.64088],[-70.0706,10.63878],[-70.08055,10.64096],[-70.08034,10.65016],[-70.08546,10.65546],[-70.09581,10.65372],[-70.0982,10.65541],[-70.10397,10.65229],[-70.11186,10.65477],[-70.11622,10.65035],[-70.12465,10.65817],[-70.13134,10.66022],[-70.13404,10.66524],[-70.13763,10.6659],[-70.14198,10.6641],[-70.14685,10.65755],[-70.15772,10.65598],[-70.16062,10.64973],[-70.17835,10.64061],[-70.17834,10.63297],[-70.18217,10.62382],[-70.17402,10.61949],[-70.17579,10.61701],[-70.18098,10.61615],[-70.19119,10.60939],[-70.19764,10.61086],[-70.20472,10.60627],[-70.20312,10.60405],[-70.20596,10.60022],[-70.21064,10.5996],[-70.21818,10.59391],[-70.22285,10.59375],[-70.22989,10.58736],[-70.23214,10.58678],[-70.23502,10.58987],[-70.24042,10.5888],[-70.24546,10.58433],[-70.24621,10.57959],[-70.25153,10.57842],[-70.25412,10.57236],[-70.26268,10.56788],[-70.27802,10.56133],[-70.27986,10.56452],[-70.28474,10.56426],[-70.2962,10.5716],[-70.30687,10.57239],[-70.31109,10.57593],[-70.31164,10.58095],[-70.31389,10.58136],[-70.31805,10.58102],[-70.32152,10.57674],[-70.32066,10.57321],[-70.33232,10.56559],[-70.34306,10.5676],[-70.34421,10.56601],[-70.34097,10.5621],[-70.34278,10.55714],[-70.3403,10.55373],[-70.3424,10.54801],[-70.35885,10.5466],[-70.36442,10.54403],[-70.36928,10.54556],[-70.37428,10.5352],[-70.38194,10.53178],[-70.38334,10.53366],[-70.38818,10.53247],[-70.39121,10.52765],[-70.3955,10.52757],[-70.39673,10.52162],[-70.39202,10.5172],[-70.39061,10.51072],[-70.3979,10.49817],[-70.39796,10.48547],[-70.40363,10.4788],[-70.4129,10.47464],[-70.42082,10.46419],[-70.42413,10.46384],[-70.42784,10.45571],[-70.43801,10.45304],[-70.45385,10.45933],[-70.45871,10.46589],[-70.45851,10.46988],[-70.46042,10.47013],[-70.47545,10.46483],[-70.48137,10.45817],[-70.48819,10.46413],[-70.49609,10.46166],[-70.50124,10.45394],[-70.50671,10.45119],[-70.50893,10.45393],[-70.51158,10.45268],[-70.51235,10.44813],[-70.51622,10.44829],[-70.51688,10.4453],[-70.52096,10.44434],[-70.5273,10.42075],[-70.53098,10.41949],[-70.53561,10.41104],[-70.53886,10.40955],[-70.53432,10.40429],[-70.53439,10.39971],[-70.53784,10.39313],[-70.53638,10.39094],[-70.54458,10.36325],[-70.55494,10.35465],[-70.55348,10.34597],[-70.56402,10.33665],[-70.57264,10.32375],[-70.58794,10.33188],[-70.6005,10.33047],[-70.6078,10.33303],[-70.61357,10.32991],[-70.61959,10.33287],[-70.63202,10.32776],[-70.63258,10.32337],[-70.64795,10.32235],[-70.65304,10.31592],[-70.66006,10.31861],[-70.66752,10.31788],[-70.6829,10.30385],[-70.69653,10.27979],[-70.69606,10.26143],[-70.70092,10.25815],[-70.70203,10.24677],[-70.70736,10.23942],[-70.70671,10.23074],[-70.70981,10.22415],[-70.70837,10.21283],[-70.70447,10.20588],[-70.71016,10.19835],[-70.7221,10.19511],[-70.72899,10.18624],[-70.72734,10.18221],[-70.72887,10.17812],[-70.72589,10.17643],[-70.73182,10.17443],[-70.73499,10.16875],[-70.73323,10.15485],[-70.74199,10.14626],[-70.75043,10.14304],[-70.75753,10.13538],[-70.79762,10.11532],[-70.79989,10.10982],[-70.81958,10.09959],[-70.83146,10.0881],[-70.83428,10.09007],[-70.83667,10.0885],[-70.84141,10.08501],[-70.84112,10.07926],[-70.84651,10.07223],[-70.8619,10.06976],[-70.87174,10.05842],[-70.87687,10.05903],[-70.88281,10.05018],[-70.79119,9.91939],[-70.78785,9.91782],[-70.77011,9.92239],[-70.76472,9.92111],[-70.76374,9.91722],[-70.74953,9.91685],[-70.74486,9.90981],[-70.7461,9.89975],[-70.7363,9.89265],[-70.70722,9.8826],[-70.70024,9.88374],[-70.69314,9.88908],[-70.69294,9.90109],[-70.68799,9.91509],[-70.69589,9.91694],[-70.69636,9.92302],[-70.69421,9.92648],[-70.69714,9.93874],[-70.69618,9.94286],[-70.69489,9.94184],[-70.68893,9.95092],[-70.69151,9.95758],[-70.6804,9.97752],[-70.6839,9.98738],[-70.68236,9.99759],[-70.6765,10.00405],[-70.66267,10.00365],[-70.66302,10.01742],[-70.64873,10.02777],[-70.64423,10.03826],[-70.63862,10.03957],[-70.63474,10.03471],[-70.62934,10.0331],[-70.6256,10.02546],[-70.61024,10.01449],[-70.61139,10.00846],[-70.60804,10.00183],[-70.59541,9.99215],[-70.59445,9.97887],[-70.58843,9.96962],[-70.59113,9.95768],[-70.58728,9.95566],[-70.55633,9.95629],[-70.55035,9.94919],[-70.54608,9.94909],[-70.54221,9.94184],[-70.53866,9.94002],[-70.54412,9.92138],[-70.53143,9.89857],[-70.53225,9.89537],[-70.52047,9.89348],[-70.51743,9.88694],[-70.50952,9.88525],[-70.50656,9.88232],[-70.48954,9.89204],[-70.47949,9.87591],[-70.481,9.8725],[-70.46833,9.86704],[-70.46419,9.86199],[-70.46013,9.86642],[-70.45739,9.87616],[-70.45148,9.8821],[-70.43892,9.8842],[-70.43037,9.88137],[-70.42382,9.88743],[-70.42188,9.89927],[-70.41705,9.90143],[-70.4153,9.9073],[-70.41099,9.90697],[-70.4037,9.90079],[-70.40061,9.90045],[-70.40025,9.90325],[-70.39603,9.90443],[-70.38234,9.89636],[-70.37751,9.89988],[-70.37788,9.90485],[-70.36489,9.90683],[-70.36024,9.9044],[-70.35556,9.89624],[-70.34971,9.89352],[-70.34776,9.88592],[-70.34235,9.87949],[-70.34217,9.87085],[-70.32652,9.85979],[-70.3202,9.85138],[-70.32489,9.82953],[-70.33173,9.82266],[-70.28032,9.82294],[-70.24231,9.75976],[-70.23889,9.76275],[-70.23719,9.77148],[-70.23947,9.77871],[-70.23418,9.7858],[-70.23443,9.79492],[-70.22952,9.81144],[-70.23219,9.81605],[-70.23196,9.82362],[-70.22791,9.82544],[-70.22372,9.82271],[-70.21476,9.82983],[-70.21826,9.83267],[-70.21522,9.83649],[-70.21792,9.83729],[-70.21811,9.84203],[-70.21605,9.84335],[-70.20835,9.83891],[-70.20715,9.83312],[-70.19939,9.83105],[-70.19023,9.82161],[-70.18698,9.8134],[-70.18807,9.80259],[-70.18486,9.79838],[-70.17745,9.79399],[-70.17466,9.79533],[-70.17149,9.79043],[-70.16485,9.79067],[-70.15969,9.77882],[-70.14589,9.77271],[-70.14255,9.76356],[-70.12852,9.76157],[-70.1191,9.76669],[-70.11563,9.76566],[-70.10172,9.77136],[-70.08955,9.76203],[-70.07994,9.75964],[-70.07954,9.75447],[-70.08267,9.75123],[-70.07682,9.74767],[-70.07568,9.74217],[-70.07117,9.73851],[-70.07012,9.73182],[-70.06255,9.72821],[-70.05806,9.71964],[-70.03996,9.71774],[-70.03061,9.72113],[-70.02715,9.71936],[-70.02354,9.70775],[-70.00727,9.69662],[-70.00358,9.69119],[-70.0024,9.6835],[-69.99552,9.67769],[-70.01771,9.67369],[-70.02917,9.6681],[-70.03675,9.67198],[-70.04471,9.67281],[-70.05295,9.67195],[-70.0601,9.66757],[-70.0651,9.67357],[-70.08607,9.67599],[-70.09778,9.66436],[-70.09951,9.65048],[-70.10835,9.63191],[-70.11632,9.62629],[-70.1192,9.6202],[-70.12718,9.61273],[-70.12639,9.59777],[-70.12235,9.5966],[-70.12377,9.59454],[-70.11772,9.58229],[-70.12342,9.55915],[-70.11709,9.55622],[-70.11334,9.55063],[-70.11325,9.52764],[-70.10999,9.52436],[-70.10965,9.51998],[-70.10288,9.51592],[-70.10455,9.50783],[-70.10091,9.50177],[-70.0836,9.49788],[-70.07605,9.48084],[-70.08201,9.46427],[-70.07862,9.45284],[-70.08531,9.4384],[-70.0834,9.43455],[-70.08023,9.43473],[-70.0775,9.42826],[-70.06633,9.43003],[-70.043,9.42786],[-70.04297,9.42404],[-70.03666,9.41557],[-70.02763,9.42086],[-70.01903,9.43309],[-70.00754,9.44381],[-70.00782,9.45101],[-70.0052,9.45737],[-70.00831,9.46843],[-70.00463,9.47091],[-70.01094,9.47481],[-70.01142,9.48295],[-70.00754,9.49956],[-69.99909,9.50735],[-69.99462,9.5068],[-69.97512,9.53855],[-69.9595,9.54723],[-69.95121,9.55493],[-69.92752,9.54635],[-69.91933,9.54873],[-69.9143,9.5474],[-69.90795,9.55089],[-69.90315,9.54693],[-69.89812,9.55021],[-69.89826,9.55358],[-69.88194,9.54659],[-69.87076,9.54512],[-69.86633,9.54732],[-69.86513,9.5549],[-69.86267,9.55703],[-69.85492,9.56098],[-69.8495,9.5673],[-69.84132,9.56935],[-69.83332,9.56585],[-69.82904,9.56684],[-69.83301,9.56088],[-69.82702,9.55059],[-69.83057,9.54703],[-69.83359,9.54761],[-69.83414,9.53994],[-69.8387,9.53542],[-69.83556,9.53148],[-69.83507,9.52385],[-69.8323,9.52549],[-69.82712,9.52257],[-69.82781,9.51798],[-69.83102,9.51652],[-69.82849,9.50376],[-69.84295,9.5016],[-69.85525,9.48112],[-69.85974,9.48122],[-69.86545,9.4766],[-69.86604,9.47213],[-69.87061,9.47183],[-69.87842,9.46297],[-69.88192,9.46211],[-69.89498,9.44132],[-69.89485,9.42515],[-69.90135,9.41817],[-69.90129,9.41329],[-69.89842,9.40971],[-69.88823,9.4082],[-69.88439,9.41071],[-69.88267,9.40889],[-69.87602,9.41329],[-69.87228,9.40894],[-69.8693,9.4097],[-69.86709,9.41663],[-69.8607,9.41159],[-69.8568,9.40462],[-69.84633,9.40699],[-69.83641,9.40247],[-69.82958,9.40586],[-69.82148,9.40763],[-69.81995,9.40611],[-69.81638,9.41101],[-69.81224,9.40781],[-69.79847,9.4085],[-69.79361,9.40622],[-69.78758,9.40933],[-69.78834,9.4177],[-69.78591,9.42164],[-69.78255,9.42338],[-69.77814,9.4209],[-69.77748,9.42463],[-69.77493,9.42203],[-69.76995,9.42548],[-69.7555,9.42643],[-69.75222,9.43253],[-69.75438,9.43709],[-69.74454,9.43961],[-69.73047,9.43554],[-69.72972,9.42489],[-69.73786,9.41945],[-69.73051,9.41602],[-69.72787,9.41699],[-69.7195,9.40768],[-69.70452,9.40404],[-69.69261,9.407],[-69.68593,9.40201],[-69.68038,9.40197],[-69.66205,9.38905],[-69.65789,9.38892],[-69.65452,9.39109],[-69.65309,9.38907],[-69.65212,9.39463],[-69.65026,9.39452],[-69.65458,9.3963],[-69.65162,9.39749],[-69.65438,9.39996],[-69.65367,9.40325],[-69.6448,9.41231],[-69.63649,9.43367],[-69.62571,9.44101],[-69.62845,9.44904],[-69.62688,9.45444],[-69.62418,9.45948],[-69.61989,9.46051],[-69.62367,9.47591],[-69.61822,9.47965],[-69.6205,9.48676],[-69.61852,9.49412],[-69.62294,9.49967],[-69.62627,9.51021],[-69.61879,9.53594],[-69.62553,9.5579],[-69.61241,9.56534],[-69.60931,9.5614],[-69.61101,9.55409],[-69.60646,9.54788],[-69.60257,9.5466],[-69.60061,9.53424],[-69.59605,9.53139],[-69.58485,9.5299],[-69.58452,9.52736],[-69.57892,9.52813],[-69.57808,9.52455],[-69.57431,9.52526],[-69.57209,9.52164],[-69.56261,9.52634],[-69.5606,9.53489],[-69.55583,9.53482],[-69.55315,9.53725],[-69.53952,9.53368],[-69.53548,9.5382],[-69.52827,9.53595],[-69.52604,9.54003],[-69.52019,9.54126],[-69.51873,9.5385],[-69.51562,9.54169],[-69.51252,9.54097],[-69.51139,9.54443],[-69.50611,9.54255],[-69.50763,9.54554],[-69.5005,9.55293],[-69.49158,9.54439],[-69.48148,9.54613],[-69.47806,9.5437],[-69.47571,9.54741],[-69.46867,9.54895],[-69.46764,9.54656],[-69.46172,9.54609],[-69.45326,9.54962],[-69.45109,9.54748],[-69.44362,9.54927],[-69.44104,9.56072],[-69.4384,9.56171],[-69.44037,9.56307],[-69.43885,9.57961],[-69.44144,9.58352],[-69.43707,9.59593],[-69.43066,9.60217],[-69.41572,9.59734],[-69.41059,9.59815],[-69.40728,9.60647],[-69.40771,9.61194],[-69.40398,9.61728],[-69.40473,9.62116],[-69.39616,9.62216],[-69.39384,9.62551],[-69.39125,9.62507],[-69.38334,9.6315],[-69.37976,9.6311],[-69.37599,9.6362],[-69.37285,9.63662],[-69.37324,9.64658],[-69.36488,9.67092],[-69.36688,9.67713],[-69.37334,9.68377],[-69.37107,9.69317],[-69.35292,9.6984],[-69.35253,9.7053],[-69.34939,9.70754],[-69.3502,9.71373],[-69.34236,9.72602],[-69.34515,9.73297],[-69.34418,9.73858],[-69.34731,9.73996],[-69.34996,9.74729],[-69.34811,9.75239],[-69.34505,9.75709],[-69.33428,9.76438],[-69.33274,9.77739],[-69.32867,9.77458],[-69.32604,9.7768],[-69.32073,9.77487],[-69.31498,9.78382],[-69.31189,9.78305],[-69.30816,9.79619],[-69.30445,9.79948],[-69.30451,9.80562],[-69.29346,9.81471],[-69.29422,9.82198],[-69.2919,9.82976],[-69.28434,9.8347],[-69.28482,9.84245],[-69.27898,9.84337],[-69.27459,9.83457],[-69.26711,9.82751],[-69.26663,9.82275],[-69.27387,9.81731],[-69.27255,9.81177],[-69.27671,9.80878],[-69.27688,9.80413],[-69.27399,9.79555],[-69.27534,9.79176],[-69.27131,9.78553],[-69.26367,9.78023],[-69.26037,9.77041],[-69.26191,9.76414],[-69.25955,9.7631],[-69.26315,9.7625],[-69.26373,9.75933],[-69.27358,9.75826],[-69.27606,9.7528],[-69.28,9.75085],[-69.28048,9.74573],[-69.27363,9.74298],[-69.27109,9.73545],[-69.2738,9.73251],[-69.27172,9.73178],[-69.27115,9.72556],[-69.27513,9.72339],[-69.2759,9.71998],[-69.26885,9.71264],[-69.26365,9.71577],[-69.26077,9.71121],[-69.25282,9.71109],[-69.24552,9.69546],[-69.24669,9.69144],[-69.23303,9.68407],[-69.21496,9.67916],[-69.18835,9.67511],[-69.1862,9.67756],[-69.17831,9.67751],[-69.17572,9.68123],[-69.17463,9.67937],[-69.16498,9.68322],[-69.15854,9.68183],[-69.15221,9.68346],[-69.14684,9.68994],[-69.13536,9.696],[-69.1251,9.69207],[-69.10043,9.69958],[-69.09719,9.70098],[-69.09476,9.70786],[-69.0886,9.71139],[-69.08473,9.70973],[-69.07869,9.713],[-69.06662,9.71135],[-69.0588,9.7182],[-69.06089,9.72192],[-69.05757,9.72616],[-69.0523,9.72903],[-69.0521,9.7358],[-69.04768,9.74022],[-69.04826,9.74481],[-69.03723,9.74249],[-69.03178,9.7501],[-69.02338,9.75555],[-69.01995,9.75275],[-69.01528,9.75401],[-69.00927,9.75047],[-69.00591,9.75232],[-69.001,9.74917],[-68.99908,9.75525],[-68.99393,9.75852],[-68.99364,9.76735],[-68.9866,9.77264],[-68.98108,9.77157],[-68.978,9.77387],[-68.97867,9.77669],[-68.98406,9.7779],[-68.98162,9.78284],[-68.98673,9.7861],[-68.97213,9.78745],[-68.97564,9.78918],[-68.97347,9.80054],[-68.97681,9.80334],[-68.97295,9.80792],[-68.97794,9.81084],[-68.97859,9.81805],[-68.97798,9.82278],[-68.9742,9.82225],[-68.97702,9.82507],[-68.9748,9.83359],[-68.97953,9.83919],[-68.97683,9.83822],[-68.97564,9.84234],[-68.97061,9.84549],[-68.97074,9.85467],[-68.97437,9.8629],[-68.97003,9.86492],[-68.97137,9.86936],[-68.96733,9.87069],[-68.96123,9.88394],[-68.95675,9.88576],[-68.95766,9.89245],[-68.95347,9.89144],[-68.95086,9.89622],[-68.94857,9.89591],[-68.94964,9.90448],[-68.94668,9.90854],[-68.94845,9.91159],[-68.95134,9.91032],[-68.95664,9.91324],[-68.95634,9.91942],[-68.96071,9.92293],[-68.95321,9.93398],[-68.95443,9.94047],[-68.96021,9.94508],[-68.96022,9.94853],[-68.95596,9.9492],[-68.95812,9.94937],[-68.95837,9.95261],[-68.95571,9.96365],[-68.96045,9.96652],[-68.9616,9.9701],[-68.95879,9.97433],[-68.96184,9.97501],[-68.96149,9.97991],[-68.95956,9.97992],[-68.96159,9.98347],[-68.9597,9.99268],[-68.96692,10.00948],[-68.97256,10.01218],[-68.98262,10.00824],[-68.99748,10.01548],[-69.00609,10.01462],[-69.02097,10.01767],[-69.01977,10.00745],[-69.02398,10.00828],[-69.02553,10.00119],[-69.02919,10.00157],[-69.0296,9.99949],[-69.02975,9.99485],[-69.02549,9.99451],[-69.02524,9.98944],[-69.03371,9.99136],[-69.03345,9.98734],[-69.04005,9.98335],[-69.03716,9.97686],[-69.04199,9.97254],[-69.04745,9.97632],[-69.05047,9.97479],[-69.05268,9.97771],[-69.06534,9.9637],[-69.07725,9.95941],[-69.07722,9.95326],[-69.07175,9.95057],[-69.071,9.94401],[-69.08508,9.91585],[-69.06771,9.90524],[-69.08772,9.8702],[-69.10235,9.86996],[-69.12495,9.88494],[-69.13064,9.89448],[-69.12974,9.89774],[-69.14449,9.91198],[-69.14674,9.92687],[-69.1586,9.94089],[-69.15812,9.95233],[-69.15365,9.95631],[-69.15508,9.96009],[-69.14972,9.97766],[-69.15173,9.98728],[-69.14846,9.99752],[-69.15035,10.00268],[-69.15442,10.00519],[-69.15159,10.01314],[-69.15373,10.01655],[-69.15351,10.0245],[-69.15874,10.02911],[-69.16066,10.03809],[-69.1676,10.03593],[-69.17107,10.04128],[-69.18078,10.03667],[-69.18614,10.03614],[-69.19084,10.03863],[-69.1991,10.05366],[-69.20796,10.08738]]]}}]}