{"type":"FeatureCollection","features":[{"type":"Feature","id":"relation/3919033","properties":{"name":"Municipio Andr\u00e9s Eloy Blanco","level":6,"population":"47245"},"geometry":{"type":"Polygon","coordinates":[[[-69.61241,9.56534],[-69.60931,9.5614],[-69.61101,9.55409],[-69.60646,9.54788],[-69.60257,9.5466],[-69.60061,9.53424],[-69.59605,9.53139],[-69.58485,9.5299],[-69.58452,9.52736],[-69.57892,9.52813],[-69.57808,9.52455],[-69.57431,9.52526],[-69.57227,9.52165],[-69.56261,9.52634],[-69.5606,9.53489],[-69.55583,9.53482],[-69.55315,9.53725],[-69.53952,9.53368],[-69.53548,9.5382],[-69.52827,9.53595],[-69.52604,9.54003],[-69.52019,9.54126],[-69.51873,9.5385],[-69.51562,9.54169],[-69.51252,9.54097],[-69.51139,9.54443],[-69.50611,9.54255],[-69.50763,9.54554],[-69.5005,9.55293],[-69.49158,9.54439],[-69.48148,9.54613],[-69.47806,9.5437],[-69.47571,9.54741],[-69.46867,9.54895],[-69.46764,9.54656],[-69.46172,9.54609],[-69.45326,9.54962],[-69.45109,9.54748],[-69.4438,9.54912],[-69.44002,9.55846],[-69.44104,9.56072],[-69.4384,9.56171],[-69.44037,9.56307],[-69.43885,9.57961],[-69.44144,9.58352],[-69.43707,9.59593],[-69.43066,9.60217],[-69.41572,9.59734],[-69.41059,9.59815],[-69.40728,9.60647],[-69.40771,9.61194],[-69.40398,9.61728],[-69.40473,9.62116],[-69.39616,9.62216],[-69.39384,9.62551],[-69.39125,9.62507],[-69.38334,9.6315],[-69.37976,9.6311],[-69.37599,9.6362],[-69.37285,9.63662],[-69.37324,9.64658],[-69.36488,9.67092],[-69.36688,9.67713],[-69.37334,9.68377],[-69.37107,9.69317],[-69.35292,9.6984],[-69.35253,9.7053],[-69.34939,9.70754],[-69.3502,9.71373],[-69.34228,9.72782],[-69.3575,9.72377],[-69.36824,9.72811],[-69.384,9.72402],[-69.38939,9.72811],[-69.39426,9.72722],[-69.39989,9.73412],[-69.4048,9.75904],[-69.40771,9.76253],[-69.41923,9.76666],[-69.4258,9.77184],[-69.43321,9.77068],[-69.44245,9.77431],[-69.4651,9.77756],[-69.47601,9.77618],[-69.48408,9.77011],[-69.49558,9.76916],[-69.49745,9.76628],[-69.50635,9.76636],[-69.53501,9.74658],[-69.54313,9.7455],[-69.55053,9.7366],[-69.56363,9.72982],[-69.56793,9.72269],[-69.57364,9.72527],[-69.57779,9.72],[-69.58035,9.72011],[-69.58462,9.72195],[-69.5873,9.72671],[-69.60242,9.72907],[-69.60375,9.73498],[-69.60063,9.74247],[-69.6018,9.74554],[-69.59906,9.7487],[-69.61044,9.76086],[-69.61545,9.76048],[-69.61872,9.76673],[-69.62578,9.76966],[-69.62689,9.78225],[-69.62382,9.79152],[-69.62581,9.79323],[-69.62415,9.79708],[-69.61945,9.7993],[-69.61948,9.80279],[-69.61624,9.80388],[-69.62136,9.81134],[-69.62275,9.81038],[-69.62187,9.81846],[-69.63267,9.80497],[-69.6373,9.80245],[-69.64263,9.79245],[-69.683,9.81103],[-69.7009,9.80642],[-69.70457,9.7987],[-69.70809,9.79759],[-69.70792,9.78824],[-69.70431,9.78583],[-69.70522,9.77241],[-69.70861,9.77116],[-69.70944,9.76666],[-69.7156,9.75974],[-69.73112,9.75728],[-69.72336,9.75035],[-69.72351,9.74796],[-69.73,9.7411],[-69.73132,9.73066],[-69.73344,9.72818],[-69.73781,9.7281],[-69.73874,9.72392],[-69.74461,9.71861],[-69.74075,9.71208],[-69.7317,9.71223],[-69.73292,9.70665],[-69.73087,9.69856],[-69.73337,9.69674],[-69.72461,9.68629],[-69.72651,9.67753],[-69.71029,9.66423],[-69.70945,9.65436],[-69.70695,9.65415],[-69.70503,9.64374],[-69.69939,9.64063],[-69.68937,9.63949],[-69.68555,9.63661],[-69.68628,9.63299],[-69.678,9.63284],[-69.67892,9.62552],[-69.68432,9.61542],[-69.6928,9.61109],[-69.69433,9.60283],[-69.69938,9.59603],[-69.69969,9.58979],[-69.69638,9.58637],[-69.68943,9.58842],[-69.67685,9.58095],[-69.66506,9.57985],[-69.66273,9.58243],[-69.65248,9.58285],[-69.65141,9.57677],[-69.64098,9.57538],[-69.63538,9.56207],[-69.62698,9.55748],[-69.61241,9.56534]]]}},{"type":"Feature","id":"relation/3919034","properties":{"name":"Municipio Crespo","level":6,"population":"49958"},"geometry":{"type":"Polygon","coordinates":[[[-69.01921,10.29076],[-69.02724,10.2945],[-69.03033,10.29862],[-69.02651,10.31562],[-69.02655,10.32999],[-69.02934,10.33152],[-69.0268,10.34197],[-69.02906,10.346],[-69.02704,10.35667],[-69.03088,10.36367],[-69.02929,10.37972],[-69.03294,10.38469],[-69.04023,10.38584],[-69.03412,10.39637],[-69.03443,10.40125],[-69.03098,10.40394],[-69.03084,10.40828],[-69.03942,10.41982],[-69.04693,10.41458],[-69.05313,10.40071],[-69.05926,10.40197],[-69.06288,10.40672],[-69.06933,10.40528],[-69.07479,10.40721],[-69.07705,10.40484],[-69.07983,10.40854],[-69.07853,10.41953],[-69.07271,10.42408],[-69.0632,10.43784],[-69.06296,10.45071],[-69.05817,10.45132],[-69.05423,10.456],[-69.05537,10.46062],[-69.05911,10.46303],[-69.08503,10.46606],[-69.08601,10.47117],[-69.09147,10.47117],[-69.09496,10.47725],[-69.10007,10.47989],[-69.11431,10.47919],[-69.11808,10.4667],[-69.12339,10.46485],[-69.12715,10.46669],[-69.14035,10.45183],[-69.14793,10.45113],[-69.15137,10.45579],[-69.1542,10.45219],[-69.16756,10.45524],[-69.17182,10.46724],[-69.18009,10.47171],[-69.18795,10.46873],[-69.20819,10.47568],[-69.21769,10.47033],[-69.2248,10.47751],[-69.22345,10.48095],[-69.23409,10.48352],[-69.2427,10.48243],[-69.24285,10.4758],[-69.24002,10.46978],[-69.24713,10.46465],[-69.24708,10.45995],[-69.24933,10.46026],[-69.24783,10.45639],[-69.25084,10.45529],[-69.24653,10.45183],[-69.25039,10.45091],[-69.2513,10.44689],[-69.25646,10.44295],[-69.25622,10.44025],[-69.261,10.43964],[-69.26145,10.42989],[-69.26622,10.43349],[-69.26732,10.42681],[-69.27014,10.42842],[-69.27123,10.42693],[-69.26177,10.41131],[-69.26089,10.40153],[-69.26526,10.40105],[-69.26695,10.39601],[-69.26517,10.39045],[-69.26945,10.38107],[-69.2706,10.36999],[-69.26836,10.35958],[-69.2733,10.34356],[-69.2762,10.34377],[-69.27638,10.34018],[-69.28909,10.33269],[-69.29234,10.33288],[-69.29982,10.32558],[-69.29552,10.32487],[-69.29459,10.32122],[-69.30102,10.30643],[-69.30853,10.29887],[-69.31259,10.29908],[-69.31741,10.29218],[-69.31268,10.28508],[-69.30973,10.28514],[-69.30935,10.28105],[-69.31309,10.27436],[-69.31158,10.26505],[-69.30525,10.26503],[-69.30279,10.25914],[-69.29916,10.25786],[-69.28617,10.26018],[-69.28901,10.24955],[-69.28807,10.24666],[-69.28305,10.24732],[-69.27778,10.24365],[-69.27959,10.2389],[-69.27748,10.22942],[-69.268,10.22932],[-69.2685,10.23187],[-69.26251,10.23357],[-69.24922,10.23171],[-69.24388,10.22721],[-69.23554,10.22877],[-69.23202,10.22571],[-69.22976,10.22676],[-69.23025,10.2194],[-69.22574,10.21991],[-69.22396,10.21621],[-69.22217,10.21818],[-69.21514,10.21341],[-69.20471,10.2188],[-69.19693,10.21668],[-69.19284,10.21793],[-69.19027,10.22323],[-69.17537,10.22774],[-69.17698,10.21906],[-69.17362,10.21496],[-69.17705,10.21126],[-69.17578,10.20765],[-69.17277,10.20871],[-69.17119,10.20512],[-69.17534,10.19834],[-69.17388,10.19601],[-69.17856,10.19139],[-69.17654,10.18964],[-69.17771,10.1844],[-69.17293,10.17773],[-69.17498,10.17427],[-69.17211,10.16896],[-69.16885,10.16935],[-69.16142,10.16397],[-69.15854,10.15653],[-69.14317,10.15376],[-69.14076,10.14895],[-69.14124,10.13889],[-69.13594,10.13712],[-69.13066,10.14132],[-69.1189,10.14324],[-69.11996,10.15381],[-69.11398,10.15911],[-69.11699,10.16915],[-69.11089,10.18261],[-69.11474,10.18881],[-69.11063,10.19777],[-69.10556,10.20002],[-69.0989,10.20749],[-69.09499,10.22052],[-69.09545,10.23284],[-69.092,10.23513],[-69.07895,10.23418],[-69.07369,10.23682],[-69.04111,10.2349],[-69.03414,10.24054],[-69.03106,10.23942],[-69.02553,10.247],[-69.02577,10.25853],[-69.02145,10.26457],[-69.01976,10.28026],[-69.01686,10.28292],[-69.01921,10.29076]]]}},{"type":"Feature","id":"relation/3919035","properties":{"name":"Municipio Iribarren","level":6,"population":"996230"},"geometry":{"type":"Polygon","coordinates":[[[-69.13594,10.13712],[-69.14124,10.13889],[-69.14076,10.14895],[-69.14317,10.15376],[-69.15854,10.15653],[-69.16142,10.16397],[-69.16885,10.16935],[-69.17211,10.16896],[-69.17498,10.17427],[-69.17293,10.17773],[-69.17771,10.1844],[-69.17654,10.18964],[-69.17856,10.19139],[-69.17388,10.19601],[-69.17534,10.19834],[-69.17119,10.20512],[-69.17277,10.20871],[-69.17578,10.20765],[-69.17705,10.21126],[-69.17362,10.21496],[-69.17698,10.21906],[-69.17537,10.22774],[-69.19027,10.22323],[-69.19284,10.21793],[-69.19693,10.21668],[-69.20471,10.2188],[-69.21514,10.21341],[-69.22217,10.21818],[-69.22396,10.21621],[-69.22574,10.21991],[-69.23025,10.2194],[-69.22976,10.22676],[-69.23202,10.22571],[-69.23554,10.22877],[-69.24388,10.22721],[-69.24922,10.23171],[-69.26251,10.23357],[-69.2685,10.23187],[-69.268,10.22932],[-69.27748,10.22942],[-69.27959,10.2389],[-69.27778,10.24365],[-69.28305,10.24732],[-69.28807,10.24666],[-69.28901,10.24955],[-69.28617,10.26018],[-69.29916,10.25786],[-69.30279,10.25914],[-69.30525,10.26503],[-69.31158,10.26505],[-69.31309,10.27436],[-69.30935,10.28105],[-69.30973,10.28514],[-69.31268,10.28508],[-69.31713,10.29354],[-69.30102,10.30643],[-69.29459,10.32122],[-69.29552,10.32487],[-69.29982,10.32558],[-69.29234,10.33288],[-69.28909,10.33269],[-69.27638,10.34018],[-69.2762,10.34377],[-69.2733,10.34356],[-69.27198,10.34676],[-69.26836,10.35958],[-69.27005,10.36171],[-69.26971,10.37969],[-69.26517,10.39045],[-69.26695,10.39601],[-69.26526,10.40105],[-69.26089,10.40153],[-69.26177,10.41131],[-69.27126,10.42681],[-69.27022,10.42842],[-69.26732,10.42681],[-69.26622,10.43349],[-69.26145,10.42989],[-69.261,10.43964],[-69.25622,10.44025],[-69.25646,10.44295],[-69.2513,10.44689],[-69.25039,10.45091],[-69.24653,10.45183],[-69.25084,10.45529],[-69.24783,10.45639],[-69.24933,10.46026],[-69.24708,10.45995],[-69.24713,10.46465],[-69.24002,10.46978],[-69.24285,10.4758],[-69.2427,10.48243],[-69.27827,10.48479],[-69.2948,10.48838],[-69.30754,10.50024],[-69.4462,10.52259],[-69.44801,10.51898],[-69.45257,10.51725],[-69.45638,10.5074],[-69.45907,10.50804],[-69.47023,10.49691],[-69.46993,10.49391],[-69.4741,10.49242],[-69.47869,10.48219],[-69.48101,10.48588],[-69.47972,10.48847],[-69.48655,10.48786],[-69.48626,10.48349],[-69.48919,10.48305],[-69.48906,10.47969],[-69.49353,10.48133],[-69.49477,10.47356],[-69.49783,10.47781],[-69.50432,10.47582],[-69.51199,10.46417],[-69.51642,10.46756],[-69.51753,10.46412],[-69.52152,10.46672],[-69.52173,10.46316],[-69.52369,10.4656],[-69.5272,10.46415],[-69.52908,10.46611],[-69.53547,10.46377],[-69.54146,10.45693],[-69.54269,10.44978],[-69.55198,10.44669],[-69.55997,10.4348],[-69.56525,10.43984],[-69.56901,10.43915],[-69.56847,10.43416],[-69.57064,10.43139],[-69.57762,10.43061],[-69.57659,10.42272],[-69.56714,10.42223],[-69.56647,10.41223],[-69.56357,10.41065],[-69.56771,10.41031],[-69.57382,10.40061],[-69.57911,10.39905],[-69.58127,10.40287],[-69.5876,10.40403],[-69.58795,10.39874],[-69.59192,10.39949],[-69.59636,10.39646],[-69.60171,10.4018],[-69.60359,10.39718],[-69.60994,10.39308],[-69.61622,10.39564],[-69.61645,10.39227],[-69.62062,10.39225],[-69.623,10.38955],[-69.62243,10.37747],[-69.62749,10.3729],[-69.62587,10.36893],[-69.62244,10.36883],[-69.6297,10.36141],[-69.62747,10.35987],[-69.62909,10.35577],[-69.62688,10.35247],[-69.62746,10.3475],[-69.63262,10.34355],[-69.63225,10.34041],[-69.63746,10.33903],[-69.64087,10.33157],[-69.6451,10.33073],[-69.64904,10.32164],[-69.65275,10.32035],[-69.65555,10.31563],[-69.65244,10.31416],[-69.65284,10.31175],[-69.65817,10.30664],[-69.65457,10.30539],[-69.65613,10.29875],[-69.65359,10.29786],[-69.65108,10.29132],[-69.65297,10.28528],[-69.65121,10.28217],[-69.6572,10.27553],[-69.6535,10.27291],[-69.65593,10.25882],[-69.65958,10.25418],[-69.65719,10.2495],[-69.65907,10.24591],[-69.67206,10.2447],[-69.67623,10.235],[-69.6732,10.23067],[-69.66394,10.23035],[-69.66005,10.22452],[-69.65966,10.21909],[-69.65563,10.21703],[-69.66096,10.20426],[-69.65388,10.20257],[-69.64726,10.19698],[-69.64665,10.19114],[-69.64016,10.19371],[-69.63574,10.19007],[-69.63372,10.18265],[-69.63625,10.17932],[-69.63373,10.17512],[-69.63908,10.17164],[-69.63883,10.16631],[-69.64373,10.16328],[-69.64241,10.16072],[-69.63826,10.16059],[-69.63604,10.15625],[-69.62355,10.1542],[-69.62408,10.14643],[-69.61388,10.1411],[-69.61143,10.13166],[-69.60412,10.12515],[-69.60345,10.12013],[-69.59588,10.11664],[-69.58685,10.11864],[-69.58483,10.10971],[-69.58677,10.10793],[-69.58425,10.10892],[-69.57973,10.10639],[-69.58334,10.10073],[-69.57704,10.0978],[-69.57285,10.08824],[-69.57022,10.0874],[-69.58035,10.08418],[-69.57881,10.07931],[-69.58252,10.0738],[-69.58082,10.06689],[-69.58389,10.06393],[-69.58212,10.06019],[-69.58552,10.05663],[-69.5816,10.05311],[-69.58523,10.04496],[-69.57789,10.04423],[-69.56952,10.04725],[-69.56085,10.04464],[-69.5616,10.02378],[-69.55125,10.02249],[-69.54139,10.02654],[-69.53688,10.02405],[-69.53679,10.01946],[-69.53432,10.01864],[-69.52669,10.02258],[-69.52168,10.02032],[-69.52433,10.01322],[-69.52122,10.01132],[-69.52478,10.00127],[-69.52381,9.99822],[-69.50875,9.99238],[-69.50437,9.98669],[-69.49952,9.98595],[-69.505,9.96594],[-69.50929,9.96441],[-69.51267,9.95955],[-69.51285,9.95004],[-69.51783,9.94374],[-69.51412,9.94158],[-69.50788,9.92699],[-69.51062,9.91933],[-69.50748,9.91761],[-69.51077,9.91224],[-69.51199,9.90337],[-69.50069,9.89276],[-69.50378,9.88095],[-69.51083,9.87517],[-69.51331,9.86199],[-69.5066,9.84368],[-69.49545,9.82899],[-69.47921,9.82415],[-69.47654,9.82616],[-69.4709,9.82248],[-69.46717,9.81514],[-69.48559,9.79956],[-69.48779,9.79058],[-69.4774,9.78607],[-69.47601,9.77618],[-69.4626,9.77749],[-69.43321,9.77068],[-69.4258,9.77184],[-69.41923,9.76666],[-69.40771,9.76253],[-69.4048,9.75904],[-69.39989,9.73412],[-69.39426,9.72722],[-69.38939,9.72811],[-69.384,9.72402],[-69.36824,9.72811],[-69.3575,9.72377],[-69.34228,9.72782],[-69.34515,9.73297],[-69.34427,9.73883],[-69.34731,9.73996],[-69.34996,9.74729],[-69.34811,9.75239],[-69.34505,9.75709],[-69.33428,9.76438],[-69.33274,9.77739],[-69.32867,9.77458],[-69.32604,9.7768],[-69.32073,9.77487],[-69.31498,9.78382],[-69.31189,9.78305],[-69.30816,9.79619],[-69.30445,9.79948],[-69.30451,9.80562],[-69.29346,9.81471],[-69.29422,9.82198],[-69.2919,9.82976],[-69.28434,9.8347],[-69.28487,9.84242],[-69.27981,9.84239],[-69.27664,9.84804],[-69.27732,9.85644],[-69.28142,9.86447],[-69.27786,9.86826],[-69.28325,9.87271],[-69.28447,9.87981],[-69.2846,9.88734],[-69.2795,9.90026],[-69.29374,9.90849],[-69.29932,9.91938],[-69.29915,9.93026],[-69.31546,9.94569],[-69.31355,9.95086],[-69.3176,9.96414],[-69.314,9.97737],[-69.31792,9.99569],[-69.31436,10.00368],[-69.31476,10.01007],[-69.31205,10.0115],[-69.3125,10.0196],[-69.30281,10.02636],[-69.30071,10.03468],[-69.28437,10.05038],[-69.25714,10.06417],[-69.25314,10.06386],[-69.24477,10.07119],[-69.23765,10.07288],[-69.22557,10.06144],[-69.21536,10.06324],[-69.20796,10.08738],[-69.21064,10.08778],[-69.21268,10.08331],[-69.21598,10.08468],[-69.21675,10.0889],[-69.21289,10.09052],[-69.2155,10.09324],[-69.21608,10.10474],[-69.22114,10.10983],[-69.22261,10.11686],[-69.20519,10.1271],[-69.2037,10.13741],[-69.19263,10.13687],[-69.18711,10.14182],[-69.17914,10.1444],[-69.17415,10.14169],[-69.16767,10.1452],[-69.16151,10.13196],[-69.15415,10.13519],[-69.14265,10.13071],[-69.13594,10.13712]]]}},{"type":"Feature","id":"relation/3919036","properties":{"name":"Municipio Jim\u00e9nez","level":6,"population":"100997"},"geometry":{"type":"Polygon","coordinates":[[[-69.56235,10.03632],[-69.56085,10.04464],[-69.56952,10.04725],[-69.57789,10.04423],[-69.58523,10.04496],[-69.5816,10.05311],[-69.58552,10.05663],[-69.58212,10.06019],[-69.58389,10.06393],[-69.58082,10.06689],[-69.58252,10.0738],[-69.57881,10.07931],[-69.58035,10.08418],[-69.57023,10.08728],[-69.57285,10.08824],[-69.57704,10.0978],[-69.58334,10.10073],[-69.57976,10.10645],[-69.58677,10.10793],[-69.58483,10.10971],[-69.58685,10.11864],[-69.59588,10.11664],[-69.6035,10.12018],[-69.60412,10.12515],[-69.61143,10.13166],[-69.61388,10.1411],[-69.62408,10.14643],[-69.62524,10.15565],[-69.62874,10.14743],[-69.63872,10.14879],[-69.64387,10.14472],[-69.65556,10.12849],[-69.6634,10.12963],[-69.6631,10.1268],[-69.66801,10.12016],[-69.67085,10.12197],[-69.67861,10.1083],[-69.68473,10.10676],[-69.68911,10.10875],[-69.68896,10.10654],[-69.69452,10.10471],[-69.69797,10.10743],[-69.70116,10.10527],[-69.70638,10.10739],[-69.70537,10.09381],[-69.70886,10.08696],[-69.70444,10.08317],[-69.70892,10.08179],[-69.7159,10.05977],[-69.7201,10.05767],[-69.72009,10.05355],[-69.72936,10.03549],[-69.72713,10.02969],[-69.73155,10.02416],[-69.72935,10.01688],[-69.73226,10.01054],[-69.72654,10.00725],[-69.72443,10.00211],[-69.73143,9.99768],[-69.7272,9.99429],[-69.72533,9.98423],[-69.72919,9.98024],[-69.73638,9.98206],[-69.7369,9.97733],[-69.73257,9.96993],[-69.73337,9.96082],[-69.72983,9.95173],[-69.73526,9.95014],[-69.73954,9.94194],[-69.73324,9.93158],[-69.73,9.91984],[-69.74216,9.91039],[-69.74364,9.90016],[-69.7406,9.88612],[-69.72868,9.88467],[-69.72697,9.87917],[-69.724,9.88111],[-69.72246,9.87917],[-69.70709,9.88198],[-69.70669,9.85322],[-69.70828,9.85212],[-69.70243,9.84993],[-69.70841,9.84141],[-69.71041,9.8294],[-69.70765,9.82628],[-69.70678,9.8158],[-69.70317,9.8129],[-69.7009,9.80642],[-69.683,9.81103],[-69.64263,9.79245],[-69.6373,9.80245],[-69.63267,9.80497],[-69.62187,9.81846],[-69.62275,9.81038],[-69.62136,9.81134],[-69.61624,9.80388],[-69.61948,9.80279],[-69.61945,9.7993],[-69.62415,9.79708],[-69.62581,9.79323],[-69.62382,9.79152],[-69.62689,9.78225],[-69.62578,9.76966],[-69.61872,9.76673],[-69.61545,9.76048],[-69.61044,9.76086],[-69.59906,9.7487],[-69.6018,9.74554],[-69.60063,9.74247],[-69.60375,9.73498],[-69.60242,9.72907],[-69.5873,9.72671],[-69.58446,9.7218],[-69.57795,9.71988],[-69.57364,9.72527],[-69.56793,9.72269],[-69.56363,9.72982],[-69.55053,9.7366],[-69.54313,9.7455],[-69.53501,9.74658],[-69.50635,9.76636],[-69.48604,9.76945],[-69.47601,9.77618],[-69.4774,9.78607],[-69.48761,9.7903],[-69.48694,9.79509],[-69.48559,9.79956],[-69.46722,9.81393],[-69.4709,9.82248],[-69.47429,9.82499],[-69.48089,9.82445],[-69.49545,9.82899],[-69.5066,9.84368],[-69.51331,9.86199],[-69.51083,9.87517],[-69.50378,9.88095],[-69.50069,9.89276],[-69.51199,9.90337],[-69.51077,9.91224],[-69.50748,9.91761],[-69.51062,9.91933],[-69.50788,9.92699],[-69.51412,9.94158],[-69.51783,9.94374],[-69.51285,9.95004],[-69.51267,9.95955],[-69.50929,9.96441],[-69.505,9.96594],[-69.49952,9.98595],[-69.50437,9.98669],[-69.50875,9.99238],[-69.52381,9.99822],[-69.52478,10.00127],[-69.52122,10.01132],[-69.52433,10.01322],[-69.52168,10.02032],[-69.52669,10.02258],[-69.53432,10.01864],[-69.53679,10.01946],[-69.53688,10.02405],[-69.54139,10.02654],[-69.55125,10.02249],[-69.5616,10.02378],[-69.56235,10.03632]]]}},{"type":"Feature","id":"relation/3919037","properties":{"name":"Municipio Palavecino","level":6,"population":"174099"},"geometry":{"type":"Polygon","coordinates":[[[-69.19524,10.04607],[-69.20796,10.08738],[-69.21536,10.06324],[-69.22557,10.06144],[-69.23765,10.07288],[-69.24477,10.07119],[-69.25314,10.06386],[-69.25714,10.06417],[-69.28437,10.05038],[-69.30071,10.03468],[-69.30281,10.02636],[-69.3125,10.0196],[-69.31205,10.0115],[-69.31476,10.01007],[-69.31436,10.00368],[-69.31792,9.99569],[-69.314,9.97737],[-69.3176,9.96414],[-69.31355,9.95086],[-69.31546,9.94569],[-69.29915,9.93026],[-69.29886,9.91774],[-69.29068,9.90521],[-69.2795,9.90026],[-69.25509,9.91497],[-69.2282,9.91388],[-69.18214,9.9204],[-69.1586,9.94089],[-69.15812,9.95233],[-69.15365,9.95631],[-69.15508,9.96009],[-69.14972,9.97766],[-69.15173,9.98728],[-69.14846,9.99752],[-69.15035,10.00268],[-69.15442,10.00519],[-69.15186,10.00938],[-69.15265,10.02255],[-69.15874,10.02911],[-69.16066,10.03809],[-69.1676,10.03593],[-69.17107,10.04128],[-69.18614,10.03614],[-69.19084,10.03863],[-69.19524,10.04607]]]}},{"type":"Feature","id":"relation/3919038","properties":{"name":"Municipio Sim\u00f3n Planas","level":6,"population":"35802"},"geometry":{"type":"Polygon","coordinates":[[[-69.17532,9.68094],[-69.17463,9.67937],[-69.16498,9.68322],[-69.15854,9.68183],[-69.15221,9.68346],[-69.14684,9.68994],[-69.13536,9.696],[-69.1251,9.69207],[-69.10043,9.69958],[-69.09719,9.70098],[-69.09476,9.70786],[-69.0886,9.71139],[-69.08473,9.70973],[-69.07869,9.713],[-69.06662,9.71135],[-69.0588,9.7182],[-69.06089,9.72192],[-69.05757,9.72616],[-69.0523,9.72903],[-69.0521,9.7358],[-69.04768,9.74022],[-69.04826,9.74481],[-69.03723,9.74249],[-69.03178,9.7501],[-69.02338,9.75555],[-69.01995,9.75275],[-69.01528,9.75401],[-69.00927,9.75047],[-69.00591,9.75232],[-69.001,9.74917],[-68.99908,9.75525],[-68.99393,9.75852],[-68.99364,9.76735],[-68.9866,9.77264],[-68.98108,9.77157],[-68.978,9.77387],[-68.97867,9.77669],[-68.98406,9.7779],[-68.98162,9.78284],[-68.98673,9.7861],[-68.97213,9.78745],[-68.97564,9.78918],[-68.97347,9.80054],[-68.97681,9.80334],[-68.97295,9.80792],[-68.97794,9.81084],[-68.97859,9.81805],[-68.97798,9.82278],[-68.9742,9.82225],[-68.97702,9.82507],[-68.9748,9.83359],[-68.97953,9.83919],[-68.97683,9.83822],[-68.97564,9.84234],[-68.97061,9.84549],[-68.97074,9.85467],[-68.97437,9.8629],[-68.97003,9.86492],[-68.97137,9.86936],[-68.96733,9.87069],[-68.96123,9.88394],[-68.95675,9.88576],[-68.95766,9.89245],[-68.95347,9.89144],[-68.95086,9.89622],[-68.94857,9.89591],[-68.94964,9.90448],[-68.94668,9.90854],[-68.94845,9.91159],[-68.95134,9.91032],[-68.95664,9.91324],[-68.95634,9.91942],[-68.96071,9.92293],[-68.95321,9.93394],[-68.95443,9.94047],[-68.95641,9.94063],[-68.95593,9.9426],[-68.95749,9.94124],[-68.96052,9.94736],[-68.95596,9.9492],[-68.95812,9.94937],[-68.95837,9.95261],[-68.95571,9.96365],[-68.96045,9.96652],[-68.9616,9.9701],[-68.95879,9.97433],[-68.96184,9.97501],[-68.96149,9.97991],[-68.95956,9.97992],[-68.96159,9.98347],[-68.95961,9.99198],[-68.9617,9.99357],[-68.96176,10.00082],[-68.96906,10.01174],[-68.98262,10.00824],[-68.99748,10.01548],[-69.00609,10.01462],[-69.02097,10.01767],[-69.01977,10.00745],[-69.02398,10.00828],[-69.02553,10.00119],[-69.02919,10.00157],[-69.0296,9.99949],[-69.02975,9.99485],[-69.02549,9.99451],[-69.02524,9.98944],[-69.03371,9.99136],[-69.03345,9.98734],[-69.04005,9.98335],[-69.03716,9.97686],[-69.04199,9.97254],[-69.04745,9.97632],[-69.05047,9.97479],[-69.05268,9.97771],[-69.06534,9.9637],[-69.07678,9.96016],[-69.07733,9.95355],[-69.07175,9.95057],[-69.071,9.94401],[-69.08508,9.91585],[-69.06771,9.90524],[-69.08772,9.8702],[-69.10235,9.86996],[-69.12495,9.88494],[-69.13064,9.89448],[-69.12974,9.89774],[-69.14419,9.91147],[-69.14674,9.92687],[-69.1581,9.94083],[-69.18214,9.9204],[-69.2282,9.91388],[-69.25509,9.91497],[-69.2795,9.90026],[-69.2846,9.88734],[-69.28325,9.87271],[-69.27786,9.86826],[-69.28142,9.86447],[-69.27651,9.84933],[-69.27969,9.84446],[-69.27459,9.83457],[-69.26734,9.82795],[-69.26658,9.82291],[-69.27387,9.81731],[-69.27297,9.81042],[-69.27676,9.80864],[-69.27396,9.79528],[-69.27536,9.79188],[-69.27131,9.78553],[-69.26367,9.78023],[-69.26037,9.77041],[-69.26191,9.76414],[-69.25955,9.7631],[-69.26315,9.7625],[-69.26373,9.75933],[-69.27358,9.75826],[-69.27606,9.7528],[-69.28,9.75085],[-69.28048,9.74573],[-69.27363,9.74298],[-69.27109,9.73545],[-69.27379,9.73262],[-69.27087,9.72822],[-69.27131,9.72526],[-69.27545,9.72285],[-69.27472,9.71745],[-69.26885,9.71264],[-69.26365,9.71577],[-69.26077,9.71121],[-69.25282,9.71109],[-69.24552,9.69546],[-69.24669,9.69144],[-69.23303,9.68407],[-69.202,9.67682],[-69.19468,9.67731],[-69.1915,9.67507],[-69.18607,9.67759],[-69.17844,9.67745],[-69.17532,9.68094]]]}},{"type":"Feature","id":"relation/3919039","properties":{"name":"Municipio Torres","level":6,"population":"185275"},"geometry":{"type":"Polygon","coordinates":[[[-70.19624,9.82772],[-70.18852,9.81782],[-70.18807,9.80259],[-70.18495,9.79848],[-70.17745,9.79399],[-70.17466,9.79533],[-70.17149,9.79043],[-70.16485,9.79067],[-70.15969,9.77882],[-70.14589,9.77271],[-70.14255,9.76356],[-70.12852,9.76157],[-70.10247,9.77146],[-70.08899,9.76186],[-70.08502,9.77194],[-70.09407,9.77438],[-70.09392,9.77959],[-70.09775,9.7798],[-70.10101,9.78373],[-70.08082,9.79858],[-70.07783,9.80947],[-70.07358,9.81307],[-70.07259,9.81702],[-70.07517,9.82011],[-70.07353,9.83298],[-70.07699,9.84278],[-70.05353,9.86224],[-70.04955,9.87218],[-70.03858,9.88441],[-70.03897,9.88928],[-70.03108,9.89803],[-70.02466,9.8998],[-70.01811,9.89791],[-70.01199,9.90805],[-70.00102,9.91242],[-69.99672,9.91062],[-69.98239,9.9129],[-69.97709,9.91119],[-69.96604,9.91472],[-69.96258,9.91088],[-69.95273,9.91155],[-69.94778,9.90721],[-69.93124,9.91525],[-69.92586,9.91375],[-69.92234,9.92577],[-69.90749,9.93391],[-69.90888,9.94238],[-69.9071,9.94457],[-69.90294,9.94487],[-69.89233,9.95398],[-69.88344,9.95755],[-69.87482,9.95443],[-69.87252,9.9567],[-69.8731,9.96158],[-69.85902,9.96105],[-69.84951,9.9701],[-69.84867,9.97372],[-69.84236,9.97621],[-69.84052,9.98935],[-69.8376,9.99129],[-69.82639,9.9893],[-69.82495,9.98639],[-69.82071,9.98523],[-69.81445,10.01444],[-69.80782,10.0119],[-69.80437,10.01289],[-69.79716,10.0238],[-69.79178,10.02419],[-69.79026,10.02741],[-69.78427,10.02696],[-69.78373,10.02225],[-69.77157,10.01849],[-69.76414,10.01184],[-69.77035,10.00623],[-69.76957,10.00209],[-69.77552,9.99777],[-69.76938,9.99836],[-69.76386,9.99539],[-69.75933,9.99835],[-69.75598,9.98535],[-69.75169,9.98359],[-69.74442,9.99072],[-69.73896,9.98246],[-69.72733,9.98069],[-69.72603,9.98924],[-69.73131,9.99865],[-69.72622,9.99926],[-69.72443,10.00211],[-69.72654,10.00725],[-69.73226,10.01054],[-69.72935,10.01688],[-69.73155,10.02416],[-69.72713,10.02969],[-69.72936,10.03549],[-69.72009,10.05355],[-69.7201,10.05767],[-69.7159,10.05977],[-69.70892,10.08179],[-69.70444,10.08317],[-69.70886,10.08696],[-69.70537,10.09381],[-69.70638,10.10739],[-69.70116,10.10527],[-69.69797,10.10743],[-69.69452,10.10471],[-69.68896,10.10654],[-69.68911,10.10875],[-69.68473,10.10676],[-69.67861,10.1083],[-69.67085,10.12197],[-69.66801,10.12016],[-69.6631,10.1268],[-69.6634,10.12963],[-69.65556,10.12849],[-69.63925,10.14855],[-69.63173,10.14845],[-69.63038,10.14652],[-69.62483,10.15349],[-69.62575,10.15578],[-69.63003,10.15397],[-69.63604,10.15625],[-69.63826,10.16059],[-69.64241,10.16072],[-69.64373,10.16328],[-69.63883,10.16631],[-69.63908,10.17164],[-69.63373,10.17512],[-69.63625,10.17932],[-69.63372,10.18265],[-69.63574,10.19007],[-69.64016,10.19371],[-69.64665,10.19114],[-69.64726,10.19698],[-69.65388,10.20257],[-69.66096,10.20426],[-69.65563,10.21703],[-69.65966,10.21909],[-69.66005,10.22452],[-69.66394,10.23035],[-69.6732,10.23067],[-69.67625,10.23528],[-69.67206,10.2447],[-69.65907,10.24591],[-69.65719,10.2495],[-69.65958,10.25418],[-69.65593,10.25882],[-69.6535,10.27291],[-69.65726,10.27515],[-69.65121,10.28217],[-69.65297,10.28528],[-69.65108,10.29132],[-69.65359,10.29786],[-69.65613,10.29875],[-69.65457,10.30539],[-69.65817,10.30664],[-69.65329,10.31073],[-69.65244,10.31416],[-69.65555,10.31563],[-69.65275,10.32035],[-69.64904,10.32164],[-69.6451,10.33073],[-69.64087,10.33157],[-69.63746,10.33903],[-69.63225,10.34041],[-69.63262,10.34355],[-69.62746,10.3475],[-69.62688,10.35247],[-69.62909,10.35577],[-69.62747,10.35987],[-69.6297,10.36141],[-69.62244,10.36883],[-69.62587,10.36893],[-69.62749,10.3729],[-69.62267,10.37682],[-69.623,10.38955],[-69.61972,10.39263],[-69.62289,10.39677],[-69.62596,10.39691],[-69.63964,10.38509],[-69.64595,10.38807],[-69.66522,10.38547],[-69.66616,10.39394],[-69.67336,10.4054],[-69.67887,10.40637],[-69.68787,10.41518],[-69.704,10.4178],[-69.72301,10.40874],[-69.72499,10.41324],[-69.72209,10.41569],[-69.7184,10.42712],[-69.7162,10.44141],[-69.73233,10.44943],[-69.73219,10.45931],[-69.73931,10.46935],[-69.73987,10.47193],[-69.73705,10.47453],[-69.7438,10.4858],[-69.74156,10.49087],[-69.74544,10.49076],[-69.75477,10.49683],[-69.75856,10.49042],[-69.76345,10.48978],[-69.76824,10.49317],[-69.77224,10.4898],[-69.77485,10.49133],[-69.78253,10.48921],[-69.79649,10.47304],[-69.79434,10.47171],[-69.79504,10.46921],[-69.80852,10.46164],[-69.8089,10.45747],[-69.81459,10.45032],[-69.83322,10.44271],[-69.83268,10.43846],[-69.84312,10.42778],[-69.8481,10.4312],[-69.85069,10.43003],[-69.85342,10.43434],[-69.86103,10.43734],[-69.91382,10.41894],[-69.92146,10.42271],[-69.93134,10.41914],[-69.94048,10.41936],[-69.93935,10.42251],[-69.94225,10.42682],[-69.9397,10.43088],[-69.94209,10.43336],[-69.94122,10.44182],[-69.94893,10.45418],[-69.94997,10.46596],[-69.9529,10.46727],[-69.96515,10.45773],[-69.97766,10.45967],[-69.97853,10.45671],[-69.98271,10.45545],[-69.98454,10.45028],[-69.99061,10.45051],[-70.00784,10.43792],[-70.01677,10.43953],[-70.02538,10.44452],[-70.03459,10.44505],[-70.04597,10.44344],[-70.05789,10.43431],[-70.06851,10.43707],[-70.07357,10.43269],[-70.09172,10.43018],[-70.09851,10.43217],[-70.10263,10.42974],[-70.11182,10.43751],[-70.1184,10.43496],[-70.11917,10.42825],[-70.12721,10.42827],[-70.12994,10.4236],[-70.14171,10.42808],[-70.14446,10.4458],[-70.15221,10.44873],[-70.1634,10.44668],[-70.17201,10.44884],[-70.18172,10.45592],[-70.18699,10.4568],[-70.19207,10.46368],[-70.1985,10.46071],[-70.20494,10.46169],[-70.21173,10.45678],[-70.21959,10.45999],[-70.21291,10.46507],[-70.21137,10.47313],[-70.18803,10.49172],[-70.18066,10.50274],[-70.17727,10.50361],[-70.1752,10.51137],[-70.16896,10.51475],[-70.16815,10.52585],[-70.17329,10.53254],[-70.17452,10.54867],[-70.17688,10.55089],[-70.18764,10.55064],[-70.18698,10.54781],[-70.19146,10.55063],[-70.19137,10.55281],[-70.19447,10.55225],[-70.1939,10.55489],[-70.19783,10.55701],[-70.19642,10.56393],[-70.20021,10.56624],[-70.19743,10.56694],[-70.19835,10.56853],[-70.20756,10.56388],[-70.21095,10.56508],[-70.21153,10.56079],[-70.24003,10.55973],[-70.24978,10.55351],[-70.25125,10.54998],[-70.2554,10.55121],[-70.25773,10.54713],[-70.26439,10.55125],[-70.26837,10.54204],[-70.27016,10.54355],[-70.27704,10.54066],[-70.27779,10.53454],[-70.28636,10.53101],[-70.29323,10.53928],[-70.28871,10.54966],[-70.28935,10.5551],[-70.30482,10.56076],[-70.30245,10.5617],[-70.30355,10.57078],[-70.31011,10.57465],[-70.31164,10.58095],[-70.31805,10.58102],[-70.32152,10.57674],[-70.32066,10.57321],[-70.33232,10.56559],[-70.34352,10.56725],[-70.34097,10.5621],[-70.34278,10.55714],[-70.3403,10.55373],[-70.3424,10.54801],[-70.35885,10.5466],[-70.36442,10.54403],[-70.36928,10.54556],[-70.37428,10.5352],[-70.38194,10.53178],[-70.38334,10.53366],[-70.38818,10.53247],[-70.39121,10.52765],[-70.3955,10.52757],[-70.39673,10.52162],[-70.39202,10.5172],[-70.39061,10.51072],[-70.3979,10.49817],[-70.39796,10.48547],[-70.40363,10.4788],[-70.4129,10.47464],[-70.42082,10.46419],[-70.42413,10.46384],[-70.42784,10.45571],[-70.43801,10.45304],[-70.45385,10.45933],[-70.45871,10.46589],[-70.45851,10.46988],[-70.46042,10.47013],[-70.47545,10.46483],[-70.48137,10.45817],[-70.48819,10.46413],[-70.49609,10.46166],[-70.50124,10.45394],[-70.50671,10.45119],[-70.50893,10.45393],[-70.51158,10.45268],[-70.51235,10.44813],[-70.51622,10.44829],[-70.51688,10.4453],[-70.52096,10.44434],[-70.5273,10.42075],[-70.53098,10.41949],[-70.53561,10.41104],[-70.53886,10.40955],[-70.53432,10.40429],[-70.53439,10.39971],[-70.53784,10.39313],[-70.53638,10.39094],[-70.54458,10.36325],[-70.55494,10.35465],[-70.55348,10.34597],[-70.56402,10.33665],[-70.57264,10.32375],[-70.58794,10.33188],[-70.6005,10.33047],[-70.6078,10.33303],[-70.61357,10.32991],[-70.61959,10.33287],[-70.63202,10.32776],[-70.63258,10.32337],[-70.64795,10.32235],[-70.65304,10.31592],[-70.66006,10.31861],[-70.66752,10.31788],[-70.6829,10.30385],[-70.69653,10.27979],[-70.69606,10.26143],[-70.70092,10.25815],[-70.70203,10.24677],[-70.70736,10.23942],[-70.70671,10.23074],[-70.70981,10.22415],[-70.70837,10.21283],[-70.70447,10.20588],[-70.71016,10.19835],[-70.7221,10.19511],[-70.72899,10.18624],[-70.72734,10.18221],[-70.72887,10.17812],[-70.72589,10.17643],[-70.73182,10.17443],[-70.73499,10.16875],[-70.73323,10.15485],[-70.74199,10.14626],[-70.75043,10.14304],[-70.75753,10.13538],[-70.79762,10.11532],[-70.79989,10.10982],[-70.81958,10.09959],[-70.83146,10.0881],[-70.83428,10.09007],[-70.83667,10.0885],[-70.84141,10.08501],[-70.84112,10.07926],[-70.84651,10.07223],[-70.8619,10.06976],[-70.87174,10.05842],[-70.87687,10.05903],[-70.88281,10.05018],[-70.79119,9.91939],[-70.78785,9.91782],[-70.77011,9.92239],[-70.76472,9.92111],[-70.76374,9.91722],[-70.74953,9.91685],[-70.74486,9.90981],[-70.7461,9.89975],[-70.73658,9.89277],[-70.7077,9.8827],[-70.70024,9.88374],[-70.69314,9.88908],[-70.69294,9.90109],[-70.68799,9.91509],[-70.69589,9.91694],[-70.69636,9.92302],[-70.69421,9.92648],[-70.69714,9.93874],[-70.69618,9.94286],[-70.69489,9.94184],[-70.68893,9.95092],[-70.69151,9.95758],[-70.6804,9.97752],[-70.6839,9.98738],[-70.68236,9.99759],[-70.6765,10.00405],[-70.66267,10.00365],[-70.66302,10.01742],[-70.64873,10.02777],[-70.64423,10.03826],[-70.63918,10.03969],[-70.63474,10.03471],[-70.62934,10.0331],[-70.6256,10.02546],[-70.61024,10.01449],[-70.61139,10.00846],[-70.60804,10.00183],[-70.59541,9.99215],[-70.59445,9.97887],[-70.58843,9.96962],[-70.59113,9.95768],[-70.58728,9.95566],[-70.55633,9.95629],[-70.55035,9.94919],[-70.54608,9.94909],[-70.54221,9.94184],[-70.53866,9.94002],[-70.54412,9.92138],[-70.53143,9.89857],[-70.53225,9.89537],[-70.52047,9.89348],[-70.51743,9.88694],[-70.50952,9.88525],[-70.50656,9.88232],[-70.48954,9.89204],[-70.47949,9.87591],[-70.481,9.8725],[-70.46833,9.86704],[-70.46419,9.86199],[-70.46013,9.86642],[-70.45739,9.87616],[-70.45148,9.8821],[-70.43892,9.8842],[-70.43037,9.88137],[-70.42382,9.88743],[-70.42188,9.89927],[-70.41705,9.90143],[-70.4153,9.9073],[-70.41099,9.90697],[-70.4037,9.90079],[-70.40061,9.90045],[-70.40025,9.90325],[-70.39603,9.90443],[-70.38234,9.89636],[-70.37751,9.89988],[-70.37788,9.90485],[-70.36826,9.9072],[-70.36169,9.90547],[-70.35556,9.89624],[-70.34971,9.89352],[-70.34776,9.88592],[-70.34235,9.87949],[-70.34217,9.87085],[-70.32652,9.85979],[-70.3202,9.85138],[-70.32489,9.82953],[-70.33173,9.82266],[-70.28032,9.82294],[-70.24231,9.75976],[-70.23889,9.76275],[-70.23719,9.77148],[-70.23947,9.77871],[-70.23418,9.7858],[-70.23443,9.79492],[-70.22952,9.81144],[-70.23219,9.81605],[-70.23196,9.82362],[-70.22791,9.82544],[-70.22372,9.82271],[-70.21476,9.82983],[-70.21826,9.83267],[-70.21522,9.83649],[-70.21792,9.83729],[-70.21654,9.84339],[-70.20835,9.83891],[-70.20715,9.83312],[-70.19939,9.83105],[-70.19624,9.82772]]]}},{"type":"Feature","id":"relation/3919040","properties":{"name":"Municipio Urdaneta","level":6,"population":"61381"},"geometry":{"type":"Polygon","coordinates":[[[-70.21751,10.59419],[-70.22285,10.59375],[-70.23214,10.58678],[-70.23502,10.58987],[-70.24042,10.5888],[-70.24546,10.58433],[-70.24621,10.57959],[-70.25153,10.57842],[-70.25412,10.57236],[-70.27318,10.56305],[-70.27802,10.56133],[-70.27986,10.56452],[-70.28474,10.56426],[-70.2962,10.5716],[-70.30355,10.57078],[-70.30245,10.5617],[-70.30484,10.5608],[-70.28935,10.5551],[-70.28871,10.54966],[-70.29323,10.53928],[-70.28611,10.53099],[-70.27779,10.53454],[-70.27704,10.54066],[-70.27016,10.54355],[-70.26837,10.54204],[-70.26439,10.55125],[-70.25773,10.54713],[-70.2554,10.55121],[-70.25125,10.54998],[-70.24978,10.55351],[-70.24003,10.55973],[-70.21153,10.56079],[-70.21095,10.56508],[-70.20756,10.56388],[-70.19806,10.56851],[-70.19743,10.56694],[-70.20021,10.56624],[-70.19642,10.56393],[-70.19783,10.55701],[-70.1939,10.55489],[-70.19447,10.55225],[-70.19137,10.55281],[-70.1871,10.54782],[-70.1875,10.55067],[-70.17688,10.55089],[-70.1746,10.54888],[-70.17329,10.53254],[-70.16966,10.5301],[-70.16762,10.52114],[-70.16959,10.51379],[-70.1752,10.51137],[-70.17727,10.50361],[-70.18066,10.50274],[-70.18935,10.49048],[-70.21137,10.47313],[-70.21291,10.46507],[-70.21959,10.45999],[-70.21173,10.45678],[-70.20494,10.46169],[-70.1985,10.46071],[-70.19207,10.46368],[-70.18699,10.4568],[-70.18172,10.45592],[-70.17201,10.44884],[-70.1634,10.44668],[-70.15221,10.44873],[-70.14446,10.4458],[-70.1437,10.43494],[-70.13984,10.42669],[-70.12994,10.4236],[-70.12721,10.42827],[-70.11917,10.42825],[-70.1184,10.43496],[-70.11182,10.43751],[-70.10263,10.42974],[-70.09851,10.43217],[-70.09172,10.43018],[-70.07357,10.43269],[-70.06851,10.43707],[-70.05789,10.43431],[-70.04597,10.44344],[-70.03459,10.44505],[-70.02538,10.44452],[-70.01677,10.43953],[-70.00784,10.43792],[-69.99061,10.45051],[-69.98454,10.45028],[-69.98271,10.45545],[-69.97853,10.45671],[-69.97766,10.45967],[-69.96515,10.45773],[-69.9529,10.46727],[-69.94997,10.46596],[-69.94893,10.45418],[-69.94122,10.44182],[-69.94209,10.43336],[-69.9397,10.43088],[-69.94225,10.42682],[-69.93935,10.42251],[-69.94048,10.41936],[-69.93134,10.41914],[-69.92146,10.42271],[-69.91382,10.41894],[-69.86103,10.43734],[-69.85342,10.43434],[-69.85069,10.43003],[-69.8481,10.4312],[-69.84312,10.42778],[-69.83268,10.43846],[-69.83322,10.44271],[-69.81459,10.45032],[-69.8089,10.45747],[-69.80852,10.46164],[-69.79504,10.46921],[-69.79434,10.47171],[-69.79649,10.47304],[-69.78253,10.48921],[-69.77485,10.49133],[-69.77224,10.4898],[-69.76824,10.49317],[-69.76345,10.48978],[-69.75856,10.49042],[-69.75477,10.49683],[-69.74544,10.49076],[-69.74156,10.49087],[-69.7438,10.4858],[-69.73705,10.47453],[-69.73987,10.47193],[-69.73931,10.46935],[-69.73219,10.45931],[-69.73233,10.44943],[-69.7162,10.44141],[-69.7184,10.42712],[-69.72209,10.41569],[-69.72499,10.41324],[-69.72301,10.40874],[-69.704,10.4178],[-69.68787,10.41518],[-69.67887,10.40637],[-69.67336,10.4054],[-69.66616,10.39394],[-69.66522,10.38547],[-69.64595,10.38807],[-69.64004,10.38507],[-69.62538,10.39723],[-69.6176,10.39177],[-69.61645,10.39561],[-69.60979,10.39316],[-69.60359,10.39718],[-69.60171,10.4018],[-69.59636,10.39646],[-69.59192,10.39949],[-69.58795,10.39874],[-69.5876,10.40403],[-69.58127,10.40287],[-69.57911,10.39905],[-69.57382,10.40061],[-69.56771,10.41031],[-69.56357,10.41065],[-69.56647,10.41223],[-69.56714,10.42223],[-69.57659,10.42272],[-69.57762,10.43061],[-69.57064,10.43139],[-69.56847,10.43416],[-69.56901,10.43915],[-69.56525,10.43984],[-69.55997,10.4348],[-69.55198,10.44669],[-69.54269,10.44978],[-69.54146,10.45693],[-69.53547,10.46377],[-69.52908,10.46611],[-69.5272,10.46415],[-69.52369,10.4656],[-69.52173,10.46316],[-69.52152,10.46672],[-69.51753,10.46412],[-69.51642,10.46756],[-69.51199,10.46417],[-69.50432,10.47582],[-69.49783,10.47781],[-69.49477,10.47356],[-69.49353,10.48133],[-69.48906,10.47969],[-69.48919,10.48305],[-69.48626,10.48349],[-69.48655,10.48786],[-69.47972,10.48847],[-69.48101,10.48588],[-69.47869,10.48219],[-69.4741,10.49242],[-69.46993,10.49391],[-69.47023,10.49691],[-69.45907,10.50804],[-69.45638,10.5074],[-69.45257,10.51725],[-69.44801,10.51898],[-69.4462,10.52259],[-69.30754,10.50024],[-69.2948,10.48838],[-69.27827,10.48479],[-69.23409,10.48352],[-69.22345,10.48095],[-69.2248,10.47751],[-69.21769,10.47033],[-69.20819,10.47568],[-69.18795,10.46873],[-69.18009,10.47171],[-69.17182,10.46724],[-69.16788,10.45551],[-69.15901,10.45261],[-69.15278,10.45262],[-69.15137,10.45579],[-69.14793,10.45113],[-69.14138,10.4512],[-69.12715,10.46669],[-69.12339,10.46485],[-69.11784,10.46691],[-69.11431,10.47919],[-69.10007,10.47989],[-69.09496,10.47725],[-69.09147,10.47117],[-69.08601,10.47117],[-69.08503,10.46606],[-69.05911,10.46303],[-69.05885,10.47079],[-69.05333,10.47639],[-69.0549,10.48002],[-69.03965,10.50522],[-69.04232,10.51954],[-69.0265,10.5255],[-69.00955,10.5279],[-69.00398,10.53244],[-68.99909,10.53127],[-68.99787,10.53619],[-69.00152,10.54463],[-68.9966,10.54728],[-68.99282,10.55452],[-68.98644,10.556],[-68.9806,10.55236],[-68.97984,10.55587],[-68.97272,10.55192],[-68.96555,10.5592],[-68.95538,10.55865],[-68.94954,10.54805],[-68.9427,10.54735],[-68.93144,10.55768],[-68.9226,10.55456],[-68.89757,10.57748],[-68.89027,10.59053],[-68.88316,10.59612],[-68.88245,10.60835],[-68.87509,10.61443],[-68.8778,10.62811],[-68.8826,10.63384],[-68.87916,10.63757],[-68.87587,10.64928],[-68.88622,10.64959],[-68.8928,10.65244],[-68.89031,10.66267],[-68.89346,10.66366],[-68.89318,10.66816],[-68.89029,10.66925],[-68.89282,10.68168],[-68.89523,10.68075],[-68.89651,10.68293],[-68.89438,10.68398],[-68.89964,10.68713],[-68.89923,10.6893],[-68.9017,10.68906],[-68.90347,10.69413],[-68.91272,10.69399],[-68.91919,10.69806],[-68.93046,10.6933],[-68.93861,10.69489],[-68.94098,10.69823],[-68.94518,10.69687],[-68.95149,10.69932],[-68.95633,10.69565],[-68.96218,10.69684],[-68.96213,10.6909],[-68.96642,10.69359],[-68.97163,10.69185],[-68.9698,10.6981],[-68.97613,10.69408],[-68.98262,10.69699],[-68.98593,10.69298],[-68.98866,10.69679],[-68.99481,10.69296],[-68.99945,10.698],[-69.00691,10.69472],[-69.00915,10.69945],[-69.01135,10.69402],[-69.01905,10.69343],[-69.01765,10.68878],[-69.01924,10.68682],[-69.02525,10.69221],[-69.02555,10.68529],[-69.03038,10.69168],[-69.03014,10.68534],[-69.03554,10.68832],[-69.03436,10.68246],[-69.04147,10.68365],[-69.04403,10.68094],[-69.04686,10.68155],[-69.04682,10.67838],[-69.05172,10.67928],[-69.05465,10.67639],[-69.05882,10.67917],[-69.05983,10.67737],[-69.05643,10.6755],[-69.05775,10.6735],[-69.06289,10.67584],[-69.06474,10.6681],[-69.07198,10.66817],[-69.06746,10.66189],[-69.07496,10.66027],[-69.08063,10.66165],[-69.07995,10.6657],[-69.08497,10.66605],[-69.08225,10.67395],[-69.08837,10.67287],[-69.08715,10.6775],[-69.08301,10.67597],[-69.08349,10.68284],[-69.09021,10.68042],[-69.0905,10.68589],[-69.09542,10.68274],[-69.09827,10.68822],[-69.10073,10.68562],[-69.09817,10.68154],[-69.10178,10.6794],[-69.10437,10.67973],[-69.10356,10.68285],[-69.10731,10.68569],[-69.11303,10.68188],[-69.11989,10.68092],[-69.11902,10.68611],[-69.12416,10.68463],[-69.12692,10.69197],[-69.12908,10.68869],[-69.12682,10.68512],[-69.13006,10.68376],[-69.13454,10.69315],[-69.13624,10.68642],[-69.14644,10.6838],[-69.14916,10.68535],[-69.14753,10.68906],[-69.15123,10.69071],[-69.15345,10.6837],[-69.15901,10.68535],[-69.16062,10.69037],[-69.16959,10.68406],[-69.17092,10.68547],[-69.16755,10.69207],[-69.17024,10.69444],[-69.17141,10.68879],[-69.1771,10.69118],[-69.17823,10.68799],[-69.1833,10.68539],[-69.18601,10.68892],[-69.18654,10.69553],[-69.19164,10.69179],[-69.19784,10.69597],[-69.19976,10.69181],[-69.21099,10.69305],[-69.21162,10.69994],[-69.21651,10.7042],[-69.22242,10.70098],[-69.22384,10.69516],[-69.23367,10.6976],[-69.23009,10.69315],[-69.2331,10.68976],[-69.24116,10.69806],[-69.24555,10.69176],[-69.25486,10.69303],[-69.2535,10.6982],[-69.25793,10.7016],[-69.27328,10.69697],[-69.27753,10.70082],[-69.28068,10.69806],[-69.28658,10.70098],[-69.29197,10.69746],[-69.29626,10.70299],[-69.30335,10.7025],[-69.30691,10.70077],[-69.30682,10.69474],[-69.31041,10.69977],[-69.31575,10.70217],[-69.31919,10.69884],[-69.32322,10.69925],[-69.32469,10.70439],[-69.33077,10.70095],[-69.33214,10.69676],[-69.33438,10.69891],[-69.33398,10.70277],[-69.33768,10.7006],[-69.34448,10.70662],[-69.34975,10.70192],[-69.35364,10.70534],[-69.35801,10.70213],[-69.36527,10.70585],[-69.37575,10.70709],[-69.38064,10.71225],[-69.38184,10.70617],[-69.39338,10.70439],[-69.39684,10.70907],[-69.40126,10.71051],[-69.40834,10.70791],[-69.41105,10.70416],[-69.42124,10.70403],[-69.42371,10.70102],[-69.43468,10.70365],[-69.44122,10.69906],[-69.44485,10.70159],[-69.44915,10.69884],[-69.45356,10.70012],[-69.46223,10.69011],[-69.50495,10.6941],[-69.51446,10.6906],[-69.51815,10.68571],[-69.51883,10.67697],[-69.52117,10.67615],[-69.52625,10.68245],[-69.52069,10.68798],[-69.52209,10.68943],[-69.51732,10.69219],[-69.51728,10.70179],[-69.51925,10.70418],[-69.51717,10.70681],[-69.52144,10.70955],[-69.52018,10.71199],[-69.5246,10.71863],[-69.52081,10.72324],[-69.51743,10.72349],[-69.51844,10.72475],[-69.51378,10.72972],[-69.5182,10.73278],[-69.51479,10.73833],[-69.51698,10.74203],[-69.52129,10.73952],[-69.54542,10.74523],[-69.55459,10.73706],[-69.54682,10.72998],[-69.54797,10.7241],[-69.55584,10.71812],[-69.56463,10.72134],[-69.57746,10.71876],[-69.58456,10.71334],[-69.58513,10.70799],[-69.5976,10.70295],[-69.59601,10.71211],[-69.60099,10.71648],[-69.59857,10.72931],[-69.60419,10.73256],[-69.60782,10.73167],[-69.61432,10.73861],[-69.62871,10.73812],[-69.6341,10.74363],[-69.64651,10.74298],[-69.67774,10.72242],[-69.69031,10.7205],[-69.69649,10.727],[-69.69889,10.73737],[-69.6965,10.74616],[-69.69377,10.74817],[-69.69545,10.7523],[-69.70014,10.75388],[-69.71324,10.74667],[-69.72507,10.7448],[-69.73299,10.74697],[-69.74013,10.74605],[-69.75045,10.73729],[-69.7534,10.73835],[-69.7679,10.73086],[-69.77568,10.7234],[-69.77816,10.72526],[-69.78759,10.7141],[-69.79335,10.71218],[-69.79787,10.71391],[-69.79791,10.71172],[-69.80358,10.71129],[-69.81781,10.70431],[-69.82367,10.70461],[-69.83185,10.71643],[-69.84165,10.72343],[-69.83849,10.7331],[-69.8522,10.73522],[-69.85524,10.73177],[-69.85269,10.72883],[-69.85628,10.72197],[-69.8673,10.72096],[-69.86621,10.71227],[-69.86926,10.7086],[-69.88964,10.70407],[-69.89386,10.70715],[-69.90375,10.69766],[-69.92134,10.68936],[-69.92566,10.69313],[-69.93639,10.68804],[-69.94139,10.68863],[-69.95158,10.70123],[-69.96194,10.69781],[-69.9731,10.69095],[-69.97996,10.68217],[-69.98982,10.67706],[-70.01567,10.67119],[-70.01612,10.66597],[-70.03196,10.6547],[-70.04225,10.65595],[-70.05039,10.64541],[-70.05949,10.64016],[-70.06617,10.64088],[-70.0706,10.63878],[-70.08055,10.64096],[-70.08034,10.65016],[-70.08546,10.65546],[-70.09581,10.65372],[-70.0982,10.65541],[-70.10397,10.65229],[-70.11186,10.65477],[-70.11622,10.65035],[-70.12465,10.65817],[-70.13134,10.66022],[-70.13404,10.66524],[-70.13763,10.6659],[-70.14198,10.6641],[-70.14685,10.65755],[-70.15772,10.65598],[-70.16062,10.64973],[-70.17835,10.64061],[-70.17834,10.63297],[-70.18217,10.62382],[-70.17402,10.61949],[-70.17579,10.61701],[-70.18098,10.61615],[-70.19119,10.60939],[-70.19764,10.61086],[-70.20472,10.60627],[-70.20312,10.60405],[-70.20596,10.60022],[-70.21064,10.5996],[-70.21751,10.59419]]]}},{"type":"Feature","id":"relation/3933338","properties":{"name":"Municipio Mor\u00e1n","level":6,"population":"123880"},"geometry":{"type":"Polygon","coordinates":[[[-70.07982,9.75468],[-70.08267,9.75123],[-70.07682,9.74767],[-70.07568,9.74217],[-70.07117,9.73851],[-70.07012,9.73182],[-70.06255,9.72821],[-70.05806,9.71964],[-70.03996,9.71774],[-70.03061,9.72113],[-70.02715,9.71936],[-70.02354,9.70775],[-70.00727,9.69662],[-70.00358,9.69119],[-70.0024,9.6835],[-69.99552,9.67769],[-70.01771,9.67369],[-70.02917,9.6681],[-70.03675,9.67198],[-70.04471,9.67281],[-70.05295,9.67195],[-70.0601,9.66757],[-70.0651,9.67357],[-70.08607,9.67599],[-70.09778,9.66436],[-70.09951,9.65048],[-70.10835,9.63191],[-70.11632,9.62629],[-70.1192,9.6202],[-70.12718,9.61273],[-70.12639,9.59777],[-70.12235,9.5966],[-70.12377,9.59454],[-70.11772,9.58229],[-70.12342,9.55915],[-70.11709,9.55622],[-70.11334,9.55063],[-70.11325,9.52764],[-70.10999,9.52436],[-70.10965,9.51998],[-70.10288,9.51592],[-70.10455,9.50783],[-70.10091,9.50177],[-70.0836,9.49788],[-70.07605,9.48084],[-70.08201,9.46427],[-70.07862,9.45284],[-70.08531,9.4384],[-70.0834,9.43455],[-70.08023,9.43473],[-70.0775,9.42826],[-70.06633,9.43003],[-70.043,9.42786],[-70.04297,9.42404],[-70.03666,9.41557],[-70.02763,9.42086],[-70.01903,9.43309],[-70.00754,9.44381],[-70.00782,9.45101],[-70.0052,9.45737],[-70.00831,9.46843],[-70.00463,9.47091],[-70.01094,9.47481],[-70.01142,9.48295],[-70.00754,9.49956],[-69.99909,9.50735],[-69.99462,9.5068],[-69.97512,9.53855],[-69.9595,9.54723],[-69.95121,9.55493],[-69.92752,9.54635],[-69.91933,9.54873],[-69.9143,9.5474],[-69.90795,9.55089],[-69.90315,9.54693],[-69.89812,9.55021],[-69.89826,9.55358],[-69.88194,9.54659],[-69.87076,9.54512],[-69.86633,9.54732],[-69.86513,9.5549],[-69.86267,9.55703],[-69.85492,9.56098],[-69.8495,9.5673],[-69.84132,9.56935],[-69.83332,9.56585],[-69.82904,9.56684],[-69.83301,9.56088],[-69.82702,9.55059],[-69.83057,9.54703],[-69.83359,9.54761],[-69.83414,9.53994],[-69.8387,9.53542],[-69.83556,9.53148],[-69.83507,9.52385],[-69.8323,9.52549],[-69.82712,9.52257],[-69.82781,9.51798],[-69.83102,9.51652],[-69.82849,9.50376],[-69.84295,9.5016],[-69.85525,9.48112],[-69.85974,9.48122],[-69.86545,9.4766],[-69.86604,9.47213],[-69.87061,9.47183],[-69.87842,9.46297],[-69.88192,9.46211],[-69.89498,9.44132],[-69.89485,9.42515],[-69.90135,9.41817],[-69.90129,9.41329],[-69.89842,9.40971],[-69.88823,9.4082],[-69.88439,9.41071],[-69.88267,9.40889],[-69.87602,9.41329],[-69.87228,9.40894],[-69.8693,9.4097],[-69.86709,9.41663],[-69.8607,9.41159],[-69.8568,9.40462],[-69.84633,9.40699],[-69.83641,9.40247],[-69.82958,9.40586],[-69.82148,9.40763],[-69.81995,9.40611],[-69.81638,9.41101],[-69.81224,9.40781],[-69.79847,9.4085],[-69.79361,9.40622],[-69.78758,9.40933],[-69.78834,9.4177],[-69.78591,9.42164],[-69.78255,9.42338],[-69.77814,9.4209],[-69.77748,9.42463],[-69.77493,9.42203],[-69.76995,9.42548],[-69.7555,9.42643],[-69.75222,9.43253],[-69.75438,9.43709],[-69.74454,9.43961],[-69.73047,9.43554],[-69.72972,9.42489],[-69.73786,9.41945],[-69.73051,9.41602],[-69.72787,9.41699],[-69.7195,9.40768],[-69.70452,9.40404],[-69.69261,9.407],[-69.68593,9.40201],[-69.68038,9.40197],[-69.66205,9.38905],[-69.65452,9.39109],[-69.65309,9.38907],[-69.65212,9.39463],[-69.65026,9.39452],[-69.65458,9.3963],[-69.65162,9.39749],[-69.65438,9.39996],[-69.65367,9.40325],[-69.6448,9.41231],[-69.63649,9.43367],[-69.62571,9.44101],[-69.62845,9.44904],[-69.62688,9.45444],[-69.62418,9.45948],[-69.61989,9.46051],[-69.62367,9.47591],[-69.61822,9.47965],[-69.6205,9.48676],[-69.61852,9.49412],[-69.62294,9.49967],[-69.62627,9.51021],[-69.61885,9.53648],[-69.62355,9.55466],[-69.62553,9.5579],[-69.63538,9.56207],[-69.64098,9.57538],[-69.65141,9.57677],[-69.65248,9.58285],[-69.66273,9.58243],[-69.66506,9.57985],[-69.67685,9.58095],[-69.68943,9.58842],[-69.69638,9.58637],[-69.69969,9.58979],[-69.69938,9.59603],[-69.69433,9.60283],[-69.6928,9.61109],[-69.68432,9.61542],[-69.67892,9.62552],[-69.678,9.63284],[-69.68628,9.63299],[-69.68555,9.63661],[-69.68937,9.63949],[-69.69939,9.64063],[-69.70503,9.64374],[-69.70695,9.65415],[-69.70945,9.65436],[-69.71029,9.66423],[-69.72651,9.67753],[-69.72461,9.68629],[-69.73337,9.69674],[-69.73087,9.69856],[-69.73292,9.70665],[-69.7317,9.71223],[-69.74075,9.71208],[-69.74461,9.71861],[-69.73874,9.72392],[-69.73781,9.7281],[-69.73344,9.72818],[-69.73132,9.73066],[-69.73,9.7411],[-69.72351,9.74796],[-69.72336,9.75035],[-69.73112,9.75728],[-69.7156,9.75974],[-69.70461,9.77396],[-69.70615,9.77822],[-69.70431,9.78583],[-69.70792,9.78824],[-69.70809,9.79759],[-69.70457,9.7987],[-69.69977,9.80574],[-69.70678,9.8158],[-69.70765,9.82628],[-69.71042,9.82953],[-69.70841,9.84141],[-69.70244,9.85008],[-69.70828,9.85212],[-69.70669,9.85322],[-69.70709,9.88198],[-69.72246,9.87917],[-69.724,9.88111],[-69.72697,9.87917],[-69.72868,9.88467],[-69.7406,9.88612],[-69.74295,9.89053],[-69.74239,9.91005],[-69.73,9.91984],[-69.73324,9.93158],[-69.73954,9.94194],[-69.73526,9.95014],[-69.72983,9.95173],[-69.72984,9.95534],[-69.73337,9.96082],[-69.73257,9.96993],[-69.7369,9.97733],[-69.73638,9.98206],[-69.73896,9.98246],[-69.74361,9.99012],[-69.7473,9.98921],[-69.75186,9.98361],[-69.75645,9.98571],[-69.75839,9.99789],[-69.76386,9.99539],[-69.76938,9.99836],[-69.77552,9.99777],[-69.76957,10.00209],[-69.77035,10.00623],[-69.76492,10.01035],[-69.76616,10.01505],[-69.78357,10.02214],[-69.7841,10.02684],[-69.78706,10.02754],[-69.79026,10.02741],[-69.79178,10.02419],[-69.79716,10.0238],[-69.80437,10.01289],[-69.80782,10.0119],[-69.81445,10.01444],[-69.82071,9.98523],[-69.82495,9.98639],[-69.82639,9.9893],[-69.8376,9.99129],[-69.84052,9.98935],[-69.84236,9.97621],[-69.84867,9.97372],[-69.84951,9.9701],[-69.85902,9.96105],[-69.8731,9.96158],[-69.87252,9.9567],[-69.87482,9.95443],[-69.88344,9.95755],[-69.89233,9.95398],[-69.90294,9.94487],[-69.9071,9.94457],[-69.90888,9.94238],[-69.90749,9.93391],[-69.92234,9.92577],[-69.92586,9.91375],[-69.93124,9.91525],[-69.94778,9.90721],[-69.95273,9.91155],[-69.96258,9.91088],[-69.96604,9.91472],[-69.97709,9.91119],[-69.98239,9.9129],[-69.99672,9.91062],[-70.00102,9.91242],[-70.01199,9.90805],[-70.01811,9.89791],[-70.02466,9.8998],[-70.03118,9.89796],[-70.03897,9.88928],[-70.03858,9.88441],[-70.04955,9.87218],[-70.05353,9.86224],[-70.07699,9.84278],[-70.07353,9.83298],[-70.07517,9.82011],[-70.07259,9.81702],[-70.07358,9.81307],[-70.07783,9.80947],[-70.08082,9.79858],[-70.10101,9.78373],[-70.09775,9.7798],[-70.09392,9.77959],[-70.09407,9.77438],[-70.08502,9.77194],[-70.08899,9.76186],[-70.07994,9.75964],[-70.07982,9.75468]]]}}]}