{"type":"FeatureCollection","features":[{"type":"Feature","id":"node/987588281","properties":{"name":"Cabudare","place":"city","population":"166087"},"geometry":{"type":"Point","coordinates":[-69.24366,10.02605]}},{"type":"Feature","id":"node/987588408","properties":{"name":"Los Mamones","place":"town"},"geometry":{"type":"Point","coordinates":[-69.19787,10.00954]}},{"type":"Feature","id":"node/1223829074","properties":{"name":"El Potrero","place":"village"},"geometry":{"type":"Point","coordinates":[-70.02035,9.52175]}},{"type":"Feature","id":"node/1223830007","properties":{"name":"Versalles","place":"village"},"geometry":{"type":"Point","coordinates":[-70.01993,9.45709]}},{"type":"Feature","id":"node/1223830850","properties":{"name":"La Mesa","place":"village"},"geometry":{"type":"Point","coordinates":[-69.99791,9.57144]}},{"type":"Feature","id":"node/1223831306","properties":{"name":"El Jab\u00f3n","place":"village"},"geometry":{"type":"Point","coordinates":[-70.00938,9.53967]}},{"type":"Feature","id":"node/1229154551","properties":{"name":"Atarigua","place":"town"},"geometry":{"type":"Point","coordinates":[-69.80959,10.10944]}},{"type":"Feature","id":"node/1229157441","properties":{"name":"Arenales","place":"town"},"geometry":{"type":"Point","coordinates":[-69.90326,10.14961]}},{"type":"Feature","id":"node/1609562679","properties":{"name":"San Miguel","place":"town","population":"10000"},"geometry":{"type":"Point","coordinates":[-69.51054,9.88055]}},{"type":"Feature","id":"node/1613828043","properties":{"name":"Licua","place":"village"},"geometry":{"type":"Point","coordinates":[-69.13272,10.31771]}},{"type":"Feature","id":"node/1622415710","properties":{"name":"Barquisimeto","place":"city"},"geometry":{"type":"Point","coordinates":[-69.32223,10.07744]}},{"type":"Feature","id":"node/1622436212","properties":{"name":"El Manzano","place":"city"},"geometry":{"type":"Point","coordinates":[-69.31231,10.03727]}},{"type":"Feature","id":"node/2612573805","properties":{"name":"Carora","place":"city"},"geometry":{"type":"Point","coordinates":[-70.07285,10.16953]}},{"type":"Feature","id":"node/3242432535","properties":{"name":"Moroturo","place":"town"},"geometry":{"type":"Point","coordinates":[-69.238,10.55098]}},{"type":"Feature","id":"node/3246270461","properties":{"name":"Sarare","place":"town"},"geometry":{"type":"Point","coordinates":[-69.16257,9.7836]}},{"type":"Feature","id":"node/3575004823","properties":{"name":"Qu\u00edbor","place":"city","population":"110230"},"geometry":{"type":"Point","coordinates":[-69.61958,9.92998]}},{"type":"Feature","id":"node/3575004881","properties":{"name":"Cubiro","place":"town"},"geometry":{"type":"Point","coordinates":[-69.58414,9.78799]}},{"type":"Feature","id":"node/3628036194","properties":{"name":"El Tocuyo","place":"city"},"geometry":{"type":"Point","coordinates":[-69.79157,9.78794]}},{"type":"Feature","id":"node/5333479550","properties":{"name":"Sanare","place":"city"},"geometry":{"type":"Point","coordinates":[-69.65133,9.75326]}},{"type":"Feature","id":"node/5334860989","properties":{"name":"Duaca","place":"city"},"geometry":{"type":"Point","coordinates":[-69.16148,10.28644]}},{"type":"Feature","id":"node/5334939689","properties":{"name":"Siquisique","place":"town"},"geometry":{"type":"Point","coordinates":[-69.70273,10.57423]}},{"type":"Feature","id":"node/4539410596","properties":{"name":"Burere","place":"town"},"geometry":{"type":"Point","coordinates":[-70.24321,10.10071]}},{"type":"Feature","id":"node/4615611721","properties":{"name":"Tamaca","place":"city"},"geometry":{"type":"Point","coordinates":[-69.31225,10.17369]}},{"type":"Feature","id":"node/5078885687","properties":{"name":"Humocaro Alto","place":"town"},"geometry":{"type":"Point","coordinates":[-69.98747,9.60354]}},{"type":"Feature","id":"node/5082335680","properties":{"name":"Humocaro Bajo","place":"town"},"geometry":{"type":"Point","coordinates":[-69.97379,9.67803]}},{"type":"Feature","id":"node/5227096721","properties":{"name":"Aregue","place":"town","population":"2368"},"geometry":{"type":"Point","coordinates":[-70.03394,10.23998]}},{"type":"Feature","id":"node/5314686612","properties":{"name":"El Padr\u00f3n","place":"village"},"geometry":{"type":"Point","coordinates":[-70.48887,10.3434]}},{"type":"Feature","id":"node/5314686613","properties":{"name":"Quebrada Arriba","place":"town"},"geometry":{"type":"Point","coordinates":[-70.53894,10.23928]}},{"type":"Feature","id":"node/5314686614","properties":{"name":"Sabana de Onoto","place":"village"},"geometry":{"type":"Point","coordinates":[-70.51895,10.19076]}},{"type":"Feature","id":"node/5314686615","properties":{"name":"Puricaure","place":"village"},"geometry":{"type":"Point","coordinates":[-70.46418,10.09338]}},{"type":"Feature","id":"node/5333277237","properties":{"name":"Palmarito","place":"town"},"geometry":{"type":"Point","coordinates":[-70.69391,10.1075]}},{"type":"Feature","id":"node/5333361133","properties":{"name":"La Bonita","place":"village"},"geometry":{"type":"Point","coordinates":[-70.62827,10.17312]}},{"type":"Feature","id":"node/5333361218","properties":{"name":"San Pablo","place":"village"},"geometry":{"type":"Point","coordinates":[-70.65297,10.18817]}},{"type":"Feature","id":"node/5333361359","properties":{"name":"Santa Rita","place":"village"},"geometry":{"type":"Point","coordinates":[-70.64631,10.20348]}},{"type":"Feature","id":"node/5333361360","properties":{"name":"La Providencia","place":"village"},"geometry":{"type":"Point","coordinates":[-70.60374,10.18714]}},{"type":"Feature","id":"node/5333361361","properties":{"name":"Buenos Aires","place":"village"},"geometry":{"type":"Point","coordinates":[-70.5699,10.21704]}},{"type":"Feature","id":"node/5333361362","properties":{"name":"Sicare","place":"town"},"geometry":{"type":"Point","coordinates":[-70.5937,10.09183]}},{"type":"Feature","id":"node/5333361363","properties":{"name":"Santa Rosa","place":"village"},"geometry":{"type":"Point","coordinates":[-70.56797,10.09098]}},{"type":"Feature","id":"node/5333361499","properties":{"name":"Las Veras","place":"village"},"geometry":{"type":"Point","coordinates":[-70.21387,10.06613]}},{"type":"Feature","id":"node/5333361500","properties":{"name":"Barranquilla","place":"village"},"geometry":{"type":"Point","coordinates":[-70.24966,10.01971]}},{"type":"Feature","id":"node/5333361501","properties":{"name":"Pie de Cuesta","place":"town"},"geometry":{"type":"Point","coordinates":[-70.24348,9.88616]}},{"type":"Feature","id":"node/5333361502","properties":{"name":"El Empedrado","place":"town"},"geometry":{"type":"Point","coordinates":[-70.28217,9.86961]}},{"type":"Feature","id":"node/5333398510","properties":{"name":"San Francisco","place":"town"},"geometry":{"type":"Point","coordinates":[-70.31255,10.28454]}},{"type":"Feature","id":"node/5333399313","properties":{"name":"Bocare","place":"village"},"geometry":{"type":"Point","coordinates":[-69.9047,10.1707]}},{"type":"Feature","id":"node/5333399334","properties":{"name":"Las Cruces","place":"village"},"geometry":{"type":"Point","coordinates":[-69.93253,10.19636]}},{"type":"Feature","id":"node/5333399352","properties":{"name":"La Pe\u00f1ita","place":"village"},"geometry":{"type":"Point","coordinates":[-69.9153,10.22994]}},{"type":"Feature","id":"node/5333399379","properties":{"name":"R\u00edo Tocuyo","place":"town"},"geometry":{"type":"Point","coordinates":[-69.93588,10.26951]}},{"type":"Feature","id":"node/5333399384","properties":{"name":"Puente Torres","place":"town"},"geometry":{"type":"Point","coordinates":[-69.89312,10.18943]}},{"type":"Feature","id":"node/5333399402","properties":{"name":"Cascajales","place":"village"},"geometry":{"type":"Point","coordinates":[-69.86988,10.17811]}},{"type":"Feature","id":"node/5333399429","properties":{"name":"Antias","place":"village"},"geometry":{"type":"Point","coordinates":[-69.86812,10.17121]}},{"type":"Feature","id":"node/5333399530","properties":{"name":"Mamonal","place":"village"},"geometry":{"type":"Point","coordinates":[-69.78027,10.17896]}},{"type":"Feature","id":"node/5333399551","properties":{"name":"Las Pe\u00f1itas","place":"village"},"geometry":{"type":"Point","coordinates":[-69.83158,10.17222]}},{"type":"Feature","id":"node/5333429136","properties":{"name":"San Pablo","place":"village"},"geometry":{"type":"Point","coordinates":[-69.72899,10.13757]}},{"type":"Feature","id":"node/5333429137","properties":{"name":"Padre Diego","place":"village"},"geometry":{"type":"Point","coordinates":[-69.571,10.14105]}},{"type":"Feature","id":"node/5333429138","properties":{"name":"La Falda","place":"village"},"geometry":{"type":"Point","coordinates":[-69.69402,10.0844]}},{"type":"Feature","id":"node/5333429139","properties":{"name":"El Hipopal","place":"village"},"geometry":{"type":"Point","coordinates":[-69.71171,10.12323]}},{"type":"Feature","id":"node/5333429140","properties":{"name":"Tintorero","place":"town"},"geometry":{"type":"Point","coordinates":[-69.56447,9.98626]}},{"type":"Feature","id":"node/5333429141","properties":{"name":"El Vigiadero","place":"village"},"geometry":{"type":"Point","coordinates":[-69.58637,10.00754]}},{"type":"Feature","id":"node/5333446871","properties":{"name":"Campo Lindo","place":"town"},"geometry":{"type":"Point","coordinates":[-69.57166,9.95528]}},{"type":"Feature","id":"node/5333460237","properties":{"name":"El Cerrito","place":"village"},"geometry":{"type":"Point","coordinates":[-69.66565,9.9947]}},{"type":"Feature","id":"node/5333460269","properties":{"name":"Guadalupe","place":"town"},"geometry":{"type":"Point","coordinates":[-69.67607,10.03122]}},{"type":"Feature","id":"node/5333460347","properties":{"name":"San Antonio","place":"village"},"geometry":{"type":"Point","coordinates":[-69.69075,10.03813]}},{"type":"Feature","id":"node/5333477938","properties":{"name":"Curarigua","place":"town"},"geometry":{"type":"Point","coordinates":[-69.93645,9.97996]}},{"type":"Feature","id":"node/5333479546","properties":{"name":"El Tigrito","place":"village"},"geometry":{"type":"Point","coordinates":[-69.97724,10.12315]}},{"type":"Feature","id":"node/5333479548","properties":{"name":"El Molino","place":"town"},"geometry":{"type":"Point","coordinates":[-69.612,9.85875]}},{"type":"Feature","id":"node/5333479549","properties":{"name":"Cuara","place":"town"},"geometry":{"type":"Point","coordinates":[-69.60646,9.88293]}},{"type":"Feature","id":"node/5333486404","properties":{"name":"Sabana Grande","place":"village"},"geometry":{"type":"Point","coordinates":[-69.68325,9.72707]}},{"type":"Feature","id":"node/5333486405","properties":{"name":"Versales","place":"village"},"geometry":{"type":"Point","coordinates":[-69.68186,9.71722]}},{"type":"Feature","id":"node/5333486406","properties":{"name":"San Jos\u00e9 de Potrerito","place":"village"},"geometry":{"type":"Point","coordinates":[-69.74089,9.70105]}},{"type":"Feature","id":"node/5333486407","properties":{"name":"El Molino","place":"village"},"geometry":{"type":"Point","coordinates":[-69.79992,9.75001]}},{"type":"Feature","id":"node/5333486408","properties":{"name":"El Cerrito","place":"village"},"geometry":{"type":"Point","coordinates":[-69.76998,9.8318]}},{"type":"Feature","id":"node/5333486409","properties":{"name":"Los Dos Caminos","place":"village"},"geometry":{"type":"Point","coordinates":[-69.77232,9.82349]}},{"type":"Feature","id":"node/5333486410","properties":{"name":"Yogore","place":"village"},"geometry":{"type":"Point","coordinates":[-69.73252,9.84304]}},{"type":"Feature","id":"node/5333486411","properties":{"name":"La Vig\u00eda","place":"village"},"geometry":{"type":"Point","coordinates":[-69.68058,9.86752]}},{"type":"Feature","id":"node/5333508512","properties":{"name":"Sabana Grande","place":"town"},"geometry":{"type":"Point","coordinates":[-69.86793,9.59224]}},{"type":"Feature","id":"node/5333508513","properties":{"name":"Anzo\u00e1tegui","place":"town"},"geometry":{"type":"Point","coordinates":[-69.8985,9.6034]}},{"type":"Feature","id":"node/5333508870","properties":{"name":"Sanarito","place":"village"},"geometry":{"type":"Point","coordinates":[-69.88465,9.55869]}},{"type":"Feature","id":"node/5333532294","properties":{"name":"Barbacoas","place":"town"},"geometry":{"type":"Point","coordinates":[-70.05339,9.82599]}},{"type":"Feature","id":"node/5333532295","properties":{"name":"San Pedro","place":"town"},"geometry":{"type":"Point","coordinates":[-70.08175,9.86353]}},{"type":"Feature","id":"node/5333532296","properties":{"name":"La Pastora","place":"town"},"geometry":{"type":"Point","coordinates":[-70.18692,9.82578]}},{"type":"Feature","id":"node/5333532297","properties":{"name":"La Palmita","place":"village"},"geometry":{"type":"Point","coordinates":[-70.16924,9.82705]}},{"type":"Feature","id":"node/5333532298","properties":{"name":"El Jab\u00f3n","place":"town"},"geometry":{"type":"Point","coordinates":[-70.12235,9.80705]}},{"type":"Feature","id":"node/5333547942","properties":{"name":"Paso Real","place":"village"},"geometry":{"type":"Point","coordinates":[-69.59261,9.81011]}},{"type":"Feature","id":"node/5333576251","properties":{"name":"Buena Vista","place":"town"},"geometry":{"type":"Point","coordinates":[-69.48416,9.88838]}},{"type":"Feature","id":"node/5333576291","properties":{"name":"San Antonio","place":"village"},"geometry":{"type":"Point","coordinates":[-69.47369,9.89796]}},{"type":"Feature","id":"node/5333576381","properties":{"name":"El Placer","place":"village"},"geometry":{"type":"Point","coordinates":[-69.43426,9.93525]}},{"type":"Feature","id":"node/5333576511","properties":{"name":"R\u00edo Claro","place":"town"},"geometry":{"type":"Point","coordinates":[-69.36122,9.92127]}},{"type":"Feature","id":"node/5333576512","properties":{"name":"Titicare Sur","place":"village"},"geometry":{"type":"Point","coordinates":[-69.34335,10.00921]}},{"type":"Feature","id":"node/5333802923","properties":{"name":"Tintinal","place":"village"},"geometry":{"type":"Point","coordinates":[-69.72216,9.71393]}},{"type":"Feature","id":"node/5333859851","properties":{"name":"Altagracia","place":"town"},"geometry":{"type":"Point","coordinates":[-70.20299,10.33711]}},{"type":"Feature","id":"node/5333859852","properties":{"name":"La Mamita","place":"village"},"geometry":{"type":"Point","coordinates":[-70.37407,10.27648]}},{"type":"Feature","id":"node/5333895661","properties":{"name":"Agua Viva","place":"town"},"geometry":{"type":"Point","coordinates":[-69.29175,10.02479]}},{"type":"Feature","id":"node/5334037948","properties":{"name":"Coco e' Mono","place":"town"},"geometry":{"type":"Point","coordinates":[-69.18598,10.0351]}},{"type":"Feature","id":"node/5334038020","properties":{"name":"El Cercado","place":"town"},"geometry":{"type":"Point","coordinates":[-69.24752,10.11525]}},{"type":"Feature","id":"node/5334042486","properties":{"name":"Chorobobo","place":"town"},"geometry":{"type":"Point","coordinates":[-69.21985,10.06481]}},{"type":"Feature","id":"node/5334171008","properties":{"name":"Carorita","place":"town"},"geometry":{"type":"Point","coordinates":[-69.34153,10.16087]}},{"type":"Feature","id":"node/5334171449","properties":{"name":"La Laguna","place":"village"},"geometry":{"type":"Point","coordinates":[-69.38156,10.16596]}},{"type":"Feature","id":"node/5334171469","properties":{"name":"Algar\u00ed","place":"village"},"geometry":{"type":"Point","coordinates":[-69.39934,10.15605]}},{"type":"Feature","id":"node/5334171588","properties":{"name":"Las Veritas","place":"town"},"geometry":{"type":"Point","coordinates":[-69.28548,10.15361]}},{"type":"Feature","id":"node/5334171639","properties":{"name":"Cordero","place":"town"},"geometry":{"type":"Point","coordinates":[-69.24027,10.17181]}},{"type":"Feature","id":"node/5334171645","properties":{"name":"El Potrero","place":"town"},"geometry":{"type":"Point","coordinates":[-69.25953,10.18229]}},{"type":"Feature","id":"node/5334171707","properties":{"name":"Guayabal","place":"village"},"geometry":{"type":"Point","coordinates":[-69.23032,10.15142]}},{"type":"Feature","id":"node/5334171721","properties":{"name":"Tacarigua","place":"town"},"geometry":{"type":"Point","coordinates":[-69.21436,10.16214]}},{"type":"Feature","id":"node/5334171760","properties":{"name":"Las Palmitas","place":"town"},"geometry":{"type":"Point","coordinates":[-69.2058,10.1843]}},{"type":"Feature","id":"node/5334171761","properties":{"name":"Nonavana","place":"village"},"geometry":{"type":"Point","coordinates":[-69.18653,10.1816]}},{"type":"Feature","id":"node/5334171762","properties":{"name":"El Pauj\u00ed","place":"village"},"geometry":{"type":"Point","coordinates":[-69.18909,10.22945]}},{"type":"Feature","id":"node/5334171763","properties":{"name":"La Horqueta","place":"village"},"geometry":{"type":"Point","coordinates":[-69.18018,10.21415]}},{"type":"Feature","id":"node/5334171764","properties":{"name":"El Toro","place":"town"},"geometry":{"type":"Point","coordinates":[-69.18726,10.24558]}},{"type":"Feature","id":"node/5334171766","properties":{"name":"El Eneal","place":"town"},"geometry":{"type":"Point","coordinates":[-69.18992,10.26434]}},{"type":"Feature","id":"node/5334171767","properties":{"name":"El Carrizal","place":"town"},"geometry":{"type":"Point","coordinates":[-69.20979,10.25167]}},{"type":"Feature","id":"node/5334171768","properties":{"name":"Perarapa","place":"town"},"geometry":{"type":"Point","coordinates":[-69.20438,10.24504]}},{"type":"Feature","id":"node/5334171769","properties":{"name":"Malec\u00f3n","place":"town"},"geometry":{"type":"Point","coordinates":[-69.25002,10.24027]}},{"type":"Feature","id":"node/5334171770","properties":{"name":"Las Veras","place":"town"},"geometry":{"type":"Point","coordinates":[-69.21674,10.22371]}},{"type":"Feature","id":"node/5334171771","properties":{"name":"El Peg\u00f3n","place":"town"},"geometry":{"type":"Point","coordinates":[-69.22805,10.24222]}},{"type":"Feature","id":"node/5334171772","properties":{"name":"Los Rastrojitos","place":"town"},"geometry":{"type":"Point","coordinates":[-69.26925,10.23718]}},{"type":"Feature","id":"node/5334171776","properties":{"name":"Castillero","place":"town"},"geometry":{"type":"Point","coordinates":[-69.26888,10.2475]}},{"type":"Feature","id":"node/5334194700","properties":{"name":"Valle Hondo","place":"town"},"geometry":{"type":"Point","coordinates":[-69.25365,10.21451]}},{"type":"Feature","id":"node/5334194707","properties":{"name":"Cujisal","place":"village"},"geometry":{"type":"Point","coordinates":[-69.275,10.26181]}},{"type":"Feature","id":"node/5334194822","properties":{"name":"El Dasero","place":"village"},"geometry":{"type":"Point","coordinates":[-69.29357,10.26562]}},{"type":"Feature","id":"node/5334194838","properties":{"name":"Colmen\u00e1rez","place":"town"},"geometry":{"type":"Point","coordinates":[-69.30117,10.27398]}},{"type":"Feature","id":"node/5334194839","properties":{"name":"La Rinconada","place":"village"},"geometry":{"type":"Point","coordinates":[-69.29636,10.2801]}},{"type":"Feature","id":"node/5334194873","properties":{"name":"Tacarig\u00fcita","place":"town"},"geometry":{"type":"Point","coordinates":[-69.27569,10.28292]}},{"type":"Feature","id":"node/5334194949","properties":{"name":"Luz de Tacarig\u00fcita","place":"village"},"geometry":{"type":"Point","coordinates":[-69.27752,10.30317]}},{"type":"Feature","id":"node/5334194955","properties":{"name":"Tucuragua","place":"village"},"geometry":{"type":"Point","coordinates":[-69.22976,10.30059]}},{"type":"Feature","id":"node/5334194956","properties":{"name":"Tamboralito","place":"village"},"geometry":{"type":"Point","coordinates":[-69.23449,10.2873]}},{"type":"Feature","id":"node/5334195023","properties":{"name":"Los Pocitos","place":"village"},"geometry":{"type":"Point","coordinates":[-69.24259,10.27094]}},{"type":"Feature","id":"node/5334195047","properties":{"name":"Tamboral","place":"village"},"geometry":{"type":"Point","coordinates":[-69.23376,10.27063]}},{"type":"Feature","id":"node/5334195115","properties":{"name":"Cabudarito","place":"village"},"geometry":{"type":"Point","coordinates":[-69.24489,10.25628]}},{"type":"Feature","id":"node/5334860990","properties":{"name":"Agua Colorada","place":"village"},"geometry":{"type":"Point","coordinates":[-69.14414,10.24587]}},{"type":"Feature","id":"node/5334860991","properties":{"name":"Guayabito","place":"village"},"geometry":{"type":"Point","coordinates":[-69.14295,10.23432]}},{"type":"Feature","id":"node/5334860993","properties":{"name":"Rinc\u00f3n Hondo","place":"village"},"geometry":{"type":"Point","coordinates":[-69.12213,10.21167]}},{"type":"Feature","id":"node/5334861978","properties":{"name":"La Panchera","place":"village"},"geometry":{"type":"Point","coordinates":[-69.07842,10.27038]}},{"type":"Feature","id":"node/5334862055","properties":{"name":"Quebrada de Oro","place":"village"},"geometry":{"type":"Point","coordinates":[-69.03952,10.26991]}},{"type":"Feature","id":"node/5334862152","properties":{"name":"Cerro Da\u00f1ado","place":"village"},"geometry":{"type":"Point","coordinates":[-69.03745,10.26187]}},{"type":"Feature","id":"node/5334913562","properties":{"name":"La Entreda de Maparar\u00ed","place":"village"},"geometry":{"type":"Point","coordinates":[-69.13575,10.32765]}},{"type":"Feature","id":"node/5334913563","properties":{"name":"La Zamura (La Quinta)","place":"village"},"geometry":{"type":"Point","coordinates":[-69.14042,10.34949]}},{"type":"Feature","id":"node/5334913564","properties":{"name":"Ojo de Agua","place":"village"},"geometry":{"type":"Point","coordinates":[-69.14516,10.35459]}},{"type":"Feature","id":"node/5334913565","properties":{"name":"C\u00facuta","place":"village"},"geometry":{"type":"Point","coordinates":[-69.13943,10.35934]}},{"type":"Feature","id":"node/5334913566","properties":{"name":"La Florida","place":"village"},"geometry":{"type":"Point","coordinates":[-69.13071,10.38191]}},{"type":"Feature","id":"node/5334913567","properties":{"name":"Las Casitas","place":"village"},"geometry":{"type":"Point","coordinates":[-69.13768,10.43881]}},{"type":"Feature","id":"node/5334913569","properties":{"name":"El Liral","place":"village"},"geometry":{"type":"Point","coordinates":[-69.15355,10.48075]}},{"type":"Feature","id":"node/5334913571","properties":{"name":"Ca\u00f1o Rico","place":"village"},"geometry":{"type":"Point","coordinates":[-69.15163,10.55317]}},{"type":"Feature","id":"node/5334913574","properties":{"name":"Santa In\u00e9s","place":"town"},"geometry":{"type":"Point","coordinates":[-69.2815,10.613]}},{"type":"Feature","id":"node/5334913575","properties":{"name":"La Tropical","place":"village"},"geometry":{"type":"Point","coordinates":[-69.15793,10.64123]}},{"type":"Feature","id":"node/5334913578","properties":{"name":"El Ca\u00f1o","place":"village"},"geometry":{"type":"Point","coordinates":[-69.24607,10.60276]}},{"type":"Feature","id":"node/5334913579","properties":{"name":"Lagunitas","place":"village"},"geometry":{"type":"Point","coordinates":[-69.09453,10.63387]}},{"type":"Feature","id":"node/5334913580","properties":{"name":"Totoremo","place":"village"},"geometry":{"type":"Point","coordinates":[-69.05832,10.64448]}},{"type":"Feature","id":"node/5334939680","properties":{"name":"La Sonrisa","place":"village"},"geometry":{"type":"Point","coordinates":[-69.3065,10.60286]}},{"type":"Feature","id":"node/5334939681","properties":{"name":"La Vega","place":"town"},"geometry":{"type":"Point","coordinates":[-69.3407,10.59093]}},{"type":"Feature","id":"node/5334939682","properties":{"name":"Potrer\u00f3n","place":"village"},"geometry":{"type":"Point","coordinates":[-69.35315,10.57776]}},{"type":"Feature","id":"node/5334939683","properties":{"name":"El Porvenir","place":"village"},"geometry":{"type":"Point","coordinates":[-69.38827,10.55131]}},{"type":"Feature","id":"node/5334939684","properties":{"name":"El Taque","place":"village"},"geometry":{"type":"Point","coordinates":[-69.40904,10.5375]}},{"type":"Feature","id":"node/5334939685","properties":{"name":"La Parada","place":"village"},"geometry":{"type":"Point","coordinates":[-69.40125,10.58243]}},{"type":"Feature","id":"node/5334939686","properties":{"name":"La Uni\u00f3n","place":"town"},"geometry":{"type":"Point","coordinates":[-69.4476,10.59823]}},{"type":"Feature","id":"node/5334939687","properties":{"name":"Aguada Grande","place":"town"},"geometry":{"type":"Point","coordinates":[-69.4852,10.58707]}},{"type":"Feature","id":"node/5334939688","properties":{"name":"El Copey","place":"village"},"geometry":{"type":"Point","coordinates":[-69.53957,10.57813]}},{"type":"Feature","id":"node/5334939690","properties":{"name":"R\u00edo Abajo","place":"village"},"geometry":{"type":"Point","coordinates":[-69.67302,10.59218]}},{"type":"Feature","id":"node/5334941547","properties":{"name":"Agua Buena","place":"village"},"geometry":{"type":"Point","coordinates":[-69.75074,10.57686]}},{"type":"Feature","id":"node/5334941548","properties":{"name":"La Esperanza","place":"village"},"geometry":{"type":"Point","coordinates":[-69.77483,10.58739]}},{"type":"Feature","id":"node/5334941549","properties":{"name":"La Sabanita","place":"village"},"geometry":{"type":"Point","coordinates":[-69.78608,10.60072]}},{"type":"Feature","id":"node/5334941550","properties":{"name":"Algodones","place":"village"},"geometry":{"type":"Point","coordinates":[-69.81249,10.61078]}},{"type":"Feature","id":"node/5334941551","properties":{"name":"El Saladillo","place":"village"},"geometry":{"type":"Point","coordinates":[-69.85004,10.62107]}},{"type":"Feature","id":"node/5334941552","properties":{"name":"Baragua","place":"town"},"geometry":{"type":"Point","coordinates":[-69.9484,10.58321]}},{"type":"Feature","id":"node/5334941553","properties":{"name":"Los Dos Caminos","place":"village"},"geometry":{"type":"Point","coordinates":[-69.895,10.60064]}},{"type":"Feature","id":"node/5334956895","properties":{"name":"El Toro","place":"village"},"geometry":{"type":"Point","coordinates":[-69.4422,10.50677]}},{"type":"Feature","id":"node/5334956896","properties":{"name":"P\u00e1ramo Negro","place":"village"},"geometry":{"type":"Point","coordinates":[-69.45283,10.48481]}},{"type":"Feature","id":"node/5334956897","properties":{"name":"El Ret\u00e9n","place":"village"},"geometry":{"type":"Point","coordinates":[-69.43293,10.47109]}},{"type":"Feature","id":"node/5334956898","properties":{"name":"El Copeyal","place":"village"},"geometry":{"type":"Point","coordinates":[-69.44749,10.43703]}},{"type":"Feature","id":"node/5334956899","properties":{"name":"Las Mulas","place":"village"},"geometry":{"type":"Point","coordinates":[-69.43735,10.36573]}},{"type":"Feature","id":"node/5334956900","properties":{"name":"Potrero Bucar\u00e9","place":"town"},"geometry":{"type":"Point","coordinates":[-69.46326,10.30875]}},{"type":"Feature","id":"node/5334956901","properties":{"name":"Potrero Ram\u00edrez","place":"village"},"geometry":{"type":"Point","coordinates":[-69.45247,10.34466]}},{"type":"Feature","id":"node/5334956902","properties":{"name":"Bobare","place":"town"},"geometry":{"type":"Point","coordinates":[-69.47385,10.27069]}},{"type":"Feature","id":"node/5334956903","properties":{"name":"La Puerta","place":"town"},"geometry":{"type":"Point","coordinates":[-69.48421,10.22741]}},{"type":"Feature","id":"node/5334956904","properties":{"name":"Durigua","place":"village"},"geometry":{"type":"Point","coordinates":[-69.46651,10.17245]}},{"type":"Feature","id":"node/5334956905","properties":{"name":"Pavia","place":"town"},"geometry":{"type":"Point","coordinates":[-69.4402,10.09972]}},{"type":"Feature","id":"node/5334975552","properties":{"name":"Barag\u00fcita","place":"village"},"geometry":{"type":"Point","coordinates":[-69.44221,10.29169]}},{"type":"Feature","id":"node/5334975568","properties":{"name":"Los Cochinos","place":"village"},"geometry":{"type":"Point","coordinates":[-69.39053,10.32621]}},{"type":"Feature","id":"node/5334975591","properties":{"name":"El Buchal","place":"village"},"geometry":{"type":"Point","coordinates":[-69.40233,10.33932]}},{"type":"Feature","id":"node/5334975721","properties":{"name":"Charco Largo","place":"village"},"geometry":{"type":"Point","coordinates":[-69.38844,10.35446]}},{"type":"Feature","id":"node/5334975789","properties":{"name":"Los Gallos","place":"village"},"geometry":{"type":"Point","coordinates":[-69.40963,10.40437]}},{"type":"Feature","id":"node/5334975926","properties":{"name":"El Curar\u00ed","place":"village"},"geometry":{"type":"Point","coordinates":[-69.37342,10.38615]}},{"type":"Feature","id":"node/5334975947","properties":{"name":"El Charc\u00f3n","place":"village"},"geometry":{"type":"Point","coordinates":[-69.37338,10.3686]}},{"type":"Feature","id":"node/5334975948","properties":{"name":"Mapurar\u00ed","place":"village"},"geometry":{"type":"Point","coordinates":[-69.37769,10.34901]}},{"type":"Feature","id":"node/5334976121","properties":{"name":"Uvedal","place":"village"},"geometry":{"type":"Point","coordinates":[-69.55879,10.28276]}},{"type":"Feature","id":"node/5335041740","properties":{"name":"La Danta","place":"village"},"geometry":{"type":"Point","coordinates":[-69.10236,10.32981]}},{"type":"Feature","id":"node/5335041741","properties":{"name":"Portachuelo","place":"village"},"geometry":{"type":"Point","coordinates":[-69.09638,10.34109]}},{"type":"Feature","id":"node/5335041742","properties":{"name":"El Cuarenta","place":"village"},"geometry":{"type":"Point","coordinates":[-69.08885,10.34942]}},{"type":"Feature","id":"node/5335041743","properties":{"name":"Caraquitas","place":"village"},"geometry":{"type":"Point","coordinates":[-69.03768,10.40832]}},{"type":"Feature","id":"node/5335041762","properties":{"name":"La Morita","place":"town"},"geometry":{"type":"Point","coordinates":[-69.21342,9.94258]}},{"type":"Feature","id":"node/5335042070","properties":{"name":"Las Aroitas","place":"village"},"geometry":{"type":"Point","coordinates":[-69.15898,9.84159]}},{"type":"Feature","id":"node/5335042087","properties":{"name":"Gamelotal","place":"village"},"geometry":{"type":"Point","coordinates":[-69.13856,9.82402]}},{"type":"Feature","id":"node/5335042233","properties":{"name":"La Tronadora","place":"village"},"geometry":{"type":"Point","coordinates":[-69.13758,9.79491]}},{"type":"Feature","id":"node/5335042260","properties":{"name":"La Miel","place":"town"},"geometry":{"type":"Point","coordinates":[-69.18366,9.75642]}},{"type":"Feature","id":"node/5335042288","properties":{"name":"Sabana Alta","place":"town"},"geometry":{"type":"Point","coordinates":[-69.23997,9.73368]}},{"type":"Feature","id":"node/5365892579","properties":{"name":"Sabana de Tiquire","place":"village"},"geometry":{"type":"Point","coordinates":[-69.1501,10.13944]}},{"type":"Feature","id":"node/5366377865","properties":{"name":"Cabimba","place":"town"},"geometry":{"type":"Point","coordinates":[-69.04914,9.96835]}},{"type":"Feature","id":"node/5366377897","properties":{"name":"El Merey","place":"town"},"geometry":{"type":"Point","coordinates":[-68.99442,9.91308]}},{"type":"Feature","id":"node/5366377914","properties":{"name":"La Manzanita","place":"town"},"geometry":{"type":"Point","coordinates":[-68.97632,9.96189]}},{"type":"Feature","id":"node/5504270557","properties":{"name":"Fila Limoncito","place":"village"},"geometry":{"type":"Point","coordinates":[-69.05994,10.38112]}},{"type":"Feature","id":"node/5504270564","properties":{"name":"Camburito","place":"village"},"geometry":{"type":"Point","coordinates":[-69.09802,10.40598]}},{"type":"Feature","id":"node/5504270833","properties":{"name":"Campo Solo","place":"village"},"geometry":{"type":"Point","coordinates":[-69.04184,10.39922]}},{"type":"Feature","id":"node/5504270834","properties":{"name":"Cumaragua","place":"village"},"geometry":{"type":"Point","coordinates":[-69.06838,10.4005]}},{"type":"Feature","id":"node/5504270835","properties":{"name":"Las Taritas","place":"village"},"geometry":{"type":"Point","coordinates":[-69.0818,10.37946]}},{"type":"Feature","id":"node/5504270836","properties":{"name":"Cambural","place":"village"},"geometry":{"type":"Point","coordinates":[-69.1324,10.33591]}},{"type":"Feature","id":"node/5504270837","properties":{"name":"La Zarza","place":"village"},"geometry":{"type":"Point","coordinates":[-69.13148,10.35573]}},{"type":"Feature","id":"node/5504270838","properties":{"name":"San Pedrito","place":"village"},"geometry":{"type":"Point","coordinates":[-69.13967,10.37096]}},{"type":"Feature","id":"node/5504270839","properties":{"name":"Santa Cruz","place":"village"},"geometry":{"type":"Point","coordinates":[-69.05481,10.27524]}},{"type":"Feature","id":"node/5504270840","properties":{"name":"Los Volcanes Sur","place":"village"},"geometry":{"type":"Point","coordinates":[-69.05826,10.26085]}},{"type":"Feature","id":"node/5504270850","properties":{"name":"Las \u00c1nimas","place":"village"},"geometry":{"type":"Point","coordinates":[-69.11534,10.17888]}},{"type":"Feature","id":"node/5504270852","properties":{"name":"Sabana de Rinc\u00f3n Hondo","place":"village"},"geometry":{"type":"Point","coordinates":[-69.14998,10.22657]}},{"type":"Feature","id":"node/5504270858","properties":{"name":"El Picure","place":"village"},"geometry":{"type":"Point","coordinates":[-69.10674,10.24309]}},{"type":"Feature","id":"node/5504273182","properties":{"name":"La Soledad","place":"village"},"geometry":{"type":"Point","coordinates":[-69.08487,10.26191]}},{"type":"Feature","id":"node/5504273183","properties":{"name":"La Tigrera","place":"village"},"geometry":{"type":"Point","coordinates":[-69.08255,10.25187]}},{"type":"Feature","id":"node/5504273185","properties":{"name":"Tumaquito","place":"village"},"geometry":{"type":"Point","coordinates":[-69.07147,10.2828]}},{"type":"Feature","id":"node/5504273186","properties":{"name":"San Miguel","place":"village"},"geometry":{"type":"Point","coordinates":[-69.02586,10.2757]}},{"type":"Feature","id":"node/5504274948","properties":{"name":"Batatal","place":"village"},"geometry":{"type":"Point","coordinates":[-69.07851,10.33364]}},{"type":"Feature","id":"node/5853847366","properties":{"name":"Los Mangos","place":"village"},"geometry":{"type":"Point","coordinates":[-68.98285,9.90137]}},{"type":"Feature","id":"node/5853847367","properties":{"name":"Arenales","place":"village"},"geometry":{"type":"Point","coordinates":[-68.97042,9.89585]}},{"type":"Feature","id":"node/5853847369","properties":{"name":"Bur\u00eda de Londres","place":"village"},"geometry":{"type":"Point","coordinates":[-68.9619,9.88751]}},{"type":"Feature","id":"node/5854042558","properties":{"name":"Maluenda","place":"town"},"geometry":{"type":"Point","coordinates":[-69.01618,9.96317]}},{"type":"Feature","id":"node/5856740700","properties":{"name":"Cordubare","place":"village"},"geometry":{"type":"Point","coordinates":[-69.05398,9.9605]}},{"type":"Feature","id":"node/5871981593","properties":{"name":"Lagunita","place":"village"},"geometry":{"type":"Point","coordinates":[-68.94309,10.6415]}},{"type":"Feature","id":"node/5871983913","properties":{"name":"Cararapa","place":"village"},"geometry":{"type":"Point","coordinates":[-68.89034,10.64304]}},{"type":"Feature","id":"node/5878910373","properties":{"name":"El Cambur","place":"village"},"geometry":{"type":"Point","coordinates":[-69.41865,10.67026]}},{"type":"Feature","id":"node/5878910374","properties":{"name":"Tegucigalpa","place":"village"},"geometry":{"type":"Point","coordinates":[-69.38026,10.66173]}},{"type":"Feature","id":"node/5878910375","properties":{"name":"Los Planes","place":"village"},"geometry":{"type":"Point","coordinates":[-69.41058,10.66426]}},{"type":"Feature","id":"node/5878910664","properties":{"name":"San Pedro","place":"village"},"geometry":{"type":"Point","coordinates":[-69.36154,10.66597]}},{"type":"Feature","id":"node/5878911555","properties":{"name":"La Reforma","place":"village"},"geometry":{"type":"Point","coordinates":[-69.35901,10.67521]}},{"type":"Feature","id":"node/5878911660","properties":{"name":"La Pastora","place":"village"},"geometry":{"type":"Point","coordinates":[-69.33212,10.69286]}},{"type":"Feature","id":"node/5878911898","properties":{"name":"Las Mercedes","place":"village"},"geometry":{"type":"Point","coordinates":[-69.28985,10.69639]}},{"type":"Feature","id":"node/5878912680","properties":{"name":"El Bonito","place":"village"},"geometry":{"type":"Point","coordinates":[-69.27926,10.66362]}},{"type":"Feature","id":"node/5878912681","properties":{"name":"El Lim\u00f3n","place":"village"},"geometry":{"type":"Point","coordinates":[-69.26655,10.69577]}},{"type":"Feature","id":"node/5896570929","properties":{"name":"San Felipe","place":"village"},"geometry":{"type":"Point","coordinates":[-69.47587,10.61355]}},{"type":"Feature","id":"node/5896570930","properties":{"name":"El Palmarito","place":"village"},"geometry":{"type":"Point","coordinates":[-69.49508,10.63674]}},{"type":"Feature","id":"node/5896571066","properties":{"name":"El Romero","place":"village"},"geometry":{"type":"Point","coordinates":[-69.4505,10.63568]}},{"type":"Feature","id":"node/5896571144","properties":{"name":"P\u00e1ramo Rico","place":"village"},"geometry":{"type":"Point","coordinates":[-69.41791,10.6328]}},{"type":"Feature","id":"node/5896572337","properties":{"name":"Las Mayitas","place":"village"},"geometry":{"type":"Point","coordinates":[-69.40857,10.61649]}},{"type":"Feature","id":"node/5896572340","properties":{"name":"La Turiquia","place":"village"},"geometry":{"type":"Point","coordinates":[-69.37216,10.5985]}},{"type":"Feature","id":"node/5896572341","properties":{"name":"La Garza","place":"village"},"geometry":{"type":"Point","coordinates":[-69.3847,10.56285]}},{"type":"Feature","id":"node/5896572342","properties":{"name":"La Reforma","place":"village"},"geometry":{"type":"Point","coordinates":[-69.38879,10.57774]}},{"type":"Feature","id":"node/5896572579","properties":{"name":"Las Playitas","place":"village"},"geometry":{"type":"Point","coordinates":[-69.45634,10.59529]}},{"type":"Feature","id":"node/5896572580","properties":{"name":"La Quinta","place":"village"},"geometry":{"type":"Point","coordinates":[-69.47046,10.59097]}},{"type":"Feature","id":"node/5896572646","properties":{"name":"Orogueyes","place":"village"},"geometry":{"type":"Point","coordinates":[-69.50592,10.58961]}},{"type":"Feature","id":"node/5896572647","properties":{"name":"El Desecho","place":"town"},"geometry":{"type":"Point","coordinates":[-69.50477,10.58272]}},{"type":"Feature","id":"node/5896572764","properties":{"name":"Los Pozones","place":"village"},"geometry":{"type":"Point","coordinates":[-69.50258,10.53108]}},{"type":"Feature","id":"node/5896572765","properties":{"name":"La Vejiga","place":"village"},"geometry":{"type":"Point","coordinates":[-69.30757,10.6159]}},{"type":"Feature","id":"node/5896572766","properties":{"name":"La Econom\u00eda","place":"village"},"geometry":{"type":"Point","coordinates":[-69.25916,10.63167]}},{"type":"Feature","id":"node/5896572770","properties":{"name":"El Pauj\u00ed","place":"town"},"geometry":{"type":"Point","coordinates":[-69.36973,10.5596]}},{"type":"Feature","id":"node/5896572836","properties":{"name":"Requ\u00e9n","place":"village"},"geometry":{"type":"Point","coordinates":[-69.43895,10.45727]}},{"type":"Feature","id":"node/5896573012","properties":{"name":"La Pedrera","place":"village"},"geometry":{"type":"Point","coordinates":[-69.48461,10.42022]}},{"type":"Feature","id":"node/5896573073","properties":{"name":"La Negra","place":"village"},"geometry":{"type":"Point","coordinates":[-69.4669,10.43388]}},{"type":"Feature","id":"node/5896573074","properties":{"name":"Las Brujitas","place":"village"},"geometry":{"type":"Point","coordinates":[-69.46872,10.42001]}},{"type":"Feature","id":"node/5896574103","properties":{"name":"Limoncito Este","place":"village"},"geometry":{"type":"Point","coordinates":[-69.04629,10.38897]}},{"type":"Feature","id":"node/5896574105","properties":{"name":"Barrio Nuevo","place":"village"},"geometry":{"type":"Point","coordinates":[-69.06229,10.37354]}},{"type":"Feature","id":"node/5896574106","properties":{"name":"Limoncito","place":"village"},"geometry":{"type":"Point","coordinates":[-69.07137,10.36542]}},{"type":"Feature","id":"node/5896574108","properties":{"name":"Sergua","place":"village"},"geometry":{"type":"Point","coordinates":[-69.11836,10.32622]}},{"type":"Feature","id":"node/5896574141","properties":{"name":"El Guarapo","place":"village"},"geometry":{"type":"Point","coordinates":[-69.16578,10.44922]}},{"type":"Feature","id":"node/5896574142","properties":{"name":"Las Tiamas","place":"village"},"geometry":{"type":"Point","coordinates":[-69.13797,10.58557]}},{"type":"Feature","id":"node/5896574144","properties":{"name":"Lagunitas","place":"village"},"geometry":{"type":"Point","coordinates":[-69.08752,10.59512]}},{"type":"Feature","id":"node/5896574145","properties":{"name":"Los Tauros","place":"village"},"geometry":{"type":"Point","coordinates":[-69.12744,10.53129]}},{"type":"Feature","id":"node/5896574146","properties":{"name":"El Limonal","place":"village"},"geometry":{"type":"Point","coordinates":[-69.21915,10.52311]}},{"type":"Feature","id":"node/5896574147","properties":{"name":"Campo Urama","place":"village"},"geometry":{"type":"Point","coordinates":[-69.29196,10.53193]}},{"type":"Feature","id":"node/5896574305","properties":{"name":"Tequ\u00e9n","place":"village"},"geometry":{"type":"Point","coordinates":[-69.35209,10.52331]}},{"type":"Feature","id":"node/5902530506","properties":{"name":"Alto Carora","place":"village"},"geometry":{"type":"Point","coordinates":[-69.32955,10.40585]}},{"type":"Feature","id":"node/5902530507","properties":{"name":"Agua Dulce","place":"village"},"geometry":{"type":"Point","coordinates":[-69.33928,10.39913]}},{"type":"Feature","id":"node/5902531287","properties":{"name":"Buenos Aires","place":"village"},"geometry":{"type":"Point","coordinates":[-69.3222,10.33488]}},{"type":"Feature","id":"node/5902531289","properties":{"name":"La Encrucijada","place":"village"},"geometry":{"type":"Point","coordinates":[-69.32217,10.31835]}},{"type":"Feature","id":"node/5902532053","properties":{"name":"El Serrano","place":"village"},"geometry":{"type":"Point","coordinates":[-69.34784,10.29217]}},{"type":"Feature","id":"node/5902532054","properties":{"name":"Sorage","place":"village"},"geometry":{"type":"Point","coordinates":[-69.33215,10.28837]}},{"type":"Feature","id":"node/5902532058","properties":{"name":"Maparar\u00ed","place":"village"},"geometry":{"type":"Point","coordinates":[-69.35027,10.27012]}},{"type":"Feature","id":"node/5902532059","properties":{"name":"Santa In\u00e9s","place":"village"},"geometry":{"type":"Point","coordinates":[-69.33435,10.26577]}},{"type":"Feature","id":"node/5902532060","properties":{"name":"Las Playitas","place":"town"},"geometry":{"type":"Point","coordinates":[-69.30088,10.24873]}},{"type":"Feature","id":"node/5902532061","properties":{"name":"Toroy","place":"town"},"geometry":{"type":"Point","coordinates":[-69.32719,10.24782]}},{"type":"Feature","id":"node/5902532063","properties":{"name":"El Sanchero","place":"village"},"geometry":{"type":"Point","coordinates":[-69.32511,10.22481]}},{"type":"Feature","id":"node/5902532065","properties":{"name":"Las Tunas","place":"town","population":"700"},"geometry":{"type":"Point","coordinates":[-69.28566,10.18041]}},{"type":"Feature","id":"node/5902532066","properties":{"name":"Las Tunitas","place":"town"},"geometry":{"type":"Point","coordinates":[-69.28927,10.16743]}},{"type":"Feature","id":"node/5902532076","properties":{"name":"Tamayo","place":"village"},"geometry":{"type":"Point","coordinates":[-69.34742,10.13756]}},{"type":"Feature","id":"node/5902532607","properties":{"name":"Los Loros","place":"village"},"geometry":{"type":"Point","coordinates":[-69.38575,10.15048]}},{"type":"Feature","id":"node/5902532608","properties":{"name":"La Puerta","place":"village"},"geometry":{"type":"Point","coordinates":[-69.39898,10.13763]}},{"type":"Feature","id":"node/5902532609","properties":{"name":"Los Camagos","place":"village"},"geometry":{"type":"Point","coordinates":[-69.40902,10.12508]}},{"type":"Feature","id":"node/5902532764","properties":{"name":"El Letrero","place":"village"},"geometry":{"type":"Point","coordinates":[-69.40721,10.19471]}},{"type":"Feature","id":"node/5902532765","properties":{"name":"Iglesia Vieja","place":"village"},"geometry":{"type":"Point","coordinates":[-69.41027,10.1775]}},{"type":"Feature","id":"node/5902532793","properties":{"name":"Mata de Algar\u00ed","place":"village"},"geometry":{"type":"Point","coordinates":[-69.43583,10.14001]}},{"type":"Feature","id":"node/5902532794","properties":{"name":"Puerta de Algar\u00ed","place":"village"},"geometry":{"type":"Point","coordinates":[-69.41568,10.15275]}},{"type":"Feature","id":"node/5902532795","properties":{"name":"Mogote","place":"village"},"geometry":{"type":"Point","coordinates":[-69.41105,10.1657]}},{"type":"Feature","id":"node/5902532796","properties":{"name":"Las Tinajitas","place":"village"},"geometry":{"type":"Point","coordinates":[-69.40218,10.16745]}},{"type":"Feature","id":"node/5902532797","properties":{"name":"La Fila del Ret\u00e9n","place":"town"},"geometry":{"type":"Point","coordinates":[-69.33482,10.2054]}},{"type":"Feature","id":"node/5902533208","properties":{"name":"Cayure","place":"village"},"geometry":{"type":"Point","coordinates":[-69.35565,10.22415]}},{"type":"Feature","id":"node/5902534151","properties":{"name":"Uribana","place":"town"},"geometry":{"type":"Point","coordinates":[-69.34972,10.19093]}},{"type":"Feature","id":"node/5902534152","properties":{"name":"La Rosa","place":"village"},"geometry":{"type":"Point","coordinates":[-69.36807,10.21314]}},{"type":"Feature","id":"node/5902534259","properties":{"name":"El Tural","place":"village"},"geometry":{"type":"Point","coordinates":[-69.38461,10.21239]}},{"type":"Feature","id":"node/5902534260","properties":{"name":"Las Mayitas","place":"village"},"geometry":{"type":"Point","coordinates":[-69.37784,10.21966]}},{"type":"Feature","id":"node/5902534370","properties":{"name":"El Respond\u00f3n","place":"village"},"geometry":{"type":"Point","coordinates":[-69.41405,10.28262]}},{"type":"Feature","id":"node/5902534371","properties":{"name":"Los Quemados","place":"village"},"geometry":{"type":"Point","coordinates":[-69.40207,10.27307]}},{"type":"Feature","id":"node/5902534701","properties":{"name":"El Toro","place":"village"},"geometry":{"type":"Point","coordinates":[-69.42403,10.23575]}},{"type":"Feature","id":"node/5902534702","properties":{"name":"El Mam\u00f3n","place":"village"},"geometry":{"type":"Point","coordinates":[-69.42168,10.24928]}},{"type":"Feature","id":"node/5902534703","properties":{"name":"Simara","place":"village"},"geometry":{"type":"Point","coordinates":[-69.42867,10.28255]}},{"type":"Feature","id":"node/5902534704","properties":{"name":"Las Mulas","place":"village"},"geometry":{"type":"Point","coordinates":[-69.42518,10.30365]}},{"type":"Feature","id":"node/5902534731","properties":{"name":"Tierra Negra","place":"village"},"geometry":{"type":"Point","coordinates":[-69.37074,10.40047]}},{"type":"Feature","id":"node/5902535615","properties":{"name":"El Caimito","place":"village"},"geometry":{"type":"Point","coordinates":[-69.51297,10.36366]}},{"type":"Feature","id":"node/5902535657","properties":{"name":"El Alambre","place":"village"},"geometry":{"type":"Point","coordinates":[-69.47456,10.32129]}},{"type":"Feature","id":"node/5902535661","properties":{"name":"Cerro Blanco","place":"village"},"geometry":{"type":"Point","coordinates":[-69.50777,10.02706]}},{"type":"Feature","id":"node/5902535867","properties":{"name":"El Pandito","place":"village"},"geometry":{"type":"Point","coordinates":[-69.50945,10.04444]}},{"type":"Feature","id":"node/5902535991","properties":{"name":"Las Veras Sur","place":"village"},"geometry":{"type":"Point","coordinates":[-69.4987,10.08392]}},{"type":"Feature","id":"node/5902535992","properties":{"name":"La Culebra","place":"village"},"geometry":{"type":"Point","coordinates":[-69.48093,10.10938]}},{"type":"Feature","id":"node/5902535994","properties":{"name":"Boca Ancha","place":"village"},"geometry":{"type":"Point","coordinates":[-69.49592,10.136]}},{"type":"Feature","id":"node/5902535996","properties":{"name":"Las Veras","place":"village"},"geometry":{"type":"Point","coordinates":[-69.47441,10.12324]}},{"type":"Feature","id":"node/5902535997","properties":{"name":"El Portachuelo","place":"town"},"geometry":{"type":"Point","coordinates":[-69.4189,10.09056]}},{"type":"Feature","id":"node/5902535998","properties":{"name":"El Obispo","place":"town"},"geometry":{"type":"Point","coordinates":[-69.44205,10.12157]}},{"type":"Feature","id":"node/5902536205","properties":{"name":"La Mesa","place":"village"},"geometry":{"type":"Point","coordinates":[-69.47575,10.20387]}},{"type":"Feature","id":"node/5902536206","properties":{"name":"Ca\u00f1aote","place":"village"},"geometry":{"type":"Point","coordinates":[-69.44713,10.19509]}},{"type":"Feature","id":"node/5902536207","properties":{"name":"Las Planetas","place":"village"},"geometry":{"type":"Point","coordinates":[-69.47044,10.1896]}},{"type":"Feature","id":"node/5902536209","properties":{"name":"Las Brujitas","place":"village"},"geometry":{"type":"Point","coordinates":[-69.41454,10.38228]}},{"type":"Feature","id":"node/5902536210","properties":{"name":"Agua Negra","place":"village"},"geometry":{"type":"Point","coordinates":[-69.41465,10.37367]}},{"type":"Feature","id":"node/5902536211","properties":{"name":"Usera","place":"village"},"geometry":{"type":"Point","coordinates":[-69.42997,10.41135]}},{"type":"Feature","id":"node/5904004228","properties":{"name":"La Escalera","place":"village"},"geometry":{"type":"Point","coordinates":[-69.26807,10.36478]}},{"type":"Feature","id":"node/5904004229","properties":{"name":"Pico Pico","place":"village"},"geometry":{"type":"Point","coordinates":[-69.24449,10.35971]}},{"type":"Feature","id":"node/5904004230","properties":{"name":"Quebrada Abajo","place":"village"},"geometry":{"type":"Point","coordinates":[-69.21771,10.37048]}},{"type":"Feature","id":"node/5904004231","properties":{"name":"Piedra Lisa","place":"village"},"geometry":{"type":"Point","coordinates":[-69.20398,10.37148]}},{"type":"Feature","id":"node/5904004232","properties":{"name":"Palo Negro","place":"village"},"geometry":{"type":"Point","coordinates":[-69.18529,10.40551]}},{"type":"Feature","id":"node/5904005444","properties":{"name":"Pueblo Nuevo","place":"village"},"geometry":{"type":"Point","coordinates":[-69.22632,10.35609]}},{"type":"Feature","id":"node/5904005558","properties":{"name":"El Guamal","place":"village"},"geometry":{"type":"Point","coordinates":[-69.20709,10.35711]}},{"type":"Feature","id":"node/5904005856","properties":{"name":"La Pastora","place":"village"},"geometry":{"type":"Point","coordinates":[-69.21292,10.32765]}},{"type":"Feature","id":"node/5904005857","properties":{"name":"El Gallo","place":"village"},"geometry":{"type":"Point","coordinates":[-69.23705,10.34556]}},{"type":"Feature","id":"node/5904005858","properties":{"name":"El Bonito","place":"village"},"geometry":{"type":"Point","coordinates":[-69.21462,10.33396]}},{"type":"Feature","id":"node/5904005859","properties":{"name":"Agua Salada","place":"village"},"geometry":{"type":"Point","coordinates":[-69.20642,10.32714]}},{"type":"Feature","id":"node/5904006026","properties":{"name":"El Paramito","place":"village"},"geometry":{"type":"Point","coordinates":[-69.17119,10.31515]}},{"type":"Feature","id":"node/5904006028","properties":{"name":"Las Tres Topias","place":"village"},"geometry":{"type":"Point","coordinates":[-69.14678,10.3046]}},{"type":"Feature","id":"node/5904006038","properties":{"name":"Los Volcanes Norte","place":"village"},"geometry":{"type":"Point","coordinates":[-69.0697,10.26961]}},{"type":"Feature","id":"node/5904006143","properties":{"name":"El Ranchero","place":"village"},"geometry":{"type":"Point","coordinates":[-69.04965,10.25319]}},{"type":"Feature","id":"node/5904006200","properties":{"name":"El Guayabo","place":"village"},"geometry":{"type":"Point","coordinates":[-69.13403,10.21939]}},{"type":"Feature","id":"node/5904006204","properties":{"name":"Los Colorados","place":"village"},"geometry":{"type":"Point","coordinates":[-69.11936,10.16422]}},{"type":"Feature","id":"node/5904006251","properties":{"name":"Botijuela","place":"village"},"geometry":{"type":"Point","coordinates":[-69.12346,10.15332]}},{"type":"Feature","id":"node/5904006607","properties":{"name":"Guacabra","place":"village"},"geometry":{"type":"Point","coordinates":[-69.23923,10.088]}},{"type":"Feature","id":"node/5904007006","properties":{"name":"El Card\u00f3n","place":"village"},"geometry":{"type":"Point","coordinates":[-69.16774,10.15541]}},{"type":"Feature","id":"node/5904007007","properties":{"name":"Agua Azul","place":"village"},"geometry":{"type":"Point","coordinates":[-69.1799,10.16314]}},{"type":"Feature","id":"node/5904007008","properties":{"name":"Tamaquita","place":"town"},"geometry":{"type":"Point","coordinates":[-69.28217,10.18943]}},{"type":"Feature","id":"node/5904007009","properties":{"name":"Patio Colorado","place":"village"},"geometry":{"type":"Point","coordinates":[-69.26768,10.17328]}},{"type":"Feature","id":"node/5904007012","properties":{"name":"Pedrem\u00e1n","place":"village"},"geometry":{"type":"Point","coordinates":[-69.25521,10.14536]}},{"type":"Feature","id":"node/5904007017","properties":{"name":"Pueblo Nuevo","place":"village"},"geometry":{"type":"Point","coordinates":[-69.24631,10.22411]}},{"type":"Feature","id":"node/5904007036","properties":{"name":"La Chivera","place":"village"},"geometry":{"type":"Point","coordinates":[-69.24451,10.20772]}},{"type":"Feature","id":"node/5904007037","properties":{"name":"Santa Cruz","place":"village"},"geometry":{"type":"Point","coordinates":[-69.23273,10.20882]}},{"type":"Feature","id":"node/5904007038","properties":{"name":"El Ca\u00f1o","place":"village"},"geometry":{"type":"Point","coordinates":[-69.21532,10.20541]}},{"type":"Feature","id":"node/5904007040","properties":{"name":"Laguna Salada","place":"village"},"geometry":{"type":"Point","coordinates":[-69.22268,10.19236]}},{"type":"Feature","id":"node/5904007041","properties":{"name":"Laguna de Paja","place":"village"},"geometry":{"type":"Point","coordinates":[-69.23749,10.18333]}},{"type":"Feature","id":"node/5904007042","properties":{"name":"Corderito","place":"village"},"geometry":{"type":"Point","coordinates":[-69.22599,10.17674]}},{"type":"Feature","id":"node/5904007043","properties":{"name":"Cruz de Piedra","place":"village"},"geometry":{"type":"Point","coordinates":[-69.1927,10.20397]}},{"type":"Feature","id":"node/5904007060","properties":{"name":"San Rafael","place":"village"},"geometry":{"type":"Point","coordinates":[-69.19836,10.25838]}},{"type":"Feature","id":"node/5904007063","properties":{"name":"La Perace\u00f1a","place":"village"},"geometry":{"type":"Point","coordinates":[-69.21977,10.29624]}},{"type":"Feature","id":"node/5904007064","properties":{"name":"Tinajitas","place":"village"},"geometry":{"type":"Point","coordinates":[-69.20924,10.2931]}},{"type":"Feature","id":"node/5904007066","properties":{"name":"El Callao","place":"village"},"geometry":{"type":"Point","coordinates":[-69.24135,10.29215]}},{"type":"Feature","id":"node/5904007251","properties":{"name":"Los Moraditos","place":"village"},"geometry":{"type":"Point","coordinates":[-69.28053,10.31321]}},{"type":"Feature","id":"node/5904007252","properties":{"name":"El Ca\u00f1o","place":"village"},"geometry":{"type":"Point","coordinates":[-69.26924,10.29599]}},{"type":"Feature","id":"node/5904007284","properties":{"name":"Agua Santa","place":"village"},"geometry":{"type":"Point","coordinates":[-69.28821,10.28813]}},{"type":"Feature","id":"node/5916603342","properties":{"name":"Boca del Monte","place":"village"},"geometry":{"type":"Point","coordinates":[-69.20887,9.77279]}},{"type":"Feature","id":"node/5916603343","properties":{"name":"El Cerrito","place":"town"},"geometry":{"type":"Point","coordinates":[-69.2008,9.76252]}},{"type":"Feature","id":"node/5916603429","properties":{"name":"Asentamiento El Torrellero","place":"village"},"geometry":{"type":"Point","coordinates":[-69.15497,9.72335]}},{"type":"Feature","id":"node/5916603431","properties":{"name":"La Estefan\u00eda","place":"village"},"geometry":{"type":"Point","coordinates":[-69.13657,9.74459]}},{"type":"Feature","id":"node/5916603445","properties":{"name":"Cocorotico","place":"village"},"geometry":{"type":"Point","coordinates":[-69.20691,9.97995]}},{"type":"Feature","id":"node/5916603453","properties":{"name":"Maporal","place":"village"},"geometry":{"type":"Point","coordinates":[-69.19449,9.90309]}},{"type":"Feature","id":"node/5916603454","properties":{"name":"Chupa La Flor","place":"village"},"geometry":{"type":"Point","coordinates":[-69.1967,9.88696]}},{"type":"Feature","id":"node/5916603461","properties":{"name":"El Roble","place":"village"},"geometry":{"type":"Point","coordinates":[-69.14334,9.81385]}},{"type":"Feature","id":"node/5916603479","properties":{"name":"Las Tres Topias","place":"village"},"geometry":{"type":"Point","coordinates":[-69.19447,10.03032]}},{"type":"Feature","id":"node/5916603480","properties":{"name":"La Aguada","place":"village"},"geometry":{"type":"Point","coordinates":[-69.20123,10.02177]}},{"type":"Feature","id":"node/5916603598","properties":{"name":"El Taque","place":"village"},"geometry":{"type":"Point","coordinates":[-69.2054,10.06204]}},{"type":"Feature","id":"node/5916603600","properties":{"name":"Marazul","place":"village"},"geometry":{"type":"Point","coordinates":[-69.22741,10.06147]}},{"type":"Feature","id":"node/5916603601","properties":{"name":"El Papel\u00f3n","place":"village"},"geometry":{"type":"Point","coordinates":[-69.2397,10.05198]}},{"type":"Feature","id":"node/5916603602","properties":{"name":"El Tamarindo","place":"town"},"geometry":{"type":"Point","coordinates":[-69.22033,10.04368]}},{"type":"Feature","id":"node/5918755067","properties":{"name":"Lomas Redondas","place":"village"},"geometry":{"type":"Point","coordinates":[-69.24157,9.92869]}},{"type":"Feature","id":"node/5918755342","properties":{"name":"Caballito","place":"village"},"geometry":{"type":"Point","coordinates":[-69.25752,9.74278]}},{"type":"Feature","id":"node/5918755347","properties":{"name":"El Cocuyo","place":"village"},"geometry":{"type":"Point","coordinates":[-69.2093,9.87733]}},{"type":"Feature","id":"node/5918755348","properties":{"name":"Corozal","place":"village"},"geometry":{"type":"Point","coordinates":[-69.21343,9.86658]}},{"type":"Feature","id":"node/5918755349","properties":{"name":"Las Vueltas","place":"village"},"geometry":{"type":"Point","coordinates":[-69.17554,9.79717]}},{"type":"Feature","id":"node/5918785936","properties":{"name":"La Respetable","place":"village"},"geometry":{"type":"Point","coordinates":[-69.34027,9.79868]}},{"type":"Feature","id":"node/5918785937","properties":{"name":"La Florida","place":"village"},"geometry":{"type":"Point","coordinates":[-69.3415,9.77392]}},{"type":"Feature","id":"node/5918785938","properties":{"name":"El Guamito","place":"village"},"geometry":{"type":"Point","coordinates":[-69.34068,9.78278]}},{"type":"Feature","id":"node/5926631896","properties":{"name":"El Morro","place":"village"},"geometry":{"type":"Point","coordinates":[-69.36568,9.9499]}},{"type":"Feature","id":"node/5926631899","properties":{"name":"La Zorra","place":"village"},"geometry":{"type":"Point","coordinates":[-69.34667,9.91428]}},{"type":"Feature","id":"node/5926631902","properties":{"name":"Cocodrilo","place":"village"},"geometry":{"type":"Point","coordinates":[-69.31038,9.91244]}},{"type":"Feature","id":"node/5926631903","properties":{"name":"Cerro Negro Arriba","place":"village"},"geometry":{"type":"Point","coordinates":[-69.31755,9.9013]}},{"type":"Feature","id":"node/5926631904","properties":{"name":"Cerro Negro Abajo","place":"village"},"geometry":{"type":"Point","coordinates":[-69.31609,9.89223]}},{"type":"Feature","id":"node/5926631905","properties":{"name":"El Plan","place":"village"},"geometry":{"type":"Point","coordinates":[-69.33015,9.90312]}},{"type":"Feature","id":"node/5926631906","properties":{"name":"La Cuchilla","place":"village"},"geometry":{"type":"Point","coordinates":[-69.3483,9.89921]}},{"type":"Feature","id":"node/5926631907","properties":{"name":"Piedra del Tigre","place":"village"},"geometry":{"type":"Point","coordinates":[-69.33081,9.88354]}},{"type":"Feature","id":"node/5926631908","properties":{"name":"Los Gavilanes","place":"village"},"geometry":{"type":"Point","coordinates":[-69.28996,9.84803]}},{"type":"Feature","id":"node/5926631910","properties":{"name":"San Rafael","place":"village"},"geometry":{"type":"Point","coordinates":[-69.29738,9.8305]}},{"type":"Feature","id":"node/5926631912","properties":{"name":"Los Portones","place":"village"},"geometry":{"type":"Point","coordinates":[-69.33594,9.8583]}},{"type":"Feature","id":"node/5926631913","properties":{"name":"Las Goteras Arriba","place":"village"},"geometry":{"type":"Point","coordinates":[-69.3442,9.846]}},{"type":"Feature","id":"node/5926631914","properties":{"name":"Las Coloradas","place":"village"},"geometry":{"type":"Point","coordinates":[-69.33012,9.83676]}},{"type":"Feature","id":"node/5926631915","properties":{"name":"Las Goteras Abajo","place":"village"},"geometry":{"type":"Point","coordinates":[-69.34229,9.83534]}},{"type":"Feature","id":"node/5926631916","properties":{"name":"Los Gavilanes","place":"village"},"geometry":{"type":"Point","coordinates":[-69.34948,9.82794]}},{"type":"Feature","id":"node/5926631917","properties":{"name":"Los Tres Palos","place":"village"},"geometry":{"type":"Point","coordinates":[-69.33156,9.82443]}},{"type":"Feature","id":"node/5926631918","properties":{"name":"Las Delicias","place":"village"},"geometry":{"type":"Point","coordinates":[-69.3198,9.82464]}},{"type":"Feature","id":"node/5926631919","properties":{"name":"Portachuelo Abajo","place":"village"},"geometry":{"type":"Point","coordinates":[-69.32238,9.79411]}},{"type":"Feature","id":"node/5926631920","properties":{"name":"El Portachuelo","place":"village"},"geometry":{"type":"Point","coordinates":[-69.31768,9.80566]}},{"type":"Feature","id":"node/5926631921","properties":{"name":"Quebrada Honda","place":"village"},"geometry":{"type":"Point","coordinates":[-69.33472,9.80832]}},{"type":"Feature","id":"node/5931759097","properties":{"name":"Riecito","place":"village"},"geometry":{"type":"Point","coordinates":[-69.37034,9.86295]}},{"type":"Feature","id":"node/5931759098","properties":{"name":"Los Muertos","place":"village"},"geometry":{"type":"Point","coordinates":[-69.36278,9.85175]}},{"type":"Feature","id":"node/5931759100","properties":{"name":"El Palmar","place":"village"},"geometry":{"type":"Point","coordinates":[-69.36416,9.81496]}},{"type":"Feature","id":"node/5931759101","properties":{"name":"Agua Blanca","place":"village"},"geometry":{"type":"Point","coordinates":[-69.37098,9.82858]}},{"type":"Feature","id":"node/5931759102","properties":{"name":"Botucal","place":"village"},"geometry":{"type":"Point","coordinates":[-69.38986,9.84397]}},{"type":"Feature","id":"node/5931759103","properties":{"name":"Las Dantas","place":"village"},"geometry":{"type":"Point","coordinates":[-69.38574,9.83433]}},{"type":"Feature","id":"node/5931759105","properties":{"name":"Libertad","place":"village"},"geometry":{"type":"Point","coordinates":[-69.42432,9.83615]}},{"type":"Feature","id":"node/5931759106","properties":{"name":"Bucaralito","place":"village"},"geometry":{"type":"Point","coordinates":[-69.43717,9.82528]}},{"type":"Feature","id":"node/5931759107","properties":{"name":"Toronjal Oeste","place":"village"},"geometry":{"type":"Point","coordinates":[-69.43458,9.81164]}},{"type":"Feature","id":"node/5931759110","properties":{"name":"Toronjal Este","place":"village"},"geometry":{"type":"Point","coordinates":[-69.42683,9.80551]}},{"type":"Feature","id":"node/5931759112","properties":{"name":"La Florida Oeste","place":"village"},"geometry":{"type":"Point","coordinates":[-69.3981,9.82325]}},{"type":"Feature","id":"node/5931759113","properties":{"name":"La Florida Este","place":"village"},"geometry":{"type":"Point","coordinates":[-69.38583,9.82029]}},{"type":"Feature","id":"node/5931759114","properties":{"name":"El Progreso Arriba","place":"village"},"geometry":{"type":"Point","coordinates":[-69.40587,9.81982]}},{"type":"Feature","id":"node/5931759115","properties":{"name":"El Progreso Abajo","place":"village"},"geometry":{"type":"Point","coordinates":[-69.3963,9.81225]}},{"type":"Feature","id":"node/5931759116","properties":{"name":"Palo Solo","place":"village"},"geometry":{"type":"Point","coordinates":[-69.41242,9.80351]}},{"type":"Feature","id":"node/5931759117","properties":{"name":"San Joaqu\u00edn","place":"village"},"geometry":{"type":"Point","coordinates":[-69.4042,9.8016]}},{"type":"Feature","id":"node/5931759119","properties":{"name":"La Feroce\u00f1a","place":"village"},"geometry":{"type":"Point","coordinates":[-69.37742,9.79953]}},{"type":"Feature","id":"node/5931759121","properties":{"name":"El Encanto del Oeste","place":"village"},"geometry":{"type":"Point","coordinates":[-69.40158,9.76459]}},{"type":"Feature","id":"node/5931759122","properties":{"name":"El Encanto del Este","place":"village"},"geometry":{"type":"Point","coordinates":[-69.37304,9.75605]}},{"type":"Feature","id":"node/5931759124","properties":{"name":"Cerro Grande","place":"village"},"geometry":{"type":"Point","coordinates":[-69.46951,9.75017]}},{"type":"Feature","id":"node/5931759125","properties":{"name":"Helechal Sur","place":"village"},"geometry":{"type":"Point","coordinates":[-69.45673,9.71663]}},{"type":"Feature","id":"node/5931759126","properties":{"name":"Helechal Norte","place":"village"},"geometry":{"type":"Point","coordinates":[-69.45333,9.73016]}},{"type":"Feature","id":"node/5931759127","properties":{"name":"Nuezalito Este","place":"village"},"geometry":{"type":"Point","coordinates":[-69.42025,9.7462]}},{"type":"Feature","id":"node/5931759128","properties":{"name":"Nuezalito Oeste","place":"village"},"geometry":{"type":"Point","coordinates":[-69.43475,9.74505]}},{"type":"Feature","id":"node/5931759131","properties":{"name":"R\u00edo Negro","place":"village"},"geometry":{"type":"Point","coordinates":[-69.36617,9.70948]}},{"type":"Feature","id":"node/5931759132","properties":{"name":"Las Damas","place":"village"},"geometry":{"type":"Point","coordinates":[-69.40274,9.72103]}},{"type":"Feature","id":"node/5931759133","properties":{"name":"El Progreso","place":"village"},"geometry":{"type":"Point","coordinates":[-69.39982,9.70453]}},{"type":"Feature","id":"node/5931759134","properties":{"name":"El Cerr\u00f3n","place":"village"},"geometry":{"type":"Point","coordinates":[-69.42291,9.70808]}},{"type":"Feature","id":"node/5931759137","properties":{"name":"Santa Fe","place":"village"},"geometry":{"type":"Point","coordinates":[-69.38265,9.67932]}},{"type":"Feature","id":"node/5931759144","properties":{"name":"Fila Rica","place":"village"},"geometry":{"type":"Point","coordinates":[-69.41548,9.61298]}},{"type":"Feature","id":"node/5931759152","properties":{"name":"Agua Sucia Sur","place":"village"},"geometry":{"type":"Point","coordinates":[-69.39896,9.6283]}},{"type":"Feature","id":"node/5931759153","properties":{"name":"Agua Sucia Norte","place":"village"},"geometry":{"type":"Point","coordinates":[-69.39875,9.65352]}},{"type":"Feature","id":"node/5931759154","properties":{"name":"Guataure","place":"village"},"geometry":{"type":"Point","coordinates":[-69.41467,9.6728]}},{"type":"Feature","id":"node/5931759155","properties":{"name":"Tamboral","place":"village"},"geometry":{"type":"Point","coordinates":[-69.44454,9.69328]}},{"type":"Feature","id":"node/5931759156","properties":{"name":"El Guaical Este","place":"village"},"geometry":{"type":"Point","coordinates":[-69.42853,9.67809]}},{"type":"Feature","id":"node/5931759157","properties":{"name":"El Guaical Oeste","place":"village"},"geometry":{"type":"Point","coordinates":[-69.43956,9.68139]}},{"type":"Feature","id":"node/5931759158","properties":{"name":"El Guaical Sur","place":"village"},"geometry":{"type":"Point","coordinates":[-69.43904,9.67301]}},{"type":"Feature","id":"node/5931759159","properties":{"name":"Pluma","place":"village"},"geometry":{"type":"Point","coordinates":[-69.45621,9.66523]}},{"type":"Feature","id":"node/5931759160","properties":{"name":"Angostura Abajo","place":"village"},"geometry":{"type":"Point","coordinates":[-69.46677,9.68858]}},{"type":"Feature","id":"node/5931759161","properties":{"name":"Angostura Arriba","place":"village"},"geometry":{"type":"Point","coordinates":[-69.47823,9.70165]}},{"type":"Feature","id":"node/5931759162","properties":{"name":"Buenos Aires","place":"village"},"geometry":{"type":"Point","coordinates":[-69.47454,9.72044]}},{"type":"Feature","id":"node/5931759163","properties":{"name":"El Degredo","place":"village"},"geometry":{"type":"Point","coordinates":[-69.48548,9.71494]}},{"type":"Feature","id":"node/5931759164","properties":{"name":"Nuezal","place":"village"},"geometry":{"type":"Point","coordinates":[-69.49962,9.73628]}},{"type":"Feature","id":"node/5931759165","properties":{"name":"La Escalera","place":"town"},"geometry":{"type":"Point","coordinates":[-69.51072,9.71902]}},{"type":"Feature","id":"node/5931759166","properties":{"name":"Quebrada Honda","place":"village"},"geometry":{"type":"Point","coordinates":[-69.5009,9.70769]}},{"type":"Feature","id":"node/5931759167","properties":{"name":"La Gran Parada","place":"village"},"geometry":{"type":"Point","coordinates":[-69.51827,9.6891]}},{"type":"Feature","id":"node/5931759168","properties":{"name":"El Jobal","place":"village"},"geometry":{"type":"Point","coordinates":[-69.50233,9.67752]}},{"type":"Feature","id":"node/5931759169","properties":{"name":"Cuay","place":"village"},"geometry":{"type":"Point","coordinates":[-69.49608,9.664]}},{"type":"Feature","id":"node/5934515762","properties":{"name":"San Antonio","place":"town"},"geometry":{"type":"Point","coordinates":[-69.6166,9.88239]}},{"type":"Feature","id":"node/5934523584","properties":{"name":"Cabello","place":"village"},"geometry":{"type":"Point","coordinates":[-69.52257,9.78876]}},{"type":"Feature","id":"node/5934523686","properties":{"name":"Agua Negra","place":"village"},"geometry":{"type":"Point","coordinates":[-69.50753,9.80954]}},{"type":"Feature","id":"node/5934523687","properties":{"name":"La Vig\u00eda","place":"village"},"geometry":{"type":"Point","coordinates":[-69.51954,9.80235]}},{"type":"Feature","id":"node/5934523688","properties":{"name":"El P\u00e1ramo","place":"village"},"geometry":{"type":"Point","coordinates":[-69.53688,9.80115]}},{"type":"Feature","id":"node/5934523689","properties":{"name":"El Manzanal","place":"village"},"geometry":{"type":"Point","coordinates":[-69.52991,9.7974]}},{"type":"Feature","id":"node/5934523690","properties":{"name":"Las Cuibas","place":"village"},"geometry":{"type":"Point","coordinates":[-69.54555,9.81084]}},{"type":"Feature","id":"node/5934523691","properties":{"name":"Laguna Negra","place":"village"},"geometry":{"type":"Point","coordinates":[-69.5533,9.7971]}},{"type":"Feature","id":"node/5934524047","properties":{"name":"El Zancudo","place":"village"},"geometry":{"type":"Point","coordinates":[-69.55007,9.78678]}},{"type":"Feature","id":"node/5934524785","properties":{"name":"Mimiche","place":"village"},"geometry":{"type":"Point","coordinates":[-69.56455,9.80552]}},{"type":"Feature","id":"node/5934524786","properties":{"name":"El Pajal","place":"village"},"geometry":{"type":"Point","coordinates":[-69.5712,9.81587]}},{"type":"Feature","id":"node/5934524953","properties":{"name":"Tronc\u00f3n Negro","place":"town"},"geometry":{"type":"Point","coordinates":[-69.57245,9.83547]}},{"type":"Feature","id":"node/5934524954","properties":{"name":"Cuatro Esquinas","place":"village"},"geometry":{"type":"Point","coordinates":[-69.56092,9.82889]}},{"type":"Feature","id":"node/5934524955","properties":{"name":"Raya del Caimito","place":"village"},"geometry":{"type":"Point","coordinates":[-69.5551,9.84803]}},{"type":"Feature","id":"node/5934524957","properties":{"name":"Piedra de Ojo","place":"village"},"geometry":{"type":"Point","coordinates":[-69.53085,9.83118]}},{"type":"Feature","id":"node/5934524958","properties":{"name":"Volcancito","place":"village"},"geometry":{"type":"Point","coordinates":[-69.50619,9.83243]}},{"type":"Feature","id":"node/5934524959","properties":{"name":"Paso del R\u00edo","place":"village"},"geometry":{"type":"Point","coordinates":[-69.50949,9.84673]}},{"type":"Feature","id":"node/5934524961","properties":{"name":"Los Cerritos","place":"town"},"geometry":{"type":"Point","coordinates":[-69.55069,9.99996]}},{"type":"Feature","id":"node/5934524962","properties":{"name":"El Rodeo","place":"village"},"geometry":{"type":"Point","coordinates":[-69.54348,9.99421]}},{"type":"Feature","id":"node/5934524963","properties":{"name":"La Fe","place":"town"},"geometry":{"type":"Point","coordinates":[-69.53998,9.97965]}},{"type":"Feature","id":"node/5934525030","properties":{"name":"Cantarrana","place":"village"},"geometry":{"type":"Point","coordinates":[-69.55556,9.88929]}},{"type":"Feature","id":"node/5934525164","properties":{"name":"Las Dos Bocas","place":"village"},"geometry":{"type":"Point","coordinates":[-69.55429,9.90049]}},{"type":"Feature","id":"node/5934525166","properties":{"name":"La Costa","place":"town"},"geometry":{"type":"Point","coordinates":[-69.55852,9.93943]}},{"type":"Feature","id":"node/5934525167","properties":{"name":"El Poz\u00f3n","place":"town"},"geometry":{"type":"Point","coordinates":[-69.56522,9.92714]}},{"type":"Feature","id":"node/5934525168","properties":{"name":"Los Jebes","place":"village"},"geometry":{"type":"Point","coordinates":[-69.57643,9.91741]}},{"type":"Feature","id":"node/5934525169","properties":{"name":"Mocundo","place":"village"},"geometry":{"type":"Point","coordinates":[-69.58277,9.89861]}},{"type":"Feature","id":"node/5934525171","properties":{"name":"Quebrada Seca","place":"village"},"geometry":{"type":"Point","coordinates":[-69.60413,9.8507]}},{"type":"Feature","id":"node/5934525309","properties":{"name":"Agua Viva","place":"village"},"geometry":{"type":"Point","coordinates":[-69.48962,9.94894]}},{"type":"Feature","id":"node/5934525547","properties":{"name":"El Totumo","place":"village"},"geometry":{"type":"Point","coordinates":[-69.49778,9.91899]}},{"type":"Feature","id":"node/5934525548","properties":{"name":"Saduy","place":"village"},"geometry":{"type":"Point","coordinates":[-69.50099,9.98495]}},{"type":"Feature","id":"node/5934525549","properties":{"name":"Auyamal","place":"village"},"geometry":{"type":"Point","coordinates":[-69.51852,9.98316]}},{"type":"Feature","id":"node/5934525950","properties":{"name":"La Llorona","place":"village"},"geometry":{"type":"Point","coordinates":[-69.48544,9.95882]}},{"type":"Feature","id":"node/5934525952","properties":{"name":"Villa Rosa","place":"town"},"geometry":{"type":"Point","coordinates":[-69.46027,9.98037]}},{"type":"Feature","id":"node/5934525956","properties":{"name":"El Trompillo","place":"village"},"geometry":{"type":"Point","coordinates":[-69.46779,9.92143]}},{"type":"Feature","id":"node/5934528279","properties":{"name":"El Cortijo","place":"village"},"geometry":{"type":"Point","coordinates":[-69.45072,9.87195]}},{"type":"Feature","id":"node/5934528280","properties":{"name":"Pica Alta","place":"village"},"geometry":{"type":"Point","coordinates":[-69.45501,9.89781]}},{"type":"Feature","id":"node/5934528281","properties":{"name":"Las \u00c1nimas","place":"village"},"geometry":{"type":"Point","coordinates":[-69.4598,9.89157]}},{"type":"Feature","id":"node/5934528282","properties":{"name":"El Casta\u00f1o Abajo","place":"village"},"geometry":{"type":"Point","coordinates":[-69.46495,9.88328]}},{"type":"Feature","id":"node/5934528283","properties":{"name":"El Casta\u00f1o Arriba","place":"village"},"geometry":{"type":"Point","coordinates":[-69.456,9.87811]}},{"type":"Feature","id":"node/5934530204","properties":{"name":"Palenque","place":"village"},"geometry":{"type":"Point","coordinates":[-69.48531,9.83434]}},{"type":"Feature","id":"node/5934530205","properties":{"name":"Las Tablas","place":"village"},"geometry":{"type":"Point","coordinates":[-69.49129,9.82353]}},{"type":"Feature","id":"node/5934530206","properties":{"name":"La Libertad","place":"village"},"geometry":{"type":"Point","coordinates":[-69.51873,9.87166]}},{"type":"Feature","id":"node/5934530207","properties":{"name":"El Potrerito Sur","place":"village"},"geometry":{"type":"Point","coordinates":[-69.49762,9.85004]}},{"type":"Feature","id":"node/5934530208","properties":{"name":"La Parchita Norte","place":"village"},"geometry":{"type":"Point","coordinates":[-69.48155,9.85431]}},{"type":"Feature","id":"node/5934530209","properties":{"name":"La Parchita Sur","place":"village"},"geometry":{"type":"Point","coordinates":[-69.48241,9.84986]}},{"type":"Feature","id":"node/5934530210","properties":{"name":"El Potrerito Norte","place":"village"},"geometry":{"type":"Point","coordinates":[-69.49729,9.86127]}},{"type":"Feature","id":"node/5934530211","properties":{"name":"Guabana Abajo","place":"village"},"geometry":{"type":"Point","coordinates":[-69.49739,9.88267]}},{"type":"Feature","id":"node/5934530212","properties":{"name":"Guabana Arriba","place":"village"},"geometry":{"type":"Point","coordinates":[-69.4925,9.87964]}},{"type":"Feature","id":"node/5934530213","properties":{"name":"La Loyera","place":"village"},"geometry":{"type":"Point","coordinates":[-69.47614,9.86498]}},{"type":"Feature","id":"node/5934530214","properties":{"name":"Buenos Aires","place":"village"},"geometry":{"type":"Point","coordinates":[-69.47797,9.87018]}},{"type":"Feature","id":"node/5934530215","properties":{"name":"El Rinc\u00f3n","place":"village"},"geometry":{"type":"Point","coordinates":[-69.48653,9.87732]}},{"type":"Feature","id":"node/5934530218","properties":{"name":"Guaiquiba","place":"village"},"geometry":{"type":"Point","coordinates":[-69.44257,9.92516]}},{"type":"Feature","id":"node/5934530220","properties":{"name":"El Amparo","place":"village"},"geometry":{"type":"Point","coordinates":[-69.40818,9.94368]}},{"type":"Feature","id":"node/5934530222","properties":{"name":"Los Cocos","place":"town"},"geometry":{"type":"Point","coordinates":[-69.35405,9.98514]}},{"type":"Feature","id":"node/5934530224","properties":{"name":"Las Cuibitas","place":"town"},"geometry":{"type":"Point","coordinates":[-69.30899,10.0101]}},{"type":"Feature","id":"node/5934530428","properties":{"name":"Titicare Norte","place":"town"},"geometry":{"type":"Point","coordinates":[-69.34592,10.02281]}},{"type":"Feature","id":"node/5935858612","properties":{"name":"Bomb\u00f3n","place":"village"},"geometry":{"type":"Point","coordinates":[-69.40458,9.89358]}},{"type":"Feature","id":"node/5935858613","properties":{"name":"Guayamure","place":"town"},"geometry":{"type":"Point","coordinates":[-69.3776,9.90687]}},{"type":"Feature","id":"node/5935858614","properties":{"name":"Parra","place":"village"},"geometry":{"type":"Point","coordinates":[-69.38575,9.91625]}},{"type":"Feature","id":"node/5937245625","properties":{"name":"Charalito del Oeste","place":"village"},"geometry":{"type":"Point","coordinates":[-69.51691,9.5491]}},{"type":"Feature","id":"node/5937245626","properties":{"name":"Cerro Blanco","place":"village"},"geometry":{"type":"Point","coordinates":[-69.52013,9.64786]}},{"type":"Feature","id":"node/5937245627","properties":{"name":"Miracuy Arriba","place":"village"},"geometry":{"type":"Point","coordinates":[-69.56393,9.62527]}},{"type":"Feature","id":"node/5937245628","properties":{"name":"Miracuy Abajo","place":"village"},"geometry":{"type":"Point","coordinates":[-69.56987,9.63242]}},{"type":"Feature","id":"node/5937245629","properties":{"name":"Nuezalito","place":"village"},"geometry":{"type":"Point","coordinates":[-69.50438,9.60405]}},{"type":"Feature","id":"node/5937245630","properties":{"name":"Miraflores del Oeste","place":"village"},"geometry":{"type":"Point","coordinates":[-69.51241,9.58579]}},{"type":"Feature","id":"node/5937245631","properties":{"name":"San Antonio","place":"village"},"geometry":{"type":"Point","coordinates":[-69.5129,9.56681]}},{"type":"Feature","id":"node/5937245633","properties":{"name":"Miraflores del Este","place":"village"},"geometry":{"type":"Point","coordinates":[-69.48419,9.56169]}},{"type":"Feature","id":"node/5937245634","properties":{"name":"Los Gallineros Norte","place":"village"},"geometry":{"type":"Point","coordinates":[-69.47415,9.59766]}},{"type":"Feature","id":"node/5937245635","properties":{"name":"Los Gallineros Sur","place":"village"},"geometry":{"type":"Point","coordinates":[-69.47767,9.58143]}},{"type":"Feature","id":"node/5937245636","properties":{"name":"La Bucarita","place":"village"},"geometry":{"type":"Point","coordinates":[-69.45943,9.58071]}},{"type":"Feature","id":"node/5937245638","properties":{"name":"Charalito del Este","place":"village"},"geometry":{"type":"Point","coordinates":[-69.46479,9.55577]}},{"type":"Feature","id":"node/5937245639","properties":{"name":"Platanal","place":"village"},"geometry":{"type":"Point","coordinates":[-69.43286,9.60813]}},{"type":"Feature","id":"node/6564079103","properties":{"name":"El Baj\u00edo Oeste","place":"village"},"geometry":{"type":"Point","coordinates":[-69.68911,9.58018]}},{"type":"Feature","id":"node/6564079104","properties":{"name":"Fila de Tigre Este","place":"village"},"geometry":{"type":"Point","coordinates":[-69.67476,9.54709]}},{"type":"Feature","id":"node/6564079105","properties":{"name":"Fila de Tigre Norte","place":"village"},"geometry":{"type":"Point","coordinates":[-69.68124,9.55189]}},{"type":"Feature","id":"node/6564079106","properties":{"name":"Santa Cruz Oeste","place":"village"},"geometry":{"type":"Point","coordinates":[-69.66155,9.55141]}},{"type":"Feature","id":"node/6564079107","properties":{"name":"El Baj\u00edo Este","place":"village"},"geometry":{"type":"Point","coordinates":[-69.67383,9.57117]}},{"type":"Feature","id":"node/6564079108","properties":{"name":"Cerro Pel\u00f3n","place":"village"},"geometry":{"type":"Point","coordinates":[-69.66495,9.58626]}},{"type":"Feature","id":"node/6564079109","properties":{"name":"El Baj\u00edo Sur","place":"village"},"geometry":{"type":"Point","coordinates":[-69.68016,9.56334]}},{"type":"Feature","id":"node/6564079110","properties":{"name":"El Baj\u00edo Norte","place":"village"},"geometry":{"type":"Point","coordinates":[-69.67864,9.57826]}},{"type":"Feature","id":"node/6564079111","properties":{"name":"R\u00edo Bravo","place":"village"},"geometry":{"type":"Point","coordinates":[-69.66471,9.56802]}},{"type":"Feature","id":"node/6564079112","properties":{"name":"El Cristo","place":"village"},"geometry":{"type":"Point","coordinates":[-69.6863,9.51744]}},{"type":"Feature","id":"node/6564079113","properties":{"name":"El Picacho","place":"village"},"geometry":{"type":"Point","coordinates":[-69.69572,9.50604]}},{"type":"Feature","id":"node/6564079114","properties":{"name":"Rabo Chivo","place":"village"},"geometry":{"type":"Point","coordinates":[-69.70156,9.51357]}},{"type":"Feature","id":"node/6564079115","properties":{"name":"La Traves\u00eda","place":"village"},"geometry":{"type":"Point","coordinates":[-69.68568,9.52957]}},{"type":"Feature","id":"node/6564079116","properties":{"name":"Fila de Tigre Sur","place":"village"},"geometry":{"type":"Point","coordinates":[-69.68549,9.5399]}},{"type":"Feature","id":"node/6564079117","properties":{"name":"Santa Cruz Sur","place":"village"},"geometry":{"type":"Point","coordinates":[-69.64315,9.53858]}},{"type":"Feature","id":"node/6564079118","properties":{"name":"Santa Cruz Norte","place":"village"},"geometry":{"type":"Point","coordinates":[-69.64364,9.54747]}},{"type":"Feature","id":"node/6564079119","properties":{"name":"Carrizal Abajo","place":"village"},"geometry":{"type":"Point","coordinates":[-69.6557,9.53585]}},{"type":"Feature","id":"node/6564079120","properties":{"name":"Carrizal Arriba","place":"village"},"geometry":{"type":"Point","coordinates":[-69.66158,9.52712]}},{"type":"Feature","id":"node/6564079121","properties":{"name":"Santo Domingo","place":"village"},"geometry":{"type":"Point","coordinates":[-69.6675,9.50828]}},{"type":"Feature","id":"node/6564079193","properties":{"name":"El Regalo","place":"village"},"geometry":{"type":"Point","coordinates":[-69.6648,9.46111]}},{"type":"Feature","id":"node/6564079194","properties":{"name":"La Mucut\u00eda","place":"village"},"geometry":{"type":"Point","coordinates":[-69.62965,9.46185]}},{"type":"Feature","id":"node/6564079195","properties":{"name":"Agua Amarilla Este","place":"village"},"geometry":{"type":"Point","coordinates":[-69.64152,9.46784]}},{"type":"Feature","id":"node/6564079196","properties":{"name":"Agua Amarilla Oeste","place":"village"},"geometry":{"type":"Point","coordinates":[-69.65418,9.46793]}},{"type":"Feature","id":"node/6564079197","properties":{"name":"La Laguna","place":"village"},"geometry":{"type":"Point","coordinates":[-69.65034,9.43901]}},{"type":"Feature","id":"node/6568934432","properties":{"name":"Maguaza Norte","place":"village"},"geometry":{"type":"Point","coordinates":[-69.70145,9.4123]}},{"type":"Feature","id":"node/6573620986","properties":{"name":"Guanarito Este","place":"village"},"geometry":{"type":"Point","coordinates":[-69.85339,9.44572]}},{"type":"Feature","id":"node/6573620987","properties":{"name":"Guanarito Oeste","place":"village"},"geometry":{"type":"Point","coordinates":[-69.86959,9.44932]}},{"type":"Feature","id":"node/6573620988","properties":{"name":"Las Palmitas","place":"village"},"geometry":{"type":"Point","coordinates":[-69.82867,9.48275]}},{"type":"Feature","id":"node/6573620989","properties":{"name":"Fila Rica","place":"village"},"geometry":{"type":"Point","coordinates":[-69.83927,9.47852]}},{"type":"Feature","id":"node/6573620990","properties":{"name":"Los Higuerones Este","place":"village"},"geometry":{"type":"Point","coordinates":[-69.84914,9.47211]}},{"type":"Feature","id":"node/6573620991","properties":{"name":"Guayana Arriba","place":"village"},"geometry":{"type":"Point","coordinates":[-69.83451,9.46049]}},{"type":"Feature","id":"node/6573620992","properties":{"name":"Guayana Abajo","place":"village"},"geometry":{"type":"Point","coordinates":[-69.8421,9.45004]}},{"type":"Feature","id":"node/6573620993","properties":{"name":"Los Palmares","place":"village"},"geometry":{"type":"Point","coordinates":[-69.82093,9.43837]}},{"type":"Feature","id":"node/6573620994","properties":{"name":"Santa Luc\u00eda Este","place":"village"},"geometry":{"type":"Point","coordinates":[-69.82846,9.41985]}},{"type":"Feature","id":"node/6573620995","properties":{"name":"Las Quebraditas","place":"village"},"geometry":{"type":"Point","coordinates":[-69.84751,9.43607]}},{"type":"Feature","id":"node/6573620996","properties":{"name":"Santa Luc\u00eda Oeste","place":"village"},"geometry":{"type":"Point","coordinates":[-69.84962,9.42256]}},{"type":"Feature","id":"node/6573620997","properties":{"name":"La Victoria","place":"village"},"geometry":{"type":"Point","coordinates":[-69.86777,9.42513]}},{"type":"Feature","id":"node/6573621001","properties":{"name":"La Florida Norte","place":"village"},"geometry":{"type":"Point","coordinates":[-69.83951,9.49675]}},{"type":"Feature","id":"node/6573621003","properties":{"name":"La Florida","place":"village"},"geometry":{"type":"Point","coordinates":[-69.84434,9.4882]}},{"type":"Feature","id":"node/6573621004","properties":{"name":"Los Higuerones Oeste","place":"village"},"geometry":{"type":"Point","coordinates":[-69.85934,9.4665]}},{"type":"Feature","id":"node/6573621007","properties":{"name":"La Monta\u00f1a","place":"village"},"geometry":{"type":"Point","coordinates":[-69.88566,9.44874]}},{"type":"Feature","id":"node/6573621008","properties":{"name":"La Vig\u00eda","place":"village"},"geometry":{"type":"Point","coordinates":[-69.87961,9.45685]}},{"type":"Feature","id":"node/6597257511","properties":{"name":"La Monta\u00f1a Este","place":"village"},"geometry":{"type":"Point","coordinates":[-70.02746,9.45068]}},{"type":"Feature","id":"node/6597257512","properties":{"name":"La Monta\u00f1a Oeste","place":"village"},"geometry":{"type":"Point","coordinates":[-70.03517,9.44879]}},{"type":"Feature","id":"node/6597257515","properties":{"name":"Palma Rica Norte","place":"village"},"geometry":{"type":"Point","coordinates":[-70.01047,9.45488]}},{"type":"Feature","id":"node/6597562540","properties":{"name":"Palma Rica Sur","place":"village"},"geometry":{"type":"Point","coordinates":[-70.01223,9.44662]}},{"type":"Feature","id":"node/6597893417","properties":{"name":"Loma de La Mesa","place":"village"},"geometry":{"type":"Point","coordinates":[-69.98192,9.55492]}},{"type":"Feature","id":"node/6604020289","properties":{"name":"Quebrada de Oro","place":"village"},"geometry":{"type":"Point","coordinates":[-69.92427,9.56108]}},{"type":"Feature","id":"node/9092891636","properties":{"name":"Villanueva","place":"village"},"geometry":{"type":"Point","coordinates":[-69.79491,9.53644]}},{"type":"Feature","id":"node/10829850426","properties":{"name":"El Huso Sur","place":"village"},"geometry":{"type":"Point","coordinates":[-69.08257,10.42198]}},{"type":"Feature","id":"node/11032732964","properties":{"name":"Quibayito","place":"village"},"geometry":{"type":"Point","coordinates":[-69.71443,9.44582]}},{"type":"Feature","id":"node/11038046088","properties":{"name":"El Hato","place":"town"},"geometry":{"type":"Point","coordinates":[-69.64688,9.89422]}},{"type":"Feature","id":"node/11038418644","properties":{"name":"Guait\u00f3","place":"village"},"geometry":{"type":"Point","coordinates":[-70.04434,9.43103]}},{"type":"Feature","id":"node/11039711381","properties":{"name":"Parapara","place":"village"},"geometry":{"type":"Point","coordinates":[-69.86928,10.37082]}},{"type":"Feature","id":"node/11626807822","properties":{"place":"village"},"geometry":{"type":"Point","coordinates":[-69.7883,9.62765]}},{"type":"Feature","id":"node/11626807823","properties":{"name":"Gu\u00e1rico","place":"village"},"geometry":{"type":"Point","coordinates":[-69.79216,9.62661]}},{"type":"Feature","id":"node/11626807824","properties":{"place":"village"},"geometry":{"type":"Point","coordinates":[-69.79409,9.62728]}},{"type":"Feature","id":"node/11626807825","properties":{"place":"village"},"geometry":{"type":"Point","coordinates":[-69.79103,9.6224]}},{"type":"Feature","id":"node/11626807826","properties":{"place":"village"},"geometry":{"type":"Point","coordinates":[-69.79457,9.62187]}},{"type":"Feature","id":"node/11626807827","properties":{"place":"village"},"geometry":{"type":"Point","coordinates":[-69.79631,9.62353]}},{"type":"Feature","id":"node/11626807828","properties":{"place":"village"},"geometry":{"type":"Point","coordinates":[-69.79637,9.62501]}},{"type":"Feature","id":"node/11626807829","properties":{"place":"village"},"geometry":{"type":"Point","coordinates":[-69.79805,9.62162]}},{"type":"Feature","id":"node/12231542289","properties":{"name":"San Jos\u00e9 de Quibor","place":"village"},"geometry":{"type":"Point","coordinates":[-69.65627,9.85165]}},{"type":"Feature","id":"node/12823733521","properties":{"place":"village"},"geometry":{"type":"Point","coordinates":[-69.68148,9.72615]}},{"type":"Feature","id":"node/13578109357","properties":{"name":"Gu\u00e1rico ","place":"town"},"geometry":{"type":"Point","coordinates":[-69.79252,9.62525]}}]}