{"type":"FeatureCollection","features":[{"type":"Feature","id":"relation/272634","properties":{"name":"Trujillo","level":4},"geometry":{"type":"Polygon","coordinates":[[[-70.19624,9.82772],[-70.19939,9.83105],[-70.20715,9.83312],[-70.20835,9.83891],[-70.21654,9.84339],[-70.21792,9.83729],[-70.21522,9.83649],[-70.21826,9.83267],[-70.21476,9.82983],[-70.22372,9.82271],[-70.22791,9.82544],[-70.23196,9.82362],[-70.23219,9.81605],[-70.22952,9.81144],[-70.23443,9.79492],[-70.23418,9.7858],[-70.23947,9.77871],[-70.23719,9.77148],[-70.23889,9.76275],[-70.24231,9.75976],[-70.28032,9.82294],[-70.33173,9.82266],[-70.32489,9.82953],[-70.3202,9.85138],[-70.32652,9.85979],[-70.34217,9.87085],[-70.34235,9.87949],[-70.34776,9.88592],[-70.34971,9.89352],[-70.35556,9.89624],[-70.36169,9.90547],[-70.36826,9.9072],[-70.37788,9.90485],[-70.37751,9.89988],[-70.38234,9.89636],[-70.39603,9.90443],[-70.40025,9.90325],[-70.40061,9.90045],[-70.4037,9.90079],[-70.41099,9.90697],[-70.4153,9.9073],[-70.41705,9.90143],[-70.42188,9.89927],[-70.42382,9.88743],[-70.43037,9.88137],[-70.43892,9.8842],[-70.45148,9.8821],[-70.45739,9.87616],[-70.46013,9.86642],[-70.46419,9.86199],[-70.46833,9.86704],[-70.481,9.8725],[-70.47949,9.87591],[-70.48954,9.89204],[-70.50656,9.88232],[-70.50952,9.88525],[-70.51743,9.88694],[-70.52047,9.89348],[-70.53225,9.89537],[-70.53143,9.89857],[-70.54412,9.92138],[-70.53804,9.93769],[-70.54608,9.94909],[-70.55035,9.94919],[-70.55633,9.95629],[-70.58728,9.95566],[-70.59113,9.95768],[-70.58843,9.96962],[-70.59445,9.97887],[-70.59541,9.99215],[-70.60804,10.00183],[-70.61139,10.00846],[-70.61024,10.01449],[-70.62746,10.02714],[-70.62934,10.0331],[-70.63474,10.03471],[-70.63862,10.03957],[-70.64234,10.0394],[-70.64873,10.02777],[-70.66302,10.01742],[-70.66267,10.00365],[-70.6765,10.00405],[-70.68236,9.99759],[-70.6839,9.98738],[-70.6804,9.97752],[-70.69151,9.95758],[-70.68893,9.95092],[-70.69489,9.94184],[-70.69618,9.94286],[-70.69714,9.93874],[-70.69421,9.92648],[-70.69636,9.92302],[-70.69589,9.91694],[-70.68799,9.91509],[-70.69294,9.90109],[-70.69275,9.88992],[-70.70024,9.88374],[-70.68234,9.86283],[-70.6798,9.853],[-70.67099,9.84209],[-70.67132,9.82506],[-70.66765,9.82208],[-70.67026,9.81197],[-70.68386,9.80317],[-70.68812,9.79368],[-70.6892,9.77413],[-70.69378,9.76097],[-70.71464,9.75302],[-70.71721,9.74959],[-70.72665,9.75593],[-70.73359,9.75306],[-70.74527,9.75472],[-70.74681,9.7311],[-70.75048,9.72331],[-70.75688,9.71834],[-70.75718,9.71299],[-70.76314,9.70232],[-70.76077,9.69223],[-70.76452,9.68789],[-70.77816,9.68502],[-70.77794,9.68722],[-70.78446,9.69101],[-70.79221,9.69155],[-70.79,9.69596],[-70.79513,9.69694],[-70.79766,9.69104],[-70.79962,9.69284],[-70.80278,9.68287],[-70.80554,9.68432],[-70.80771,9.67738],[-70.81115,9.67794],[-70.81215,9.67292],[-70.81803,9.66763],[-70.81923,9.66129],[-70.82608,9.66249],[-70.82648,9.63175],[-70.8236,9.62978],[-70.82749,9.62553],[-70.82162,9.61972],[-70.82226,9.61494],[-70.82578,9.60976],[-70.83059,9.61051],[-70.84388,9.58564],[-70.8525,9.5868],[-70.86014,9.59177],[-70.86794,9.5883],[-70.887,9.58777],[-70.89431,9.59076],[-70.90606,9.58532],[-70.90669,9.58014],[-70.90783,9.59035],[-70.91283,9.59222],[-70.91068,9.59472],[-70.91225,9.59762],[-70.91716,9.59675],[-70.9198,9.59143],[-70.9242,9.58954],[-70.93088,9.59452],[-70.94187,9.59017],[-70.94795,9.59233],[-70.95548,9.59097],[-70.98043,9.59703],[-70.99783,9.59675],[-70.99989,9.59972],[-71.00849,9.59964],[-71.02171,9.60605],[-71.03494,9.60321],[-71.04223,9.60422],[-71.05988,9.6127],[-71.06261,9.60951],[-71.45671,9.50339],[-71.39697,9.24807],[-71.17287,9.35829],[-71.06378,9.34897],[-71.05039,9.35905],[-71.04358,9.36047],[-71.02395,9.35242],[-71.0201,9.34518],[-71.00749,9.33524],[-70.98508,9.33413],[-70.97876,9.32348],[-70.96955,9.31754],[-70.97806,9.30882],[-70.96447,9.29509],[-70.96705,9.28824],[-70.96114,9.2862],[-70.96276,9.2851],[-70.96115,9.282],[-70.95119,9.28409],[-70.9416,9.2774],[-70.93453,9.27746],[-70.91909,9.26627],[-70.90256,9.26429],[-70.89405,9.23029],[-70.89724,9.22336],[-70.9068,9.21894],[-70.90769,9.2161],[-70.89974,9.20116],[-70.90166,9.19778],[-70.89903,9.19691],[-70.8972,9.19193],[-70.89773,9.1786],[-70.89053,9.16519],[-70.89263,9.16058],[-70.88983,9.15397],[-70.88006,9.15073],[-70.86797,9.15162],[-70.8672,9.13902],[-70.84455,9.08917],[-70.82962,9.08794],[-70.80739,9.07433],[-70.80077,9.08011],[-70.78906,9.07236],[-70.78401,9.07876],[-70.78454,9.07477],[-70.77874,9.05902],[-70.77501,9.05454],[-70.76885,9.05353],[-70.76332,9.04909],[-70.75151,9.05266],[-70.74896,9.05752],[-70.73917,9.05485],[-70.73017,9.05619],[-70.72276,9.03275],[-70.7058,9.01436],[-70.71124,9.00773],[-70.70453,8.9976],[-70.68714,8.99541],[-70.67316,8.97436],[-70.66336,8.98188],[-70.64292,8.99122],[-70.64081,8.9983],[-70.63215,8.99847],[-70.62805,9.00459],[-70.62224,9.0063],[-70.61862,9.01297],[-70.60158,9.0162],[-70.59155,9.02429],[-70.58198,9.02752],[-70.57695,9.01113],[-70.56707,9.01204],[-70.555,9.00843],[-70.5438,9.00039],[-70.54839,8.97633],[-70.5537,8.97139],[-70.55533,8.96575],[-70.55252,8.95206],[-70.54777,8.95265],[-70.54369,8.95739],[-70.53566,8.95857],[-70.53187,8.96612],[-70.51864,8.97406],[-70.50585,8.99596],[-70.49801,8.99814],[-70.49711,9.00306],[-70.47914,9.01183],[-70.4637,9.01049],[-70.44424,9.02156],[-70.43403,9.02147],[-70.423,9.02616],[-70.4201,9.02512],[-70.41754,9.02888],[-70.40176,9.0384],[-70.39798,9.04273],[-70.39858,9.04871],[-70.38669,9.05076],[-70.38532,9.05452],[-70.38043,9.05718],[-70.36303,9.05694],[-70.35714,9.05314],[-70.347,9.0591],[-70.34178,9.05884],[-70.33369,9.05187],[-70.32395,9.05172],[-70.32196,9.04844],[-70.30173,9.03879],[-70.27932,9.03242],[-70.25714,9.03819],[-70.25083,9.04856],[-70.23717,9.06061],[-70.2339,9.06054],[-70.21822,9.05356],[-70.19923,9.05212],[-70.18857,9.04382],[-70.18435,9.03605],[-70.1835,9.05411],[-70.18734,9.0552],[-70.18428,9.06105],[-70.16568,9.06859],[-70.16238,9.07455],[-70.14901,9.08015],[-70.10858,9.08487],[-70.10614,9.08898],[-70.09444,9.09412],[-70.09443,9.09995],[-70.08526,9.11728],[-70.07471,9.11834],[-70.06768,9.12337],[-70.06706,9.12758],[-70.06469,9.12804],[-70.06611,9.13556],[-70.05409,9.13893],[-70.05612,9.14444],[-70.05095,9.15104],[-70.05576,9.15822],[-70.0546,9.16095],[-70.06116,9.16511],[-70.06029,9.16859],[-70.06441,9.17339],[-70.06323,9.17805],[-70.06603,9.18323],[-70.06924,9.18376],[-70.07259,9.20156],[-70.08029,9.20755],[-70.08824,9.20737],[-70.09436,9.21055],[-70.09746,9.21732],[-70.09657,9.22372],[-70.08698,9.22906],[-70.08097,9.2394],[-70.07127,9.24407],[-70.06764,9.25016],[-70.06941,9.25226],[-70.06272,9.26498],[-70.06565,9.28123],[-70.07554,9.2845],[-70.08796,9.2805],[-70.10572,9.28973],[-70.11445,9.29774],[-70.11318,9.30384],[-70.10445,9.31143],[-70.10427,9.31675],[-70.09069,9.33622],[-70.08377,9.33638],[-70.06472,9.35776],[-70.05898,9.36164],[-70.05349,9.36184],[-70.04425,9.37047],[-70.03858,9.38162],[-70.04,9.38452],[-70.03702,9.39224],[-70.03973,9.40257],[-70.03448,9.41477],[-70.04297,9.42404],[-70.043,9.42786],[-70.06633,9.43003],[-70.07656,9.42802],[-70.08023,9.43473],[-70.08228,9.43385],[-70.08514,9.43659],[-70.08406,9.44369],[-70.07862,9.45284],[-70.08201,9.46427],[-70.07605,9.48084],[-70.0836,9.49788],[-70.10091,9.50177],[-70.10455,9.50783],[-70.10288,9.51592],[-70.10965,9.51998],[-70.10999,9.52436],[-70.11325,9.52764],[-70.11334,9.55063],[-70.11709,9.55622],[-70.12342,9.55915],[-70.11772,9.58229],[-70.12377,9.59454],[-70.12235,9.5966],[-70.12639,9.59777],[-70.12718,9.61273],[-70.1192,9.6202],[-70.11632,9.62629],[-70.10835,9.63191],[-70.09951,9.65048],[-70.09778,9.66436],[-70.08607,9.67599],[-70.0651,9.67357],[-70.0601,9.66757],[-70.05295,9.67195],[-70.04471,9.67281],[-70.03675,9.67198],[-70.02917,9.6681],[-70.01771,9.67369],[-69.99552,9.67769],[-70.0024,9.6835],[-70.00358,9.69119],[-70.00727,9.69662],[-70.02354,9.70775],[-70.02715,9.71936],[-70.03061,9.72113],[-70.03996,9.71774],[-70.05806,9.71964],[-70.06255,9.72821],[-70.07012,9.73182],[-70.07117,9.73851],[-70.07568,9.74217],[-70.07682,9.74767],[-70.08267,9.75123],[-70.07954,9.75447],[-70.07994,9.75964],[-70.08955,9.76203],[-70.10247,9.77146],[-70.12852,9.76157],[-70.14255,9.76356],[-70.14589,9.77271],[-70.15969,9.77882],[-70.16485,9.79067],[-70.17149,9.79043],[-70.17466,9.79533],[-70.17745,9.79399],[-70.18495,9.79848],[-70.18807,9.80259],[-70.18852,9.81782],[-70.19624,9.82772]]]}}]}