{"type":"FeatureCollection","features":[{"type":"Feature","id":"relation/3449317","properties":{"name":"Municipio La Ceiba","level":6},"geometry":{"type":"Polygon","coordinates":[[[-71.02562,9.3723],[-71.01612,9.37101],[-71.01431,9.36771],[-71.00837,9.36997],[-70.99996,9.36531],[-70.9928,9.36079],[-70.98017,9.34563],[-70.97258,9.34615],[-70.95349,9.34021],[-70.94085,9.34582],[-70.91458,9.33502],[-70.91002,9.3305],[-70.90474,9.33067],[-70.90339,9.39824],[-70.90543,9.58119],[-70.89948,9.58952],[-70.90681,9.58462],[-70.90725,9.58044],[-70.9075,9.58964],[-70.91283,9.59222],[-70.91068,9.59472],[-70.91225,9.59762],[-70.91716,9.59675],[-70.9198,9.59143],[-70.9242,9.58954],[-70.93088,9.59452],[-70.94187,9.59017],[-70.94795,9.59233],[-70.95548,9.59097],[-70.98043,9.59703],[-70.99783,9.59675],[-70.99989,9.59972],[-71.00849,9.59964],[-71.02171,9.60605],[-71.03494,9.60321],[-71.04223,9.60422],[-71.05988,9.6127],[-71.06261,9.60951],[-71.45671,9.50339],[-71.39697,9.24807],[-71.17287,9.35829],[-71.06524,9.36325],[-71.05663,9.36194],[-71.04998,9.36646],[-71.04713,9.3739],[-71.04444,9.37494],[-71.02562,9.3723]]]}},{"type":"Feature","id":"relation/3449318","properties":{"name":"Municipio Monte Carmelo","level":6},"geometry":{"type":"Polygon","coordinates":[[[-71.06378,9.34897],[-71.05039,9.35905],[-71.04262,9.36029],[-71.02395,9.35242],[-71.0201,9.34518],[-71.00749,9.33524],[-70.98508,9.33413],[-70.97876,9.32348],[-70.96955,9.31754],[-70.97806,9.30882],[-70.96447,9.29509],[-70.96705,9.28824],[-70.96114,9.2862],[-70.96276,9.2851],[-70.96115,9.282],[-70.95119,9.28409],[-70.9416,9.2774],[-70.93453,9.27746],[-70.91909,9.26627],[-70.90256,9.26429],[-70.89405,9.23029],[-70.89724,9.22336],[-70.9068,9.21894],[-70.90769,9.2161],[-70.89974,9.20116],[-70.90166,9.19778],[-70.89903,9.19691],[-70.8972,9.19193],[-70.89773,9.1786],[-70.89053,9.16519],[-70.89263,9.16058],[-70.88983,9.15397],[-70.88006,9.15073],[-70.86797,9.15162],[-70.8672,9.13902],[-70.84455,9.08917],[-70.82962,9.08794],[-70.80739,9.07433],[-70.8001,9.08173],[-70.79465,9.08382],[-70.78482,9.08333],[-70.77383,9.0926],[-70.75669,9.13091],[-70.75777,9.14285],[-70.75263,9.15056],[-70.74837,9.16442],[-70.74045,9.1688],[-70.7336,9.17688],[-70.73025,9.18536],[-70.7176,9.19414],[-70.71271,9.20356],[-70.73223,9.19652],[-70.74023,9.19942],[-70.75247,9.19815],[-70.75715,9.2017],[-70.77816,9.20321],[-70.79312,9.19675],[-70.80063,9.22897],[-70.81502,9.24516],[-70.81436,9.25858],[-70.81677,9.25955],[-70.82197,9.25613],[-70.82145,9.26454],[-70.82471,9.26488],[-70.82302,9.27491],[-70.82593,9.27483],[-70.82678,9.28086],[-70.83291,9.27797],[-70.83811,9.28768],[-70.84055,9.28674],[-70.84105,9.29413],[-70.84529,9.29821],[-70.84497,9.30926],[-70.84809,9.31262],[-70.84522,9.3262],[-70.84759,9.32657],[-70.84851,9.33002],[-70.85429,9.33202],[-70.8695,9.32048],[-70.88741,9.32891],[-70.89077,9.32759],[-70.90095,9.331],[-70.91002,9.3305],[-70.91458,9.33502],[-70.94085,9.34582],[-70.95349,9.34021],[-70.97258,9.34615],[-70.98017,9.34563],[-70.9928,9.36079],[-71.00837,9.36997],[-71.01431,9.36771],[-71.02064,9.37271],[-71.03884,9.37515],[-71.04713,9.3739],[-71.04998,9.36646],[-71.05663,9.36194],[-71.06524,9.36325],[-71.17287,9.35829],[-71.06378,9.34897]]]}},{"type":"Feature","id":"relation/3449333","properties":{"name":"Municipio Bol\u00edvar","level":6},"geometry":{"type":"Polygon","coordinates":[[[-70.75651,9.40673],[-70.75752,9.41141],[-70.76324,9.4164],[-70.77763,9.42406],[-70.77699,9.42657],[-70.78098,9.43218],[-70.79742,9.43946],[-70.79588,9.44418],[-70.80001,9.45044],[-70.81459,9.46062],[-70.81358,9.46611],[-70.81787,9.47413],[-70.82623,9.47811],[-70.8325,9.47626],[-70.85851,9.4581],[-70.88269,9.43707],[-70.90408,9.42937],[-70.90474,9.33067],[-70.89077,9.32759],[-70.88741,9.32891],[-70.8695,9.32048],[-70.85429,9.33202],[-70.84851,9.33002],[-70.84759,9.32657],[-70.84522,9.3262],[-70.84809,9.31262],[-70.84497,9.30926],[-70.84529,9.29821],[-70.84105,9.29413],[-70.84055,9.28674],[-70.83811,9.28768],[-70.83291,9.27797],[-70.82678,9.28086],[-70.82593,9.27483],[-70.82302,9.27491],[-70.82471,9.26488],[-70.82145,9.26454],[-70.82197,9.25613],[-70.81677,9.25955],[-70.81436,9.25858],[-70.81038,9.26613],[-70.80219,9.26512],[-70.81161,9.29466],[-70.80802,9.29853],[-70.80573,9.29797],[-70.8054,9.30452],[-70.80033,9.3117],[-70.78235,9.32528],[-70.77073,9.33019],[-70.76722,9.33606],[-70.77844,9.35862],[-70.77964,9.35645],[-70.78333,9.35809],[-70.78215,9.36122],[-70.7839,9.36233],[-70.7803,9.36316],[-70.76861,9.3576],[-70.76392,9.35861],[-70.75523,9.36616],[-70.75523,9.36937],[-70.75986,9.37312],[-70.75468,9.40064],[-70.75651,9.40673]]]}},{"type":"Feature","id":"relation/3449334","properties":{"name":"Municipio Escuque","level":6},"geometry":{"type":"Polygon","coordinates":[[[-70.63082,9.35461],[-70.63981,9.36867],[-70.65655,9.37507],[-70.65921,9.36538],[-70.66539,9.36081],[-70.66636,9.35618],[-70.67052,9.35352],[-70.67767,9.33848],[-70.68481,9.32978],[-70.69658,9.32891],[-70.71144,9.31884],[-70.7172,9.31185],[-70.77191,9.28374],[-70.79834,9.26536],[-70.81144,9.26519],[-70.81602,9.25336],[-70.81502,9.24516],[-70.80063,9.22897],[-70.79312,9.19675],[-70.77816,9.20321],[-70.75715,9.2017],[-70.75247,9.19815],[-70.74023,9.19942],[-70.73223,9.19652],[-70.71271,9.20356],[-70.71513,9.21603],[-70.70649,9.22164],[-70.69665,9.23765],[-70.67669,9.25114],[-70.66548,9.26259],[-70.66272,9.27341],[-70.64796,9.28235],[-70.64821,9.29549],[-70.63982,9.30945],[-70.63915,9.31702],[-70.63527,9.32406],[-70.63544,9.34482],[-70.63082,9.35461]],[[-70.6804,9.2767],[-70.67624,9.27601],[-70.67783,9.27254],[-70.68222,9.27089],[-70.6804,9.2767]]]}},{"type":"Feature","id":"relation/3449335","properties":{"name":"Municipio Rafael Rangel","level":6},"geometry":{"type":"Polygon","coordinates":[[[-70.75651,9.40673],[-70.75468,9.40064],[-70.75986,9.37312],[-70.75523,9.36937],[-70.75601,9.36471],[-70.76861,9.3576],[-70.7803,9.36316],[-70.7839,9.36233],[-70.78215,9.36122],[-70.78333,9.35809],[-70.77964,9.35645],[-70.77844,9.35862],[-70.77414,9.34726],[-70.76906,9.34282],[-70.76722,9.33606],[-70.76949,9.3312],[-70.78235,9.32528],[-70.79956,9.31237],[-70.80515,9.30515],[-70.80573,9.29797],[-70.80802,9.29853],[-70.81161,9.29466],[-70.8064,9.27462],[-70.80245,9.27078],[-70.80256,9.26496],[-70.79834,9.26536],[-70.77191,9.28374],[-70.7172,9.31185],[-70.71144,9.31884],[-70.69658,9.32891],[-70.68481,9.32978],[-70.67767,9.33848],[-70.67052,9.35352],[-70.65734,9.3693],[-70.65655,9.37507],[-70.66147,9.38675],[-70.6605,9.39023],[-70.66566,9.39865],[-70.66915,9.39741],[-70.67725,9.40077],[-70.68966,9.39874],[-70.69631,9.40518],[-70.69868,9.40224],[-70.70299,9.40442],[-70.70879,9.39785],[-70.71818,9.399],[-70.72065,9.39595],[-70.73435,9.39954],[-70.73725,9.40494],[-70.74492,9.40446],[-70.747,9.4098],[-70.75651,9.40673]]]}},{"type":"Feature","id":"relation/3449336","properties":{"name":"Municipio Sucre","level":6},"geometry":{"type":"Polygon","coordinates":[[[-70.66537,9.39841],[-70.6559,9.40402],[-70.65429,9.40911],[-70.64971,9.41127],[-70.65061,9.41372],[-70.69248,9.42006],[-70.69838,9.42387],[-70.70393,9.42439],[-70.70922,9.41999],[-70.71315,9.42172],[-70.7176,9.42656],[-70.71957,9.43437],[-70.72287,9.43302],[-70.7233,9.43533],[-70.72821,9.43625],[-70.7342,9.44857],[-70.74153,9.45042],[-70.74462,9.45413],[-70.74895,9.45369],[-70.75606,9.46135],[-70.7582,9.4601],[-70.75928,9.46539],[-70.76206,9.46487],[-70.76117,9.46779],[-70.7719,9.47855],[-70.77188,9.48245],[-70.77811,9.49328],[-70.78134,9.4963],[-70.78633,9.49548],[-70.80394,9.51465],[-70.80617,9.56983],[-70.8157,9.57423],[-70.81621,9.57783],[-70.82049,9.58078],[-70.8525,9.5868],[-70.86014,9.59177],[-70.86794,9.5883],[-70.89948,9.58952],[-70.90543,9.58119],[-70.90408,9.42937],[-70.88269,9.43707],[-70.85851,9.4581],[-70.8325,9.47626],[-70.82623,9.47811],[-70.82083,9.47677],[-70.81581,9.47179],[-70.81302,9.46315],[-70.81459,9.46062],[-70.80001,9.45044],[-70.79588,9.44418],[-70.79742,9.43946],[-70.78098,9.43218],[-70.77699,9.42657],[-70.77763,9.42406],[-70.76324,9.4164],[-70.75752,9.41141],[-70.75664,9.40675],[-70.747,9.4098],[-70.74492,9.40446],[-70.73725,9.40494],[-70.73435,9.39954],[-70.72065,9.39595],[-70.71818,9.399],[-70.70879,9.39785],[-70.70299,9.40442],[-70.69868,9.40224],[-70.69631,9.40518],[-70.68966,9.39874],[-70.67725,9.40077],[-70.66915,9.39741],[-70.66537,9.39841]]]}},{"type":"Feature","id":"relation/3449355","properties":{"name":"Municipio Motat\u00e1n","level":6},"geometry":{"type":"Polygon","coordinates":[[[-70.60553,9.56246],[-70.61391,9.55751],[-70.6187,9.56002],[-70.62049,9.55196],[-70.63276,9.54766],[-70.63229,9.54236],[-70.63448,9.54047],[-70.63222,9.54008],[-70.63248,9.5374],[-70.63675,9.53071],[-70.63505,9.52741],[-70.63628,9.51674],[-70.63361,9.5138],[-70.63021,9.49072],[-70.63122,9.4868],[-70.6348,9.48576],[-70.63436,9.48323],[-70.62984,9.48258],[-70.63025,9.47225],[-70.62795,9.47105],[-70.63034,9.46826],[-70.62009,9.46333],[-70.61792,9.46014],[-70.61824,9.45354],[-70.62184,9.45141],[-70.62302,9.44178],[-70.62732,9.44054],[-70.63373,9.43322],[-70.64045,9.43015],[-70.64148,9.42684],[-70.64865,9.42303],[-70.65179,9.41665],[-70.64971,9.41127],[-70.65429,9.40911],[-70.6559,9.40402],[-70.66469,9.40034],[-70.66569,9.39722],[-70.6605,9.39023],[-70.66147,9.38675],[-70.65655,9.37507],[-70.63981,9.36867],[-70.63082,9.35461],[-70.63553,9.34169],[-70.6205,9.35208],[-70.61418,9.35125],[-70.60685,9.35445],[-70.59536,9.3651],[-70.59347,9.38031],[-70.58686,9.39075],[-70.5872,9.40127],[-70.58194,9.4332],[-70.57303,9.44897],[-70.56456,9.45657],[-70.57118,9.48282],[-70.56889,9.49084],[-70.57562,9.49951],[-70.57681,9.50569],[-70.58122,9.50903],[-70.57995,9.51104],[-70.59224,9.53265],[-70.59123,9.54525],[-70.59666,9.54928],[-70.59386,9.55],[-70.59904,9.55772],[-70.60553,9.56246]]]}},{"type":"Feature","id":"relation/3449356","properties":{"name":"Municipio San Rafael de Carvajal","level":6},"geometry":{"type":"Polygon","coordinates":[[[-70.554,9.35611],[-70.54997,9.36283],[-70.54389,9.36278],[-70.5452,9.36725],[-70.53911,9.3791],[-70.54082,9.38421],[-70.53622,9.39582],[-70.54028,9.39632],[-70.54185,9.40576],[-70.54534,9.40747],[-70.5442,9.41028],[-70.54611,9.41303],[-70.54253,9.42113],[-70.54747,9.42423],[-70.54805,9.43094],[-70.55335,9.43629],[-70.55401,9.44305],[-70.56471,9.45613],[-70.57303,9.44897],[-70.58194,9.4332],[-70.5872,9.40127],[-70.58686,9.39075],[-70.59347,9.38031],[-70.59731,9.35861],[-70.59354,9.33917],[-70.594,9.32388],[-70.59858,9.30915],[-70.5969,9.29699],[-70.60078,9.29412],[-70.60154,9.29023],[-70.59755,9.28586],[-70.59962,9.27898],[-70.59528,9.26285],[-70.58713,9.26273],[-70.58251,9.25895],[-70.57152,9.26513],[-70.56324,9.27413],[-70.55291,9.29298],[-70.55691,9.29264],[-70.5653,9.30122],[-70.56641,9.30759],[-70.56314,9.31286],[-70.56677,9.31796],[-70.56368,9.32628],[-70.5671,9.33016],[-70.5683,9.33709],[-70.56652,9.34213],[-70.56278,9.34185],[-70.56098,9.34678],[-70.55829,9.34649],[-70.55594,9.34988],[-70.55857,9.35512],[-70.554,9.35611]]]}},{"type":"Feature","id":"relation/3449357","properties":{"name":"Municipio Valera","level":6},"geometry":{"type":"Polygon","coordinates":[[[-70.63465,9.32825],[-70.63982,9.30945],[-70.64821,9.29549],[-70.64879,9.28094],[-70.66272,9.27341],[-70.66548,9.26259],[-70.67669,9.25114],[-70.69827,9.23609],[-70.70649,9.22164],[-70.71513,9.21603],[-70.71251,9.20485],[-70.7176,9.19414],[-70.73025,9.18536],[-70.7336,9.17688],[-70.74045,9.1688],[-70.74837,9.16442],[-70.75263,9.15056],[-70.75777,9.14285],[-70.75669,9.13091],[-70.77383,9.0926],[-70.78482,9.08333],[-70.79465,9.08382],[-70.8001,9.08173],[-70.80077,9.08011],[-70.78906,9.07236],[-70.78596,9.07739],[-70.78311,9.07789],[-70.78454,9.07477],[-70.78112,9.06359],[-70.77376,9.05386],[-70.76885,9.05353],[-70.76332,9.04909],[-70.75151,9.05266],[-70.74896,9.05752],[-70.73917,9.05485],[-70.73017,9.05619],[-70.72983,9.08521],[-70.7178,9.09833],[-70.70316,9.09172],[-70.67901,9.09135],[-70.67212,9.11675],[-70.65588,9.14259],[-70.64209,9.15664],[-70.62724,9.18972],[-70.61819,9.19723],[-70.60957,9.22838],[-70.59855,9.24756],[-70.59423,9.23885],[-70.58884,9.23695],[-70.58935,9.22815],[-70.58292,9.2197],[-70.57221,9.21869],[-70.56158,9.22793],[-70.55965,9.23862],[-70.56907,9.24977],[-70.57097,9.26572],[-70.58404,9.25894],[-70.58713,9.26273],[-70.59528,9.26285],[-70.59712,9.26794],[-70.59605,9.27026],[-70.59962,9.27898],[-70.59755,9.28586],[-70.60154,9.29023],[-70.60078,9.29412],[-70.5969,9.29699],[-70.59858,9.30915],[-70.594,9.32388],[-70.59354,9.33917],[-70.59718,9.35143],[-70.59536,9.3651],[-70.60685,9.35445],[-70.61418,9.35125],[-70.6205,9.35208],[-70.63553,9.34169],[-70.63465,9.32825]]]}},{"type":"Feature","id":"relation/3449423","properties":{"name":"Municipio Andr\u00e9s Bello","level":6},"geometry":{"type":"Polygon","coordinates":[[[-70.8389,9.594],[-70.84388,9.58564],[-70.82049,9.58078],[-70.81621,9.57783],[-70.8157,9.57423],[-70.80617,9.56983],[-70.80545,9.56555],[-70.66189,9.55674],[-70.63349,9.69434],[-70.6421,9.7071],[-70.65557,9.7156],[-70.6589,9.72016],[-70.6555,9.72848],[-70.65694,9.73388],[-70.65872,9.73658],[-70.66386,9.7372],[-70.68295,9.75524],[-70.68542,9.7596],[-70.68568,9.76916],[-70.69043,9.77155],[-70.69378,9.76097],[-70.71464,9.75302],[-70.71721,9.74959],[-70.72665,9.75593],[-70.73359,9.75306],[-70.74527,9.75472],[-70.74681,9.7311],[-70.75048,9.72331],[-70.75688,9.71834],[-70.75718,9.71299],[-70.76314,9.70232],[-70.76077,9.69223],[-70.76458,9.68784],[-70.77816,9.68502],[-70.77794,9.68722],[-70.78446,9.69101],[-70.79221,9.69155],[-70.79,9.69596],[-70.79184,9.69721],[-70.79513,9.69694],[-70.79766,9.69104],[-70.79962,9.69284],[-70.80278,9.68287],[-70.80554,9.68432],[-70.80771,9.67738],[-70.81115,9.67794],[-70.81215,9.67292],[-70.81803,9.66763],[-70.81923,9.66129],[-70.82608,9.66249],[-70.82648,9.63175],[-70.8236,9.62978],[-70.82749,9.62553],[-70.82162,9.61972],[-70.82226,9.61494],[-70.82578,9.60976],[-70.83059,9.61051],[-70.8389,9.594]]]}},{"type":"Feature","id":"relation/3449424","properties":{"name":"Municipio Bocon\u00f3","level":6},"geometry":{"type":"Polygon","coordinates":[[[-70.09979,9.36709],[-70.09984,9.36955],[-70.14334,9.37507],[-70.13589,9.38079],[-70.13451,9.38496],[-70.13183,9.38497],[-70.1319,9.38947],[-70.12383,9.39601],[-70.12626,9.39663],[-70.12422,9.39935],[-70.12209,9.39778],[-70.11769,9.40241],[-70.10724,9.40169],[-70.10881,9.40614],[-70.10661,9.40858],[-70.11079,9.41056],[-70.11528,9.42342],[-70.11326,9.42487],[-70.11574,9.4291],[-70.11041,9.43772],[-70.11059,9.44111],[-70.10124,9.44058],[-70.08643,9.45116],[-70.08681,9.4686],[-70.09395,9.47688],[-70.09646,9.47678],[-70.10384,9.48747],[-70.11227,9.49093],[-70.1147,9.51311],[-70.1216,9.52467],[-70.12498,9.52395],[-70.1252,9.51465],[-70.13066,9.50975],[-70.1405,9.49228],[-70.15069,9.48733],[-70.16726,9.47443],[-70.17361,9.45928],[-70.18731,9.45895],[-70.19136,9.44607],[-70.20018,9.43881],[-70.20101,9.42628],[-70.20379,9.42141],[-70.21087,9.42024],[-70.21707,9.42623],[-70.22514,9.44086],[-70.24101,9.44343],[-70.25321,9.47531],[-70.27195,9.47995],[-70.27465,9.47372],[-70.27877,9.47093],[-70.28514,9.47308],[-70.2879,9.48191],[-70.30449,9.47228],[-70.3089,9.46251],[-70.31063,9.45002],[-70.3177,9.44046],[-70.32182,9.42992],[-70.30823,9.41716],[-70.3135,9.41377],[-70.31727,9.40611],[-70.3092,9.40029],[-70.29985,9.3871],[-70.29644,9.38552],[-70.29212,9.37135],[-70.30451,9.36403],[-70.30648,9.34753],[-70.31179,9.34144],[-70.31379,9.33194],[-70.31738,9.32851],[-70.32133,9.31677],[-70.33167,9.31378],[-70.33462,9.31],[-70.33878,9.29437],[-70.34584,9.28017],[-70.35132,9.27721],[-70.3566,9.26927],[-70.3671,9.26596],[-70.37577,9.25832],[-70.37789,9.2492],[-70.38479,9.24011],[-70.38637,9.22056],[-70.38909,9.21752],[-70.40132,9.21255],[-70.41568,9.19946],[-70.42184,9.19984],[-70.42682,9.19651],[-70.45145,9.17365],[-70.44952,9.17032],[-70.45034,9.15849],[-70.44591,9.14763],[-70.44392,9.13299],[-70.45458,9.12371],[-70.47054,9.11631],[-70.4926,9.11858],[-70.5076,9.10126],[-70.54335,9.09528],[-70.54841,9.09182],[-70.54586,9.08239],[-70.55049,9.0636],[-70.54987,9.00566],[-70.54361,8.99921],[-70.54672,8.99174],[-70.54839,8.97633],[-70.55508,8.9673],[-70.55252,8.95206],[-70.54538,8.95363],[-70.54369,8.95739],[-70.53566,8.95857],[-70.53187,8.96612],[-70.52661,8.96771],[-70.51738,8.97561],[-70.50556,8.99627],[-70.49801,8.99814],[-70.49711,9.00306],[-70.48746,9.00906],[-70.47862,9.01188],[-70.4637,9.01049],[-70.44424,9.02156],[-70.43403,9.02147],[-70.423,9.02616],[-70.4201,9.02512],[-70.41754,9.02888],[-70.40176,9.0384],[-70.39798,9.04273],[-70.39858,9.04871],[-70.38669,9.05076],[-70.38532,9.05452],[-70.38043,9.05718],[-70.36303,9.05694],[-70.35714,9.05314],[-70.347,9.0591],[-70.34178,9.05884],[-70.33369,9.05187],[-70.32395,9.05172],[-70.32196,9.04844],[-70.30173,9.03879],[-70.27932,9.03242],[-70.25714,9.03819],[-70.25083,9.04856],[-70.23717,9.06061],[-70.2339,9.06054],[-70.21822,9.05356],[-70.19923,9.05212],[-70.18857,9.04382],[-70.18435,9.03605],[-70.1835,9.05411],[-70.18734,9.0552],[-70.18428,9.06105],[-70.16568,9.06859],[-70.16238,9.07455],[-70.14901,9.08015],[-70.10858,9.08487],[-70.10614,9.08898],[-70.09407,9.09437],[-70.09443,9.09995],[-70.08526,9.11728],[-70.07471,9.11834],[-70.06768,9.12337],[-70.06706,9.12758],[-70.06469,9.12804],[-70.06611,9.13556],[-70.05409,9.13893],[-70.05612,9.14444],[-70.05094,9.15122],[-70.05576,9.15822],[-70.0546,9.16095],[-70.06116,9.16511],[-70.06029,9.16859],[-70.06441,9.17339],[-70.06323,9.17805],[-70.06603,9.18323],[-70.06924,9.18376],[-70.07259,9.20156],[-70.08029,9.20755],[-70.08824,9.20737],[-70.09436,9.21055],[-70.09739,9.21691],[-70.09642,9.22388],[-70.08393,9.23196],[-70.08082,9.23956],[-70.07109,9.24422],[-70.06245,9.26937],[-70.06688,9.2821],[-70.07653,9.28446],[-70.08796,9.2805],[-70.10572,9.28973],[-70.11439,9.29746],[-70.11318,9.30384],[-70.10499,9.31067],[-70.10171,9.32109],[-70.08121,9.34801],[-70.08064,9.35521],[-70.08277,9.35977],[-70.08727,9.36046],[-70.09247,9.35553],[-70.09324,9.35863],[-70.10218,9.35827],[-70.09979,9.36709]]]}},{"type":"Feature","id":"relation/3449425","properties":{"name":"Municipio Candelaria","level":6},"geometry":{"type":"Polygon","coordinates":[[[-70.38292,9.66854],[-70.38604,9.66606],[-70.39277,9.66695],[-70.39583,9.66333],[-70.40679,9.6588],[-70.4175,9.66056],[-70.42719,9.65361],[-70.43,9.66835],[-70.43233,9.66956],[-70.44882,9.66979],[-70.45315,9.66759],[-70.46118,9.67058],[-70.47184,9.6686],[-70.47463,9.66483],[-70.47853,9.67019],[-70.48571,9.66768],[-70.49254,9.66835],[-70.49798,9.67205],[-70.49276,9.67976],[-70.48828,9.68126],[-70.48796,9.68825],[-70.48325,9.68394],[-70.47482,9.68342],[-70.47425,9.68538],[-70.46898,9.68607],[-70.46849,9.69373],[-70.45338,9.70233],[-70.44674,9.70986],[-70.44209,9.71182],[-70.43953,9.70907],[-70.43435,9.71989],[-70.43536,9.72471],[-70.42297,9.73295],[-70.42325,9.73986],[-70.41707,9.74274],[-70.4173,9.74917],[-70.40973,9.76031],[-70.40846,9.76634],[-70.4008,9.76725],[-70.39123,9.77784],[-70.39103,9.78487],[-70.4043,9.80431],[-70.56307,9.72707],[-70.55566,9.72069],[-70.55699,9.71822],[-70.54807,9.71477],[-70.54794,9.71079],[-70.54332,9.70744],[-70.54002,9.69867],[-70.54177,9.69687],[-70.53934,9.69071],[-70.54254,9.688],[-70.54062,9.68553],[-70.53697,9.68564],[-70.53686,9.68155],[-70.53167,9.68008],[-70.5292,9.67492],[-70.53225,9.67242],[-70.52999,9.67089],[-70.53162,9.66822],[-70.52904,9.66009],[-70.53262,9.66118],[-70.53482,9.65754],[-70.5378,9.65869],[-70.5386,9.65483],[-70.54115,9.65619],[-70.5404,9.65057],[-70.54363,9.65046],[-70.54351,9.64721],[-70.54727,9.64538],[-70.54466,9.64211],[-70.55071,9.64272],[-70.55022,9.63609],[-70.55325,9.63468],[-70.54973,9.63252],[-70.5542,9.63127],[-70.54904,9.63025],[-70.55107,9.62252],[-70.54856,9.62067],[-70.55226,9.61799],[-70.5522,9.61255],[-70.54707,9.61141],[-70.54226,9.60475],[-70.53996,9.60638],[-70.53865,9.60261],[-70.53378,9.60096],[-70.52192,9.60678],[-70.51945,9.60507],[-70.51955,9.60986],[-70.51775,9.60895],[-70.51338,9.61321],[-70.51022,9.61195],[-70.50863,9.61585],[-70.5025,9.61519],[-70.50227,9.61844],[-70.49806,9.61647],[-70.49233,9.62282],[-70.47981,9.61534],[-70.47486,9.61726],[-70.47011,9.6131],[-70.46631,9.61395],[-70.46452,9.60996],[-70.46137,9.61021],[-70.46136,9.60744],[-70.44836,9.60163],[-70.44593,9.59864],[-70.44677,9.59004],[-70.44127,9.58477],[-70.44002,9.56075],[-70.43548,9.55568],[-70.43955,9.54492],[-70.43955,9.53449],[-70.43479,9.52959],[-70.43241,9.51188],[-70.42044,9.50991],[-70.41837,9.50757],[-70.40009,9.50996],[-70.39317,9.50752],[-70.37849,9.50816],[-70.36221,9.51329],[-70.35791,9.521],[-70.34136,9.5221],[-70.33529,9.52924],[-70.33413,9.52104],[-70.33746,9.51517],[-70.33433,9.515],[-70.33559,9.51001],[-70.31804,9.5105],[-70.30918,9.5348],[-70.30958,9.54326],[-70.29725,9.55763],[-70.30199,9.56974],[-70.30231,9.5789],[-70.29273,9.5934],[-70.29261,9.60055],[-70.29571,9.60673],[-70.29022,9.62733],[-70.29215,9.64183],[-70.29894,9.65651],[-70.30533,9.66029],[-70.31929,9.65125],[-70.32721,9.65158],[-70.32891,9.65545],[-70.33201,9.65533],[-70.33573,9.65975],[-70.33955,9.65633],[-70.34607,9.65647],[-70.3468,9.65899],[-70.3516,9.65952],[-70.35654,9.66493],[-70.36281,9.66428],[-70.37019,9.67022],[-70.38292,9.66854]]]}},{"type":"Feature","id":"relation/3449426","properties":{"name":"Municipio Carache","level":6},"geometry":{"type":"Polygon","coordinates":[[[-70.19624,9.82772],[-70.19939,9.83105],[-70.20715,9.83312],[-70.20835,9.83891],[-70.21654,9.84339],[-70.21792,9.83729],[-70.21522,9.83649],[-70.21826,9.83267],[-70.21476,9.82983],[-70.22372,9.82271],[-70.22791,9.82544],[-70.23196,9.82362],[-70.23219,9.81605],[-70.22952,9.81144],[-70.23443,9.79492],[-70.23418,9.7858],[-70.23947,9.77871],[-70.23719,9.77148],[-70.23889,9.76275],[-70.24231,9.75976],[-70.28032,9.82294],[-70.32613,9.82146],[-70.33854,9.82684],[-70.35346,9.82646],[-70.4043,9.80431],[-70.39103,9.78487],[-70.39123,9.77784],[-70.4008,9.76725],[-70.40846,9.76634],[-70.40973,9.76031],[-70.4173,9.74917],[-70.41707,9.74274],[-70.42325,9.73986],[-70.42297,9.73295],[-70.43536,9.72471],[-70.43435,9.71989],[-70.43953,9.70907],[-70.44209,9.71182],[-70.44674,9.70986],[-70.45338,9.70233],[-70.46849,9.69373],[-70.46898,9.68607],[-70.47425,9.68538],[-70.47482,9.68342],[-70.48325,9.68394],[-70.48796,9.68825],[-70.48828,9.68126],[-70.49276,9.67976],[-70.498,9.67277],[-70.49254,9.66835],[-70.48571,9.66768],[-70.47853,9.67019],[-70.47463,9.66483],[-70.47184,9.6686],[-70.46118,9.67058],[-70.45315,9.66759],[-70.44882,9.66979],[-70.43233,9.66956],[-70.43,9.66835],[-70.42719,9.65361],[-70.4175,9.66056],[-70.40679,9.6588],[-70.39583,9.66333],[-70.39277,9.66695],[-70.38604,9.66606],[-70.38396,9.66855],[-70.37162,9.67029],[-70.36281,9.66428],[-70.35654,9.66493],[-70.3516,9.65952],[-70.3468,9.65899],[-70.34607,9.65647],[-70.33955,9.65633],[-70.33573,9.65975],[-70.33201,9.65533],[-70.32891,9.65545],[-70.32721,9.65158],[-70.31929,9.65125],[-70.30533,9.66029],[-70.29894,9.65651],[-70.29215,9.64183],[-70.29022,9.62733],[-70.29571,9.60673],[-70.29261,9.60055],[-70.29273,9.5934],[-70.29888,9.58625],[-70.30261,9.57367],[-70.29725,9.55763],[-70.2992,9.54849],[-70.29561,9.54178],[-70.29681,9.53752],[-70.29393,9.52974],[-70.29686,9.50974],[-70.29053,9.49863],[-70.28743,9.47732],[-70.28514,9.47308],[-70.2784,9.47089],[-70.27195,9.47995],[-70.25321,9.47531],[-70.24101,9.44343],[-70.22514,9.44086],[-70.21707,9.42623],[-70.21087,9.42024],[-70.20194,9.42344],[-70.20018,9.43881],[-70.19136,9.44607],[-70.18731,9.45895],[-70.17361,9.45928],[-70.16726,9.47443],[-70.15069,9.48733],[-70.1405,9.49228],[-70.13066,9.50975],[-70.1252,9.51465],[-70.12498,9.52395],[-70.11417,9.52686],[-70.11241,9.5294],[-70.11334,9.55063],[-70.11709,9.55622],[-70.12342,9.55915],[-70.11772,9.58229],[-70.12377,9.59454],[-70.12235,9.5966],[-70.12639,9.59777],[-70.12718,9.61273],[-70.1192,9.6202],[-70.11632,9.62629],[-70.10835,9.63191],[-70.09951,9.65048],[-70.09778,9.66436],[-70.09061,9.67019],[-70.09073,9.67321],[-70.08167,9.67621],[-70.07731,9.6739],[-70.0651,9.67357],[-70.0601,9.66757],[-70.05295,9.67195],[-70.04471,9.67281],[-70.03675,9.67198],[-70.02917,9.6681],[-70.01771,9.67369],[-69.99552,9.67769],[-70.0024,9.6835],[-70.00358,9.69119],[-70.00727,9.69662],[-70.02354,9.70775],[-70.02715,9.71936],[-70.03061,9.72113],[-70.03996,9.71774],[-70.05806,9.71964],[-70.06255,9.72821],[-70.07012,9.73182],[-70.07117,9.73851],[-70.07568,9.74217],[-70.07682,9.74767],[-70.08267,9.75123],[-70.07954,9.75447],[-70.07994,9.75964],[-70.08955,9.76203],[-70.10247,9.77146],[-70.12852,9.76157],[-70.14255,9.76356],[-70.14589,9.77271],[-70.15969,9.77882],[-70.16485,9.79067],[-70.17149,9.79043],[-70.17466,9.79533],[-70.17745,9.79399],[-70.18495,9.79848],[-70.18807,9.80259],[-70.18852,9.81782],[-70.19624,9.82772]]]}},{"type":"Feature","id":"relation/3449427","properties":{"name":"Municipio Jos\u00e9 Felipe M\u00e1rquez Ca\u00f1izales","level":6},"geometry":{"type":"Polygon","coordinates":[[[-70.56307,9.72707],[-70.4043,9.80431],[-70.35346,9.82646],[-70.33854,9.82684],[-70.33173,9.82266],[-70.32489,9.82953],[-70.3202,9.85138],[-70.32652,9.85979],[-70.34217,9.87085],[-70.34235,9.87949],[-70.34776,9.88592],[-70.34971,9.89352],[-70.35556,9.89624],[-70.36024,9.9044],[-70.36489,9.90683],[-70.37788,9.90485],[-70.37751,9.89988],[-70.38234,9.89636],[-70.39603,9.90443],[-70.40025,9.90325],[-70.40061,9.90045],[-70.4037,9.90079],[-70.41099,9.90697],[-70.4153,9.9073],[-70.41705,9.90143],[-70.42188,9.89927],[-70.42382,9.88743],[-70.43037,9.88137],[-70.43892,9.8842],[-70.45148,9.8821],[-70.45739,9.87616],[-70.46013,9.86642],[-70.46419,9.86199],[-70.46833,9.86704],[-70.481,9.8725],[-70.47949,9.87591],[-70.48954,9.89204],[-70.50656,9.88232],[-70.50952,9.88525],[-70.51743,9.88694],[-70.52047,9.89348],[-70.53225,9.89537],[-70.53143,9.89857],[-70.54412,9.92138],[-70.53866,9.94002],[-70.54221,9.94184],[-70.54608,9.94909],[-70.55035,9.94919],[-70.55633,9.95629],[-70.58728,9.95566],[-70.59113,9.95768],[-70.58843,9.96962],[-70.59445,9.97887],[-70.59541,9.99215],[-70.60804,10.00183],[-70.61139,10.00846],[-70.61024,10.01449],[-70.62746,10.02714],[-70.62934,10.0331],[-70.64169,10.03966],[-70.64873,10.02777],[-70.66302,10.01742],[-70.66267,10.00365],[-70.6765,10.00405],[-70.68236,9.99759],[-70.6839,9.98738],[-70.6804,9.97752],[-70.69151,9.95758],[-70.68893,9.95092],[-70.69489,9.94184],[-70.69618,9.94286],[-70.69714,9.93874],[-70.69421,9.92648],[-70.69636,9.92302],[-70.69589,9.91694],[-70.68799,9.91509],[-70.69294,9.90109],[-70.69275,9.88992],[-70.70024,9.88374],[-70.68234,9.86283],[-70.6798,9.853],[-70.67099,9.84209],[-70.67132,9.82506],[-70.66765,9.82208],[-70.67026,9.81197],[-70.68386,9.80317],[-70.68812,9.79368],[-70.68763,9.78355],[-70.69083,9.77202],[-70.68568,9.76916],[-70.68542,9.7596],[-70.68295,9.75524],[-70.66386,9.7372],[-70.65872,9.73658],[-70.65694,9.73388],[-70.6555,9.72848],[-70.6589,9.72016],[-70.65557,9.7156],[-70.6421,9.7071],[-70.63349,9.69434],[-70.56307,9.72707]]]}},{"type":"Feature","id":"relation/3449428","properties":{"name":"Municipio Juan Vicente Campo Elias","level":6},"geometry":{"type":"Polygon","coordinates":[[[-70.09979,9.36709],[-70.10218,9.35827],[-70.09324,9.35863],[-70.09247,9.35553],[-70.08665,9.36072],[-70.08145,9.35838],[-70.08121,9.34801],[-70.09069,9.33622],[-70.08377,9.33638],[-70.06472,9.35776],[-70.05898,9.36164],[-70.05349,9.36184],[-70.04425,9.37047],[-70.03858,9.38162],[-70.04,9.38452],[-70.03702,9.39224],[-70.03973,9.40257],[-70.03448,9.41477],[-70.04297,9.42404],[-70.043,9.42786],[-70.06633,9.43003],[-70.07656,9.42802],[-70.08023,9.43473],[-70.08501,9.43635],[-70.08406,9.44369],[-70.07862,9.45284],[-70.08201,9.46427],[-70.07613,9.48113],[-70.0836,9.49788],[-70.10091,9.50177],[-70.10455,9.50783],[-70.10288,9.51592],[-70.10965,9.51998],[-70.10999,9.52436],[-70.11325,9.52764],[-70.1216,9.52467],[-70.1147,9.51311],[-70.11255,9.50413],[-70.11339,9.49323],[-70.10384,9.48747],[-70.09646,9.47678],[-70.09395,9.47688],[-70.08794,9.47062],[-70.08654,9.45058],[-70.10124,9.44058],[-70.11059,9.44111],[-70.11041,9.43772],[-70.11574,9.4291],[-70.11326,9.42487],[-70.11528,9.42342],[-70.11079,9.41056],[-70.10661,9.40858],[-70.10881,9.40614],[-70.10724,9.40169],[-70.11769,9.40241],[-70.12209,9.39778],[-70.12422,9.39935],[-70.12626,9.39663],[-70.12383,9.39601],[-70.1319,9.38947],[-70.13183,9.38497],[-70.13451,9.38496],[-70.13589,9.38079],[-70.14334,9.37507],[-70.09984,9.36955],[-70.09979,9.36709]]]}},{"type":"Feature","id":"relation/3449429","properties":{"name":"Municipio Miranda","level":6},"geometry":{"type":"Polygon","coordinates":[[[-70.77459,9.48531],[-70.7719,9.47855],[-70.76117,9.46779],[-70.76206,9.46487],[-70.75928,9.46539],[-70.7582,9.4601],[-70.75606,9.46135],[-70.74895,9.45369],[-70.74462,9.45413],[-70.74153,9.45042],[-70.7342,9.44857],[-70.72821,9.43625],[-70.7233,9.43533],[-70.72287,9.43302],[-70.71957,9.43437],[-70.7176,9.42656],[-70.70978,9.4201],[-70.70393,9.42439],[-70.69838,9.42387],[-70.69248,9.42006],[-70.65061,9.41372],[-70.65179,9.41665],[-70.64865,9.42303],[-70.64148,9.42684],[-70.64045,9.43015],[-70.63373,9.43322],[-70.62732,9.44054],[-70.6239,9.44086],[-70.6215,9.45219],[-70.61824,9.45354],[-70.61792,9.46014],[-70.62197,9.4653],[-70.63034,9.46826],[-70.62801,9.47053],[-70.63007,9.47147],[-70.62887,9.4755],[-70.63078,9.47681],[-70.62878,9.48012],[-70.63479,9.48511],[-70.63122,9.4868],[-70.63021,9.49072],[-70.63361,9.5138],[-70.63628,9.51674],[-70.63505,9.52741],[-70.63675,9.53071],[-70.63248,9.5374],[-70.63222,9.54008],[-70.63448,9.54047],[-70.63229,9.54236],[-70.63276,9.54766],[-70.62049,9.55196],[-70.6187,9.56002],[-70.61391,9.55751],[-70.60553,9.56246],[-70.57623,9.58798],[-70.57025,9.59629],[-70.57121,9.59874],[-70.56753,9.60233],[-70.56496,9.60078],[-70.56644,9.60486],[-70.56219,9.60682],[-70.56286,9.60954],[-70.5581,9.60766],[-70.55772,9.61163],[-70.55279,9.61376],[-70.55226,9.61799],[-70.54856,9.62067],[-70.55107,9.62252],[-70.54904,9.63025],[-70.5542,9.63127],[-70.54973,9.63252],[-70.55325,9.63468],[-70.55022,9.63609],[-70.55055,9.64307],[-70.54486,9.64189],[-70.54727,9.64538],[-70.54351,9.64721],[-70.54363,9.65046],[-70.5404,9.65057],[-70.54115,9.65619],[-70.53898,9.65466],[-70.5378,9.65869],[-70.53527,9.65737],[-70.53262,9.66118],[-70.52872,9.6606],[-70.53162,9.66822],[-70.52999,9.67089],[-70.53225,9.67242],[-70.52925,9.67506],[-70.53167,9.68008],[-70.53686,9.68155],[-70.53697,9.68564],[-70.54062,9.68553],[-70.54254,9.688],[-70.53934,9.69071],[-70.54177,9.69687],[-70.54002,9.69867],[-70.5494,9.7165],[-70.55699,9.71822],[-70.55566,9.72069],[-70.56307,9.72707],[-70.63349,9.69434],[-70.66189,9.55674],[-70.80545,9.56555],[-70.80394,9.51465],[-70.78633,9.49548],[-70.78082,9.49605],[-70.77459,9.48531]]]}},{"type":"Feature","id":"relation/3449430","properties":{"name":"Municipio Pamp\u00e1n","level":6},"geometry":{"type":"Polygon","coordinates":[[[-70.55279,9.61376],[-70.55772,9.61163],[-70.55874,9.60718],[-70.56286,9.60954],[-70.56219,9.60682],[-70.56644,9.60486],[-70.56496,9.60078],[-70.56753,9.60233],[-70.57121,9.59874],[-70.57025,9.59629],[-70.57623,9.58798],[-70.60553,9.56246],[-70.59904,9.55772],[-70.59386,9.55],[-70.59666,9.54928],[-70.59123,9.54525],[-70.59224,9.53265],[-70.57995,9.51104],[-70.58122,9.50903],[-70.57681,9.50569],[-70.57562,9.49951],[-70.56366,9.49814],[-70.55408,9.50028],[-70.54141,9.49413],[-70.52539,9.46078],[-70.51854,9.45761],[-70.51303,9.45913],[-70.51139,9.46575],[-70.50764,9.45775],[-70.50893,9.45108],[-70.48788,9.4308],[-70.46873,9.43824],[-70.45523,9.43545],[-70.44599,9.43828],[-70.42928,9.42944],[-70.41025,9.44297],[-70.41103,9.44983],[-70.38084,9.44178],[-70.37534,9.44279],[-70.37031,9.43962],[-70.36444,9.4423],[-70.36233,9.43606],[-70.35642,9.43602],[-70.36129,9.43433],[-70.35996,9.42241],[-70.35769,9.42199],[-70.35575,9.41309],[-70.34405,9.42678],[-70.33823,9.425],[-70.33799,9.42301],[-70.33159,9.42293],[-70.33285,9.41495],[-70.32556,9.41762],[-70.32018,9.42709],[-70.32182,9.42992],[-70.3177,9.44046],[-70.30945,9.45321],[-70.30601,9.47056],[-70.2879,9.48191],[-70.29053,9.49863],[-70.29686,9.50974],[-70.29393,9.52974],[-70.29681,9.53752],[-70.29561,9.54178],[-70.2992,9.54849],[-70.29869,9.55616],[-70.30958,9.54326],[-70.30918,9.5348],[-70.31804,9.5105],[-70.33559,9.51001],[-70.33433,9.515],[-70.33746,9.51517],[-70.33413,9.52104],[-70.33529,9.52924],[-70.34136,9.5221],[-70.35791,9.521],[-70.36221,9.51329],[-70.37849,9.50816],[-70.39317,9.50752],[-70.40009,9.50996],[-70.42009,9.50793],[-70.42044,9.50991],[-70.43241,9.51188],[-70.43479,9.52959],[-70.43955,9.53449],[-70.43955,9.54492],[-70.43548,9.55568],[-70.44002,9.56075],[-70.44127,9.58477],[-70.44677,9.59004],[-70.44593,9.59864],[-70.44836,9.60163],[-70.46136,9.60744],[-70.46137,9.61021],[-70.46452,9.60996],[-70.46631,9.61395],[-70.47011,9.6131],[-70.47486,9.61726],[-70.47981,9.61534],[-70.49233,9.62282],[-70.49806,9.61647],[-70.50227,9.61844],[-70.5025,9.61519],[-70.50863,9.61585],[-70.51022,9.61195],[-70.51338,9.61321],[-70.51775,9.60895],[-70.51955,9.60986],[-70.51945,9.60507],[-70.52192,9.60678],[-70.53378,9.60096],[-70.53865,9.60261],[-70.53996,9.60638],[-70.54226,9.60475],[-70.54449,9.6093],[-70.55279,9.61376]]]}},{"type":"Feature","id":"relation/3449431","properties":{"name":"Municipio Pampanito","level":6},"geometry":{"type":"Polygon","coordinates":[[[-70.53718,9.39332],[-70.54082,9.38421],[-70.53911,9.3791],[-70.54525,9.36679],[-70.54181,9.35569],[-70.53723,9.35144],[-70.52379,9.35455],[-70.51596,9.37209],[-70.5045,9.37213],[-70.46258,9.36326],[-70.45194,9.38736],[-70.48471,9.413],[-70.4664,9.42054],[-70.45261,9.42116],[-70.45107,9.4288],[-70.45523,9.43545],[-70.46486,9.43842],[-70.48788,9.4308],[-70.50893,9.45108],[-70.50764,9.45775],[-70.51139,9.46575],[-70.51303,9.45913],[-70.51854,9.45761],[-70.52539,9.46078],[-70.54141,9.49413],[-70.55408,9.50028],[-70.57322,9.49888],[-70.56889,9.49084],[-70.57118,9.48282],[-70.56415,9.45425],[-70.55401,9.44305],[-70.55335,9.43629],[-70.54805,9.43094],[-70.54747,9.42423],[-70.54283,9.4219],[-70.54611,9.41303],[-70.5442,9.41028],[-70.54534,9.40747],[-70.54185,9.40576],[-70.5404,9.39649],[-70.5363,9.39612],[-70.53718,9.39332]]]}},{"type":"Feature","id":"relation/3449432","properties":{"name":"Municipio Trujillo","level":6},"geometry":{"type":"Polygon","coordinates":[[[-70.46258,9.36326],[-70.5045,9.37213],[-70.51596,9.37209],[-70.52379,9.35455],[-70.53534,9.35113],[-70.54099,9.35456],[-70.54424,9.36254],[-70.54997,9.36283],[-70.55227,9.35709],[-70.55857,9.35512],[-70.55594,9.34988],[-70.55829,9.34649],[-70.56098,9.34678],[-70.56278,9.34185],[-70.56652,9.34213],[-70.5683,9.33709],[-70.5671,9.33016],[-70.56368,9.32628],[-70.56677,9.31796],[-70.56314,9.31286],[-70.56641,9.30759],[-70.5653,9.30122],[-70.56292,9.29686],[-70.55691,9.29264],[-70.55291,9.29298],[-70.54604,9.28665],[-70.53856,9.27575],[-70.52733,9.28026],[-70.52734,9.27799],[-70.51823,9.27153],[-70.51598,9.26133],[-70.50647,9.25646],[-70.50347,9.25182],[-70.50365,9.24145],[-70.49876,9.23363],[-70.49723,9.2256],[-70.4934,9.22434],[-70.48146,9.22671],[-70.47155,9.21735],[-70.45047,9.20594],[-70.44058,9.20456],[-70.42033,9.20658],[-70.41595,9.20998],[-70.40685,9.20549],[-70.40132,9.21255],[-70.38637,9.22056],[-70.38479,9.24011],[-70.37789,9.2492],[-70.37577,9.25832],[-70.3671,9.26596],[-70.3566,9.26927],[-70.35132,9.27721],[-70.34584,9.28017],[-70.33878,9.29437],[-70.33462,9.31],[-70.33167,9.31378],[-70.32133,9.31677],[-70.31814,9.32212],[-70.31179,9.34144],[-70.30648,9.34753],[-70.30451,9.36403],[-70.29212,9.37135],[-70.29644,9.38552],[-70.29985,9.3871],[-70.3092,9.40029],[-70.31727,9.40611],[-70.3135,9.41377],[-70.30823,9.41716],[-70.32018,9.42709],[-70.32556,9.41762],[-70.33143,9.41474],[-70.33326,9.41619],[-70.33159,9.42293],[-70.33769,9.42292],[-70.33914,9.42545],[-70.34507,9.42652],[-70.35575,9.41309],[-70.35769,9.42199],[-70.35996,9.42241],[-70.36129,9.43433],[-70.35642,9.43602],[-70.36233,9.43606],[-70.36444,9.4423],[-70.37031,9.43962],[-70.37534,9.44279],[-70.38084,9.44178],[-70.41103,9.44983],[-70.41025,9.44297],[-70.42928,9.42944],[-70.44334,9.4373],[-70.44981,9.43798],[-70.45523,9.43545],[-70.45096,9.42835],[-70.45261,9.42116],[-70.4664,9.42054],[-70.48471,9.413],[-70.45194,9.38736],[-70.46258,9.36326]]]}},{"type":"Feature","id":"relation/3449433","properties":{"name":"Municipio Urdaneta","level":6},"geometry":{"type":"Polygon","coordinates":[[[-70.57097,9.26572],[-70.56907,9.24977],[-70.55965,9.23862],[-70.56158,9.22793],[-70.57221,9.21869],[-70.58292,9.2197],[-70.58935,9.22815],[-70.58884,9.23695],[-70.59423,9.23885],[-70.59855,9.24756],[-70.60957,9.22838],[-70.61819,9.19723],[-70.62724,9.18972],[-70.64209,9.15664],[-70.65588,9.14259],[-70.67212,9.11675],[-70.67901,9.09135],[-70.70316,9.09172],[-70.7178,9.09833],[-70.72983,9.08521],[-70.73,9.05518],[-70.72276,9.03275],[-70.7058,9.01436],[-70.71124,9.00773],[-70.70453,8.9976],[-70.68714,8.99541],[-70.67316,8.97436],[-70.66336,8.98188],[-70.64292,8.99122],[-70.64081,8.9983],[-70.63215,8.99847],[-70.62805,9.00459],[-70.62224,9.0063],[-70.61862,9.01297],[-70.60158,9.0162],[-70.58553,9.0271],[-70.58176,9.02726],[-70.57695,9.01113],[-70.56528,9.01168],[-70.54987,9.00566],[-70.55049,9.0636],[-70.54586,9.08239],[-70.54841,9.09182],[-70.54335,9.09528],[-70.5076,9.10126],[-70.4926,9.11858],[-70.47054,9.11631],[-70.45458,9.12371],[-70.44392,9.13299],[-70.44591,9.14763],[-70.45034,9.15849],[-70.44952,9.17032],[-70.45145,9.17365],[-70.42682,9.19651],[-70.42184,9.19984],[-70.41568,9.19946],[-70.40685,9.20549],[-70.41595,9.20998],[-70.42033,9.20658],[-70.44058,9.20456],[-70.45047,9.20594],[-70.47155,9.21735],[-70.48146,9.22671],[-70.4934,9.22434],[-70.49723,9.2256],[-70.49876,9.23363],[-70.50365,9.24145],[-70.50347,9.25182],[-70.50647,9.25646],[-70.51598,9.26133],[-70.51823,9.27153],[-70.52734,9.27799],[-70.52733,9.28026],[-70.53856,9.27575],[-70.54298,9.28358],[-70.55291,9.29298],[-70.56324,9.27413],[-70.57097,9.26572]]]}}]}