{"type":"FeatureCollection","features":[{"type":"Feature","id":"node/861219138","properties":{"name":"Jaj\u00f3","place":"town"},"geometry":{"type":"Point","coordinates":[-70.65777,9.0784]}},{"type":"Feature","id":"node/861219932","properties":{"name":"La Mesa de Los Morenos","place":"village"},"geometry":{"type":"Point","coordinates":[-70.66633,9.10741]}},{"type":"Feature","id":"node/906346638","properties":{"name":"La Mesa de Esnujaque","place":"town"},"geometry":{"type":"Point","coordinates":[-70.70752,9.03945]}},{"type":"Feature","id":"node/1177245744","properties":{"name":"Sabana de Mendoza","place":"town"},"geometry":{"type":"Point","coordinates":[-70.77333,9.4394]}},{"type":"Feature","id":"node/1194794559","properties":{"name":"Jalisco","place":"village"},"geometry":{"type":"Point","coordinates":[-70.57743,9.44736]}},{"type":"Feature","id":"node/1194795147","properties":{"name":"Butaque","place":"village"},"geometry":{"type":"Point","coordinates":[-70.54454,9.43706]}},{"type":"Feature","id":"node/1194799496","properties":{"name":"Trujillo","place":"city","population":"54223"},"geometry":{"type":"Point","coordinates":[-70.43346,9.36886]}},{"type":"Feature","id":"node/1214386645","properties":{"name":"Pajarito de Tu\u00f1ame","place":"village"},"geometry":{"type":"Point","coordinates":[-70.58296,9.06905]}},{"type":"Feature","id":"node/1218500949","properties":{"name":"Jim\u00e9nez","place":"village"},"geometry":{"type":"Point","coordinates":[-70.53687,9.40958]}},{"type":"Feature","id":"node/1218500952","properties":{"name":"Pampanito","place":"town"},"geometry":{"type":"Point","coordinates":[-70.49429,9.41185]}},{"type":"Feature","id":"node/1242684335","properties":{"name":"Carache","place":"town"},"geometry":{"type":"Point","coordinates":[-70.22864,9.62808]}},{"type":"Feature","id":"node/1558183906","properties":{"name":"San Isidro","place":"village"},"geometry":{"type":"Point","coordinates":[-70.66709,9.22559]}},{"type":"Feature","id":"node/1558200444","properties":{"name":"Guan\u00e1","place":"village"},"geometry":{"type":"Point","coordinates":[-70.65997,9.23159]}},{"type":"Feature","id":"node/1558200447","properties":{"name":"La Pueblita","place":"village"},"geometry":{"type":"Point","coordinates":[-70.66577,9.21624]}},{"type":"Feature","id":"node/1558220075","properties":{"name":"Mendoza Fr\u00eda","place":"town"},"geometry":{"type":"Point","coordinates":[-70.67085,9.20493]}},{"type":"Feature","id":"node/1616038105","properties":{"name":"Las Mesitas","place":"village"},"geometry":{"type":"Point","coordinates":[-70.46535,9.05929]}},{"type":"Feature","id":"node/1617312715","properties":{"name":"Cuicas","place":"town"},"geometry":{"type":"Point","coordinates":[-70.29912,9.70173]}},{"type":"Feature","id":"node/1619321004","properties":{"name":"Burbusay","place":"town","population":"6000"},"geometry":{"type":"Point","coordinates":[-70.26915,9.41965]}},{"type":"Feature","id":"node/1619321015","properties":{"name":"La Concepci\u00f3n","place":"town"},"geometry":{"type":"Point","coordinates":[-70.2521,9.55584]}},{"type":"Feature","id":"node/1672963456","properties":{"name":"Betijoque","place":"town"},"geometry":{"type":"Point","coordinates":[-70.73404,9.38371]}},{"type":"Feature","id":"node/1672966156","properties":{"name":"Sabana Grande","place":"town"},"geometry":{"type":"Point","coordinates":[-70.7977,9.40286]}},{"type":"Feature","id":"node/1672968428","properties":{"name":"El Dividive","place":"town"},"geometry":{"type":"Point","coordinates":[-70.73549,9.47356]}},{"type":"Feature","id":"node/2108106557","properties":{"name":"Pamp\u00e1n","place":"town"},"geometry":{"type":"Point","coordinates":[-70.47396,9.44638]}},{"type":"Feature","id":"node/2117155009","properties":{"name":"La Concepci\u00f3n","place":"village"},"geometry":{"type":"Point","coordinates":[-70.48333,9.41553]}},{"type":"Feature","id":"node/2334703194","properties":{"name":"Flor de Patria","place":"town"},"geometry":{"type":"Point","coordinates":[-70.47522,9.45875]}},{"type":"Feature","id":"node/2513203627","properties":{"name":"Bor\u00f3n Alto","place":"village"},"geometry":{"type":"Point","coordinates":[-70.42216,9.34548]}},{"type":"Feature","id":"node/2515827534","properties":{"name":"Santo Domingo","place":"village"},"geometry":{"type":"Point","coordinates":[-70.52262,9.40682]}},{"type":"Feature","id":"node/2522798241","properties":{"name":"Isnot\u00fa","place":"town"},"geometry":{"type":"Point","coordinates":[-70.70174,9.36569]}},{"type":"Feature","id":"node/3610861069","properties":{"name":"Santa Ana","place":"town"},"geometry":{"type":"Point","coordinates":[-70.33645,9.46559]}},{"type":"Feature","id":"node/3729427733","properties":{"name":"San Juan","place":"village"},"geometry":{"type":"Point","coordinates":[-70.67241,9.36596]}},{"type":"Feature","id":"node/3729427734","properties":{"name":"San Agust\u00edn","place":"village"},"geometry":{"type":"Point","coordinates":[-70.67304,9.36293]}},{"type":"Feature","id":"node/3729427737","properties":{"name":"Las Cruces","place":"village"},"geometry":{"type":"Point","coordinates":[-70.66342,9.36143]}},{"type":"Feature","id":"node/3729432972","properties":{"name":"Santa Mar\u00eda","place":"village"},"geometry":{"type":"Point","coordinates":[-70.65695,9.35335]}},{"type":"Feature","id":"node/3729443898","properties":{"name":"Sabana Libre","place":"town"},"geometry":{"type":"Point","coordinates":[-70.64801,9.33827]}},{"type":"Feature","id":"node/3730492010","properties":{"name":"El Pencil","place":"village"},"geometry":{"type":"Point","coordinates":[-70.63506,9.3333]}},{"type":"Feature","id":"node/3730569529","properties":{"name":"El Alto de Escuque","place":"town"},"geometry":{"type":"Point","coordinates":[-70.67128,9.32308]}},{"type":"Feature","id":"node/3730588361","properties":{"name":"La Cejita","place":"village"},"geometry":{"type":"Point","coordinates":[-70.57971,9.36671]}},{"type":"Feature","id":"node/3730588362","properties":{"name":"Motat\u00e1n","place":"town"},"geometry":{"type":"Point","coordinates":[-70.59238,9.39058]}},{"type":"Feature","id":"node/3730588363","properties":{"name":"Brisas de Jalisco","place":"village"},"geometry":{"type":"Point","coordinates":[-70.57295,9.45511]}},{"type":"Feature","id":"node/3731190824","properties":{"name":"Escuque","place":"city"},"geometry":{"type":"Point","coordinates":[-70.6745,9.3007]}},{"type":"Feature","id":"node/3731236207","properties":{"name":"La Laja","place":"village"},"geometry":{"type":"Point","coordinates":[-70.66744,9.35189]}},{"type":"Feature","id":"node/3766721918","properties":{"name":"Santa Rosa de Jim\u00e9nez","place":"village"},"geometry":{"type":"Point","coordinates":[-70.55355,9.40376]}},{"type":"Feature","id":"node/3766721919","properties":{"name":"Las Mesetas de Chimpire","place":"village"},"geometry":{"type":"Point","coordinates":[-70.56209,9.39872]}},{"type":"Feature","id":"node/3767484152","properties":{"name":"El Ba\u00f1o Motat\u00e1n","place":"village"},"geometry":{"type":"Point","coordinates":[-70.62505,9.38491]}},{"type":"Feature","id":"node/3767484174","properties":{"name":"Cacao","place":"village"},"geometry":{"type":"Point","coordinates":[-70.60757,9.38781]}},{"type":"Feature","id":"node/3768197230","properties":{"name":"Quebrada de Cueva","place":"village"},"geometry":{"type":"Point","coordinates":[-70.61153,9.2161]}},{"type":"Feature","id":"node/3768341243","properties":{"name":"Santa Cruz","place":"village"},"geometry":{"type":"Point","coordinates":[-70.60046,9.35421]}},{"type":"Feature","id":"node/3768358177","properties":{"name":"El Trapiche","place":"village"},"geometry":{"type":"Point","coordinates":[-70.65747,9.24048]}},{"type":"Feature","id":"node/3775075488","properties":{"name":"Cubita","place":"village"},"geometry":{"type":"Point","coordinates":[-70.57308,9.36012]}},{"type":"Feature","id":"node/3775075554","properties":{"name":"La Mesa de Chipu\u00e9n","place":"village"},"geometry":{"type":"Point","coordinates":[-70.56797,9.37277]}},{"type":"Feature","id":"node/3777482324","properties":{"name":"La Quebrada","place":"town"},"geometry":{"type":"Point","coordinates":[-70.57662,9.15606]}},{"type":"Feature","id":"node/3777509516","properties":{"name":"La Mesa","place":"village"},"geometry":{"type":"Point","coordinates":[-70.72551,9.34256]}},{"type":"Feature","id":"node/3777509517","properties":{"name":"Los Potreros","place":"village"},"geometry":{"type":"Point","coordinates":[-70.72467,9.35527]}},{"type":"Feature","id":"node/3777509518","properties":{"name":"El Boquer\u00f3n","place":"village"},"geometry":{"type":"Point","coordinates":[-70.69725,9.31917]}},{"type":"Feature","id":"node/3813211878","properties":{"name":"Los Cerrillos","place":"town"},"geometry":{"type":"Point","coordinates":[-70.68015,9.17757]}},{"type":"Feature","id":"node/3813211879","properties":{"name":"Las Delicias","place":"village"},"geometry":{"type":"Point","coordinates":[-70.68849,9.16421]}},{"type":"Feature","id":"node/3813211880","properties":{"name":"El Molino","place":"village"},"geometry":{"type":"Point","coordinates":[-70.69519,9.15089]}},{"type":"Feature","id":"node/3813211889","properties":{"name":"Santa B\u00e1rbara","place":"village"},"geometry":{"type":"Point","coordinates":[-70.69723,9.14534]}},{"type":"Feature","id":"node/3892916657","properties":{"name":"Niquitao","place":"town"},"geometry":{"type":"Point","coordinates":[-70.40327,9.11105]}},{"type":"Feature","id":"node/3980082335","properties":{"name":"El Paradero","place":"town"},"geometry":{"type":"Point","coordinates":[-70.61554,9.77356]}},{"type":"Feature","id":"node/5297679073","properties":{"name":"Monte Carmelo","place":"town"},"geometry":{"type":"Point","coordinates":[-70.81259,9.18819]}},{"type":"Feature","id":"node/5299697473","properties":{"name":"Santa Apolonia","place":"town"},"geometry":{"type":"Point","coordinates":[-71.01329,9.47167]}},{"type":"Feature","id":"node/5299414088","properties":{"name":"Santa Isabel","place":"town"},"geometry":{"type":"Point","coordinates":[-70.81252,9.63416]}},{"type":"Feature","id":"node/4586185305","properties":{"name":"Campo El\u00edas","place":"village"},"geometry":{"type":"Point","coordinates":[-70.0609,9.39303]}},{"type":"Feature","id":"node/5297780638","properties":{"name":"Chejend\u00e9","place":"town"},"geometry":{"type":"Point","coordinates":[-70.35722,9.6188]}},{"type":"Feature","id":"node/4582620978","properties":{"name":"Bocon\u00f3","place":"city","population":"150000"},"geometry":{"type":"Point","coordinates":[-70.25326,9.25093]}},{"type":"Feature","id":"node/4586150458","properties":{"name":"Mosquey","place":"village"},"geometry":{"type":"Point","coordinates":[-70.20135,9.29041]}},{"type":"Feature","id":"node/4586150459","properties":{"name":"Batatal","place":"village"},"geometry":{"type":"Point","coordinates":[-70.14416,9.33704]}},{"type":"Feature","id":"node/4594531118","properties":{"name":"Bolivia","place":"town"},"geometry":{"type":"Point","coordinates":[-70.31639,9.55581]}},{"type":"Feature","id":"node/4596177997","properties":{"name":"Agua Viva","place":"village"},"geometry":{"type":"Point","coordinates":[-70.64667,9.554]}},{"type":"Feature","id":"node/4652785744","properties":{"name":"La Puerta","place":"town"},"geometry":{"type":"Point","coordinates":[-70.71107,9.12621]}},{"type":"Feature","id":"node/4655472352","properties":{"name":"Valera","place":"city","population":"250000"},"geometry":{"type":"Point","coordinates":[-70.60817,9.31482]}},{"type":"Feature","id":"node/4665130339","properties":{"name":"Santo Rosario","place":"village"},"geometry":{"type":"Point","coordinates":[-70.72373,9.10833]}},{"type":"Feature","id":"node/4665130367","properties":{"name":"Tu\u00f1ame","place":"town"},"geometry":{"type":"Point","coordinates":[-70.60332,9.06143]}},{"type":"Feature","id":"node/4665255028","properties":{"name":"Tost\u00f3s","place":"town"},"geometry":{"type":"Point","coordinates":[-70.32941,9.19197]}},{"type":"Feature","id":"node/4673371625","properties":{"name":"Monay","place":"town"},"geometry":{"type":"Point","coordinates":[-70.46126,9.54047]}},{"type":"Feature","id":"node/4741341502","properties":{"name":"Agua Santa","place":"town"},"geometry":{"type":"Point","coordinates":[-70.66983,9.51466]}},{"type":"Feature","id":"node/4741341503","properties":{"name":"Sabana Libre","place":"village"},"geometry":{"type":"Point","coordinates":[-70.86313,9.32687]}},{"type":"Feature","id":"node/4854528521","properties":{"name":"San Miguel","place":"village"},"geometry":{"type":"Point","coordinates":[-70.23934,9.36788]}},{"type":"Feature","id":"node/4878993284","properties":{"name":"La Lagunita","place":"village"},"geometry":{"type":"Point","coordinates":[-70.73479,9.09402]}},{"type":"Feature","id":"node/5297461010","properties":{"name":"Cumbe Abajo","place":"village"},"geometry":{"type":"Point","coordinates":[-70.59826,9.27557]}},{"type":"Feature","id":"node/5297461011","properties":{"name":"El Corozo Norte","place":"village"},"geometry":{"type":"Point","coordinates":[-70.59667,9.16824]}},{"type":"Feature","id":"node/5297519422","properties":{"name":"Cabimb\u00fa","place":"village"},"geometry":{"type":"Point","coordinates":[-70.49443,9.17477]}},{"type":"Feature","id":"node/5297519423","properties":{"name":"Santiago de Trujillo","place":"town"},"geometry":{"type":"Point","coordinates":[-70.52776,9.24442]}},{"type":"Feature","id":"node/5297519424","properties":{"name":"San L\u00e1zaro","place":"town"},"geometry":{"type":"Point","coordinates":[-70.51595,9.27909]}},{"type":"Feature","id":"node/5297519426","properties":{"name":"Sabaneta","place":"village"},"geometry":{"type":"Point","coordinates":[-70.48892,9.31993]}},{"type":"Feature","id":"node/5297559915","properties":{"name":"San Rafael","place":"village"},"geometry":{"type":"Point","coordinates":[-70.26953,9.34078]}},{"type":"Feature","id":"node/5297559916","properties":{"name":"El Jarillo","place":"village"},"geometry":{"type":"Point","coordinates":[-70.27862,9.36361]}},{"type":"Feature","id":"node/5297559917","properties":{"name":"Villa Nueva","place":"village"},"geometry":{"type":"Point","coordinates":[-70.26259,9.3624]}},{"type":"Feature","id":"node/5297559918","properties":{"name":"La Ca\u00f1ada","place":"village"},"geometry":{"type":"Point","coordinates":[-70.32834,9.33161]}},{"type":"Feature","id":"node/5297559920","properties":{"name":"La Cristalina","place":"village"},"geometry":{"type":"Point","coordinates":[-70.35505,9.32001]}},{"type":"Feature","id":"node/5297561521","properties":{"name":"Riesito","place":"village"},"geometry":{"type":"Point","coordinates":[-70.37194,9.31298]}},{"type":"Feature","id":"node/5297561522","properties":{"name":"Mimbate","place":"village"},"geometry":{"type":"Point","coordinates":[-70.39623,9.33005]}},{"type":"Feature","id":"node/5297561523","properties":{"name":"La Urbina","place":"village"},"geometry":{"type":"Point","coordinates":[-70.39601,9.36267]}},{"type":"Feature","id":"node/5297561524","properties":{"name":"Las Calderas","place":"village"},"geometry":{"type":"Point","coordinates":[-70.40453,9.3544]}},{"type":"Feature","id":"node/5297561525","properties":{"name":"Tierra Morada","place":"village"},"geometry":{"type":"Point","coordinates":[-70.41925,9.35531]}},{"type":"Feature","id":"node/5297561527","properties":{"name":"Bor\u00f3n Bajo","place":"village"},"geometry":{"type":"Point","coordinates":[-70.42754,9.34805]}},{"type":"Feature","id":"node/5297678215","properties":{"name":"La Asuncelia","place":"village"},"geometry":{"type":"Point","coordinates":[-70.71312,9.35121]}},{"type":"Feature","id":"node/5297678216","properties":{"name":"Buena Vista","place":"town"},"geometry":{"type":"Point","coordinates":[-70.87793,9.3015]}},{"type":"Feature","id":"node/5297678217","properties":{"name":"El Abanico","place":"village"},"geometry":{"type":"Point","coordinates":[-70.86019,9.26932]}},{"type":"Feature","id":"node/5297678218","properties":{"name":"El Anteojo","place":"village"},"geometry":{"type":"Point","coordinates":[-70.85705,9.24364]}},{"type":"Feature","id":"node/5297679069","properties":{"name":"El Prado","place":"village"},"geometry":{"type":"Point","coordinates":[-70.85061,9.23041]}},{"type":"Feature","id":"node/5297679070","properties":{"name":"Mesa El Palmar","place":"village"},"geometry":{"type":"Point","coordinates":[-70.84451,9.22197]}},{"type":"Feature","id":"node/5297742838","properties":{"name":"San Miguel","place":"village"},"geometry":{"type":"Point","coordinates":[-70.61343,9.5387]}},{"type":"Feature","id":"node/5297742841","properties":{"name":"Betic\u00f3","place":"village"},"geometry":{"type":"Point","coordinates":[-70.45705,9.5966]}},{"type":"Feature","id":"node/5297742842","properties":{"name":"Las Minas","place":"village"},"geometry":{"type":"Point","coordinates":[-70.44783,9.60586]}},{"type":"Feature","id":"node/5297742843","properties":{"name":"La Uanada","place":"town"},"geometry":{"type":"Point","coordinates":[-70.41581,9.63341]}},{"type":"Feature","id":"node/5297742844","properties":{"name":"Silos de Monay","place":"town"},"geometry":{"type":"Point","coordinates":[-70.43336,9.62315]}},{"type":"Feature","id":"node/5297742845","properties":{"name":"El Mam\u00f3n","place":"village"},"geometry":{"type":"Point","coordinates":[-70.42654,9.64848]}},{"type":"Feature","id":"node/5297742846","properties":{"name":"Zapatero","place":"village"},"geometry":{"type":"Point","coordinates":[-70.43154,9.66452]}},{"type":"Feature","id":"node/5297742847","properties":{"name":"San Felipe","place":"village"},"geometry":{"type":"Point","coordinates":[-70.42092,9.68736]}},{"type":"Feature","id":"node/5297742848","properties":{"name":"San Antonio","place":"town"},"geometry":{"type":"Point","coordinates":[-70.44643,9.72482]}},{"type":"Feature","id":"node/5297780636","properties":{"name":"El Batatillo","place":"town"},"geometry":{"type":"Point","coordinates":[-70.42099,9.75803]}},{"type":"Feature","id":"node/5297780637","properties":{"name":"Nariguete","place":"village"},"geometry":{"type":"Point","coordinates":[-70.38306,9.64856]}},{"type":"Feature","id":"node/5297780639","properties":{"name":"Japaz","place":"village"},"geometry":{"type":"Point","coordinates":[-70.32607,9.65422]}},{"type":"Feature","id":"node/5297780651","properties":{"name":"Mit\u00f3n","place":"town"},"geometry":{"type":"Point","coordinates":[-70.35954,9.58544]}},{"type":"Feature","id":"node/5297780652","properties":{"name":"San Felipe","place":"village"},"geometry":{"type":"Point","coordinates":[-70.35328,9.5976]}},{"type":"Feature","id":"node/5297780708","properties":{"name":"Torococo","place":"town"},"geometry":{"type":"Point","coordinates":[-70.38289,9.57869]}},{"type":"Feature","id":"node/5297780709","properties":{"name":"San Pedro","place":"village"},"geometry":{"type":"Point","coordinates":[-70.40765,9.59298]}},{"type":"Feature","id":"node/5297784879","properties":{"name":"La Laguneta","place":"village"},"geometry":{"type":"Point","coordinates":[-70.33557,9.53033]}},{"type":"Feature","id":"node/5297784880","properties":{"name":"El Alto","place":"village"},"geometry":{"type":"Point","coordinates":[-70.35949,9.49065]}},{"type":"Feature","id":"node/5297785032","properties":{"name":"Las Lajas","place":"village"},"geometry":{"type":"Point","coordinates":[-70.31574,9.53597]}},{"type":"Feature","id":"node/5297829838","properties":{"name":"La Playa","place":"village"},"geometry":{"type":"Point","coordinates":[-70.25048,9.60738]}},{"type":"Feature","id":"node/5297867461","properties":{"name":"La Morita","place":"village"},"geometry":{"type":"Point","coordinates":[-70.25758,9.58586]}},{"type":"Feature","id":"node/5297895050","properties":{"name":"San Jos\u00e9","place":"village"},"geometry":{"type":"Point","coordinates":[-70.26241,9.69606]}},{"type":"Feature","id":"node/5297895051","properties":{"name":"Puente Villegas","place":"village"},"geometry":{"type":"Point","coordinates":[-70.24263,9.75976]}},{"type":"Feature","id":"node/5299357406","properties":{"name":"Los Verales","place":"village"},"geometry":{"type":"Point","coordinates":[-71.00601,9.38768]}},{"type":"Feature","id":"node/5299357413","properties":{"name":"Jun\u00edn","place":"town"},"geometry":{"type":"Point","coordinates":[-70.86796,9.47708]}},{"type":"Feature","id":"node/5299357414","properties":{"name":"Kil\u00f3metro 20","place":"village"},"geometry":{"type":"Point","coordinates":[-70.88853,9.473]}},{"type":"Feature","id":"node/5299357415","properties":{"name":"Zona Rica","place":"town"},"geometry":{"type":"Point","coordinates":[-70.91729,9.47116]}},{"type":"Feature","id":"node/5299357416","properties":{"name":"El Progreso","place":"village"},"geometry":{"type":"Point","coordinates":[-70.96664,9.46945]}},{"type":"Feature","id":"node/5299361933","properties":{"name":"Punta Maya","place":"village"},"geometry":{"type":"Point","coordinates":[-70.94411,9.53616]}},{"type":"Feature","id":"node/5299361934","properties":{"name":"Las Cuatro Rosas","place":"village"},"geometry":{"type":"Point","coordinates":[-70.97853,9.55105]}},{"type":"Feature","id":"node/5299361938","properties":{"name":"Tres de Febrero","place":"town"},"geometry":{"type":"Point","coordinates":[-70.97887,9.5815]}},{"type":"Feature","id":"node/5299414079","properties":{"name":"El Cenizo","place":"village"},"geometry":{"type":"Point","coordinates":[-70.7419,9.52967]}},{"type":"Feature","id":"node/5299414080","properties":{"name":"El Jag\u00fcito","place":"town"},"geometry":{"type":"Point","coordinates":[-70.72844,9.56317]}},{"type":"Feature","id":"node/5299414081","properties":{"name":"Las Cocuizas","place":"town"},"geometry":{"type":"Point","coordinates":[-70.72549,9.48454]}},{"type":"Feature","id":"node/5299414082","properties":{"name":"El Corozo","place":"village"},"geometry":{"type":"Point","coordinates":[-70.70575,9.49447]}},{"type":"Feature","id":"node/5299414083","properties":{"name":"El Arag\u00fcaney","place":"village"},"geometry":{"type":"Point","coordinates":[-70.66978,9.56079]}},{"type":"Feature","id":"node/5299414084","properties":{"name":"Las Palmas","place":"village"},"geometry":{"type":"Point","coordinates":[-70.72828,9.61792]}},{"type":"Feature","id":"node/5299414085","properties":{"name":"San Antonio","place":"village"},"geometry":{"type":"Point","coordinates":[-70.7306,9.63387]}},{"type":"Feature","id":"node/5299414086","properties":{"name":"El Gallo","place":"village"},"geometry":{"type":"Point","coordinates":[-70.72761,9.68995]}},{"type":"Feature","id":"node/5299414087","properties":{"name":"La Esperanza","place":"village"},"geometry":{"type":"Point","coordinates":[-70.71706,9.64758]}},{"type":"Feature","id":"node/5299414090","properties":{"name":"El Naranjal","place":"village"},"geometry":{"type":"Point","coordinates":[-70.74463,9.68392]}},{"type":"Feature","id":"node/5299420523","properties":{"name":"Aguas Calientes","place":"village"},"geometry":{"type":"Point","coordinates":[-70.58982,9.62435]}},{"type":"Feature","id":"node/5299420524","properties":{"name":"Valerita","place":"town"},"geometry":{"type":"Point","coordinates":[-70.55847,9.65853]}},{"type":"Feature","id":"node/5299420525","properties":{"name":"Sabana Grande","place":"town"},"geometry":{"type":"Point","coordinates":[-70.52999,9.70316]}},{"type":"Feature","id":"node/5299420526","properties":{"name":"La Viciosa","place":"town"},"geometry":{"type":"Point","coordinates":[-70.49004,9.72677]}},{"type":"Feature","id":"node/5333532293","properties":{"name":"Los Naranjos","place":"village"},"geometry":{"type":"Point","coordinates":[-70.04086,9.71783]}},{"type":"Feature","id":"node/7274601454","properties":{"name":"Los Negros","place":"village","population":"250"},"geometry":{"type":"Point","coordinates":[-70.74758,9.56587]}},{"type":"Feature","id":"node/9051251814","properties":{"name":"Los Pozos","place":"village"},"geometry":{"type":"Point","coordinates":[-70.72942,9.13233]}},{"type":"Feature","id":"node/9051264720","properties":{"name":"San Pablo","place":"village"},"geometry":{"type":"Point","coordinates":[-70.65517,9.24866]}},{"type":"Feature","id":"node/9051264721","properties":{"name":"El Hatico","place":"village"},"geometry":{"type":"Point","coordinates":[-70.64829,9.25548]}},{"type":"Feature","id":"node/9051264731","properties":{"name":"Cordillera del Oeste","place":"village"},"geometry":{"type":"Point","coordinates":[-70.64576,9.22448]}},{"type":"Feature","id":"node/9051264748","properties":{"name":"Cortada del Norte","place":"village"},"geometry":{"type":"Point","coordinates":[-70.69653,9.12283]}},{"type":"Feature","id":"node/9051264756","properties":{"name":"Isnab\u00fas","place":"village"},"geometry":{"type":"Point","coordinates":[-70.69927,9.08385]}},{"type":"Feature","id":"node/9051264760","properties":{"name":"Horno Abajo","place":"village"},"geometry":{"type":"Point","coordinates":[-70.70459,9.06296]}},{"type":"Feature","id":"node/9051264761","properties":{"name":"Villa Mercedes","place":"village"},"geometry":{"type":"Point","coordinates":[-70.7161,9.04726]}},{"type":"Feature","id":"node/9051264765","properties":{"name":"Juan Mart\u00edn del Sur","place":"village"},"geometry":{"type":"Point","coordinates":[-70.69621,9.01098]}},{"type":"Feature","id":"node/9051381141","properties":{"name":"Agua Negra Abajo","place":"village"},"geometry":{"type":"Point","coordinates":[-70.59518,9.25973]}},{"type":"Feature","id":"node/9051381147","properties":{"name":"Los Potreritos","place":"village"},"geometry":{"type":"Point","coordinates":[-70.64518,9.29278]}},{"type":"Feature","id":"node/9051381148","properties":{"name":"El Colorado","place":"village"},"geometry":{"type":"Point","coordinates":[-70.65782,9.29189]}},{"type":"Feature","id":"node/9051415074","properties":{"name":"Timb\u00eds Abajo","place":"village"},"geometry":{"type":"Point","coordinates":[-70.57808,9.16311]}},{"type":"Feature","id":"node/9051415077","properties":{"name":"Tubucito","place":"village"},"geometry":{"type":"Point","coordinates":[-70.57347,9.20196]}},{"type":"Feature","id":"node/9051415080","properties":{"name":"Los Cuartelitos","place":"village"},"geometry":{"type":"Point","coordinates":[-70.58624,9.1722]}},{"type":"Feature","id":"node/9051415085","properties":{"name":"Loma del Medio","place":"village"},"geometry":{"type":"Point","coordinates":[-70.56604,9.19643]}},{"type":"Feature","id":"node/9051422768","properties":{"name":"Curubuy Sur","place":"village"},"geometry":{"type":"Point","coordinates":[-70.61007,9.12699]}},{"type":"Feature","id":"node/9051422769","properties":{"name":"Curubuy Medio","place":"village"},"geometry":{"type":"Point","coordinates":[-70.6081,9.13747]}},{"type":"Feature","id":"node/9051422776","properties":{"name":"San Isidro Medio","place":"village"},"geometry":{"type":"Point","coordinates":[-70.59458,9.15093]}},{"type":"Feature","id":"node/9051422781","properties":{"name":"Estapapes","place":"village"},"geometry":{"type":"Point","coordinates":[-70.58038,9.13996]}},{"type":"Feature","id":"node/9051460082","properties":{"name":"Llano del Jarillo","place":"village"},"geometry":{"type":"Point","coordinates":[-70.64443,9.10699]}},{"type":"Feature","id":"node/9051460084","properties":{"name":"Montero","place":"village"},"geometry":{"type":"Point","coordinates":[-70.64218,9.11839]}},{"type":"Feature","id":"node/9051522337","properties":{"name":"La Loma","place":"village"},"geometry":{"type":"Point","coordinates":[-70.66451,9.06955]}},{"type":"Feature","id":"node/9051857768","properties":{"name":"Santa Rosa","place":"village"},"geometry":{"type":"Point","coordinates":[-70.91198,9.27952]}},{"type":"Feature","id":"node/9051857769","properties":{"name":"La Chiri\u00e1","place":"village"},"geometry":{"type":"Point","coordinates":[-70.89671,9.2871]}},{"type":"Feature","id":"node/9051867177","properties":{"name":"Chorro Blanco","place":"village"},"geometry":{"type":"Point","coordinates":[-70.52195,9.08184]}},{"type":"Feature","id":"node/9051867178","properties":{"name":"El Tostado","place":"village"},"geometry":{"type":"Point","coordinates":[-70.53519,9.07822]}},{"type":"Feature","id":"node/9051867179","properties":{"name":"El Resbal\u00f3n","place":"village"},"geometry":{"type":"Point","coordinates":[-70.51924,9.05328]}},{"type":"Feature","id":"node/9051867181","properties":{"name":"Carbones Arriba","place":"village"},"geometry":{"type":"Point","coordinates":[-70.5333,9.0637]}},{"type":"Feature","id":"node/9051867186","properties":{"name":"El Paramito","place":"village"},"geometry":{"type":"Point","coordinates":[-70.63932,9.06099]}},{"type":"Feature","id":"node/9051867190","properties":{"name":"Potrerito","place":"village"},"geometry":{"type":"Point","coordinates":[-70.66475,9.02787]}},{"type":"Feature","id":"node/9051867192","properties":{"name":"Juan Mart\u00edn del Norte","place":"village"},"geometry":{"type":"Point","coordinates":[-70.69973,9.02531]}},{"type":"Feature","id":"node/9051914492","properties":{"name":"Helechal","place":"village"},"geometry":{"type":"Point","coordinates":[-70.85802,9.25709]}},{"type":"Feature","id":"node/9051914496","properties":{"name":"La Vega del Carmen","place":"village"},"geometry":{"type":"Point","coordinates":[-70.86405,9.28807]}},{"type":"Feature","id":"node/9051942253","properties":{"name":"El Sicoque","place":"village"},"geometry":{"type":"Point","coordinates":[-70.68474,9.256]}},{"type":"Feature","id":"node/9051942263","properties":{"name":"La Palma","place":"village"},"geometry":{"type":"Point","coordinates":[-70.77055,9.25324]}},{"type":"Feature","id":"node/9051942286","properties":{"name":"San Marcos","place":"village"},"geometry":{"type":"Point","coordinates":[-70.85022,9.30167]}},{"type":"Feature","id":"node/9051942298","properties":{"name":"La Gira","place":"village"},"geometry":{"type":"Point","coordinates":[-70.72954,9.33223]}},{"type":"Feature","id":"node/9051942304","properties":{"name":"La Candelaria","place":"village"},"geometry":{"type":"Point","coordinates":[-70.7102,9.31321]}},{"type":"Feature","id":"node/9051942309","properties":{"name":"La Mata","place":"town"},"geometry":{"type":"Point","coordinates":[-70.64694,9.31141]}},{"type":"Feature","id":"node/9051953581","properties":{"name":"Caja Honda","place":"village"},"geometry":{"type":"Point","coordinates":[-70.87304,9.32892]}},{"type":"Feature","id":"node/9051953590","properties":{"name":"Casa de Tablas","place":"village"},"geometry":{"type":"Point","coordinates":[-70.95883,9.28842]}},{"type":"Feature","id":"node/12236584847","properties":{"name":"Ca\u00f1o de Le\u00f3n","place":"village"},"geometry":{"type":"Point","coordinates":[-70.6309,9.74665]}},{"type":"Feature","id":"node/12236584848","properties":{"name":"Las Casitas","place":"village"},"geometry":{"type":"Point","coordinates":[-70.55671,9.7826]}},{"type":"Feature","id":"node/12241738687","properties":{"name":"La Placita","place":"village"},"geometry":{"type":"Point","coordinates":[-70.62944,9.7353]}},{"type":"Feature","id":"node/12241738689","properties":{"name":"Los Caprichos","place":"village"},"geometry":{"type":"Point","coordinates":[-70.66781,9.83668]}},{"type":"Feature","id":"node/12300200541","properties":{"name":"Mocoy","place":"town","population":"500"},"geometry":{"type":"Point","coordinates":[-70.37854,9.38367]}},{"type":"Feature","id":"node/12469531285","properties":{"name":"El Trentino","place":"village"},"geometry":{"type":"Point","coordinates":[-70.19204,9.81972]}},{"type":"Feature","id":"node/13524256094","properties":{"name":"La Loma Bajo","place":"village"},"geometry":{"type":"Point","coordinates":[-70.33455,9.56081]}}]}