{"type":"FeatureCollection","features":[{"type":"Feature","id":"node/828743985","properties":{"name":"Ciudad de Nutrias","place":"town","population":"21251"},"geometry":{"type":"Point","coordinates":[-69.30894,8.09693]}},{"type":"Feature","id":"node/828881811","properties":{"name":"Dolores","place":"town"},"geometry":{"type":"Point","coordinates":[-69.568,8.28627]}},{"type":"Feature","id":"node/1023051286","properties":{"name":"La Veguita","place":"town"},"geometry":{"type":"Point","coordinates":[-69.99694,8.82365]}},{"type":"Feature","id":"node/1023133419","properties":{"name":"Libertad","place":"town"},"geometry":{"type":"Point","coordinates":[-69.63112,8.32882]}},{"type":"Feature","id":"node/1218411731","properties":{"name":"Armadillo","place":"village"},"geometry":{"type":"Point","coordinates":[-70.05777,8.62816]}},{"type":"Feature","id":"node/1218413803","properties":{"name":"La Caramuca","place":"town"},"geometry":{"type":"Point","coordinates":[-70.32031,8.5978]}},{"type":"Feature","id":"node/1218413987","properties":{"name":"Borburata","place":"village"},"geometry":{"type":"Point","coordinates":[-70.11783,8.60049]}},{"type":"Feature","id":"node/1218414572","properties":{"name":"Masparro Cambur","place":"village"},"geometry":{"type":"Point","coordinates":[-69.99916,8.64629]}},{"type":"Feature","id":"node/1218416031","properties":{"name":"Obispos","place":"town"},"geometry":{"type":"Point","coordinates":[-70.10414,8.60921]}},{"type":"Feature","id":"node/1218536825","properties":{"name":"Cruz Blanca","place":"village"},"geometry":{"type":"Point","coordinates":[-70.1261,8.78305]}},{"type":"Feature","id":"node/1218537492","properties":{"name":"Mata de Mango","place":"village"},"geometry":{"type":"Point","coordinates":[-70.15552,8.81145]}},{"type":"Feature","id":"node/1218538490","properties":{"name":"Barrancas","place":"town"},"geometry":{"type":"Point","coordinates":[-70.10864,8.76594]}},{"type":"Feature","id":"node/1219060674","properties":{"name":"Camir\u00ed","place":"village"},"geometry":{"type":"Point","coordinates":[-70.48793,8.54422]}},{"type":"Feature","id":"node/1219060772","properties":{"name":"La Mula","place":"town"},"geometry":{"type":"Point","coordinates":[-70.37636,8.57258]}},{"type":"Feature","id":"node/1219061278","properties":{"name":"Las Palmitas de Camir\u00ed","place":"village"},"geometry":{"type":"Point","coordinates":[-70.46526,8.61877]}},{"type":"Feature","id":"node/1219061679","properties":{"name":"Santa Rosal\u00eda","place":"village"},"geometry":{"type":"Point","coordinates":[-70.48121,8.58182]}},{"type":"Feature","id":"node/1229165044","properties":{"name":"Guaito","place":"village"},"geometry":{"type":"Point","coordinates":[-70.43777,8.89311]}},{"type":"Feature","id":"node/1229165084","properties":{"name":"Palmarito","place":"village"},"geometry":{"type":"Point","coordinates":[-70.40872,8.91063]}},{"type":"Feature","id":"node/1229165116","properties":{"name":"Los Naranjos","place":"village"},"geometry":{"type":"Point","coordinates":[-70.46477,8.87594]}},{"type":"Feature","id":"node/1229165133","properties":{"name":"La Ardita","place":"village"},"geometry":{"type":"Point","coordinates":[-70.42061,8.85905]}},{"type":"Feature","id":"node/1229165206","properties":{"name":"Guaiticito","place":"village"},"geometry":{"type":"Point","coordinates":[-70.42988,8.8957]}},{"type":"Feature","id":"node/1890822482","properties":{"name":"Los Guasimitos","place":"town"},"geometry":{"type":"Point","coordinates":[-70.23541,8.66634]}},{"type":"Feature","id":"node/2453509168","properties":{"name":"Las Guayabitas","place":"town"},"geometry":{"type":"Point","coordinates":[-70.14621,8.7374]}},{"type":"Feature","id":"node/2585754569","properties":{"name":"Punta de Piedra","place":"town"},"geometry":{"type":"Point","coordinates":[-71.49006,7.62018]}},{"type":"Feature","id":"node/2603603137","properties":{"name":"Puerto Vivas","place":"town"},"geometry":{"type":"Point","coordinates":[-71.84352,7.50126]}},{"type":"Feature","id":"node/2609522273","properties":{"name":"Santa B\u00e1rbara de Barinas","place":"city"},"geometry":{"type":"Point","coordinates":[-71.17664,7.81346]}},{"type":"Feature","id":"node/2612622788","properties":{"name":"Socop\u00f3","place":"city","population":"62000"},"geometry":{"type":"Point","coordinates":[-70.82096,8.22684]}},{"type":"Feature","id":"node/2998801122","properties":{"name":"La Blanquita","place":"village"},"geometry":{"type":"Point","coordinates":[-71.86246,7.51075]}},{"type":"Feature","id":"node/3246679405","properties":{"name":"Guadarrama","place":"town"},"geometry":{"type":"Point","coordinates":[-68.0515,8.53747]}},{"type":"Feature","id":"node/3311875721","properties":{"name":"Barinas","place":"city"},"geometry":{"type":"Point","coordinates":[-70.22741,8.61827]}},{"type":"Feature","id":"node/3597228777","properties":{"name":"Ciudad Bolivia","place":"city"},"geometry":{"type":"Point","coordinates":[-70.5741,8.35268]}},{"type":"Feature","id":"node/3843271677","properties":{"name":"Torunos","place":"town"},"geometry":{"type":"Point","coordinates":[-70.08226,8.49969]}},{"type":"Feature","id":"node/3843271725","properties":{"name":"La Luz","place":"town"},"geometry":{"type":"Point","coordinates":[-69.82391,8.39401]}},{"type":"Feature","id":"node/3843271813","properties":{"name":"El Real","place":"village"},"geometry":{"type":"Point","coordinates":[-69.99619,8.43594]}},{"type":"Feature","id":"node/3875677653","properties":{"name":"Calderas","place":"town"},"geometry":{"type":"Point","coordinates":[-70.44532,8.91612]}},{"type":"Feature","id":"node/3875677654","properties":{"name":"Altamira de C\u00e1ceres","place":"village"},"geometry":{"type":"Point","coordinates":[-70.50176,8.82398]}},{"type":"Feature","id":"node/4090396904","properties":{"name":"Colonia Caimital","place":"village"},"geometry":{"type":"Point","coordinates":[-70.11169,8.69211]}},{"type":"Feature","id":"node/4513434204","properties":{"name":"El Cant\u00f3n","place":"town"},"geometry":{"type":"Point","coordinates":[-71.30142,7.47228]}},{"type":"Feature","id":"node/4663353262","properties":{"name":"San Rafael de Canagu\u00e1","place":"town"},"geometry":{"type":"Point","coordinates":[-70.01011,8.02782]}},{"type":"Feature","id":"node/4587017313","properties":{"name":"Barinitas","place":"city"},"geometry":{"type":"Point","coordinates":[-70.40926,8.75814]}},{"type":"Feature","id":"node/5954597508","properties":{"name":"Sabaneta","place":"city"},"geometry":{"type":"Point","coordinates":[-69.93454,8.75293]}},{"type":"Feature","id":"node/7140057308","properties":{"name":"Arismendi","place":"town"},"geometry":{"type":"Point","coordinates":[-68.37006,8.48053]}},{"type":"Feature","id":"node/4394883637","properties":{"name":"La Uni\u00f3n de Barinas","place":"town","population":"933"},"geometry":{"type":"Point","coordinates":[-67.76935,8.21653]}},{"type":"Feature","id":"node/4547246162","properties":{"name":"Boca de Anaro","place":"village"},"geometry":{"type":"Point","coordinates":[-70.2931,7.80672]}},{"type":"Feature","id":"node/4547278352","properties":{"name":"Maporal","place":"village"},"geometry":{"type":"Point","coordinates":[-70.41858,7.64728]}},{"type":"Feature","id":"node/4587506926","properties":{"name":"La Yuca","place":"town"},"geometry":{"type":"Point","coordinates":[-70.17966,8.73098]}},{"type":"Feature","id":"node/4587954725","properties":{"name":"Bejucal Alto","place":"village"},"geometry":{"type":"Point","coordinates":[-70.00921,8.80404]}},{"type":"Feature","id":"node/4590703029","properties":{"name":"Capitanejo","place":"town"},"geometry":{"type":"Point","coordinates":[-70.98113,8.00464]}},{"type":"Feature","id":"node/4644082487","properties":{"name":"San Silvestre","place":"town"},"geometry":{"type":"Point","coordinates":[-70.11049,8.27675]}},{"type":"Feature","id":"node/4681843461","properties":{"name":"Bumb\u00fan","place":"town"},"geometry":{"type":"Point","coordinates":[-70.76436,8.27511]}},{"type":"Feature","id":"node/4681843462","properties":{"name":"Las Acequias","place":"town"},"geometry":{"type":"Point","coordinates":[-70.67995,8.3898]}},{"type":"Feature","id":"node/4683124086","properties":{"name":"Palma Sola","place":"village"},"geometry":{"type":"Point","coordinates":[-70.67356,8.35626]}},{"type":"Feature","id":"node/4683125504","properties":{"name":"Curbat\u00ed","place":"town"},"geometry":{"type":"Point","coordinates":[-70.55351,8.45531]}},{"type":"Feature","id":"node/4683169204","properties":{"name":"El Corozo","place":"town"},"geometry":{"type":"Point","coordinates":[-70.35868,8.56801]}},{"type":"Feature","id":"node/4683190545","properties":{"name":"Santa Luc\u00eda","place":"town"},"geometry":{"type":"Point","coordinates":[-69.77731,8.1017]}},{"type":"Feature","id":"node/4690219985","properties":{"name":"El Tesoro","place":"village"},"geometry":{"type":"Point","coordinates":[-70.64793,8.38493]}},{"type":"Feature","id":"node/4729109927","properties":{"name":"Puerto de Nutrias","place":"town"},"geometry":{"type":"Point","coordinates":[-69.30177,8.07441]}},{"type":"Feature","id":"node/4895000238","properties":{"name":"Par\u00e1ngula","place":"village"},"geometry":{"type":"Point","coordinates":[-70.35103,8.71697]}},{"type":"Feature","id":"node/4895283600","properties":{"name":"La Colonia del Curay","place":"village"},"geometry":{"type":"Point","coordinates":[-70.34569,8.73568]}},{"type":"Feature","id":"node/4937563450","properties":{"name":"Quebrada Seca","place":"town"},"geometry":{"type":"Point","coordinates":[-70.31912,8.69955]}},{"type":"Feature","id":"node/4950924763","properties":{"name":"El Yaure","place":"village"},"geometry":{"type":"Point","coordinates":[-71.3063,7.69182]}},{"type":"Feature","id":"node/5084695232","properties":{"name":"Pedraza La Vieja","place":"town"},"geometry":{"type":"Point","coordinates":[-71.05932,7.91732]}},{"type":"Feature","id":"node/5243596603","properties":{"name":"Macagua","place":"village"},"geometry":{"type":"Point","coordinates":[-71.73088,7.46865]}},{"type":"Feature","id":"node/5258117369","properties":{"name":"Santa Cruz de Guacas","place":"town"},"geometry":{"type":"Point","coordinates":[-71.30142,7.44526]}},{"type":"Feature","id":"node/5287515176","properties":{"name":"Ca\u00f1o Seco","place":"village"},"geometry":{"type":"Point","coordinates":[-69.32777,8.12773]}},{"type":"Feature","id":"node/5287515177","properties":{"name":"Chaparrito","place":"village"},"geometry":{"type":"Point","coordinates":[-69.28138,8.14198]}},{"type":"Feature","id":"node/5287515178","properties":{"name":"El Regalo","place":"village"},"geometry":{"type":"Point","coordinates":[-69.1761,8.43511]}},{"type":"Feature","id":"node/5287533667","properties":{"name":"Ramal de Dolores","place":"village"},"geometry":{"type":"Point","coordinates":[-69.54212,8.30656]}},{"type":"Feature","id":"node/5287608912","properties":{"name":"Los Ca\u00f1averales","place":"village"},"geometry":{"type":"Point","coordinates":[-69.383,8.19507]}},{"type":"Feature","id":"node/5287608913","properties":{"name":"El Cucharo","place":"village"},"geometry":{"type":"Point","coordinates":[-69.40079,8.21521]}},{"type":"Feature","id":"node/5287608914","properties":{"name":"Veg\u00f3n de Nutrias","place":"town"},"geometry":{"type":"Point","coordinates":[-69.41952,8.23912]}},{"type":"Feature","id":"node/5287608918","properties":{"name":"Maporal","place":"town"},"geometry":{"type":"Point","coordinates":[-69.52357,8.29001]}},{"type":"Feature","id":"node/5287608919","properties":{"name":"Agua Larga de Dolores","place":"village"},"geometry":{"type":"Point","coordinates":[-69.57345,8.3357]}},{"type":"Feature","id":"node/5287608920","properties":{"name":"Bijao (El Polvero)","place":"village"},"geometry":{"type":"Point","coordinates":[-69.60161,8.35152]}},{"type":"Feature","id":"node/5287608921","properties":{"name":"Veg\u00f3n Abajo","place":"village"},"geometry":{"type":"Point","coordinates":[-69.63682,8.37732]}},{"type":"Feature","id":"node/5287608922","properties":{"name":"Santa Rosa de Barinas","place":"town"},"geometry":{"type":"Point","coordinates":[-69.70048,8.43945]}},{"type":"Feature","id":"node/5287608925","properties":{"name":"Independencia","place":"village"},"geometry":{"type":"Point","coordinates":[-69.70987,8.50044]}},{"type":"Feature","id":"node/5287608926","properties":{"name":"Masparro Arriba","place":"village"},"geometry":{"type":"Point","coordinates":[-69.7573,8.53595]}},{"type":"Feature","id":"node/5287608927","properties":{"name":"Mijagual","place":"town"},"geometry":{"type":"Point","coordinates":[-69.79311,8.57331]}},{"type":"Feature","id":"node/5287608928","properties":{"name":"Los Pajales","place":"village"},"geometry":{"type":"Point","coordinates":[-69.80504,8.60457]}},{"type":"Feature","id":"node/5287608929","properties":{"name":"San Hip\u00f3lito Abajo","place":"village"},"geometry":{"type":"Point","coordinates":[-69.85596,8.65784]}},{"type":"Feature","id":"node/5287608930","properties":{"name":"Los Cedros","place":"village"},"geometry":{"type":"Point","coordinates":[-69.86761,8.66717]}},{"type":"Feature","id":"node/5287608931","properties":{"name":"San Hipolito Arriba del Sur","place":"village"},"geometry":{"type":"Point","coordinates":[-69.88909,8.68242]}},{"type":"Feature","id":"node/5287608932","properties":{"name":"Los Rastrojos","place":"village"},"geometry":{"type":"Point","coordinates":[-69.90829,8.70872]}},{"type":"Feature","id":"node/5287608933","properties":{"name":"Santa Rita","place":"village"},"geometry":{"type":"Point","coordinates":[-69.97814,8.79468]}},{"type":"Feature","id":"node/5289578777","properties":{"name":"Bejucal Bajo","place":"village"},"geometry":{"type":"Point","coordinates":[-69.98993,8.77536]}},{"type":"Feature","id":"node/5289578778","properties":{"name":"Jabillal","place":"village"},"geometry":{"type":"Point","coordinates":[-69.95554,8.73776]}},{"type":"Feature","id":"node/5289734178","properties":{"name":"Jobalito","place":"town"},"geometry":{"type":"Point","coordinates":[-70.15553,8.63766]}},{"type":"Feature","id":"node/5289737750","properties":{"name":"El Soco","place":"village"},"geometry":{"type":"Point","coordinates":[-70.18697,8.81666]}},{"type":"Feature","id":"node/5289789392","properties":{"name":"El Tambor","place":"village"},"geometry":{"type":"Point","coordinates":[-69.77329,8.34769]}},{"type":"Feature","id":"node/5289809971","properties":{"name":"La Erica","place":"village"},"geometry":{"type":"Point","coordinates":[-70.3682,8.47535]}},{"type":"Feature","id":"node/5761711155","properties":{"name":"Parcelamiento El Pueblito","place":"village"},"geometry":{"type":"Point","coordinates":[-67.73686,8.22825]}},{"type":"Feature","id":"node/5761711159","properties":{"name":"Chorrerones","place":"village"},"geometry":{"type":"Point","coordinates":[-67.78879,8.26914]}},{"type":"Feature","id":"node/5761711230","properties":{"name":"San Jaime","place":"village"},"geometry":{"type":"Point","coordinates":[-67.85525,8.11631]}},{"type":"Feature","id":"node/5761711260","properties":{"name":"Mamonal","place":"village"},"geometry":{"type":"Point","coordinates":[-67.8293,8.01984]}},{"type":"Feature","id":"node/5793576271","properties":{"name":"Santa In\u00e9s","place":"town"},"geometry":{"type":"Point","coordinates":[-69.89914,8.26415]}},{"type":"Feature","id":"node/5825467471","properties":{"name":"Samanal","place":"village"},"geometry":{"type":"Point","coordinates":[-68.06953,7.98586]}},{"type":"Feature","id":"node/5825468218","properties":{"name":"La Manguera","place":"village"},"geometry":{"type":"Point","coordinates":[-68.51089,7.9461]}},{"type":"Feature","id":"node/5825468219","properties":{"name":"San Antonio","place":"village"},"geometry":{"type":"Point","coordinates":[-68.48477,7.93557]}},{"type":"Feature","id":"node/5825468247","properties":{"name":"Bancos de Boral","place":"village"},"geometry":{"type":"Point","coordinates":[-68.42204,8.02018]}},{"type":"Feature","id":"node/5825468263","properties":{"name":"Jobote","place":"village"},"geometry":{"type":"Point","coordinates":[-68.51368,7.99674]}},{"type":"Feature","id":"node/5825468265","properties":{"name":"Los Ca\u00f1itos","place":"village"},"geometry":{"type":"Point","coordinates":[-68.49134,7.97141]}},{"type":"Feature","id":"node/5825468293","properties":{"name":"Orozco","place":"village"},"geometry":{"type":"Point","coordinates":[-68.47204,7.98136]}},{"type":"Feature","id":"node/5825468294","properties":{"name":"Hato Viejo","place":"village"},"geometry":{"type":"Point","coordinates":[-68.49613,8.02272]}},{"type":"Feature","id":"node/5825468329","properties":{"name":"El Jobero","place":"village"},"geometry":{"type":"Point","coordinates":[-68.057,8.26668]}},{"type":"Feature","id":"node/5825468728","properties":{"name":"Costa de Guanare Viejo","place":"village"},"geometry":{"type":"Point","coordinates":[-68.37908,8.39312]}},{"type":"Feature","id":"node/5825468797","properties":{"name":"Boca de Ig\u00fc\u00e9s","place":"village"},"geometry":{"type":"Point","coordinates":[-68.07994,8.57933]}},{"type":"Feature","id":"node/5825468843","properties":{"name":"Ig\u00fc\u00e9s","place":"village"},"geometry":{"type":"Point","coordinates":[-68.06919,8.57197]}},{"type":"Feature","id":"node/5825468845","properties":{"name":"Las Trincheras","place":"village"},"geometry":{"type":"Point","coordinates":[-68.05745,8.5625]}},{"type":"Feature","id":"node/5829877186","properties":{"name":"La Manga","place":"village"},"geometry":{"type":"Point","coordinates":[-69.01651,8.16553]}},{"type":"Feature","id":"node/5829877556","properties":{"name":"El Guamito","place":"village"},"geometry":{"type":"Point","coordinates":[-68.96451,8.00095]}},{"type":"Feature","id":"node/5829877884","properties":{"name":"Santa Catalina","place":"village"},"geometry":{"type":"Point","coordinates":[-68.91833,7.92443]}},{"type":"Feature","id":"node/5829877886","properties":{"name":"Las Tejer\u00edas","place":"village"},"geometry":{"type":"Point","coordinates":[-68.93646,7.9301]}},{"type":"Feature","id":"node/5829878022","properties":{"name":"Los Manguitos","place":"village"},"geometry":{"type":"Point","coordinates":[-68.52823,7.95118]}},{"type":"Feature","id":"node/5941488283","properties":{"name":"Costa Guanare Viejo del Este","place":"village"},"geometry":{"type":"Point","coordinates":[-69.37639,8.64009]}},{"type":"Feature","id":"node/5941488640","properties":{"name":"Costa Guanare Viejo del Oeste","place":"village"},"geometry":{"type":"Point","coordinates":[-69.39757,8.63822]}},{"type":"Feature","id":"node/5941488641","properties":{"name":"Palmar de Morrones","place":"village"},"geometry":{"type":"Point","coordinates":[-69.34195,8.59857]}},{"type":"Feature","id":"node/5941488642","properties":{"name":"Suare\u00f1o","place":"village"},"geometry":{"type":"Point","coordinates":[-69.38276,8.61401]}},{"type":"Feature","id":"node/5941488906","properties":{"name":"El Clavo","place":"village"},"geometry":{"type":"Point","coordinates":[-69.42271,8.63234]}},{"type":"Feature","id":"node/5941488907","properties":{"name":"El Tiestero Afuera","place":"village"},"geometry":{"type":"Point","coordinates":[-69.42962,8.61024]}},{"type":"Feature","id":"node/5941488908","properties":{"name":"El Tiestero Adentro","place":"village"},"geometry":{"type":"Point","coordinates":[-69.44338,8.6138]}},{"type":"Feature","id":"node/5941488910","properties":{"name":"Chorroco","place":"village"},"geometry":{"type":"Point","coordinates":[-69.46748,8.59672]}},{"type":"Feature","id":"node/5941578326","properties":{"name":"El Zamuro","place":"village"},"geometry":{"type":"Point","coordinates":[-69.31852,8.11115]}},{"type":"Feature","id":"node/5941578328","properties":{"name":"El Picacho","place":"village"},"geometry":{"type":"Point","coordinates":[-69.28785,8.06777]}},{"type":"Feature","id":"node/5941578343","properties":{"name":"Sanaral","place":"village"},"geometry":{"type":"Point","coordinates":[-69.1143,8.00564]}},{"type":"Feature","id":"node/5941583321","properties":{"name":"Draguito Sur","place":"village"},"geometry":{"type":"Point","coordinates":[-69.26262,8.14671]}},{"type":"Feature","id":"node/5941583322","properties":{"name":"Draguito Norte","place":"village"},"geometry":{"type":"Point","coordinates":[-69.25107,8.15797]}},{"type":"Feature","id":"node/5941583354","properties":{"name":"Corozal","place":"village"},"geometry":{"type":"Point","coordinates":[-69.05094,8.26818]}},{"type":"Feature","id":"node/5941583355","properties":{"name":"Bel\u00e9n","place":"village"},"geometry":{"type":"Point","coordinates":[-69.14975,8.28799]}},{"type":"Feature","id":"node/5941583357","properties":{"name":"La Palmita","place":"village"},"geometry":{"type":"Point","coordinates":[-69.07536,8.19548]}},{"type":"Feature","id":"node/5941583358","properties":{"name":"La Palmita Abajo","place":"village"},"geometry":{"type":"Point","coordinates":[-69.10359,8.21747]}},{"type":"Feature","id":"node/5941583359","properties":{"name":"Chorroco del Medio","place":"village"},"geometry":{"type":"Point","coordinates":[-69.15906,8.23498]}},{"type":"Feature","id":"node/5941583361","properties":{"name":"Chorroco del Este","place":"village"},"geometry":{"type":"Point","coordinates":[-69.13447,8.22374]}},{"type":"Feature","id":"node/5941583362","properties":{"name":"Chorroco del Oeste","place":"village"},"geometry":{"type":"Point","coordinates":[-69.18606,8.24564]}},{"type":"Feature","id":"node/5941583363","properties":{"name":"Las Guiriceras","place":"village"},"geometry":{"type":"Point","coordinates":[-69.2088,8.35291]}},{"type":"Feature","id":"node/5941583365","properties":{"name":"El Lim\u00f3n","place":"village"},"geometry":{"type":"Point","coordinates":[-69.19207,8.36427]}},{"type":"Feature","id":"node/5941583393","properties":{"name":"Las Cruces","place":"village"},"geometry":{"type":"Point","coordinates":[-69.18942,8.49959]}},{"type":"Feature","id":"node/5941658916","properties":{"name":"Toro Poncho del Norte","place":"village"},"geometry":{"type":"Point","coordinates":[-69.43089,8.58096]}},{"type":"Feature","id":"node/5941658917","properties":{"name":"Toro Poncho del Sur","place":"village"},"geometry":{"type":"Point","coordinates":[-69.40857,8.54703]}},{"type":"Feature","id":"node/5941659305","properties":{"name":"Hacha","place":"village"},"geometry":{"type":"Point","coordinates":[-69.4811,8.57478]}},{"type":"Feature","id":"node/5941659306","properties":{"name":"Concha","place":"village"},"geometry":{"type":"Point","coordinates":[-69.46145,8.56876]}},{"type":"Feature","id":"node/5941659347","properties":{"name":"Palito Abajo","place":"village"},"geometry":{"type":"Point","coordinates":[-69.44763,8.49708]}},{"type":"Feature","id":"node/5941659363","properties":{"name":"Las Trojas del Oeste","place":"village"},"geometry":{"type":"Point","coordinates":[-69.44222,8.43727]}},{"type":"Feature","id":"node/5941659612","properties":{"name":"Las Trojas del Este","place":"village"},"geometry":{"type":"Point","coordinates":[-69.39827,8.42288]}},{"type":"Feature","id":"node/5941659627","properties":{"name":"Parcelamiento Pavones","place":"village"},"geometry":{"type":"Point","coordinates":[-69.53698,8.44181]}},{"type":"Feature","id":"node/5941659640","properties":{"name":"La Erika","place":"village"},"geometry":{"type":"Point","coordinates":[-69.51191,8.39057]}},{"type":"Feature","id":"node/5941659642","properties":{"name":"La Florida Sur","place":"village"},"geometry":{"type":"Point","coordinates":[-69.48449,8.41262]}},{"type":"Feature","id":"node/5941659694","properties":{"name":"Mayita","place":"village"},"geometry":{"type":"Point","coordinates":[-69.36002,8.34586]}},{"type":"Feature","id":"node/5941659728","properties":{"name":"Sangre de Toro","place":"village"},"geometry":{"type":"Point","coordinates":[-69.41789,8.35361]}},{"type":"Feature","id":"node/5941659839","properties":{"name":"Costa de Espinito","place":"village"},"geometry":{"type":"Point","coordinates":[-69.46136,8.28639]}},{"type":"Feature","id":"node/5941659842","properties":{"name":"Nicere\u00f1o","place":"village"},"geometry":{"type":"Point","coordinates":[-69.41376,8.32246]}},{"type":"Feature","id":"node/5941659857","properties":{"name":"Cachicamo de Erika","place":"village"},"geometry":{"type":"Point","coordinates":[-69.47095,8.33788]}},{"type":"Feature","id":"node/5941659858","properties":{"name":"Ca\u00f1o Espinito del Oeste","place":"village"},"geometry":{"type":"Point","coordinates":[-69.52014,8.32593]}},{"type":"Feature","id":"node/5941659859","properties":{"name":"Sabana Nueva","place":"village"},"geometry":{"type":"Point","coordinates":[-69.5079,8.33518]}},{"type":"Feature","id":"node/5941659938","properties":{"name":"Limoncito","place":"village"},"geometry":{"type":"Point","coordinates":[-69.50998,8.20359]}},{"type":"Feature","id":"node/5941659939","properties":{"name":"Quirobe\u00f1o","place":"village"},"geometry":{"type":"Point","coordinates":[-69.4943,8.21034]}},{"type":"Feature","id":"node/5941659940","properties":{"name":"Madre Vieja","place":"village"},"geometry":{"type":"Point","coordinates":[-69.50655,8.23218]}},{"type":"Feature","id":"node/5941659970","properties":{"name":"Maporal Adentro","place":"village"},"geometry":{"type":"Point","coordinates":[-69.52075,8.2698]}},{"type":"Feature","id":"node/5941659971","properties":{"name":"Ca\u00f1o Yeg\u00fcera","place":"village"},"geometry":{"type":"Point","coordinates":[-69.51612,8.25734]}},{"type":"Feature","id":"node/5941659974","properties":{"name":"Veg\u00f3n de Dolores","place":"village"},"geometry":{"type":"Point","coordinates":[-69.50088,8.2743]}},{"type":"Feature","id":"node/5941659975","properties":{"name":"El Bongo","place":"village"},"geometry":{"type":"Point","coordinates":[-69.34841,8.16128]}},{"type":"Feature","id":"node/5941659976","properties":{"name":"Ca\u00f1o Seco del Norte","place":"village"},"geometry":{"type":"Point","coordinates":[-69.36004,8.17016]}},{"type":"Feature","id":"node/5941659979","properties":{"name":"Leonero","place":"village"},"geometry":{"type":"Point","coordinates":[-69.25013,8.17832]}},{"type":"Feature","id":"node/5941660061","properties":{"name":"Rinc\u00f3n del Tigre Afuera","place":"village"},"geometry":{"type":"Point","coordinates":[-69.31159,8.19259]}},{"type":"Feature","id":"node/5941660063","properties":{"name":"Rinc\u00f3n del Tigre Adentro","place":"village"},"geometry":{"type":"Point","coordinates":[-69.34778,8.20051]}},{"type":"Feature","id":"node/5941660086","properties":{"name":"El Picure","place":"village"},"geometry":{"type":"Point","coordinates":[-69.38609,8.23517]}},{"type":"Feature","id":"node/5941660087","properties":{"name":"El Perro","place":"village"},"geometry":{"type":"Point","coordinates":[-69.31914,8.24067]}},{"type":"Feature","id":"node/5941660088","properties":{"name":"Ca\u00f1o Almorzadero","place":"village"},"geometry":{"type":"Point","coordinates":[-69.24252,8.23186]}},{"type":"Feature","id":"node/5941660089","properties":{"name":"San Rafael","place":"village"},"geometry":{"type":"Point","coordinates":[-69.26758,8.24727]}},{"type":"Feature","id":"node/5941660269","properties":{"name":"Graterolacho del Oeste","place":"village"},"geometry":{"type":"Point","coordinates":[-69.22644,8.28282]}},{"type":"Feature","id":"node/5941660271","properties":{"name":"Graterolacho del Este","place":"village"},"geometry":{"type":"Point","coordinates":[-69.20913,8.26842]}},{"type":"Feature","id":"node/5941660484","properties":{"name":"El Banco","place":"village"},"geometry":{"type":"Point","coordinates":[-69.19792,8.44682]}},{"type":"Feature","id":"node/5941660489","properties":{"name":"El Clavo Este","place":"village"},"geometry":{"type":"Point","coordinates":[-69.27075,8.53549]}},{"type":"Feature","id":"node/5941660555","properties":{"name":"Monta\u00f1as de Guanare Viejo Sur","place":"village"},"geometry":{"type":"Point","coordinates":[-69.21498,8.53455]}},{"type":"Feature","id":"node/5941666314","properties":{"name":"El Junco","place":"village"},"geometry":{"type":"Point","coordinates":[-69.45668,8.18607]}},{"type":"Feature","id":"node/5941666324","properties":{"name":"Almorzadero","place":"village"},"geometry":{"type":"Point","coordinates":[-69.39924,8.06667]}},{"type":"Feature","id":"node/5945794903","properties":{"name":"Sabana del Pag\u00fcey Norte","place":"village"},"geometry":{"type":"Point","coordinates":[-70.07044,8.24048]}},{"type":"Feature","id":"node/5945794953","properties":{"name":"Las Mercedes","place":"village"},"geometry":{"type":"Point","coordinates":[-70.034,8.07797]}},{"type":"Feature","id":"node/5945795230","properties":{"name":"La Morita","place":"village"},"geometry":{"type":"Point","coordinates":[-69.93817,8.01784]}},{"type":"Feature","id":"node/5945795235","properties":{"name":"Sabana de Calleja","place":"village"},"geometry":{"type":"Point","coordinates":[-69.69883,8.02018]}},{"type":"Feature","id":"node/5945795820","properties":{"name":"Ca\u00f1o Caim\u00e1n","place":"village"},"geometry":{"type":"Point","coordinates":[-69.6966,7.98136]}},{"type":"Feature","id":"node/5945795822","properties":{"name":"La Sanguijuela","place":"village"},"geometry":{"type":"Point","coordinates":[-69.66647,8.00046]}},{"type":"Feature","id":"node/5945795985","properties":{"name":"Santo Domingo","place":"village"},"geometry":{"type":"Point","coordinates":[-69.64909,8.04087]}},{"type":"Feature","id":"node/5945796075","properties":{"name":"Sabana de Santa Rosa","place":"village"},"geometry":{"type":"Point","coordinates":[-69.99076,7.89799]}},{"type":"Feature","id":"node/5945796076","properties":{"name":"Sabana de Surip\u00e1","place":"village"},"geometry":{"type":"Point","coordinates":[-69.93012,7.86024]}},{"type":"Feature","id":"node/5945796532","properties":{"name":"Ca\u00f1o del Medio del Norte","place":"village"},"geometry":{"type":"Point","coordinates":[-69.95122,7.97961]}},{"type":"Feature","id":"node/5945796533","properties":{"name":"Ca\u00f1o del Medio","place":"village"},"geometry":{"type":"Point","coordinates":[-69.93729,7.96372]}},{"type":"Feature","id":"node/5945796534","properties":{"name":"Ca\u00f1o del Medio del Sur","place":"village"},"geometry":{"type":"Point","coordinates":[-69.90749,7.94772]}},{"type":"Feature","id":"node/5945797317","properties":{"name":"Tablantero del Oeste","place":"village"},"geometry":{"type":"Point","coordinates":[-69.85547,7.92746]}},{"type":"Feature","id":"node/5945797318","properties":{"name":"Tablantero del Este","place":"village"},"geometry":{"type":"Point","coordinates":[-69.79144,7.92423]}},{"type":"Feature","id":"node/5945797688","properties":{"name":"Calzada de P\u00e1ez","place":"village"},"geometry":{"type":"Point","coordinates":[-70.009,7.95477]}},{"type":"Feature","id":"node/5945797689","properties":{"name":"Mata de Palma","place":"village"},"geometry":{"type":"Point","coordinates":[-70.01239,7.92107]}},{"type":"Feature","id":"node/5945797747","properties":{"name":"La Tigra","place":"village"},"geometry":{"type":"Point","coordinates":[-70.03599,7.74638]}},{"type":"Feature","id":"node/5946121466","properties":{"name":"La Palma Este","place":"village"},"geometry":{"type":"Point","coordinates":[-69.92167,8.27915]}},{"type":"Feature","id":"node/5946121467","properties":{"name":"La Palma Oeste","place":"village"},"geometry":{"type":"Point","coordinates":[-69.94386,8.2855]}},{"type":"Feature","id":"node/5946134059","properties":{"name":"Papayal Norte","place":"village"},"geometry":{"type":"Point","coordinates":[-69.84268,8.24033]}},{"type":"Feature","id":"node/5946134302","properties":{"name":"Papayal Sur","place":"village"},"geometry":{"type":"Point","coordinates":[-69.83629,8.22047]}},{"type":"Feature","id":"node/5946134772","properties":{"name":"Ca\u00f1o del Barro","place":"village"},"geometry":{"type":"Point","coordinates":[-69.98611,8.23642]}},{"type":"Feature","id":"node/5946135120","properties":{"name":"Santa Mar\u00eda","place":"village"},"geometry":{"type":"Point","coordinates":[-69.96768,8.22597]}},{"type":"Feature","id":"node/5946136144","properties":{"name":"Gallegos","place":"village"},"geometry":{"type":"Point","coordinates":[-69.93609,8.16816]}},{"type":"Feature","id":"node/5946136145","properties":{"name":"Sabana de Laguna Hermosa Norte","place":"village"},"geometry":{"type":"Point","coordinates":[-69.91828,8.15211]}},{"type":"Feature","id":"node/5946136146","properties":{"name":"Sabana de Laguna Hermosa Sur","place":"village"},"geometry":{"type":"Point","coordinates":[-69.88378,8.12458]}},{"type":"Feature","id":"node/5946136147","properties":{"name":"Madre Vieja del Sur","place":"village"},"geometry":{"type":"Point","coordinates":[-69.85249,8.11897]}},{"type":"Feature","id":"node/5946136148","properties":{"name":"Madre Vieja del Medio","place":"village"},"geometry":{"type":"Point","coordinates":[-69.87369,8.14119]}},{"type":"Feature","id":"node/5946136149","properties":{"name":"Madre Vieja del Norte","place":"village"},"geometry":{"type":"Point","coordinates":[-69.89202,8.15406]}},{"type":"Feature","id":"node/5946136181","properties":{"name":"Madre Vieja del Este","place":"village"},"geometry":{"type":"Point","coordinates":[-69.84262,8.1386]}},{"type":"Feature","id":"node/5946136386","properties":{"name":"Guache","place":"village"},"geometry":{"type":"Point","coordinates":[-69.79039,8.10706]}},{"type":"Feature","id":"node/5946136423","properties":{"name":"Carvajal","place":"village"},"geometry":{"type":"Point","coordinates":[-69.78453,8.18184]}},{"type":"Feature","id":"node/5946136424","properties":{"name":"La Cascabel","place":"village"},"geometry":{"type":"Point","coordinates":[-69.77069,8.15448]}},{"type":"Feature","id":"node/5949151118","properties":{"name":"Ca\u00f1o Seco","place":"village"},"geometry":{"type":"Point","coordinates":[-69.5618,8.31401]}},{"type":"Feature","id":"node/5949151158","properties":{"name":"Sabana de Quirobe\u00f1o","place":"village"},"geometry":{"type":"Point","coordinates":[-69.53427,8.23717]}},{"type":"Feature","id":"node/5949151159","properties":{"name":"Agua Larga de Libertad","place":"village"},"geometry":{"type":"Point","coordinates":[-69.58384,8.32654]}},{"type":"Feature","id":"node/5949151161","properties":{"name":"Ca\u00f1o Seco de Bijao","place":"village"},"geometry":{"type":"Point","coordinates":[-69.58699,8.38031]}},{"type":"Feature","id":"node/5949151288","properties":{"name":"Guasimal","place":"village"},"geometry":{"type":"Point","coordinates":[-69.56013,8.21413]}},{"type":"Feature","id":"node/5949151303","properties":{"name":"Las Guacas","place":"village"},"geometry":{"type":"Point","coordinates":[-69.78608,8.35503]}},{"type":"Feature","id":"node/5949151310","properties":{"name":"La Aguilere\u00f1a","place":"village"},"geometry":{"type":"Point","coordinates":[-69.99988,8.46225]}},{"type":"Feature","id":"node/5949152512","properties":{"name":"Mata de Pato","place":"village"},"geometry":{"type":"Point","coordinates":[-69.943,8.42502]}},{"type":"Feature","id":"node/5949152515","properties":{"name":"Las Calcetas","place":"village"},"geometry":{"type":"Point","coordinates":[-69.96383,8.4292]}},{"type":"Feature","id":"node/5949152516","properties":{"name":"Guamito","place":"village"},"geometry":{"type":"Point","coordinates":[-69.98188,8.42404]}},{"type":"Feature","id":"node/5949152517","properties":{"name":"San Jos\u00e9","place":"village"},"geometry":{"type":"Point","coordinates":[-69.97379,8.41116]}},{"type":"Feature","id":"node/5949152522","properties":{"name":"El Pueblito","place":"village"},"geometry":{"type":"Point","coordinates":[-69.84517,8.35216]}},{"type":"Feature","id":"node/5949152524","properties":{"name":"Potrerito","place":"village"},"geometry":{"type":"Point","coordinates":[-69.82423,8.33828]}},{"type":"Feature","id":"node/5949152526","properties":{"name":"San Lorenzo","place":"village"},"geometry":{"type":"Point","coordinates":[-69.92978,8.36645]}},{"type":"Feature","id":"node/5949152528","properties":{"name":"Melendrero del Este","place":"village"},"geometry":{"type":"Point","coordinates":[-69.85558,8.32775]}},{"type":"Feature","id":"node/5949152532","properties":{"name":"Palma Real Norte","place":"village"},"geometry":{"type":"Point","coordinates":[-69.79125,8.28235]}},{"type":"Feature","id":"node/5949152533","properties":{"name":"Palma Real Sur","place":"village"},"geometry":{"type":"Point","coordinates":[-69.77151,8.26987]}},{"type":"Feature","id":"node/5949152534","properties":{"name":"La Piedra","place":"village"},"geometry":{"type":"Point","coordinates":[-69.70059,8.22716]}},{"type":"Feature","id":"node/5949153227","properties":{"name":"El Recreo","place":"village"},"geometry":{"type":"Point","coordinates":[-69.62622,8.21761]}},{"type":"Feature","id":"node/5949153229","properties":{"name":"Curito","place":"village"},"geometry":{"type":"Point","coordinates":[-69.64216,8.1733]}},{"type":"Feature","id":"node/5951421794","properties":{"name":"Ca\u00f1o Seco de Veg\u00f3n","place":"village"},"geometry":{"type":"Point","coordinates":[-69.60972,8.38399]}},{"type":"Feature","id":"node/5951421879","properties":{"name":"Ca\u00f1o Espinito del Norte","place":"village"},"geometry":{"type":"Point","coordinates":[-69.57459,8.36964]}},{"type":"Feature","id":"node/5951421880","properties":{"name":"Espinito Norte","place":"village"},"geometry":{"type":"Point","coordinates":[-69.56371,8.41243]}},{"type":"Feature","id":"node/5951421881","properties":{"name":"Espinito Sur","place":"village"},"geometry":{"type":"Point","coordinates":[-69.5679,8.39827]}},{"type":"Feature","id":"node/5951422057","properties":{"name":"Corocito","place":"village"},"geometry":{"type":"Point","coordinates":[-69.60036,8.49525]}},{"type":"Feature","id":"node/5951422278","properties":{"name":"Veg\u00f3n de Santa Rosa Norte","place":"village"},"geometry":{"type":"Point","coordinates":[-69.68568,8.44707]}},{"type":"Feature","id":"node/5951422282","properties":{"name":"Las Ca\u00f1adas Este","place":"village"},"geometry":{"type":"Point","coordinates":[-69.61036,8.44567]}},{"type":"Feature","id":"node/5951422283","properties":{"name":"Las Ca\u00f1adas Oeste","place":"village"},"geometry":{"type":"Point","coordinates":[-69.64233,8.46006]}},{"type":"Feature","id":"node/5951422316","properties":{"name":"La Aguada","place":"village"},"geometry":{"type":"Point","coordinates":[-69.6925,8.53392]}},{"type":"Feature","id":"node/5951422377","properties":{"name":"Ca\u00f1o Hacha del Este","place":"village"},"geometry":{"type":"Point","coordinates":[-69.51625,8.60835]}},{"type":"Feature","id":"node/5951424009","properties":{"name":"Paraparo del Norte","place":"village"},"geometry":{"type":"Point","coordinates":[-69.64935,8.69087]}},{"type":"Feature","id":"node/5951424010","properties":{"name":"Arauquita","place":"town"},"geometry":{"type":"Point","coordinates":[-69.65278,8.70419]}},{"type":"Feature","id":"node/5951424011","properties":{"name":"Paraparo del Este","place":"village"},"geometry":{"type":"Point","coordinates":[-69.6112,8.66329]}},{"type":"Feature","id":"node/5951424302","properties":{"name":"La Danta del Oeste","place":"village"},"geometry":{"type":"Point","coordinates":[-69.57382,8.65349]}},{"type":"Feature","id":"node/5951424303","properties":{"name":"La Danta del Este","place":"village"},"geometry":{"type":"Point","coordinates":[-69.54324,8.64707]}},{"type":"Feature","id":"node/5951424304","properties":{"name":"Banco Caballero","place":"village"},"geometry":{"type":"Point","coordinates":[-69.60972,8.61569]}},{"type":"Feature","id":"node/5951424305","properties":{"name":"Ca\u00f1o Hacha Norte","place":"village"},"geometry":{"type":"Point","coordinates":[-69.58534,8.62095]}},{"type":"Feature","id":"node/5951424306","properties":{"name":"Ca\u00f1o Hacha Sur","place":"village"},"geometry":{"type":"Point","coordinates":[-69.56708,8.61028]}},{"type":"Feature","id":"node/5951424307","properties":{"name":"Chispiadero","place":"village"},"geometry":{"type":"Point","coordinates":[-69.57811,8.60733]}},{"type":"Feature","id":"node/5951424310","properties":{"name":"Mata de Canoa","place":"village"},"geometry":{"type":"Point","coordinates":[-69.58938,8.58586]}},{"type":"Feature","id":"node/5951424528","properties":{"name":"El Cambur","place":"village"},"geometry":{"type":"Point","coordinates":[-70.00516,8.6791]}},{"type":"Feature","id":"node/5951424529","properties":{"name":"Costa de Masparro del Medio","place":"village"},"geometry":{"type":"Point","coordinates":[-69.97508,8.63724]}},{"type":"Feature","id":"node/5951424530","properties":{"name":"Ca\u00f1o Agua Negra","place":"village"},"geometry":{"type":"Point","coordinates":[-69.91238,8.65691]}},{"type":"Feature","id":"node/5951424546","properties":{"name":"Ca\u00f1o Hondo del Norte","place":"village"},"geometry":{"type":"Point","coordinates":[-69.95113,8.71475]}},{"type":"Feature","id":"node/5951424547","properties":{"name":"Ca\u00f1o Hondo del Sur","place":"village"},"geometry":{"type":"Point","coordinates":[-69.96029,8.6756]}},{"type":"Feature","id":"node/5951424548","properties":{"name":"Camburo del Este","place":"village"},"geometry":{"type":"Point","coordinates":[-69.95276,8.66022]}},{"type":"Feature","id":"node/5951424549","properties":{"name":"Costa de Masparro del Sur","place":"village"},"geometry":{"type":"Point","coordinates":[-69.95049,8.62451]}},{"type":"Feature","id":"node/5951424552","properties":{"name":"Agua Negra del Medio","place":"village"},"geometry":{"type":"Point","coordinates":[-69.88858,8.61157]}},{"type":"Feature","id":"node/5951424641","properties":{"name":"Agua Negra del Sur","place":"village"},"geometry":{"type":"Point","coordinates":[-69.86178,8.59084]}},{"type":"Feature","id":"node/5951424642","properties":{"name":"Agua Negra del Norte","place":"village"},"geometry":{"type":"Point","coordinates":[-69.90948,8.63359]}},{"type":"Feature","id":"node/5951424643","properties":{"name":"Colonia Mijagual","place":"town"},"geometry":{"type":"Point","coordinates":[-69.84305,8.60703]}},{"type":"Feature","id":"node/5951424644","properties":{"name":"San Hipolito Arriba del Norte","place":"village"},"geometry":{"type":"Point","coordinates":[-69.90182,8.69725]}},{"type":"Feature","id":"node/5951424645","properties":{"name":"Curito Abajo Norte","place":"village"},"geometry":{"type":"Point","coordinates":[-69.82603,8.67445]}},{"type":"Feature","id":"node/5951424646","properties":{"name":"Curito Abajo Sur","place":"village"},"geometry":{"type":"Point","coordinates":[-69.82097,8.66241]}},{"type":"Feature","id":"node/5951424647","properties":{"name":"La Raya Arriba","place":"village"},"geometry":{"type":"Point","coordinates":[-69.84262,8.6473]}},{"type":"Feature","id":"node/5951424648","properties":{"name":"La Raya Abajo","place":"village"},"geometry":{"type":"Point","coordinates":[-69.82391,8.62785]}},{"type":"Feature","id":"node/5951424650","properties":{"name":"La Arena","place":"village"},"geometry":{"type":"Point","coordinates":[-69.76098,8.57371]}},{"type":"Feature","id":"node/5951424652","properties":{"name":"La Coromoto","place":"village"},"geometry":{"type":"Point","coordinates":[-69.74281,8.52453]}},{"type":"Feature","id":"node/5951424802","properties":{"name":"Masparito Abajo","place":"village"},"geometry":{"type":"Point","coordinates":[-69.66126,8.36093]}},{"type":"Feature","id":"node/5951424803","properties":{"name":"Las Cocuizas","place":"village"},"geometry":{"type":"Point","coordinates":[-69.67375,8.39422]}},{"type":"Feature","id":"node/5951424804","properties":{"name":"Masparito Arriba","place":"village"},"geometry":{"type":"Point","coordinates":[-69.68508,8.40589]}},{"type":"Feature","id":"node/5951424806","properties":{"name":"Veg\u00f3n de Santa Rosa Sur","place":"village"},"geometry":{"type":"Point","coordinates":[-69.67461,8.42975]}},{"type":"Feature","id":"node/5951424807","properties":{"name":"Ca\u00f1o Seco","place":"village"},"geometry":{"type":"Point","coordinates":[-69.64512,8.41379]}},{"type":"Feature","id":"node/5951424808","properties":{"name":"Corozal","place":"village"},"geometry":{"type":"Point","coordinates":[-69.65856,8.40148]}},{"type":"Feature","id":"node/5951500679","properties":{"name":"La Esperanza","place":"village"},"geometry":{"type":"Point","coordinates":[-70.04557,8.46917]}},{"type":"Feature","id":"node/5951500958","properties":{"name":"Ca\u00f1o Santo Dominguito","place":"village"},"geometry":{"type":"Point","coordinates":[-69.87255,8.44172]}},{"type":"Feature","id":"node/5951501175","properties":{"name":"Capa","place":"village"},"geometry":{"type":"Point","coordinates":[-69.75166,8.38571]}},{"type":"Feature","id":"node/5954597363","properties":{"name":"Ca\u00f1o de Guaca","place":"village"},"geometry":{"type":"Point","coordinates":[-69.99913,8.74869]}},{"type":"Feature","id":"node/5954597434","properties":{"name":"Curito Arriba","place":"village"},"geometry":{"type":"Point","coordinates":[-69.83451,8.69036]}},{"type":"Feature","id":"node/5954597435","properties":{"name":"Zamuro","place":"village"},"geometry":{"type":"Point","coordinates":[-69.85498,8.69959]}},{"type":"Feature","id":"node/5954597436","properties":{"name":"Flor Amarillo","place":"village"},"geometry":{"type":"Point","coordinates":[-69.94759,8.77401]}},{"type":"Feature","id":"node/5954597437","properties":{"name":"Pe\u00f1itas Afuera","place":"village"},"geometry":{"type":"Point","coordinates":[-69.95746,8.7693]}},{"type":"Feature","id":"node/5954597438","properties":{"name":"Pe\u00f1itas Adentro","place":"village"},"geometry":{"type":"Point","coordinates":[-69.94686,8.78904]}},{"type":"Feature","id":"node/5954597439","properties":{"name":"Palo Quemao","place":"village"},"geometry":{"type":"Point","coordinates":[-69.90098,8.74559]}},{"type":"Feature","id":"node/5954597440","properties":{"name":"Rayitas","place":"village"},"geometry":{"type":"Point","coordinates":[-69.87571,8.74635]}},{"type":"Feature","id":"node/5954597441","properties":{"name":"Calceta Arriba","place":"village"},"geometry":{"type":"Point","coordinates":[-69.83477,8.72667]}},{"type":"Feature","id":"node/5954597442","properties":{"name":"Calceta Abajo","place":"village"},"geometry":{"type":"Point","coordinates":[-69.80756,8.71683]}},{"type":"Feature","id":"node/5954597443","properties":{"name":"Pueblo Nuevo","place":"village"},"geometry":{"type":"Point","coordinates":[-69.76063,8.69785]}},{"type":"Feature","id":"node/5954597447","properties":{"name":"Playa Colorada","place":"village"},"geometry":{"type":"Point","coordinates":[-69.70544,8.70571]}},{"type":"Feature","id":"node/5954597716","properties":{"name":"Las Flores","place":"village"},"geometry":{"type":"Point","coordinates":[-69.52681,8.68078]}},{"type":"Feature","id":"node/5954597719","properties":{"name":"Los Paraparitos","place":"village"},"geometry":{"type":"Point","coordinates":[-69.59897,8.72677]}},{"type":"Feature","id":"node/5954597720","properties":{"name":"Costa del Diablo","place":"village"},"geometry":{"type":"Point","coordinates":[-69.57319,8.71534]}},{"type":"Feature","id":"node/5954597721","properties":{"name":"El Caidero","place":"village"},"geometry":{"type":"Point","coordinates":[-69.58327,8.72736]}},{"type":"Feature","id":"node/5957678466","properties":{"name":"La Represa","place":"village"},"geometry":{"type":"Point","coordinates":[-70.03576,8.88452]}},{"type":"Feature","id":"node/5958172780","properties":{"name":"Ca\u00f1o de Hacha","place":"village"},"geometry":{"type":"Point","coordinates":[-69.76911,8.65307]}},{"type":"Feature","id":"node/6488117056","properties":{"name":"El Pescado","place":"village"},"geometry":{"type":"Point","coordinates":[-70.21588,8.7626]}},{"type":"Feature","id":"node/6488117057","properties":{"name":"El Purgatorio","place":"village"},"geometry":{"type":"Point","coordinates":[-70.19369,8.73805]}},{"type":"Feature","id":"node/6488117058","properties":{"name":"Masparro","place":"village"},"geometry":{"type":"Point","coordinates":[-70.08582,8.81061]}},{"type":"Feature","id":"node/6488117494","properties":{"name":"Los Negros","place":"village"},"geometry":{"type":"Point","coordinates":[-70.25755,8.74595]}},{"type":"Feature","id":"node/6488117495","properties":{"name":"El Poncho","place":"village"},"geometry":{"type":"Point","coordinates":[-70.22538,8.70578]}},{"type":"Feature","id":"node/6488117496","properties":{"name":"Agua Linda","place":"village"},"geometry":{"type":"Point","coordinates":[-70.25585,8.68215]}},{"type":"Feature","id":"node/6488117497","properties":{"name":"Piedras Negras","place":"village"},"geometry":{"type":"Point","coordinates":[-70.20822,8.66934]}},{"type":"Feature","id":"node/6488117498","properties":{"name":"San Jos\u00e9 Obrero","place":"village"},"geometry":{"type":"Point","coordinates":[-70.19704,8.68845]}},{"type":"Feature","id":"node/6488117499","properties":{"name":"Campo Alegre","place":"village"},"geometry":{"type":"Point","coordinates":[-70.08712,8.79775]}},{"type":"Feature","id":"node/6488117500","properties":{"name":"La Guacharaca","place":"village"},"geometry":{"type":"Point","coordinates":[-70.12828,8.73955]}},{"type":"Feature","id":"node/6488117501","properties":{"name":"Pueblo Viejo","place":"village"},"geometry":{"type":"Point","coordinates":[-70.176,8.71538]}},{"type":"Feature","id":"node/6512072654","properties":{"name":"Parcelamiento Palo Grande","place":"village"},"geometry":{"type":"Point","coordinates":[-69.22189,8.33142]}},{"type":"Feature","id":"node/6512072704","properties":{"name":"Parcelamiento Chorroquito","place":"village"},"geometry":{"type":"Point","coordinates":[-69.26584,8.37184]}},{"type":"Feature","id":"node/6512072705","properties":{"name":"Parcelamiento Los Tanques","place":"village"},"geometry":{"type":"Point","coordinates":[-69.29103,8.41392]}},{"type":"Feature","id":"node/6512072716","properties":{"name":"Santa B\u00e1rbara Sur","place":"village"},"geometry":{"type":"Point","coordinates":[-69.35094,8.53156]}},{"type":"Feature","id":"node/6512072916","properties":{"name":"Santa B\u00e1rbara Oeste","place":"village"},"geometry":{"type":"Point","coordinates":[-69.34669,8.54372]}},{"type":"Feature","id":"node/6512073053","properties":{"name":"El Clavo","place":"village"},"geometry":{"type":"Point","coordinates":[-69.37123,8.55932]}},{"type":"Feature","id":"node/6512073054","properties":{"name":"Santa B\u00e1rbara Este","place":"village"},"geometry":{"type":"Point","coordinates":[-69.33043,8.53735]}},{"type":"Feature","id":"node/6512211576","properties":{"name":"Crucero de Jabillal","place":"village"},"geometry":{"type":"Point","coordinates":[-69.62736,8.36976]}},{"type":"Feature","id":"node/6512216484","properties":{"name":"La Florida Norte","place":"village"},"geometry":{"type":"Point","coordinates":[-69.47941,8.43616]}},{"type":"Feature","id":"node/6610637817","properties":{"name":"Raicita","place":"village"},"geometry":{"type":"Point","coordinates":[-69.45314,8.64579]}},{"type":"Feature","id":"node/9027166251","properties":{"name":"La Soledad","place":"village"},"geometry":{"type":"Point","coordinates":[-70.53041,8.81887]}},{"type":"Feature","id":"node/9027248993","properties":{"name":"Mirimiri","place":"town"},"geometry":{"type":"Point","coordinates":[-70.87433,8.14204]}},{"type":"Feature","id":"node/9027381291","properties":{"name":"Cajeta","place":"village"},"geometry":{"type":"Point","coordinates":[-70.55287,8.29592]}},{"type":"Feature","id":"node/9027381292","properties":{"name":"Mijaguas","place":"town"},"geometry":{"type":"Point","coordinates":[-70.56656,8.2649]}},{"type":"Feature","id":"node/9027381293","properties":{"name":"Bucaritos","place":"village"},"geometry":{"type":"Point","coordinates":[-70.62484,8.28662]}},{"type":"Feature","id":"node/9027381294","properties":{"name":"San Antonio de Paj\u00e9n","place":"village"},"geometry":{"type":"Point","coordinates":[-71.14607,7.85579]}},{"type":"Feature","id":"node/9027381296","properties":{"name":"La Esmeralda","place":"town"},"geometry":{"type":"Point","coordinates":[-70.84459,8.18747]}},{"type":"Feature","id":"node/9027381297","properties":{"name":"Chameta","place":"village"},"geometry":{"type":"Point","coordinates":[-70.90716,8.10121]}},{"type":"Feature","id":"node/9027381299","properties":{"name":"El Anime","place":"village"},"geometry":{"type":"Point","coordinates":[-70.57866,8.45021]}},{"type":"Feature","id":"node/9027381300","properties":{"name":"El Pag\u00fcey","place":"town"},"geometry":{"type":"Point","coordinates":[-70.4541,8.51817]}},{"type":"Feature","id":"node/9028515522","properties":{"name":"El Toro","place":"village"},"geometry":{"type":"Point","coordinates":[-70.53489,8.45327]}},{"type":"Feature","id":"node/9028515523","properties":{"name":"Costa del Mericacoy","place":"village"},"geometry":{"type":"Point","coordinates":[-70.55493,8.3738]}},{"type":"Feature","id":"node/9028515525","properties":{"name":"El Banquito Este","place":"village"},"geometry":{"type":"Point","coordinates":[-70.53433,8.41642]}},{"type":"Feature","id":"node/9028515528","properties":{"name":"Chuponal Bajo","place":"village"},"geometry":{"type":"Point","coordinates":[-70.60493,8.40105]}},{"type":"Feature","id":"node/9028515529","properties":{"name":"Chuponal Alto","place":"village"},"geometry":{"type":"Point","coordinates":[-70.57918,8.38624]}},{"type":"Feature","id":"node/9028515562","properties":{"name":"Puerto Rico","place":"village"},"geometry":{"type":"Point","coordinates":[-70.61967,8.35679]}},{"type":"Feature","id":"node/9028515564","properties":{"name":"Gavil\u00e1n","place":"village"},"geometry":{"type":"Point","coordinates":[-70.6093,8.3642]}},{"type":"Feature","id":"node/9028515600","properties":{"name":"Las Pintaderas","place":"village"},"geometry":{"type":"Point","coordinates":[-70.67106,8.39229]}},{"type":"Feature","id":"node/9028515602","properties":{"name":"La Arenosa","place":"village"},"geometry":{"type":"Point","coordinates":[-70.64273,8.42296]}},{"type":"Feature","id":"node/9028515614","properties":{"name":"Las Pe\u00f1itas","place":"village"},"geometry":{"type":"Point","coordinates":[-70.5256,8.34807]}},{"type":"Feature","id":"node/9028515615","properties":{"name":"Ojo de Agua","place":"village"},"geometry":{"type":"Point","coordinates":[-70.50858,8.34068]}},{"type":"Feature","id":"node/9028515616","properties":{"name":"Chaparral","place":"village"},"geometry":{"type":"Point","coordinates":[-70.54274,8.34836]}},{"type":"Feature","id":"node/9028528805","properties":{"name":"Los Urumales","place":"village"},"geometry":{"type":"Point","coordinates":[-70.50154,8.48659]}},{"type":"Feature","id":"node/9028528810","properties":{"name":"El Sam\u00e1n","place":"village"},"geometry":{"type":"Point","coordinates":[-70.6619,8.35354]}},{"type":"Feature","id":"node/9028564428","properties":{"name":"Pozo Negro","place":"village"},"geometry":{"type":"Point","coordinates":[-70.61904,8.52848]}},{"type":"Feature","id":"node/9028564429","properties":{"name":"El Raiz\u00f3n","place":"village"},"geometry":{"type":"Point","coordinates":[-70.60454,8.52046]}},{"type":"Feature","id":"node/9028564430","properties":{"name":"El Algarrobo","place":"village"},"geometry":{"type":"Point","coordinates":[-70.59426,8.5132]}},{"type":"Feature","id":"node/9028564435","properties":{"name":"Tampaquito","place":"village"},"geometry":{"type":"Point","coordinates":[-70.56449,8.48967]}},{"type":"Feature","id":"node/9028601719","properties":{"name":"San Rafael de Catalina","place":"village"},"geometry":{"type":"Point","coordinates":[-70.74191,8.493]}},{"type":"Feature","id":"node/9028601787","properties":{"name":"San Isidro","place":"village"},"geometry":{"type":"Point","coordinates":[-70.69803,8.41846]}},{"type":"Feature","id":"node/9028601917","properties":{"name":"La Cuchilla","place":"village"},"geometry":{"type":"Point","coordinates":[-70.65782,8.49223]}},{"type":"Feature","id":"node/9028846950","properties":{"name":"El Silencio","place":"village"},"geometry":{"type":"Point","coordinates":[-70.84938,7.74271]}},{"type":"Feature","id":"node/9028863656","properties":{"name":"Agua Linda","place":"village"},"geometry":{"type":"Point","coordinates":[-70.79639,7.77304]}},{"type":"Feature","id":"node/9028863658","properties":{"name":"Parcelamiento Anaro Medio","place":"village"},"geometry":{"type":"Point","coordinates":[-70.61961,7.94341]}},{"type":"Feature","id":"node/9028935041","properties":{"name":"El Cambur","place":"village"},"geometry":{"type":"Point","coordinates":[-71.11093,7.88873]}},{"type":"Feature","id":"node/9028935042","properties":{"name":"Mano de Tigre","place":"village"},"geometry":{"type":"Point","coordinates":[-71.2206,7.80306]}},{"type":"Feature","id":"node/9028951743","properties":{"name":"Otop\u00fan","place":"village"},"geometry":{"type":"Point","coordinates":[-71.33135,7.68202]}},{"type":"Feature","id":"node/9029272458","properties":{"name":"Salom\u00e9","place":"village"},"geometry":{"type":"Point","coordinates":[-70.19168,7.76644]}},{"type":"Feature","id":"node/9031884443","properties":{"name":"Caparo Norte Occidental","place":"village"},"geometry":{"type":"Point","coordinates":[-70.85216,7.51911]}},{"type":"Feature","id":"node/9031894371","properties":{"name":"Caparo Norte Oriental","place":"village"},"geometry":{"type":"Point","coordinates":[-70.67548,7.49996]}},{"type":"Feature","id":"node/9031894417","properties":{"name":"Caparo Centro Oriental","place":"village"},"geometry":{"type":"Point","coordinates":[-70.67775,7.44362]}},{"type":"Feature","id":"node/9032032149","properties":{"name":"Santa Ana","place":"village"},"geometry":{"type":"Point","coordinates":[-70.83952,7.58284]}},{"type":"Feature","id":"node/9032060451","properties":{"name":"El Papayo","place":"village"},"geometry":{"type":"Point","coordinates":[-70.8051,7.59645]}},{"type":"Feature","id":"node/9032211951","properties":{"name":"Limoncito del Norte","place":"village"},"geometry":{"type":"Point","coordinates":[-71.05253,7.51656]}},{"type":"Feature","id":"node/9032211952","properties":{"name":"Limoncito del Oeste","place":"village"},"geometry":{"type":"Point","coordinates":[-71.07867,7.47937]}},{"type":"Feature","id":"node/9032211953","properties":{"name":"Limoncito del Medio","place":"village"},"geometry":{"type":"Point","coordinates":[-71.03916,7.4869]}},{"type":"Feature","id":"node/9032211954","properties":{"name":"Limoncito del Este","place":"village"},"geometry":{"type":"Point","coordinates":[-71.01103,7.52132]}},{"type":"Feature","id":"node/9032211962","properties":{"name":"La Garza","place":"village"},"geometry":{"type":"Point","coordinates":[-70.92447,7.55899]}},{"type":"Feature","id":"node/9032212007","properties":{"name":"Costa de Caparo Viejo Este","place":"village"},"geometry":{"type":"Point","coordinates":[-70.90437,7.52781]}},{"type":"Feature","id":"node/9032342575","properties":{"name":"Pag\u00fceicito","place":"village"},"geometry":{"type":"Point","coordinates":[-70.2707,8.406]}},{"type":"Feature","id":"node/9032342583","properties":{"name":"Sabana de Caramuca Sur","place":"village"},"geometry":{"type":"Point","coordinates":[-70.30138,8.47568]}},{"type":"Feature","id":"node/9032342584","properties":{"name":"Sabana de Caramuca Norte","place":"village"},"geometry":{"type":"Point","coordinates":[-70.32048,8.56596]}},{"type":"Feature","id":"node/9032353152","properties":{"name":"La Salesiana","place":"village"},"geometry":{"type":"Point","coordinates":[-70.21598,8.41549]}},{"type":"Feature","id":"node/9032353153","properties":{"name":"Flor Amarillo","place":"village"},"geometry":{"type":"Point","coordinates":[-70.21997,8.45667]}},{"type":"Feature","id":"node/9032353154","properties":{"name":"La Aurorita","place":"village"},"geometry":{"type":"Point","coordinates":[-70.22482,8.48995]}},{"type":"Feature","id":"node/9032355489","properties":{"name":"Las Pe\u00f1itas","place":"village"},"geometry":{"type":"Point","coordinates":[-70.35108,8.26675]}},{"type":"Feature","id":"node/9032355571","properties":{"name":"Ram\u00edrez Oeste","place":"village"},"geometry":{"type":"Point","coordinates":[-70.43378,8.47696]}},{"type":"Feature","id":"node/9032355580","properties":{"name":"Ram\u00edrez Norte","place":"village"},"geometry":{"type":"Point","coordinates":[-70.41382,8.47441]}},{"type":"Feature","id":"node/9032355581","properties":{"name":"Ram\u00edrez Sur","place":"village"},"geometry":{"type":"Point","coordinates":[-70.41859,8.45624]}},{"type":"Feature","id":"node/9032355584","properties":{"name":"La Esmeralda","place":"village"},"geometry":{"type":"Point","coordinates":[-70.38625,8.54966]}},{"type":"Feature","id":"node/9032355585","properties":{"name":"Las Palmitas","place":"town"},"geometry":{"type":"Point","coordinates":[-70.4043,8.53852]}},{"type":"Feature","id":"node/9032355630","properties":{"name":"Campo Borburata","place":"village"},"geometry":{"type":"Point","coordinates":[-70.27984,8.49928]}},{"type":"Feature","id":"node/9032355631","properties":{"name":"Santa Teresa Sur","place":"village"},"geometry":{"type":"Point","coordinates":[-70.27102,8.47229]}},{"type":"Feature","id":"node/9032418129","properties":{"name":"Caron\u00ed","place":"town"},"geometry":{"type":"Point","coordinates":[-70.14204,8.54049]}},{"type":"Feature","id":"node/9032418155","properties":{"name":"Caroal","place":"village"},"geometry":{"type":"Point","coordinates":[-70.20126,8.53954]}},{"type":"Feature","id":"node/9032418156","properties":{"name":"Parcelamiento Caroal Sur","place":"village"},"geometry":{"type":"Point","coordinates":[-70.18925,8.45752]}},{"type":"Feature","id":"node/9032418157","properties":{"name":"Parcelamiento Caroal Norte","place":"village"},"geometry":{"type":"Point","coordinates":[-70.20513,8.50017]}},{"type":"Feature","id":"node/9032495919","properties":{"name":"Sabana de Obispos","place":"village"},"geometry":{"type":"Point","coordinates":[-70.12601,8.64439]}},{"type":"Feature","id":"node/9032495922","properties":{"name":"Morrocoy","place":"town"},"geometry":{"type":"Point","coordinates":[-70.18178,8.63096]}},{"type":"Feature","id":"node/9032495931","properties":{"name":"Borburata Sur","place":"village"},"geometry":{"type":"Point","coordinates":[-70.10269,8.57843]}},{"type":"Feature","id":"node/9032495932","properties":{"name":"Campo Alegre","place":"town"},"geometry":{"type":"Point","coordinates":[-70.13419,8.60343]}},{"type":"Feature","id":"node/9032496039","properties":{"name":"Santa Cruz","place":"village"},"geometry":{"type":"Point","coordinates":[-70.0926,8.58768]}},{"type":"Feature","id":"node/9032496103","properties":{"name":"Zanj\u00f3n de Antonio Este","place":"village"},"geometry":{"type":"Point","coordinates":[-70.03471,8.51312]}},{"type":"Feature","id":"node/9032506084","properties":{"name":"San Nicol\u00e1s","place":"village"},"geometry":{"type":"Point","coordinates":[-70.07599,8.6574]}},{"type":"Feature","id":"node/9033249408","properties":{"name":"Charco Redondo","place":"village"},"geometry":{"type":"Point","coordinates":[-70.49098,8.52333]}},{"type":"Feature","id":"node/9033325254","properties":{"name":"Mojamoja del Norte","place":"village"},"geometry":{"type":"Point","coordinates":[-70.29233,8.21068]}},{"type":"Feature","id":"node/9033331026","properties":{"name":"Sabana del Pag\u00fcey Sur","place":"village"},"geometry":{"type":"Point","coordinates":[-70.05921,8.19854]}},{"type":"Feature","id":"node/9033331027","properties":{"name":"Sabana del Pag\u00fcey Central","place":"village"},"geometry":{"type":"Point","coordinates":[-70.06866,8.22045]}},{"type":"Feature","id":"node/9033331294","properties":{"name":"Las Flores","place":"village"},"geometry":{"type":"Point","coordinates":[-70.10478,8.29227]}},{"type":"Feature","id":"node/9033434507","properties":{"name":"Miraflores","place":"village"},"geometry":{"type":"Point","coordinates":[-70.44837,8.76536]}},{"type":"Feature","id":"node/9033434626","properties":{"name":"Agua Fr\u00eda","place":"village"},"geometry":{"type":"Point","coordinates":[-70.48704,8.84907]}},{"type":"Feature","id":"node/9033434888","properties":{"name":"El Cacao","place":"village"},"geometry":{"type":"Point","coordinates":[-70.47291,8.78341]}},{"type":"Feature","id":"node/9033434899","properties":{"name":"La Yuca","place":"village"},"geometry":{"type":"Point","coordinates":[-70.50081,8.80703]}},{"type":"Feature","id":"node/9033448358","properties":{"name":"Mucusaviche","place":"village"},"geometry":{"type":"Point","coordinates":[-70.43713,8.75874]}},{"type":"Feature","id":"node/9033449084","properties":{"name":"La Barinesa","place":"town"},"geometry":{"type":"Point","coordinates":[-70.37014,8.76898]}},{"type":"Feature","id":"node/9033449085","properties":{"name":"Tierra Blanca","place":"town"},"geometry":{"type":"Point","coordinates":[-70.2963,8.6881]}},{"type":"Feature","id":"node/9033449086","properties":{"name":"La Glorieta","place":"village"},"geometry":{"type":"Point","coordinates":[-70.33684,8.71366]}},{"type":"Feature","id":"node/9034844686","properties":{"name":"La Laguna","place":"village"},"geometry":{"type":"Point","coordinates":[-70.41296,8.93709]}},{"type":"Feature","id":"node/9041023686","properties":{"name":"El Toro del Oeste","place":"village"},"geometry":{"type":"Point","coordinates":[-70.21581,8.90922]}},{"type":"Feature","id":"node/9041067645","properties":{"name":"Las Guacharacas","place":"village"},"geometry":{"type":"Point","coordinates":[-70.23638,8.78356]}},{"type":"Feature","id":"node/9041337020","properties":{"name":"Juan Grande Arriba","place":"village"},"geometry":{"type":"Point","coordinates":[-70.35554,8.81362]}},{"type":"Feature","id":"node/9041337021","properties":{"name":"Juan Grande Abajo","place":"village"},"geometry":{"type":"Point","coordinates":[-70.36953,8.80075]}},{"type":"Feature","id":"node/9041337023","properties":{"name":"El Charal","place":"village"},"geometry":{"type":"Point","coordinates":[-70.30233,8.73414]}},{"type":"Feature","id":"node/9041387822","properties":{"name":"Colonia Paraparo","place":"village"},"geometry":{"type":"Point","coordinates":[-70.05817,8.68373]}},{"type":"Feature","id":"node/9045548360","properties":{"name":"El Uno","place":"village"},"geometry":{"type":"Point","coordinates":[-70.75794,8.17432]}},{"type":"Feature","id":"node/9046430316","properties":{"name":"El Ca\u00f1ito","place":"village"},"geometry":{"type":"Point","coordinates":[-70.50738,8.82405]}},{"type":"Feature","id":"node/9046430712","properties":{"name":"El Castilo","place":"village"},"geometry":{"type":"Point","coordinates":[-70.50807,8.80101]}},{"type":"Feature","id":"node/9046430717","properties":{"name":"La Raya","place":"village"},"geometry":{"type":"Point","coordinates":[-70.56756,8.85185]}},{"type":"Feature","id":"node/9046812109","properties":{"name":"Chiquimbuy","place":"village"},"geometry":{"type":"Point","coordinates":[-70.54829,8.85835]}},{"type":"Feature","id":"node/9783788560","properties":{"name":"Kil\u00f3metro 24","place":"village"},"geometry":{"type":"Point","coordinates":[-70.08139,8.77345]}},{"type":"Feature","id":"node/9939584689","properties":{"name":"Bella Morada","place":"village"},"geometry":{"type":"Point","coordinates":[-70.13673,8.90104]}},{"type":"Feature","id":"node/11489542099","properties":{"name":"Las Malvinas","place":"village"},"geometry":{"type":"Point","coordinates":[-69.95772,7.87384]}},{"type":"Feature","id":"node/11489542100","properties":{"name":"Potreros de La Virgen","place":"village"},"geometry":{"type":"Point","coordinates":[-69.82754,7.96236]}},{"type":"Feature","id":"node/11494516960","properties":{"name":"Ca\u00f1o Amarillo","place":"village"},"geometry":{"type":"Point","coordinates":[-71.56818,7.4472]}},{"type":"Feature","id":"node/11510849586","properties":{"name":"Vegas de Qui\u00fa","place":"village"},"geometry":{"type":"Point","coordinates":[-70.94615,8.04019]}},{"type":"Feature","id":"node/11510849587","properties":{"name":"R\u00edo Arriba","place":"village"},"geometry":{"type":"Point","coordinates":[-70.97292,8.02617]}}]}