{"type":"FeatureCollection","features":[{"type":"Feature","id":"relation/272671","properties":{"name":"Sucre","level":4},"geometry":{"type":"Polygon","coordinates":[[[-62.59854,10.30438],[-62.5936,10.32598],[-62.594,10.34328],[-62.59804,10.36432],[-62.60621,10.3839],[-62.62133,10.40423],[-62.65709,10.43828],[-62.6658,10.45162],[-62.70722,10.50061],[-62.67486,10.50497],[-62.65061,10.51711],[-62.59351,10.50727],[-62.54857,10.48947],[-62.53514,10.48628],[-62.51577,10.48672],[-62.49082,10.49153],[-62.45985,10.47887],[-62.43997,10.47561],[-62.416,10.47807],[-62.39656,10.48698],[-62.37157,10.47624],[-62.33901,10.47498],[-62.30808,10.48165],[-62.29467,10.48681],[-62.28066,10.49686],[-62.26826,10.5113],[-62.25052,10.52147],[-62.23663,10.53826],[-62.22963,10.56111],[-62.2211,10.57313],[-62.16105,10.5773],[-62.11593,10.57153],[-62.0547,10.57418],[-62.03143,10.57306],[-61.9915,10.58311],[-61.95467,10.58407],[-61.9348,10.58856],[-61.91748,10.59738],[-61.90353,10.631],[-61.88444,10.65452],[-61.82797,10.6828],[-61.81505,10.68476],[-61.80283,10.69525],[-61.80278,10.71444],[-61.78974,10.74745],[-61.79372,10.75885],[-61.8083,10.784],[-61.81936,10.7961],[-61.83732,10.80642],[-61.85704,10.81022],[-61.88141,10.80575],[-61.90474,10.79083],[-61.92696,10.79077],[-61.94682,10.7833],[-61.96351,10.78514],[-61.97926,10.78264],[-61.99212,10.78561],[-62.00705,10.78558],[-62.02222,10.78218],[-62.03629,10.77521],[-62.05034,10.77628],[-62.06547,10.77403],[-62.0851,10.76521],[-62.10091,10.76741],[-62.12488,10.76371],[-62.13849,10.76624],[-62.1534,10.76539],[-62.16626,10.7615],[-62.17825,10.75459],[-62.1972,10.75849],[-62.21827,10.75557],[-62.23957,10.7586],[-62.27559,10.75796],[-62.29903,10.76457],[-62.31554,10.76573],[-62.33542,10.7706],[-62.41714,10.77699],[-62.43386,10.78188],[-62.44958,10.78206],[-62.56992,10.7986],[-62.60997,10.80048],[-62.6313,10.80472],[-62.66101,10.80278],[-62.68696,10.81889],[-62.70206,10.82343],[-62.7158,10.82417],[-62.73066,10.82134],[-62.75934,10.80983],[-62.78747,10.79197],[-62.80761,10.78979],[-62.85143,10.77251],[-62.91443,10.75546],[-62.94775,10.75916],[-62.97622,10.77673],[-62.99468,10.78204],[-63.01389,10.78124],[-63.03338,10.7741],[-63.05721,10.77685],[-63.1091,10.7673],[-63.12043,10.77622],[-63.13292,10.78193],[-63.14849,10.7854],[-63.1679,10.78596],[-63.18154,10.78413],[-63.19439,10.77925],[-63.20869,10.76909],[-63.21966,10.75491],[-63.25178,10.74287],[-63.26486,10.73527],[-63.28984,10.73274],[-63.31278,10.74132],[-63.3299,10.74268],[-63.34582,10.74846],[-63.38038,10.75345],[-63.408,10.75006],[-63.42936,10.7388],[-63.4543,10.74846],[-63.47623,10.74898],[-63.48946,10.74525],[-63.50142,10.73863],[-63.51197,10.72896],[-63.52043,10.71586],[-63.54205,10.70688],[-63.55848,10.69087],[-63.61472,10.69333],[-63.66451,10.69972],[-63.68039,10.71084],[-63.69848,10.7162],[-63.73247,10.71383],[-63.7385,10.71596],[-63.77687,10.75619],[-63.79157,10.76361],[-63.80785,10.76683],[-63.82949,10.76388],[-63.85314,10.73175],[-63.9003,10.70992],[-63.92354,10.69031],[-63.94009,10.70453],[-63.95812,10.7143],[-63.97751,10.7199],[-63.99732,10.72118],[-64.01101,10.71931],[-64.02196,10.70421],[-64.05059,10.70989],[-64.06843,10.70907],[-64.09048,10.70347],[-64.1099,10.6918],[-64.12703,10.68871],[-64.14207,10.68175],[-64.18353,10.69911],[-64.2142,10.70073],[-64.22703,10.713],[-64.24298,10.72094],[-64.25784,10.72373],[-64.27158,10.72295],[-64.29557,10.71307],[-64.30949,10.70261],[-64.31954,10.69027],[-64.33611,10.67802],[-64.35067,10.65617],[-64.35583,10.63509],[-64.3533,10.61489],[-64.34183,10.59113],[-64.3375,10.57527],[-64.32196,10.55154],[-64.32147,10.53754],[-64.31726,10.52318],[-64.30781,10.50395],[-64.28443,10.47186],[-64.29948,10.46834],[-64.32346,10.46701],[-64.35311,10.45562],[-64.3786,10.45487],[-64.40137,10.4468],[-64.41407,10.43949],[-64.43639,10.43902],[-64.45349,10.43351],[-64.47397,10.43168],[-64.49076,10.4246],[-64.50654,10.42409],[-64.51973,10.4207],[-64.53192,10.41441],[-64.54323,10.40449],[-64.56518,10.36898],[-64.51837,10.3043],[-64.51777,10.27597],[-64.53159,10.26046],[-64.53159,10.25218],[-64.51953,10.2477],[-64.51591,10.23949],[-64.51165,10.23797],[-64.51056,10.22517],[-64.50785,10.22326],[-64.51011,10.22025],[-64.49822,10.21603],[-64.4989,10.21192],[-64.49281,10.20781],[-64.49329,10.20102],[-64.48743,10.19864],[-64.48484,10.19389],[-64.472,10.19168],[-64.45634,10.1933],[-64.44331,10.18985],[-64.44443,10.12676],[-64.41923,10.1383],[-64.40099,10.13461],[-64.40057,10.12123],[-64.39737,10.11807],[-64.39754,10.11351],[-64.39079,10.11364],[-64.38814,10.1161],[-64.38483,10.11491],[-64.38594,10.0972],[-64.3658,10.0961],[-64.36607,10.08477],[-64.35269,10.08631],[-64.34663,10.07963],[-64.33028,10.08367],[-64.32004,10.09303],[-64.30988,10.0957],[-64.28457,10.09398],[-64.28334,10.0883],[-64.27363,10.07904],[-64.27352,10.06183],[-64.26719,10.06385],[-64.26016,10.06061],[-64.24687,10.06335],[-64.2296,10.06253],[-64.22009,10.06625],[-64.20839,10.06198],[-64.19805,10.06179],[-64.15931,10.0768],[-64.1299,10.0847],[-64.11255,10.08644],[-64.10506,10.0909],[-64.09997,10.09041],[-64.08344,10.09889],[-64.07772,10.09553],[-64.05676,10.09723],[-64.05233,10.09864],[-64.04794,10.1151],[-64.03496,10.11996],[-64.01675,10.11889],[-64.01364,10.11641],[-64.0125,10.11006],[-63.99951,10.10948],[-63.98743,10.11375],[-63.98024,10.10903],[-63.96198,10.10673],[-63.9589,10.09673],[-63.96227,10.08933],[-63.95863,10.08375],[-63.94328,10.08874],[-63.93346,10.08378],[-63.92344,10.09019],[-63.916,10.09268],[-63.9022,10.09274],[-63.8648,10.10696],[-63.85906,10.10539],[-63.84839,10.10887],[-63.84604,10.10585],[-63.84328,10.10764],[-63.83788,10.10574],[-63.82595,10.10935],[-63.82319,10.10562],[-63.81482,10.10393],[-63.80842,10.11452],[-63.81107,10.11953],[-63.7948,10.13765],[-63.79166,10.13583],[-63.78707,10.13702],[-63.7726,10.1442],[-63.77444,10.16055],[-63.77401,10.16317],[-63.76943,10.165],[-63.77067,10.16871],[-63.76863,10.17171],[-63.76363,10.17116],[-63.75762,10.17578],[-63.72843,10.18648],[-63.70455,10.19108],[-63.70365,10.19406],[-63.69883,10.19593],[-63.69879,10.20139],[-63.67935,10.21022],[-63.67665,10.20884],[-63.66643,10.21608],[-63.64178,10.22345],[-63.6276,10.21425],[-63.60589,10.21784],[-63.60577,10.21361],[-63.59645,10.20611],[-63.59326,10.1939],[-63.58732,10.19489],[-63.57875,10.2011],[-63.56777,10.21642],[-63.56869,10.21945],[-63.56625,10.22205],[-63.56113,10.24407],[-63.5579,10.2423],[-63.54468,10.24307],[-63.54168,10.24831],[-63.54374,10.25701],[-63.5492,10.26397],[-63.54817,10.27112],[-63.53754,10.2769],[-63.52943,10.28676],[-63.51255,10.29399],[-63.50972,10.29475],[-63.5094,10.29255],[-63.50145,10.28943],[-63.4969,10.29131],[-63.49086,10.29022],[-63.48788,10.29237],[-63.4887,10.29792],[-63.48475,10.30229],[-63.47415,10.30526],[-63.47009,10.29829],[-63.47022,10.29063],[-63.46525,10.29409],[-63.46183,10.2924],[-63.45614,10.29494],[-63.44744,10.28752],[-63.43462,10.28908],[-63.41999,10.28082],[-63.41863,10.27316],[-63.42164,10.27113],[-63.42567,10.25745],[-63.42209,10.25562],[-63.41158,10.25946],[-63.40393,10.257],[-63.40221,10.26103],[-63.399,10.25872],[-63.39167,10.23783],[-63.38564,10.23946],[-63.37369,10.23783],[-63.36657,10.24229],[-63.35444,10.24465],[-63.35268,10.23479],[-63.34459,10.22996],[-63.33429,10.21127],[-63.32228,10.21055],[-63.31822,10.21247],[-63.31284,10.20926],[-63.31101,10.21539],[-63.30136,10.21488],[-63.29642,10.21123],[-63.28698,10.21184],[-63.28114,10.20696],[-63.2734,10.20861],[-63.26973,10.20407],[-63.26157,10.20065],[-63.25878,10.1904],[-63.22947,10.19076],[-63.22248,10.19338],[-63.22029,10.18692],[-63.22211,10.17317],[-63.21967,10.16791],[-63.19606,10.15942],[-63.18867,10.14357],[-63.1815,10.15104],[-63.17758,10.15049],[-63.17356,10.15687],[-63.1539,10.16295],[-63.1461,10.18178],[-63.14852,10.1888],[-63.14648,10.19452],[-63.14019,10.19927],[-63.12523,10.20473],[-63.1198,10.21128],[-63.10853,10.19092],[-63.09642,10.18396],[-63.08705,10.18743],[-63.08271,10.19957],[-63.07418,10.20205],[-63.06615,10.2011],[-63.06229,10.19527],[-63.06499,10.17781],[-63.05297,10.17337],[-63.05696,10.16265],[-63.05667,10.15703],[-63.04387,10.14083],[-63.04595,10.12239],[-63.03397,10.11527],[-63.02176,10.10133],[-63.00267,10.09212],[-62.98448,10.0698],[-62.9789,10.06853],[-62.97328,10.07056],[-62.97061,10.07657],[-62.97096,10.08947],[-62.9608,10.09537],[-62.95473,10.09588],[-62.94533,10.09265],[-62.94053,10.0868],[-62.9375,10.07702],[-62.93398,10.07535],[-62.91578,10.08999],[-62.903,10.09499],[-62.89716,10.09178],[-62.89422,10.08116],[-62.89572,10.07336],[-62.90209,10.06335],[-62.89849,10.05684],[-62.88177,10.05202],[-62.86506,10.05194],[-62.85946,10.05741],[-62.85467,10.07569],[-62.84534,10.07719],[-62.8372,10.07089],[-62.8345,10.05185],[-62.82547,10.0367],[-62.8151,10.03413],[-62.78884,10.034],[-62.78689,10.03476],[-62.79034,10.05274],[-62.78742,10.0633],[-62.78051,10.07501],[-62.76996,10.08261],[-62.75828,10.08498],[-62.75,10.08405],[-62.74451,10.0789],[-62.73863,10.06791],[-62.72846,10.06035],[-62.70314,10.06009],[-62.66632,10.06791],[-62.65456,10.07556],[-62.63327,10.09499],[-62.62319,10.09956],[-62.61576,10.10636],[-62.61164,10.11502],[-62.61177,10.12664],[-62.62156,10.16897],[-62.63975,10.19963],[-62.64361,10.21577],[-62.64542,10.24525],[-62.63778,10.27025],[-62.63125,10.2792],[-62.62404,10.28486],[-62.59553,10.29799],[-62.59854,10.30438]]]}}]}