{"type":"FeatureCollection","features":[{"type":"Feature","id":"relation/5740456","properties":{"name":"Municipio Arismendi","level":6},"geometry":{"type":"Polygon","coordinates":[[[-63.21617,10.69219],[-63.19157,10.68257],[-63.19254,10.6723],[-63.19629,10.66804],[-63.17042,10.62813],[-63.11107,10.62704],[-63.09868,10.61591],[-63.08113,10.61485],[-63.06604,10.61013],[-63.05633,10.60184],[-63.04913,10.60499],[-63.03932,10.60187],[-63.02371,10.60497],[-62.99979,10.60517],[-62.99273,10.59664],[-62.98619,10.60056],[-62.97651,10.5986],[-62.97315,10.60811],[-62.96871,10.61047],[-62.95431,10.60384],[-62.94257,10.60445],[-62.93694,10.60097],[-62.9083,10.65729],[-62.90658,10.67882],[-62.88848,10.68343],[-62.86969,10.68084],[-62.85876,10.68581],[-62.84189,10.6865],[-62.83117,10.69186],[-62.82723,10.68998],[-62.82423,10.68312],[-62.81118,10.66813],[-62.80905,10.66387],[-62.81086,10.65366],[-62.80825,10.6512],[-62.7891,10.65448],[-62.76311,10.67694],[-62.75091,10.66987],[-62.7373,10.67384],[-62.72124,10.67246],[-62.70824,10.66588],[-62.70756,10.65694],[-62.69824,10.65778],[-62.66596,10.67289],[-62.65086,10.67295],[-62.64276,10.6926],[-62.63002,10.70246],[-62.62076,10.69526],[-62.60834,10.69261],[-62.60258,10.69442],[-62.59345,10.68966],[-62.58532,10.69375],[-62.58396,10.70141],[-62.57487,10.70946],[-62.56656,10.70853],[-62.55705,10.71158],[-62.5342,10.70454],[-62.52738,10.70749],[-62.51331,10.706],[-62.50338,10.69961],[-62.4897,10.70161],[-62.4785,10.69652],[-62.45016,10.69934],[-62.44002,10.69893],[-62.43487,10.69513],[-62.42845,10.69674],[-62.42418,10.6947],[-62.41445,10.69879],[-62.40723,10.69489],[-62.3946,10.69663],[-62.38166,10.68958],[-62.37461,10.69008],[-62.36642,10.69643],[-62.35592,10.6912],[-62.33482,10.69906],[-62.32774,10.69754],[-62.31316,10.6871],[-62.30598,10.68517],[-62.29424,10.68739],[-62.2816,10.68476],[-62.26506,10.69334],[-62.25363,10.68559],[-62.24867,10.68736],[-62.24285,10.68301],[-62.23555,10.6866],[-62.21805,10.68301],[-62.20194,10.68592],[-62.19366,10.67958],[-62.18572,10.67821],[-62.18053,10.6798],[-62.17161,10.6774],[-62.16132,10.6785],[-62.13562,10.69429],[-62.10797,10.68886],[-62.10052,10.68449],[-62.08334,10.68719],[-62.06296,10.68481],[-62.05297,10.68075],[-62.04934,10.68126],[-62.03486,10.69225],[-61.99915,10.69577],[-61.9877,10.69973],[-61.98302,10.6982],[-61.96012,10.70229],[-61.95218,10.70139],[-61.94932,10.69768],[-61.93747,10.69794],[-61.91939,10.70523],[-61.91613,10.71392],[-61.91067,10.71725],[-61.90039,10.72159],[-61.8797,10.7253],[-61.86693,10.7335],[-61.86586,10.73774],[-61.86146,10.73985],[-61.84743,10.73407],[-61.83892,10.73395],[-61.84174,10.74093],[-61.84996,10.7463],[-61.849,10.7524],[-61.85095,10.75659],[-61.85944,10.75997],[-61.87056,10.75406],[-61.88306,10.73937],[-61.90716,10.73773],[-61.91337,10.74134],[-61.92082,10.74015],[-61.93062,10.72361],[-61.93661,10.72513],[-61.94155,10.72983],[-61.96208,10.73493],[-61.96917,10.73171],[-61.97036,10.72281],[-61.97252,10.72271],[-61.97669,10.72667],[-62.00132,10.73567],[-62.01146,10.73021],[-62.01071,10.71959],[-62.01873,10.71847],[-62.02168,10.72275],[-62.02683,10.72484],[-62.04999,10.72592],[-62.05771,10.72251],[-62.06226,10.71195],[-62.07175,10.70949],[-62.08211,10.71376],[-62.09293,10.71138],[-62.1006,10.71716],[-62.11126,10.71517],[-62.11686,10.70926],[-62.13479,10.71121],[-62.1391,10.71543],[-62.14451,10.71592],[-62.15057,10.71087],[-62.15028,10.70371],[-62.15728,10.70022],[-62.1616,10.69226],[-62.1677,10.69199],[-62.17907,10.69267],[-62.18691,10.70358],[-62.19829,10.7082],[-62.21472,10.70393],[-62.22799,10.70761],[-62.2426,10.70843],[-62.25117,10.70531],[-62.2565,10.70873],[-62.26544,10.70865],[-62.28237,10.69926],[-62.28504,10.70574],[-62.29253,10.7106],[-62.30101,10.70921],[-62.30901,10.71528],[-62.31851,10.71317],[-62.34276,10.72089],[-62.35202,10.71906],[-62.36377,10.72303],[-62.37369,10.72123],[-62.3848,10.72512],[-62.42839,10.72618],[-62.44093,10.73214],[-62.45802,10.72994],[-62.46546,10.73431],[-62.47812,10.73334],[-62.48906,10.73785],[-62.4972,10.73516],[-62.50342,10.73849],[-62.51528,10.73793],[-62.52178,10.74165],[-62.54713,10.74192],[-62.55301,10.74542],[-62.56143,10.74503],[-62.57614,10.74873],[-62.58479,10.74424],[-62.59161,10.74973],[-62.60321,10.74839],[-62.6247,10.75088],[-62.63327,10.75448],[-62.64173,10.75121],[-62.67055,10.7513],[-62.676,10.75474],[-62.68967,10.75459],[-62.69471,10.75834],[-62.69798,10.76749],[-62.71278,10.77402],[-62.73425,10.76614],[-62.75022,10.75723],[-62.76062,10.745],[-62.79354,10.74153],[-62.79914,10.73644],[-62.80946,10.73604],[-62.81357,10.72965],[-62.81859,10.72764],[-62.82756,10.72804],[-62.83977,10.72014],[-62.84913,10.72232],[-62.85577,10.71777],[-62.8652,10.71785],[-62.87753,10.70698],[-62.88766,10.7102],[-62.89513,10.7097],[-62.90541,10.7013],[-62.91,10.70449],[-62.92961,10.70737],[-62.94106,10.7056],[-62.95754,10.70983],[-62.96524,10.70839],[-62.97961,10.71999],[-62.98508,10.7213],[-63.00109,10.73221],[-63.01492,10.72703],[-63.02369,10.71795],[-63.03952,10.71908],[-63.04761,10.72564],[-63.05296,10.7268],[-63.06001,10.72239],[-63.06817,10.72289],[-63.08091,10.71775],[-63.08987,10.72073],[-63.11365,10.71461],[-63.1215,10.70992],[-63.14649,10.71685],[-63.14266,10.72432],[-63.14401,10.73035],[-63.14733,10.73359],[-63.16696,10.73574],[-63.17548,10.73001],[-63.17585,10.72269],[-63.1734,10.71717],[-63.18225,10.71608],[-63.21062,10.70312],[-63.21818,10.70172],[-63.22093,10.69956],[-63.21617,10.69219]],[[-61.98059,10.71392],[-61.98061,10.71393],[-61.98063,10.71395],[-61.98065,10.71397],[-61.98066,10.71399],[-61.98064,10.71402],[-61.98063,10.71405],[-61.98061,10.71406],[-61.98058,10.71405],[-61.98055,10.71404],[-61.98052,10.71403],[-61.98049,10.71403],[-61.98046,10.71403],[-61.98043,10.71405],[-61.98041,10.71407],[-61.98039,10.71409],[-61.98036,10.71409],[-61.98033,10.71408],[-61.9803,10.71407],[-61.98027,10.71406],[-61.98024,10.71406],[-61.98021,10.71407],[-61.98019,10.71404],[-61.98019,10.71402],[-61.9802,10.71399],[-61.98023,10.71397],[-61.98025,10.71396],[-61.98027,10.71394],[-61.98029,10.71391],[-61.98031,10.71389],[-61.98034,10.7139],[-61.98037,10.7139],[-61.98039,10.71389],[-61.98042,10.71389],[-61.98045,10.71389],[-61.98048,10.71389],[-61.98051,10.71389],[-61.98054,10.7139],[-61.98056,10.71391],[-61.98059,10.71392]]]}},{"type":"Feature","id":"relation/5741775","properties":{"name":"Municipio Cruz Salmer\u00f3n Acosta","level":6},"geometry":{"type":"MultiPolygon","coordinates":[[[[-63.95892,10.67868],[-63.96404,10.68608],[-63.9707,10.68651],[-63.97477,10.68425],[-63.97936,10.66699],[-63.97656,10.66055],[-63.97015,10.65822],[-63.96196,10.6608],[-63.95944,10.66535],[-63.96136,10.67249],[-63.95892,10.67868]]],[[[-63.86832,10.69803],[-63.87491,10.70141],[-63.88176,10.69945],[-63.88571,10.69298],[-63.88429,10.68666],[-63.87556,10.68178],[-63.86864,10.68361],[-63.86492,10.69085],[-63.86832,10.69803]]],[[[-63.84942,10.70123],[-63.85966,10.6989],[-63.86318,10.68947],[-63.85568,10.68114],[-63.84599,10.68021],[-63.83767,10.68431],[-63.83515,10.69178],[-63.83886,10.69752],[-63.84942,10.70123]]],[[[-63.76841,10.51632],[-63.76283,10.52259],[-63.72124,10.60355],[-63.73119,10.64638],[-63.73028,10.66237],[-63.74432,10.66405],[-63.75426,10.6681],[-63.76017,10.66739],[-63.80928,10.71645],[-63.81964,10.71442],[-63.82357,10.71022],[-63.82392,10.69015],[-63.83216,10.67886],[-63.83138,10.67005],[-63.83895,10.65332],[-63.85121,10.64821],[-63.88386,10.64271],[-63.89252,10.63906],[-63.90431,10.64046],[-63.91807,10.63378],[-63.92476,10.63347],[-63.94403,10.6428],[-63.95212,10.64227],[-63.95307,10.64988],[-63.96008,10.65358],[-63.96562,10.65165],[-63.96842,10.64758],[-63.96813,10.64175],[-63.96448,10.63772],[-63.96587,10.63701],[-63.97946,10.63848],[-63.98927,10.64397],[-63.99575,10.64134],[-64.00555,10.64218],[-64.01263,10.63813],[-64.02121,10.64209],[-64.02939,10.64226],[-64.04177,10.65796],[-64.05743,10.65996],[-64.07419,10.65576],[-64.07776,10.65186],[-64.0784,10.64654],[-64.08159,10.64511],[-64.10798,10.64214],[-64.11932,10.63579],[-64.12375,10.62888],[-64.13379,10.62866],[-64.13839,10.62607],[-64.14398,10.6297],[-64.15228,10.62894],[-64.15983,10.63516],[-64.16725,10.63778],[-64.17795,10.63575],[-64.18694,10.64723],[-64.19619,10.65047],[-64.2387,10.64788],[-64.25359,10.67061],[-64.26095,10.67359],[-64.27384,10.66746],[-64.27687,10.66259],[-64.2767,10.65625],[-64.29861,10.6441],[-64.30499,10.63359],[-64.30424,10.62781],[-64.29354,10.60839],[-64.29012,10.59351],[-64.28257,10.58673],[-64.27654,10.57438],[-64.26927,10.56931],[-64.2684,10.56213],[-64.27137,10.54571],[-64.26688,10.5338],[-64.26004,10.52695],[-64.25176,10.51092],[-64.23527,10.4961],[-64.22461,10.49931],[-64.20916,10.51344],[-64.20538,10.52394],[-64.20496,10.53619],[-64.20025,10.53955],[-64.19765,10.54684],[-64.17819,10.55044],[-64.16097,10.56295],[-64.13362,10.56945],[-64.12941,10.56172],[-64.11917,10.55657],[-64.05035,10.56874],[-64.03821,10.56676],[-64.00897,10.56981],[-63.99433,10.56761],[-63.9618,10.57096],[-63.94196,10.56483],[-63.91421,10.5465],[-63.8833,10.54218],[-63.86233,10.54588],[-63.85645,10.54345],[-63.84886,10.5449],[-63.82241,10.54218],[-63.79366,10.51985],[-63.76841,10.51632]]]]}},{"type":"Feature","id":"relation/5749549","properties":{"name":"Municipio Bol\u00edvar","level":6},"geometry":{"type":"Polygon","coordinates":[[[-64.01029,10.37285],[-63.99283,10.35857],[-63.96888,10.35005],[-63.94575,10.34831],[-63.93833,10.35249],[-63.91455,10.34709],[-63.89636,10.33206],[-63.87536,10.33798],[-63.8634,10.34435],[-63.85863,10.34424],[-63.85265,10.34718],[-63.85682,10.35475],[-63.86123,10.35775],[-63.86799,10.35624],[-63.86973,10.36223],[-63.86092,10.38235],[-63.86286,10.38595],[-63.85934,10.39063],[-63.86071,10.39555],[-63.85816,10.40949],[-63.84421,10.42049],[-63.8446,10.42438],[-63.84127,10.42661],[-63.84382,10.429],[-63.84168,10.4318],[-63.84337,10.43831],[-63.84198,10.4426],[-63.83854,10.44401],[-63.83467,10.45463],[-63.84624,10.45484],[-63.85664,10.45112],[-63.87595,10.45124],[-63.90712,10.46348],[-63.91767,10.45791],[-63.9587,10.46154],[-63.971,10.45495],[-63.97996,10.45631],[-64.02232,10.44896],[-64.02937,10.45276],[-64.0381,10.45232],[-64.04375,10.44929],[-64.04266,10.4405],[-64.04476,10.43538],[-64.01029,10.37285]]]}},{"type":"Feature","id":"relation/5749568","properties":{"name":"Municipio Sucre","level":6,"population":"358919"},"geometry":{"type":"MultiPolygon","coordinates":[[[[-64.04037,10.36157],[-64.03888,10.36431],[-64.01029,10.37285],[-64.04476,10.43538],[-64.04266,10.4405],[-64.04375,10.44929],[-64.05547,10.44941],[-64.08302,10.45717],[-64.107,10.48405],[-64.11255,10.48742],[-64.11929,10.48704],[-64.12532,10.48317],[-64.13901,10.48577],[-64.14965,10.48227],[-64.16196,10.48679],[-64.18744,10.48774],[-64.2004,10.4771],[-64.20266,10.45998],[-64.20026,10.45429],[-64.20344,10.44793],[-64.22656,10.42464],[-64.24202,10.4217],[-64.27904,10.42192],[-64.29355,10.4175],[-64.31137,10.4182],[-64.32196,10.41378],[-64.325,10.40979],[-64.33097,10.4102],[-64.34046,10.40621],[-64.3454,10.40021],[-64.35154,10.40482],[-64.36701,10.40596],[-64.37436,10.40092],[-64.38441,10.39926],[-64.38951,10.39058],[-64.39623,10.38974],[-64.40302,10.38173],[-64.41643,10.38882],[-64.42592,10.38978],[-64.43305,10.38739],[-64.43664,10.37993],[-64.44324,10.37658],[-64.44656,10.37605],[-64.45699,10.38337],[-64.46442,10.38165],[-64.46843,10.37523],[-64.47812,10.3676],[-64.47856,10.36189],[-64.47592,10.35729],[-64.45351,10.34964],[-64.44164,10.34113],[-64.42794,10.34115],[-64.42099,10.34417],[-64.4163,10.34011],[-64.42652,10.33554],[-64.43092,10.32694],[-64.43494,10.3339],[-64.43931,10.33551],[-64.44555,10.33408],[-64.4534,10.34098],[-64.45942,10.34095],[-64.46633,10.33749],[-64.47041,10.32931],[-64.4653,10.32014],[-64.4659,10.31416],[-64.46374,10.31006],[-64.45071,10.30732],[-64.44246,10.30194],[-64.42692,10.30522],[-64.41674,10.30009],[-64.39653,10.30613],[-64.38867,10.30592],[-64.38858,10.30328],[-64.40333,10.29773],[-64.40703,10.29347],[-64.4137,10.29545],[-64.42291,10.29426],[-64.44348,10.28692],[-64.45447,10.28616],[-64.45889,10.27963],[-64.45589,10.27156],[-64.4644,10.26731],[-64.47035,10.27189],[-64.47745,10.272],[-64.48545,10.27615],[-64.49859,10.27574],[-64.50256,10.27018],[-64.50169,10.26452],[-64.49457,10.25866],[-64.48175,10.25381],[-64.48562,10.25046],[-64.49135,10.24985],[-64.51039,10.25826],[-64.52708,10.26098],[-64.53159,10.26046],[-64.53159,10.25218],[-64.51953,10.2477],[-64.51591,10.23949],[-64.51165,10.23797],[-64.51056,10.22517],[-64.50785,10.22326],[-64.51011,10.22025],[-64.49822,10.21603],[-64.4989,10.21192],[-64.49281,10.20781],[-64.49329,10.20102],[-64.48743,10.19864],[-64.48582,10.19435],[-64.472,10.19168],[-64.45634,10.1933],[-64.44331,10.18985],[-64.44443,10.12676],[-64.41923,10.1383],[-64.40099,10.13461],[-64.40057,10.12123],[-64.39737,10.11807],[-64.39754,10.11351],[-64.39079,10.11364],[-64.38814,10.1161],[-64.38483,10.11491],[-64.38594,10.0972],[-64.3658,10.0961],[-64.36607,10.08477],[-64.35269,10.08631],[-64.34675,10.07966],[-64.33028,10.08367],[-64.31891,10.09348],[-64.30988,10.0957],[-64.29079,10.09559],[-64.28457,10.09398],[-64.28334,10.0883],[-64.27363,10.07904],[-64.27352,10.06183],[-64.26763,10.06385],[-64.26016,10.06061],[-64.24687,10.06335],[-64.2296,10.06253],[-64.21964,10.06625],[-64.20839,10.06198],[-64.19805,10.06179],[-64.15931,10.0768],[-64.1299,10.0847],[-64.11255,10.08644],[-64.10506,10.0909],[-64.09997,10.09041],[-64.09851,10.14725],[-64.11531,10.17467],[-64.10939,10.18215],[-64.11255,10.21038],[-64.10744,10.21871],[-64.08711,10.22907],[-64.08909,10.23209],[-64.0855,10.25192],[-64.07216,10.27875],[-64.06643,10.30842],[-64.04184,10.33116],[-64.04153,10.33746],[-64.03827,10.34006],[-64.04009,10.34242],[-64.04037,10.36157]]],[[[-64.50508,10.33898],[-64.49449,10.34426],[-64.48577,10.35575],[-64.48545,10.36531],[-64.49337,10.37415],[-64.50417,10.37228],[-64.51771,10.35125],[-64.51542,10.34238],[-64.51086,10.33918],[-64.50508,10.33898]]]]}},{"type":"Feature","id":"relation/5760167","properties":{"name":"Municipio Ribero","level":6},"geometry":{"type":"Polygon","coordinates":[[[-63.76283,10.52259],[-63.76841,10.51632],[-63.75001,10.49976],[-63.74626,10.48896],[-63.74211,10.48497],[-63.7375,10.48431],[-63.72623,10.4881],[-63.71329,10.48494],[-63.71133,10.47562],[-63.69929,10.47407],[-63.67853,10.47931],[-63.67325,10.47133],[-63.67431,10.46248],[-63.66607,10.44675],[-63.66821,10.4369],[-63.6782,10.42535],[-63.68425,10.42265],[-63.69822,10.38783],[-63.69708,10.37884],[-63.70564,10.37632],[-63.70259,10.36672],[-63.72911,10.34819],[-63.73328,10.33291],[-63.74851,10.30584],[-63.7396,10.28362],[-63.73645,10.28388],[-63.73462,10.28024],[-63.73584,10.27148],[-63.71626,10.26757],[-63.7084,10.25549],[-63.70522,10.25666],[-63.6987,10.24825],[-63.70369,10.23075],[-63.69298,10.20328],[-63.67935,10.21022],[-63.67665,10.20884],[-63.66643,10.21608],[-63.64178,10.22345],[-63.6276,10.21425],[-63.60589,10.21784],[-63.60577,10.21361],[-63.59645,10.20611],[-63.59326,10.1939],[-63.58732,10.19489],[-63.57875,10.2011],[-63.56777,10.21642],[-63.56869,10.21945],[-63.56625,10.22205],[-63.56113,10.24407],[-63.5579,10.2423],[-63.54468,10.24307],[-63.54206,10.25185],[-63.54874,10.2625],[-63.54847,10.27065],[-63.53754,10.2769],[-63.52943,10.28676],[-63.50972,10.29475],[-63.5094,10.29255],[-63.50145,10.28943],[-63.4969,10.29131],[-63.49086,10.29022],[-63.48788,10.29237],[-63.4887,10.29792],[-63.48475,10.30229],[-63.47415,10.30526],[-63.47009,10.29829],[-63.47022,10.29063],[-63.46525,10.29409],[-63.46183,10.2924],[-63.45614,10.29494],[-63.44744,10.28752],[-63.43462,10.28908],[-63.42781,10.28652],[-63.42561,10.29229],[-63.43319,10.30276],[-63.42915,10.30875],[-63.42732,10.32089],[-63.4142,10.33443],[-63.41036,10.33521],[-63.40688,10.34579],[-63.40308,10.34698],[-63.39658,10.34263],[-63.38295,10.34205],[-63.36943,10.35475],[-63.36479,10.35193],[-63.34389,10.35322],[-63.32108,10.36665],[-63.38669,10.41045],[-63.3935,10.42673],[-63.40277,10.4273],[-63.40509,10.43068],[-63.40739,10.42841],[-63.40723,10.44254],[-63.43926,10.49314],[-63.48904,10.61255],[-63.48828,10.62466],[-63.48203,10.63369],[-63.48783,10.64006],[-63.4891,10.65019],[-63.50105,10.65478],[-63.50086,10.66244],[-63.50503,10.66616],[-63.51228,10.666],[-63.51726,10.66145],[-63.5187,10.6551],[-63.51585,10.64941],[-63.52155,10.64487],[-63.52199,10.63824],[-63.53328,10.63568],[-63.55884,10.64062],[-63.56869,10.63789],[-63.58123,10.6428],[-63.58829,10.64216],[-63.59343,10.63864],[-63.60679,10.64301],[-63.63157,10.64307],[-63.64029,10.6463],[-63.68603,10.65061],[-63.69613,10.65626],[-63.69994,10.66371],[-63.70508,10.66639],[-63.73028,10.66237],[-63.73119,10.64638],[-63.72124,10.60355],[-63.76283,10.52259]]]}},{"type":"Feature","id":"relation/5803165","properties":{"name":"Municipio Cajigal","level":6},"geometry":{"type":"Polygon","coordinates":[[[-62.80486,10.53726],[-62.79073,10.54957],[-62.7678,10.55441],[-62.75763,10.55363],[-62.75455,10.56875],[-62.7465,10.57398],[-62.73347,10.57814],[-62.72348,10.58589],[-62.71456,10.58557],[-62.70977,10.59369],[-62.69773,10.59393],[-62.69899,10.59907],[-62.69667,10.60298],[-62.70074,10.61559],[-62.697,10.62323],[-62.69387,10.62459],[-62.70046,10.6574],[-62.70756,10.65694],[-62.70824,10.66588],[-62.72016,10.67214],[-62.7373,10.67384],[-62.75091,10.66987],[-62.76311,10.67694],[-62.7891,10.65448],[-62.80876,10.65133],[-62.81086,10.65366],[-62.80905,10.66387],[-62.81118,10.66813],[-62.83063,10.69186],[-62.84189,10.6865],[-62.85876,10.68581],[-62.86969,10.68084],[-62.88848,10.68343],[-62.90658,10.67882],[-62.9083,10.65729],[-62.94147,10.59037],[-62.93505,10.55806],[-62.93946,10.55233],[-62.93628,10.54115],[-62.92821,10.53742],[-62.91855,10.54107],[-62.89771,10.54059],[-62.87844,10.54363],[-62.86173,10.53289],[-62.85303,10.53775],[-62.84677,10.53697],[-62.83255,10.52363],[-62.81311,10.53087],[-62.80486,10.53726]]]}},{"type":"Feature","id":"relation/5803225","properties":{"name":"Municipio Mej\u00eda","level":6},"geometry":{"type":"Polygon","coordinates":[[[-63.67413,10.47281],[-63.67853,10.47931],[-63.69929,10.47407],[-63.71133,10.47562],[-63.72241,10.47112],[-63.72863,10.47458],[-63.73497,10.47463],[-63.75841,10.46577],[-63.76314,10.4612],[-63.77925,10.45774],[-63.79872,10.44931],[-63.80533,10.44943],[-63.81245,10.4529],[-63.82368,10.44923],[-63.83018,10.44987],[-63.83467,10.45463],[-63.83854,10.44401],[-63.84198,10.4426],[-63.84337,10.43831],[-63.84168,10.4318],[-63.84382,10.429],[-63.84127,10.42661],[-63.8446,10.42438],[-63.84421,10.42049],[-63.85816,10.40949],[-63.86071,10.39555],[-63.85934,10.39063],[-63.86286,10.38595],[-63.86092,10.38235],[-63.86973,10.36223],[-63.86799,10.35624],[-63.86123,10.35775],[-63.84496,10.34015],[-63.83133,10.33564],[-63.82185,10.32634],[-63.80091,10.29624],[-63.74851,10.30584],[-63.73328,10.33291],[-63.72911,10.34819],[-63.70259,10.36672],[-63.70564,10.37632],[-63.69708,10.37884],[-63.69822,10.38783],[-63.68425,10.42265],[-63.6782,10.42535],[-63.66781,10.4375],[-63.66607,10.44675],[-63.67431,10.46248],[-63.67413,10.47281]]]}},{"type":"Feature","id":"relation/5803265","properties":{"name":"Municipio Andr\u00e9s Mata","level":6},"geometry":{"type":"Polygon","coordinates":[[[-63.38307,10.51479],[-63.39875,10.49073],[-63.3772,10.45136],[-63.37236,10.4144],[-63.25955,10.37487],[-63.24358,10.37388],[-63.23526,10.36786],[-63.22017,10.36446],[-63.21738,10.36076],[-63.19671,10.38724],[-63.19791,10.39673],[-63.21319,10.40821],[-63.22183,10.40291],[-63.22769,10.40442],[-63.24773,10.4021],[-63.26293,10.40509],[-63.26726,10.40893],[-63.30091,10.42062],[-63.29773,10.43763],[-63.28782,10.45388],[-63.28511,10.46583],[-63.24984,10.49254],[-63.25044,10.50876],[-63.24127,10.51412],[-63.24205,10.5203],[-63.25157,10.51895],[-63.25752,10.53292],[-63.2594,10.55463],[-63.25768,10.55665],[-63.2597,10.55812],[-63.26034,10.56545],[-63.25239,10.57685],[-63.25276,10.58076],[-63.25679,10.5828],[-63.26226,10.58005],[-63.26592,10.5825],[-63.26474,10.58399],[-63.27156,10.59792],[-63.27732,10.60095],[-63.28325,10.62068],[-63.2917,10.62292],[-63.32676,10.60942],[-63.33073,10.61394],[-63.33142,10.62162],[-63.33981,10.61704],[-63.34764,10.62132],[-63.3494,10.61866],[-63.35974,10.62064],[-63.36476,10.62908],[-63.37519,10.63855],[-63.39564,10.63024],[-63.43965,10.63192],[-63.4395,10.5877],[-63.40142,10.53128],[-63.38307,10.51479]]]}},{"type":"Feature","id":"relation/5803266","properties":{"name":"Municipio And\u0155es Eloy Blanco","level":6},"geometry":{"type":"Polygon","coordinates":[[[-63.38307,10.51479],[-63.40142,10.53128],[-63.4395,10.5877],[-63.44098,10.66351],[-63.44527,10.6698],[-63.45292,10.67195],[-63.46139,10.67094],[-63.46178,10.67961],[-63.45526,10.68304],[-63.45284,10.68731],[-63.45446,10.69441],[-63.4653,10.69941],[-63.47156,10.69799],[-63.47489,10.69329],[-63.47343,10.68239],[-63.47825,10.67628],[-63.47696,10.66899],[-63.4807,10.66204],[-63.48805,10.66631],[-63.50086,10.66244],[-63.50105,10.65478],[-63.4891,10.65019],[-63.48783,10.64006],[-63.48203,10.63369],[-63.48828,10.62466],[-63.48904,10.61255],[-63.43926,10.49314],[-63.40723,10.44254],[-63.40739,10.42841],[-63.40509,10.43068],[-63.40277,10.4273],[-63.3935,10.42673],[-63.38669,10.41045],[-63.32108,10.36665],[-63.34389,10.35322],[-63.36479,10.35193],[-63.36943,10.35475],[-63.38295,10.34205],[-63.39658,10.34263],[-63.40308,10.34698],[-63.40688,10.34579],[-63.41036,10.33521],[-63.4142,10.33443],[-63.42089,10.32626],[-63.42601,10.32393],[-63.42915,10.30875],[-63.43317,10.30287],[-63.42558,10.29218],[-63.42918,10.28601],[-63.41938,10.27908],[-63.41875,10.27273],[-63.42164,10.27113],[-63.42567,10.25745],[-63.42209,10.25562],[-63.41158,10.25946],[-63.40393,10.257],[-63.40221,10.26103],[-63.399,10.25872],[-63.39167,10.23783],[-63.38564,10.23946],[-63.37369,10.23783],[-63.36657,10.24229],[-63.35444,10.24465],[-63.35268,10.23479],[-63.34459,10.22996],[-63.33429,10.21127],[-63.32228,10.21055],[-63.31822,10.21247],[-63.31284,10.20926],[-63.31101,10.21539],[-63.30136,10.21488],[-63.29642,10.21123],[-63.28698,10.21184],[-63.28114,10.20696],[-63.2734,10.20861],[-63.26973,10.20407],[-63.26157,10.20065],[-63.25878,10.1904],[-63.22947,10.19076],[-63.22248,10.19338],[-63.22029,10.18692],[-63.22211,10.17317],[-63.21967,10.16791],[-63.19606,10.15942],[-63.18867,10.14357],[-63.1815,10.15104],[-63.17758,10.15049],[-63.17356,10.15687],[-63.15408,10.16283],[-63.1461,10.18178],[-63.14852,10.1888],[-63.14648,10.19452],[-63.14019,10.19927],[-63.12503,10.20487],[-63.1198,10.21128],[-63.12015,10.21701],[-63.11357,10.22762],[-63.10867,10.22954],[-63.09709,10.22754],[-63.09493,10.24013],[-63.11211,10.24821],[-63.11305,10.25894],[-63.11638,10.26225],[-63.12901,10.26062],[-63.13825,10.25315],[-63.1526,10.26375],[-63.16063,10.27669],[-63.17412,10.27682],[-63.17743,10.286],[-63.17245,10.29635],[-63.18076,10.30448],[-63.18409,10.30416],[-63.19309,10.29627],[-63.19965,10.29788],[-63.20804,10.30465],[-63.22306,10.33487],[-63.22811,10.35157],[-63.21782,10.35799],[-63.22017,10.36446],[-63.23526,10.36786],[-63.24673,10.37493],[-63.25955,10.37487],[-63.37236,10.4144],[-63.3772,10.45136],[-63.39875,10.49073],[-63.38307,10.51479]]]}},{"type":"Feature","id":"relation/5803319","properties":{"name":"Municipio Berm\u00fadez","level":6,"population":"138798"},"geometry":{"type":"Polygon","coordinates":[[[-63.44527,10.6698],[-63.44098,10.66351],[-63.43965,10.63192],[-63.39564,10.63024],[-63.37519,10.63855],[-63.36476,10.62908],[-63.35974,10.62064],[-63.3494,10.61866],[-63.34764,10.62132],[-63.33981,10.61704],[-63.33142,10.62162],[-63.33073,10.61394],[-63.32676,10.60942],[-63.2917,10.62292],[-63.28325,10.62068],[-63.27732,10.60095],[-63.27156,10.59792],[-63.26474,10.58399],[-63.26592,10.5825],[-63.26226,10.58005],[-63.25679,10.5828],[-63.25276,10.58076],[-63.25239,10.57685],[-63.26034,10.56545],[-63.2597,10.55812],[-63.25768,10.55665],[-63.2594,10.55463],[-63.25779,10.53603],[-63.20644,10.54204],[-63.20921,10.5632],[-63.23729,10.58324],[-63.23262,10.59598],[-63.20808,10.61533],[-63.18545,10.6157],[-63.17042,10.62813],[-63.19629,10.66804],[-63.19254,10.6723],[-63.19157,10.68257],[-63.21617,10.69219],[-63.22093,10.69956],[-63.23702,10.69304],[-63.23994,10.68445],[-63.24813,10.68574],[-63.25688,10.67965],[-63.26886,10.68501],[-63.27474,10.68475],[-63.28038,10.68018],[-63.28323,10.67213],[-63.29634,10.67637],[-63.30676,10.68195],[-63.31115,10.68714],[-63.32473,10.69248],[-63.33267,10.68997],[-63.33672,10.67698],[-63.33998,10.67782],[-63.34931,10.68235],[-63.34985,10.69325],[-63.35369,10.69829],[-63.36507,10.69774],[-63.37567,10.69004],[-63.37451,10.69471],[-63.37644,10.69978],[-63.38523,10.70318],[-63.3954,10.70118],[-63.40572,10.69237],[-63.41545,10.67412],[-63.41878,10.67263],[-63.42174,10.68015],[-63.42876,10.68226],[-63.44165,10.67461],[-63.44527,10.6698]]]}},{"type":"Feature","id":"relation/5803420","properties":{"name":"Municipio Libertador","level":6},"geometry":{"type":"Polygon","coordinates":[[[-63.12398,10.58031],[-63.12013,10.57015],[-63.11503,10.56591],[-63.00214,10.49744],[-62.9556,10.47305],[-62.94001,10.48473],[-62.91744,10.51879],[-62.89433,10.52703],[-62.87033,10.52903],[-62.86173,10.53289],[-62.87844,10.54363],[-62.89771,10.54059],[-62.91855,10.54107],[-62.92731,10.53746],[-62.93409,10.53929],[-62.93866,10.54603],[-62.93929,10.55293],[-62.93505,10.55806],[-62.94147,10.59037],[-62.93694,10.60097],[-62.94257,10.60445],[-62.95431,10.60384],[-62.96739,10.61038],[-62.97274,10.60865],[-62.97651,10.5986],[-62.98619,10.60056],[-62.99273,10.59664],[-62.9992,10.60509],[-63.02371,10.60497],[-63.03932,10.60187],[-63.04913,10.60499],[-63.05508,10.60162],[-63.06604,10.61013],[-63.08113,10.61485],[-63.09801,10.61566],[-63.12398,10.58031]]]}},{"type":"Feature","id":"relation/5803877","properties":{"name":"Municipio Valdez","level":6},"geometry":{"type":"Polygon","coordinates":[[[-62.25802,10.61169],[-62.24711,10.62536],[-62.22861,10.62612],[-62.22064,10.62338],[-62.20912,10.62707],[-62.19506,10.62471],[-62.17566,10.62812],[-62.16389,10.62745],[-62.15709,10.62994],[-62.14802,10.62587],[-62.12913,10.62636],[-62.11444,10.62176],[-62.09308,10.62379],[-62.08109,10.62195],[-62.05283,10.6268],[-62.04446,10.62338],[-62.0349,10.62318],[-62.02492,10.62616],[-62.01877,10.63145],[-62.01126,10.63005],[-61.99493,10.63335],[-61.98692,10.63856],[-61.97518,10.63364],[-61.95282,10.63556],[-61.94636,10.6411],[-61.93931,10.64303],[-61.93509,10.65217],[-61.9271,10.64814],[-61.91709,10.64935],[-61.89804,10.65791],[-61.89384,10.66459],[-61.88674,10.66669],[-61.86882,10.68458],[-61.86841,10.69018],[-61.87133,10.69481],[-61.86871,10.70076],[-61.86945,10.71434],[-61.84297,10.72672],[-61.83892,10.73395],[-61.84743,10.73407],[-61.86146,10.73985],[-61.86586,10.73774],[-61.86693,10.7335],[-61.8797,10.7253],[-61.90039,10.72159],[-61.91067,10.71725],[-61.91613,10.71392],[-61.91939,10.70523],[-61.93747,10.69794],[-61.94932,10.69768],[-61.95218,10.70139],[-61.96012,10.70229],[-61.98302,10.6982],[-61.9877,10.69973],[-61.99915,10.69577],[-62.03486,10.69225],[-62.04934,10.68126],[-62.05297,10.68075],[-62.06296,10.68481],[-62.08334,10.68719],[-62.10052,10.68449],[-62.10797,10.68886],[-62.13562,10.69429],[-62.16132,10.6785],[-62.17161,10.6774],[-62.18053,10.6798],[-62.18572,10.67821],[-62.19366,10.67958],[-62.20194,10.68592],[-62.21805,10.68301],[-62.23555,10.6866],[-62.24285,10.68301],[-62.24867,10.68736],[-62.25363,10.68559],[-62.26506,10.69334],[-62.2816,10.68476],[-62.29424,10.68739],[-62.30598,10.68517],[-62.31316,10.6871],[-62.32774,10.69754],[-62.33482,10.69906],[-62.35592,10.6912],[-62.36642,10.69643],[-62.37674,10.68961],[-62.38218,10.68962],[-62.3946,10.69663],[-62.40723,10.69489],[-62.41445,10.69879],[-62.42476,10.69468],[-62.42845,10.69674],[-62.43487,10.69513],[-62.44223,10.69917],[-62.47384,10.69748],[-62.47601,10.69672],[-62.47509,10.69183],[-62.45046,10.6037],[-62.43291,10.56691],[-62.43009,10.53537],[-62.42503,10.52864],[-62.41099,10.54159],[-62.40217,10.53903],[-62.39172,10.54592],[-62.37208,10.53594],[-62.36925,10.5295],[-62.36171,10.52551],[-62.34411,10.52497],[-62.33,10.5316],[-62.31887,10.53097],[-62.30807,10.54246],[-62.30091,10.55537],[-62.2932,10.55931],[-62.28686,10.55814],[-62.28195,10.56118],[-62.28006,10.56851],[-62.28292,10.57549],[-62.2788,10.58634],[-62.26711,10.59498],[-62.25802,10.61169]]]}},{"type":"Feature","id":"relation/5803878","properties":{"name":"Municipio Mari\u00f1o","level":6},"geometry":{"type":"Polygon","coordinates":[[[-62.54165,10.54329],[-62.52796,10.53603],[-62.51561,10.53983],[-62.5079,10.53883],[-62.49863,10.54481],[-62.48848,10.54444],[-62.47942,10.54055],[-62.46993,10.54388],[-62.46239,10.54083],[-62.45641,10.532],[-62.44431,10.5267],[-62.4299,10.52648],[-62.42503,10.52864],[-62.43009,10.53537],[-62.43291,10.56691],[-62.45046,10.6037],[-62.47601,10.69672],[-62.49084,10.70179],[-62.50338,10.69961],[-62.51406,10.70614],[-62.52738,10.70749],[-62.5342,10.70454],[-62.5564,10.7116],[-62.56656,10.70853],[-62.57487,10.70946],[-62.58396,10.70141],[-62.58532,10.69375],[-62.59345,10.68966],[-62.60258,10.69442],[-62.60834,10.69261],[-62.62076,10.69526],[-62.63002,10.70246],[-62.64276,10.6926],[-62.65086,10.67295],[-62.66596,10.67289],[-62.70046,10.6574],[-62.69387,10.62459],[-62.697,10.62323],[-62.70074,10.61559],[-62.69667,10.60298],[-62.69899,10.59907],[-62.69773,10.59393],[-62.70977,10.59369],[-62.71456,10.58557],[-62.72348,10.58589],[-62.73347,10.57814],[-62.7465,10.57398],[-62.75455,10.56875],[-62.75763,10.55363],[-62.74867,10.5485],[-62.73662,10.55126],[-62.72611,10.54986],[-62.69376,10.55227],[-62.68254,10.55636],[-62.66866,10.5679],[-62.65888,10.56902],[-62.62779,10.56563],[-62.59333,10.55757],[-62.57912,10.55738],[-62.55935,10.54725],[-62.54165,10.54329]]]}},{"type":"Feature","id":"relation/5805461","properties":{"name":"Municipio Ben\u00edtez","level":6},"geometry":{"type":"Polygon","coordinates":[[[-63.21738,10.36076],[-63.22019,10.35477],[-63.22811,10.35157],[-63.22306,10.33487],[-63.20804,10.30465],[-63.19965,10.29788],[-63.19309,10.29627],[-63.18409,10.30416],[-63.18076,10.30448],[-63.17245,10.29635],[-63.17735,10.28688],[-63.17448,10.27716],[-63.17114,10.27546],[-63.16463,10.27786],[-63.16063,10.27669],[-63.15345,10.26466],[-63.13886,10.25338],[-63.12459,10.26203],[-63.11826,10.26269],[-63.11398,10.26055],[-63.11211,10.24821],[-63.09868,10.24331],[-63.09456,10.23878],[-63.09709,10.22754],[-63.11128,10.22893],[-63.12015,10.21701],[-63.12029,10.21231],[-63.10896,10.19155],[-63.09963,10.18505],[-63.09283,10.18389],[-63.08658,10.18803],[-63.08271,10.19957],[-63.07143,10.20214],[-63.06393,10.19945],[-63.0623,10.19434],[-63.06499,10.17781],[-63.05297,10.17337],[-63.05696,10.16265],[-63.05667,10.15703],[-63.04366,10.14],[-63.04595,10.12239],[-63.03397,10.11527],[-63.02176,10.10133],[-63.00342,10.09276],[-62.98383,10.06942],[-62.97328,10.07056],[-62.97061,10.07657],[-62.97096,10.08947],[-62.9608,10.09537],[-62.95473,10.09588],[-62.94533,10.09265],[-62.94053,10.0868],[-62.9375,10.07702],[-62.93398,10.07535],[-62.91578,10.08999],[-62.903,10.09499],[-62.89716,10.09178],[-62.89411,10.07961],[-62.90209,10.06335],[-62.9004,10.05787],[-62.88177,10.05202],[-62.86506,10.05194],[-62.85946,10.05741],[-62.85467,10.07569],[-62.84534,10.07719],[-62.8372,10.07089],[-62.83521,10.05392],[-62.82676,10.0377],[-62.81978,10.03455],[-62.79118,10.03366],[-62.78689,10.03476],[-62.79043,10.04982],[-62.78742,10.0633],[-62.78051,10.07501],[-62.76996,10.08261],[-62.75828,10.08498],[-62.75,10.08405],[-62.74451,10.0789],[-62.73863,10.06791],[-62.72846,10.06035],[-62.69812,10.06094],[-62.66344,10.06947],[-62.63327,10.09499],[-62.62031,10.10146],[-62.6125,10.11202],[-62.61134,10.12436],[-62.62273,10.16883],[-62.64908,10.19133],[-62.65387,10.19837],[-62.66058,10.22413],[-62.66254,10.27087],[-62.66591,10.28081],[-62.6717,10.28599],[-62.67327,10.2983],[-62.66702,10.29618],[-62.66069,10.29863],[-62.64689,10.31957],[-62.64401,10.33194],[-62.6482,10.35445],[-62.65855,10.37009],[-62.69682,10.40679],[-62.70566,10.4205],[-62.74179,10.46153],[-62.752,10.47617],[-62.76268,10.50238],[-62.77193,10.50879],[-62.79609,10.50939],[-62.81097,10.50613],[-62.82812,10.51582],[-62.84366,10.5354],[-62.85303,10.53775],[-62.87033,10.52903],[-62.89433,10.52703],[-62.91744,10.51879],[-62.94001,10.48473],[-62.9556,10.47305],[-63.00214,10.49744],[-63.11951,10.56927],[-63.12398,10.58031],[-63.09801,10.61566],[-63.10106,10.61992],[-63.11107,10.62704],[-63.17042,10.62813],[-63.18545,10.6157],[-63.20808,10.61533],[-63.23238,10.59648],[-63.23729,10.58324],[-63.20921,10.5632],[-63.20644,10.54204],[-63.25779,10.53603],[-63.25157,10.51895],[-63.24205,10.5203],[-63.24127,10.51412],[-63.25044,10.50876],[-63.24984,10.49254],[-63.28511,10.46583],[-63.28782,10.45388],[-63.29773,10.43763],[-63.30091,10.42062],[-63.26726,10.40893],[-63.26293,10.40509],[-63.24773,10.4021],[-63.22769,10.40442],[-63.22183,10.40291],[-63.21319,10.40821],[-63.19791,10.39673],[-63.19671,10.38724],[-63.21738,10.36076]]]}},{"type":"Feature","id":"relation/5805490","properties":{"name":"Municipio Montes","level":6},"geometry":{"type":"Polygon","coordinates":[[[-64.01029,10.37285],[-64.03888,10.36431],[-64.04009,10.34242],[-64.03827,10.34006],[-64.04153,10.33746],[-64.04184,10.33116],[-64.06643,10.30842],[-64.07216,10.27875],[-64.0855,10.25192],[-64.08909,10.23209],[-64.08711,10.22907],[-64.10744,10.21871],[-64.11255,10.21038],[-64.10939,10.18215],[-64.11531,10.17467],[-64.09851,10.14725],[-64.09997,10.09041],[-64.08344,10.09889],[-64.07889,10.09564],[-64.0714,10.09546],[-64.05233,10.09864],[-64.04794,10.1151],[-64.04114,10.11895],[-64.03199,10.12017],[-64.01675,10.11889],[-64.01364,10.11641],[-64.0125,10.11006],[-63.99951,10.10948],[-63.98743,10.11375],[-63.98024,10.10903],[-63.96198,10.10673],[-63.9589,10.09673],[-63.96227,10.08933],[-63.95863,10.08375],[-63.94328,10.08874],[-63.93346,10.08378],[-63.92344,10.09019],[-63.916,10.09268],[-63.9022,10.09274],[-63.8648,10.10696],[-63.85906,10.10539],[-63.84839,10.10887],[-63.84604,10.10585],[-63.84328,10.10764],[-63.83788,10.10574],[-63.82595,10.10935],[-63.82319,10.10562],[-63.81482,10.10393],[-63.80842,10.11452],[-63.81107,10.11953],[-63.7948,10.13765],[-63.79166,10.13583],[-63.78707,10.13702],[-63.7726,10.1442],[-63.77444,10.16055],[-63.77401,10.16317],[-63.76943,10.165],[-63.77067,10.16871],[-63.76863,10.17171],[-63.76363,10.17116],[-63.75762,10.17578],[-63.72843,10.18648],[-63.70455,10.19108],[-63.70365,10.19406],[-63.69883,10.19593],[-63.69879,10.20139],[-63.69298,10.20328],[-63.70369,10.23075],[-63.6987,10.24825],[-63.70522,10.25666],[-63.7084,10.25549],[-63.71626,10.26757],[-63.73584,10.27148],[-63.73462,10.28024],[-63.73645,10.28388],[-63.7396,10.28362],[-63.74851,10.30584],[-63.80091,10.29624],[-63.82185,10.32634],[-63.83133,10.33564],[-63.84496,10.34015],[-63.85265,10.34718],[-63.89636,10.33206],[-63.91455,10.34709],[-63.93833,10.35249],[-63.94575,10.34831],[-63.96888,10.35005],[-63.99283,10.35857],[-64.01029,10.37285]]]}}]}