{"type":"FeatureCollection","features":[{"type":"Feature","id":"node/333675723","properties":{"name":"Cuman\u00e1","place":"city","population":"374706"},"geometry":{"type":"Point","coordinates":[-64.1578,10.44957]}},{"type":"Feature","id":"node/671187622","properties":{"name":"R\u00edo Caribe","place":"city"},"geometry":{"type":"Point","coordinates":[-63.1064,10.69274]}},{"type":"Feature","id":"node/671188565","properties":{"name":"Puerto Santo","place":"village"},"geometry":{"type":"Point","coordinates":[-63.17088,10.70766]}},{"type":"Feature","id":"node/671193344","properties":{"name":"Araya","place":"town"},"geometry":{"type":"Point","coordinates":[-64.25724,10.57997]}},{"type":"Feature","id":"node/828957143","properties":{"name":"San Juan de Unare","place":"town"},"geometry":{"type":"Point","coordinates":[-62.73871,10.7488]}},{"type":"Feature","id":"node/1181327608","properties":{"name":"El Rinc\u00f3n","place":"village"},"geometry":{"type":"Point","coordinates":[-64.23585,10.6373]}},{"type":"Feature","id":"node/1181335917","properties":{"name":"Punta de Araya","place":"village"},"geometry":{"type":"Point","coordinates":[-64.28262,10.63925]}},{"type":"Feature","id":"node/1377255208","properties":{"name":"G\u00fciria","place":"city"},"geometry":{"type":"Point","coordinates":[-62.29929,10.57786]}},{"type":"Feature","id":"node/1433488807","properties":{"name":"Marig\u00fcitar","place":"town"},"geometry":{"type":"Point","coordinates":[-63.90397,10.44738]}},{"type":"Feature","id":"node/1433628205","properties":{"name":"Cariaco","place":"town","population":"15139"},"geometry":{"type":"Point","coordinates":[-63.55251,10.49589]}},{"type":"Feature","id":"node/2115130148","properties":{"name":"Playa Colorada","place":"town"},"geometry":{"type":"Point","coordinates":[-64.45152,10.25183]}},{"type":"Feature","id":"node/2348685811","properties":{"name":"Cumanacoa","place":"town","population":"5000"},"geometry":{"type":"Point","coordinates":[-63.91993,10.25129]}},{"type":"Feature","id":"node/2348760114","properties":{"name":"Arenas","place":"town","population":"1000"},"geometry":{"type":"Point","coordinates":[-63.93704,10.28278]}},{"type":"Feature","id":"node/2348760123","properties":{"name":"San Lorenzo","place":"town"},"geometry":{"type":"Point","coordinates":[-63.92578,10.22489]}},{"type":"Feature","id":"node/2419593750","properties":{"name":"Santa Fe","place":"town"},"geometry":{"type":"Point","coordinates":[-64.41799,10.27886]}},{"type":"Feature","id":"node/2449947057","properties":{"name":"Campearito","place":"village"},"geometry":{"type":"Point","coordinates":[-63.41579,10.38269]}},{"type":"Feature","id":"node/2449947061","properties":{"name":"La Palencia","place":"village"},"geometry":{"type":"Point","coordinates":[-63.1776,10.2116]}},{"type":"Feature","id":"node/2449947068","properties":{"name":"Rio Grande","place":"village"},"geometry":{"type":"Point","coordinates":[-63.3062,10.32251]}},{"type":"Feature","id":"node/2741576274","properties":{"name":"Yaguaraparo","place":"town","population":"12473"},"geometry":{"type":"Point","coordinates":[-62.82735,10.56992]}},{"type":"Feature","id":"node/3067725041","properties":{"name":"El Guamache","place":"village"},"geometry":{"type":"Point","coordinates":[-64.13875,10.61487]}},{"type":"Feature","id":"node/3067725043","properties":{"name":"Los Ca\u00f1ones","place":"village"},"geometry":{"type":"Point","coordinates":[-64.12244,10.57951]}},{"type":"Feature","id":"node/3067725044","properties":{"name":"Manicuare","place":"village"},"geometry":{"type":"Point","coordinates":[-64.20513,10.55464]}},{"type":"Feature","id":"node/3067725045","properties":{"name":"Merito","place":"village"},"geometry":{"type":"Point","coordinates":[-64.13413,10.57887]}},{"type":"Feature","id":"node/3067725046","properties":{"name":"Punta Angoleta","place":"village"},"geometry":{"type":"Point","coordinates":[-64.11638,10.56631]}},{"type":"Feature","id":"node/3067725047","properties":{"name":"Tacarigua","place":"village"},"geometry":{"type":"Point","coordinates":[-64.16583,10.57166]}},{"type":"Feature","id":"node/3126438433","properties":{"name":"Irapa","place":"town"},"geometry":{"type":"Point","coordinates":[-62.58179,10.57608]}},{"type":"Feature","id":"node/3126484745","properties":{"name":"Sabana del P\u00edo","place":"village"},"geometry":{"type":"Point","coordinates":[-62.43435,10.60687]}},{"type":"Feature","id":"node/3126488081","properties":{"name":"Manacal","place":"village"},"geometry":{"type":"Point","coordinates":[-62.48025,10.60844]}},{"type":"Feature","id":"node/3734876491","properties":{"name":"R\u00edo de Oro","place":"village"},"geometry":{"type":"Point","coordinates":[-63.37832,10.41713]}},{"type":"Feature","id":"node/3734881063","properties":{"name":"San Bonifacio (Centro Poblado)","place":"village"},"geometry":{"type":"Point","coordinates":[-63.39613,10.36651]}},{"type":"Feature","id":"node/3734882063","properties":{"name":"Espuga","place":"village"},"geometry":{"type":"Point","coordinates":[-63.41616,10.40013]}},{"type":"Feature","id":"node/3734882477","properties":{"name":"Santa Rosa Abajo","place":"village"},"geometry":{"type":"Point","coordinates":[-63.39252,10.4146]}},{"type":"Feature","id":"node/3734885206","properties":{"name":"El Tigre","place":"village"},"geometry":{"type":"Point","coordinates":[-63.37021,10.41338]}},{"type":"Feature","id":"node/3736561330","properties":{"name":"Las Toscanas","place":"village"},"geometry":{"type":"Point","coordinates":[-63.36664,10.51441]}},{"type":"Feature","id":"node/3736631583","properties":{"name":"Botuco Arriba","place":"village"},"geometry":{"type":"Point","coordinates":[-63.35985,10.51035]}},{"type":"Feature","id":"node/3736631584","properties":{"name":"Botuco Abajo","place":"village"},"geometry":{"type":"Point","coordinates":[-63.35629,10.51446]}},{"type":"Feature","id":"node/3737884138","properties":{"name":"Las Piedras","place":"town"},"geometry":{"type":"Point","coordinates":[-63.80446,10.16143]}},{"type":"Feature","id":"node/3758943949","properties":{"name":"Corozal de Las Tablas","place":"village"},"geometry":{"type":"Point","coordinates":[-63.37227,10.45493]}},{"type":"Feature","id":"node/3758946403","properties":{"name":"Carrizal de Las Minas","place":"village"},"geometry":{"type":"Point","coordinates":[-63.39315,10.4593]}},{"type":"Feature","id":"node/3758946404","properties":{"name":"Las Minas","place":"village"},"geometry":{"type":"Point","coordinates":[-63.40354,10.44472]}},{"type":"Feature","id":"node/3780796577","properties":{"name":"Blanco Lugar","place":"village"},"geometry":{"type":"Point","coordinates":[-63.35635,10.49853]}},{"type":"Feature","id":"node/3780831965","properties":{"name":"Punta Brava","place":"village"},"geometry":{"type":"Point","coordinates":[-63.36327,10.4921]}},{"type":"Feature","id":"node/3780905532","properties":{"name":"Pica de Catuaro Abajo","place":"village"},"geometry":{"type":"Point","coordinates":[-63.44194,10.42774]}},{"type":"Feature","id":"node/3782644749","properties":{"name":"Catuaro","place":"village"},"geometry":{"type":"Point","coordinates":[-63.50155,10.39704]}},{"type":"Feature","id":"node/3783229712","properties":{"name":"Agua Clarita","place":"village"},"geometry":{"type":"Point","coordinates":[-63.35485,10.41241]}},{"type":"Feature","id":"node/3783231274","properties":{"name":"Aguas Caliente de Meremere","place":"village"},"geometry":{"type":"Point","coordinates":[-63.34077,10.41098]}},{"type":"Feature","id":"node/3783232424","properties":{"name":"R\u00edo Largo","place":"village"},"geometry":{"type":"Point","coordinates":[-63.31126,10.41334]}},{"type":"Feature","id":"node/3783232425","properties":{"name":"Putucual","place":"village"},"geometry":{"type":"Point","coordinates":[-63.30117,10.41166]}},{"type":"Feature","id":"node/3783232426","properties":{"name":"El Zancudo","place":"village"},"geometry":{"type":"Point","coordinates":[-63.29192,10.40377]}},{"type":"Feature","id":"node/3783232427","properties":{"name":"Los Cauchos","place":"village"},"geometry":{"type":"Point","coordinates":[-63.28094,10.40525]}},{"type":"Feature","id":"node/3783281895","properties":{"name":"R\u00edo Chiquito","place":"village"},"geometry":{"type":"Point","coordinates":[-63.33049,10.42089]}},{"type":"Feature","id":"node/3783312862","properties":{"name":"Cangrejal","place":"village"},"geometry":{"type":"Point","coordinates":[-63.32035,10.46886]}},{"type":"Feature","id":"node/3783600462","properties":{"name":"Las Varas","place":"village"},"geometry":{"type":"Point","coordinates":[-63.39835,10.49051]}},{"type":"Feature","id":"node/3783600463","properties":{"name":"Alto Sucre","place":"village"},"geometry":{"type":"Point","coordinates":[-63.38779,10.49502]}},{"type":"Feature","id":"node/3783600464","properties":{"name":"Cede\u00f1o de Los Negros","place":"village"},"geometry":{"type":"Point","coordinates":[-63.39235,10.47656]}},{"type":"Feature","id":"node/3783600465","properties":{"name":"Los P\u00e1jaros de Corozal","place":"village"},"geometry":{"type":"Point","coordinates":[-63.3685,10.44596]}},{"type":"Feature","id":"node/3783726126","properties":{"name":"Cede\u00f1o de Los Blancos Abajo","place":"village"},"geometry":{"type":"Point","coordinates":[-63.33915,10.49301]}},{"type":"Feature","id":"node/3783726127","properties":{"name":"Cede\u00f1o de Los Blancos Arriba","place":"village"},"geometry":{"type":"Point","coordinates":[-63.34205,10.48522]}},{"type":"Feature","id":"node/3783772911","properties":{"name":"Los Cerritos","place":"village"},"geometry":{"type":"Point","coordinates":[-63.34206,10.50915]}},{"type":"Feature","id":"node/3783772912","properties":{"name":"Rio Casanay","place":"village"},"geometry":{"type":"Point","coordinates":[-63.33918,10.51497]}},{"type":"Feature","id":"node/3783772913","properties":{"name":"Santa Teresa","place":"village"},"geometry":{"type":"Point","coordinates":[-63.38009,10.51558]}},{"type":"Feature","id":"node/3783772914","properties":{"name":"Guarapiche","place":"town"},"geometry":{"type":"Point","coordinates":[-63.39113,10.51349]}},{"type":"Feature","id":"node/3786558764","properties":{"name":"El Escondido","place":"village"},"geometry":{"type":"Point","coordinates":[-63.27823,10.4213]}},{"type":"Feature","id":"node/3802250650","properties":{"name":"Panto\u00f1o","place":"town"},"geometry":{"type":"Point","coordinates":[-63.44628,10.48836]}},{"type":"Feature","id":"node/3802265209","properties":{"name":"Palo Rosal","place":"village"},"geometry":{"type":"Point","coordinates":[-63.46308,10.48376]}},{"type":"Feature","id":"node/3802278362","properties":{"name":"Santa Lucia Arriba","place":"village"},"geometry":{"type":"Point","coordinates":[-63.39898,10.42668]}},{"type":"Feature","id":"node/3802278363","properties":{"name":"Santa Lucia Abajo","place":"village"},"geometry":{"type":"Point","coordinates":[-63.39077,10.42246]}},{"type":"Feature","id":"node/3802278364","properties":{"name":"Santa Rosa Arriba","place":"village"},"geometry":{"type":"Point","coordinates":[-63.39818,10.40707]}},{"type":"Feature","id":"node/3802278365","properties":{"name":"Bolivita","place":"village"},"geometry":{"type":"Point","coordinates":[-63.38938,10.35491]}},{"type":"Feature","id":"node/3802278366","properties":{"name":"Juan Antonio","place":"village"},"geometry":{"type":"Point","coordinates":[-63.36766,10.35622]}},{"type":"Feature","id":"node/3802278367","properties":{"name":"Domingo","place":"village"},"geometry":{"type":"Point","coordinates":[-63.36372,10.35107]}},{"type":"Feature","id":"node/3802278368","properties":{"name":"Remigio","place":"village"},"geometry":{"type":"Point","coordinates":[-63.33811,10.33926]}},{"type":"Feature","id":"node/3802278369","properties":{"name":"Domingo","place":"village"},"geometry":{"type":"Point","coordinates":[-63.35286,10.33867]}},{"type":"Feature","id":"node/3802289283","properties":{"name":"El Tamarindo","place":"village"},"geometry":{"type":"Point","coordinates":[-63.30936,10.33081]}},{"type":"Feature","id":"node/3802289284","properties":{"name":"Agua Blanca","place":"village"},"geometry":{"type":"Point","coordinates":[-63.30189,10.31903]}},{"type":"Feature","id":"node/3802289285","properties":{"name":"Pueblo Nuevo","place":"village"},"geometry":{"type":"Point","coordinates":[-63.28679,10.31631]}},{"type":"Feature","id":"node/3802289286","properties":{"name":"Parare","place":"village"},"geometry":{"type":"Point","coordinates":[-63.27767,10.3117]}},{"type":"Feature","id":"node/3802289287","properties":{"name":"Costilla de Vaca","place":"village"},"geometry":{"type":"Point","coordinates":[-63.27094,10.31092]}},{"type":"Feature","id":"node/3802289288","properties":{"name":"Ca\u00f1o de Cruz","place":"village"},"geometry":{"type":"Point","coordinates":[-63.24776,10.30389]}},{"type":"Feature","id":"node/3802289289","properties":{"name":"Cerro Ca\u00f1o de Cruz","place":"village"},"geometry":{"type":"Point","coordinates":[-63.23546,10.29485]}},{"type":"Feature","id":"node/3802289290","properties":{"name":"Caliche","place":"village"},"geometry":{"type":"Point","coordinates":[-63.22912,10.29097]}},{"type":"Feature","id":"node/3802289291","properties":{"name":"R\u00edo Viejo","place":"village"},"geometry":{"type":"Point","coordinates":[-63.20488,10.24745]}},{"type":"Feature","id":"node/3802289292","properties":{"name":"R\u00edo Cristalino","place":"village"},"geometry":{"type":"Point","coordinates":[-63.21023,10.25003]}},{"type":"Feature","id":"node/3802289293","properties":{"name":"Carrizales","place":"village"},"geometry":{"type":"Point","coordinates":[-63.21197,10.25401]}},{"type":"Feature","id":"node/3802289294","properties":{"name":"Los Arenales","place":"village"},"geometry":{"type":"Point","coordinates":[-63.2161,10.26061]}},{"type":"Feature","id":"node/3802289295","properties":{"name":"Victoria","place":"village"},"geometry":{"type":"Point","coordinates":[-63.21999,10.27031]}},{"type":"Feature","id":"node/3816424158","properties":{"name":"Chacopata","place":"town","population":"2189"},"geometry":{"type":"Point","coordinates":[-63.8178,10.67699]}},{"type":"Feature","id":"node/3864357775","properties":{"name":"Car\u00fapano","place":"city","population":"190000"},"geometry":{"type":"Point","coordinates":[-63.25423,10.64938]}},{"type":"Feature","id":"node/3867437606","properties":{"name":"El Pilar","place":"town"},"geometry":{"type":"Point","coordinates":[-63.1573,10.54973]}},{"type":"Feature","id":"node/3870074370","properties":{"name":"San Roque","place":"village"},"geometry":{"type":"Point","coordinates":[-63.28756,10.61729]}},{"type":"Feature","id":"node/3870107872","properties":{"name":"Guaca","place":"town"},"geometry":{"type":"Point","coordinates":[-63.39755,10.66928]}},{"type":"Feature","id":"node/3871665652","properties":{"name":"San Jos\u00e9 de Aerocuar","place":"town"},"geometry":{"type":"Point","coordinates":[-63.32234,10.6043]}},{"type":"Feature","id":"node/3875675796","properties":{"name":"El Charcal","place":"village"},"geometry":{"type":"Point","coordinates":[-63.24216,10.55957]}},{"type":"Feature","id":"node/3877463427","properties":{"name":"Puerto Viejo","place":"village"},"geometry":{"type":"Point","coordinates":[-62.47807,10.72225]}},{"type":"Feature","id":"node/3879176557","properties":{"name":"Mejillones","place":"village"},"geometry":{"type":"Point","coordinates":[-62.13984,10.69791]}},{"type":"Feature","id":"node/3879176559","properties":{"name":"R\u00edo Salado","place":"village"},"geometry":{"type":"Point","coordinates":[-62.26436,10.64267]}},{"type":"Feature","id":"node/3884198584","properties":{"name":"Casanay","place":"town","population":"10000"},"geometry":{"type":"Point","coordinates":[-63.41831,10.50419]}},{"type":"Feature","id":"node/3892655483","properties":{"name":"La Esmeralda","place":"town"},"geometry":{"type":"Point","coordinates":[-63.49031,10.63956]}},{"type":"Feature","id":"node/3895475526","properties":{"name":"Campoma","place":"village","population":"24443"},"geometry":{"type":"Point","coordinates":[-63.61349,10.50564]}},{"type":"Feature","id":"node/3897574057","properties":{"name":"Puerto de Hierro","place":"village","population":"5318"},"geometry":{"type":"Point","coordinates":[-62.08841,10.63599]}},{"type":"Feature","id":"node/3913334415","properties":{"name":"R\u00edo Seco","place":"village"},"geometry":{"type":"Point","coordinates":[-62.89698,10.59583]}},{"type":"Feature","id":"node/3913872298","properties":{"name":"Macuro","place":"village"},"geometry":{"type":"Point","coordinates":[-61.94201,10.66152]}},{"type":"Feature","id":"node/3916889290","properties":{"name":"El Paujil","place":"village"},"geometry":{"type":"Point","coordinates":[-62.71118,10.62453]}},{"type":"Feature","id":"node/3916899026","properties":{"name":"Agua Santa","place":"village"},"geometry":{"type":"Point","coordinates":[-62.92763,10.61349]}},{"type":"Feature","id":"node/3916899027","properties":{"name":"Bohordal","place":"village"},"geometry":{"type":"Point","coordinates":[-62.92928,10.59099]}},{"type":"Feature","id":"node/3916899028","properties":{"name":"R\u00edo del Medio","place":"village"},"geometry":{"type":"Point","coordinates":[-62.92022,10.60962]}},{"type":"Feature","id":"node/3917645592","properties":{"name":"Quebrada de la Ni\u00f1a","place":"village"},"geometry":{"type":"Point","coordinates":[-62.79161,10.60424]}},{"type":"Feature","id":"node/3917680849","properties":{"name":"Cachipal","place":"village"},"geometry":{"type":"Point","coordinates":[-62.77028,10.60749]}},{"type":"Feature","id":"node/3917700933","properties":{"name":"Quebrada Seca","place":"village"},"geometry":{"type":"Point","coordinates":[-62.7421,10.61027]}},{"type":"Feature","id":"node/3917700935","properties":{"name":"La Horqueta","place":"village"},"geometry":{"type":"Point","coordinates":[-62.83246,10.60964]}},{"type":"Feature","id":"node/3917700936","properties":{"name":"Pueblo Nuevo","place":"village"},"geometry":{"type":"Point","coordinates":[-62.8272,10.61558]}},{"type":"Feature","id":"node/3917700937","properties":{"name":"Quebrada de Piedra","place":"village"},"geometry":{"type":"Point","coordinates":[-62.83825,10.61049]}},{"type":"Feature","id":"node/3917700938","properties":{"name":"Tandeo","place":"village"},"geometry":{"type":"Point","coordinates":[-62.72509,10.61552]}},{"type":"Feature","id":"node/3936091496","properties":{"name":"El Morro de Puerto Santo","place":"town","population":"8268"},"geometry":{"type":"Point","coordinates":[-63.15847,10.71597]}},{"type":"Feature","id":"node/3960233439","properties":{"name":"Saucedo","place":"town","population":"3376"},"geometry":{"type":"Point","coordinates":[-63.53237,10.61905]}},{"type":"Feature","id":"node/3964513137","properties":{"name":"Guara\u00fanos","place":"village","population":"3670"},"geometry":{"type":"Point","coordinates":[-63.12428,10.55806]}},{"type":"Feature","id":"node/3964513138","properties":{"name":"Tunapuy","place":"town","population":"4595"},"geometry":{"type":"Point","coordinates":[-63.1087,10.57458]}},{"type":"Feature","id":"node/3994303957","properties":{"name":"Maturincito","place":"village"},"geometry":{"type":"Point","coordinates":[-63.18854,10.62062]}},{"type":"Feature","id":"node/4108884818","properties":{"name":"G\u00fciria de la Playa","place":"town"},"geometry":{"type":"Point","coordinates":[-63.33191,10.66702]}},{"type":"Feature","id":"node/4108884819","properties":{"name":"Patilla","place":"village"},"geometry":{"type":"Point","coordinates":[-63.36315,10.68207]}},{"type":"Feature","id":"node/4108884820","properties":{"name":"Puerto Mart\u00ednez","place":"village"},"geometry":{"type":"Point","coordinates":[-63.36116,10.6785]}},{"type":"Feature","id":"node/4108884821","properties":{"name":"Los Uveros","place":"town"},"geometry":{"type":"Point","coordinates":[-63.34808,10.67119]}},{"type":"Feature","id":"node/4111026196","properties":{"name":"Canaima","place":"village"},"geometry":{"type":"Point","coordinates":[-63.17947,10.62685]}},{"type":"Feature","id":"node/4111026197","properties":{"name":"Caratalito","place":"village"},"geometry":{"type":"Point","coordinates":[-63.21043,10.61586]}},{"type":"Feature","id":"node/4111026199","properties":{"name":"Chipichipe","place":"village","population":"2100"},"geometry":{"type":"Point","coordinates":[-63.21292,10.6393]}},{"type":"Feature","id":"node/4111026200","properties":{"name":"La Hoyada","place":"village"},"geometry":{"type":"Point","coordinates":[-63.20155,10.62602]}},{"type":"Feature","id":"node/4166227998","properties":{"name":"Copey","place":"village"},"geometry":{"type":"Point","coordinates":[-63.30207,10.66802]}},{"type":"Feature","id":"node/4198772323","properties":{"name":"Cariaquito","place":"town"},"geometry":{"type":"Point","coordinates":[-63.29909,10.61198]}},{"type":"Feature","id":"node/4249193708","properties":{"name":"Caimancito","place":"town"},"geometry":{"type":"Point","coordinates":[-63.89935,10.62554]}},{"type":"Feature","id":"node/4249193709","properties":{"name":"Chiguana","place":"village"},"geometry":{"type":"Point","coordinates":[-63.67598,10.49001]}},{"type":"Feature","id":"node/4249193710","properties":{"name":"Guacarapo","place":"village"},"geometry":{"type":"Point","coordinates":[-63.73804,10.49591]}},{"type":"Feature","id":"node/4249193711","properties":{"name":"La Angoleta","place":"village"},"geometry":{"type":"Point","coordinates":[-64.0673,10.57411]}},{"type":"Feature","id":"node/4249193714","properties":{"name":"Los Cachicatos","place":"village"},"geometry":{"type":"Point","coordinates":[-63.82959,10.55201]}},{"type":"Feature","id":"node/4249193715","properties":{"name":"Muelle de Cariaco","place":"village"},"geometry":{"type":"Point","coordinates":[-63.66312,10.47409]}},{"type":"Feature","id":"node/4249193716","properties":{"name":"Punto Nouvo","place":"village"},"geometry":{"type":"Point","coordinates":[-63.71514,10.49411]}},{"type":"Feature","id":"node/4249193717","properties":{"name":"Taguapire","place":"town"},"geometry":{"type":"Point","coordinates":[-64.01995,10.62983]}},{"type":"Feature","id":"node/4263323307","properties":{"name":"Santa Cruz","place":"village"},"geometry":{"type":"Point","coordinates":[-63.58055,10.34105]}},{"type":"Feature","id":"node/4268091265","properties":{"name":"Guaruta","place":"village"},"geometry":{"type":"Point","coordinates":[-63.35493,10.45138]}},{"type":"Feature","id":"node/4269982552","properties":{"name":"Juan S\u00e1nchez","place":"village"},"geometry":{"type":"Point","coordinates":[-63.3225,10.49061]}},{"type":"Feature","id":"node/4270015879","properties":{"name":"Nueva Colombia","place":"village"},"geometry":{"type":"Point","coordinates":[-63.30688,10.51577]}},{"type":"Feature","id":"node/4285039685","properties":{"name":"El Jobal","place":"village"},"geometry":{"type":"Point","coordinates":[-63.39955,10.54141]}},{"type":"Feature","id":"node/5244329223","properties":{"name":"San Antonio del Golfo","place":"town"},"geometry":{"type":"Point","coordinates":[-63.78716,10.4421]}},{"type":"Feature","id":"node/4297143535","properties":{"name":"El Toporo","place":"village"},"geometry":{"type":"Point","coordinates":[-63.33534,10.4571]}},{"type":"Feature","id":"node/4310007062","properties":{"name":"Soro","place":"town"},"geometry":{"type":"Point","coordinates":[-62.44559,10.54217]}},{"type":"Feature","id":"node/4310007146","properties":{"name":"Punta de Piedras","place":"village"},"geometry":{"type":"Point","coordinates":[-62.40703,10.55339]}},{"type":"Feature","id":"node/4310029003","properties":{"name":"Yoko","place":"town"},"geometry":{"type":"Point","coordinates":[-62.42508,10.61123]}},{"type":"Feature","id":"node/4314403795","properties":{"name":"La Invaci\u00f3n","place":"village"},"geometry":{"type":"Point","coordinates":[-63.24197,10.30374]}},{"type":"Feature","id":"node/4314428314","properties":{"name":"Los Cocos","place":"village"},"geometry":{"type":"Point","coordinates":[-63.19655,10.2332]}},{"type":"Feature","id":"node/4314428315","properties":{"name":"San Vicente","place":"village"},"geometry":{"type":"Point","coordinates":[-63.19414,10.22914]}},{"type":"Feature","id":"node/4314428316","properties":{"name":"Picapiedra","place":"village"},"geometry":{"type":"Point","coordinates":[-63.1914,10.2234]}},{"type":"Feature","id":"node/4314428317","properties":{"name":"Agua Blanca","place":"village"},"geometry":{"type":"Point","coordinates":[-63.18702,10.21764]}},{"type":"Feature","id":"node/4314428318","properties":{"name":"El Arado","place":"village"},"geometry":{"type":"Point","coordinates":[-63.14764,10.20021]}},{"type":"Feature","id":"node/4314428320","properties":{"name":"San Miguel","place":"village"},"geometry":{"type":"Point","coordinates":[-63.15817,10.19972]}},{"type":"Feature","id":"node/4314428321","properties":{"name":"R\u00edo del Medio","place":"village"},"geometry":{"type":"Point","coordinates":[-63.17103,10.20642]}},{"type":"Feature","id":"node/4314933533","properties":{"name":"El Mayar","place":"village"},"geometry":{"type":"Point","coordinates":[-63.42153,10.54078]}},{"type":"Feature","id":"node/4348622081","properties":{"name":"Santa B\u00e1rbara","place":"village"},"geometry":{"type":"Point","coordinates":[-63.32137,10.52046]}},{"type":"Feature","id":"node/4349033018","properties":{"name":"Aguas Calientes","place":"village"},"geometry":{"type":"Point","coordinates":[-63.48108,10.48522]}},{"type":"Feature","id":"node/4379719300","properties":{"name":"Aricagua","place":"town"},"geometry":{"type":"Point","coordinates":[-63.89785,10.24034]}},{"type":"Feature","id":"node/4379719301","properties":{"name":"San Salvador","place":"village"},"geometry":{"type":"Point","coordinates":[-63.90309,10.22858]}},{"type":"Feature","id":"node/4557415035","properties":{"name":"Lomas Emperadoras","place":"village"},"geometry":{"type":"Point","coordinates":[-63.33556,10.57983]}},{"type":"Feature","id":"node/4557415036","properties":{"name":"San Antonio","place":"village"},"geometry":{"type":"Point","coordinates":[-63.34164,10.54842]}},{"type":"Feature","id":"node/4557415037","properties":{"name":"Pe\u00f1a del Zulia","place":"village"},"geometry":{"type":"Point","coordinates":[-63.28154,10.55836]}},{"type":"Feature","id":"node/4557415038","properties":{"name":"Fuente de Lourdes","place":"village"},"geometry":{"type":"Point","coordinates":[-63.2995,10.54178]}},{"type":"Feature","id":"node/4557415039","properties":{"name":"Campeare","place":"village"},"geometry":{"type":"Point","coordinates":[-63.33369,10.53872]}},{"type":"Feature","id":"node/4564195470","properties":{"name":"Pe\u00f1as Blancas","place":"village"},"geometry":{"type":"Point","coordinates":[-63.96646,10.44652]}},{"type":"Feature","id":"node/4564195621","properties":{"name":"Pozo Colorado","place":"village"},"geometry":{"type":"Point","coordinates":[-63.32065,10.66574]}},{"type":"Feature","id":"node/4592063306","properties":{"name":"La Sierra","place":"village"},"geometry":{"type":"Point","coordinates":[-63.18215,10.64501]}},{"type":"Feature","id":"node/4592063459","properties":{"name":"El Rinc\u00f3n","place":"village"},"geometry":{"type":"Point","coordinates":[-63.19892,10.59414]}},{"type":"Feature","id":"node/4679043217","properties":{"name":"Cogollar","place":"village"},"geometry":{"type":"Point","coordinates":[-63.81502,10.17535]}},{"type":"Feature","id":"node/4686145234","properties":{"name":"Santa Mar\u00eda","place":"town"},"geometry":{"type":"Point","coordinates":[-63.59118,10.28682]}},{"type":"Feature","id":"node/4702145148","properties":{"name":"Cerezal","place":"village"},"geometry":{"type":"Point","coordinates":[-63.58132,10.48276]}},{"type":"Feature","id":"node/4818811652","properties":{"name":"Copacabana","place":"village"},"geometry":{"type":"Point","coordinates":[-63.31528,10.66777]}},{"type":"Feature","id":"node/4840418139","properties":{"name":"Las Pionas","place":"village"},"geometry":{"type":"Point","coordinates":[-63.35416,10.64985]}},{"type":"Feature","id":"node/4879135181","properties":{"name":"Playa Grande","place":"town"},"geometry":{"type":"Point","coordinates":[-63.28491,10.65441]}},{"type":"Feature","id":"node/4884740083","properties":{"name":"Hueso de Mula","place":"village"},"geometry":{"type":"Point","coordinates":[-63.34579,10.57916]}},{"type":"Feature","id":"node/4884740084","properties":{"name":"Hueso de Mato","place":"village"},"geometry":{"type":"Point","coordinates":[-63.3429,10.59095]}},{"type":"Feature","id":"node/5022807710","properties":{"name":"La Pastora","place":"village"},"geometry":{"type":"Point","coordinates":[-63.16465,10.49912]}},{"type":"Feature","id":"node/5022807711","properties":{"name":"Russian","place":"village"},"geometry":{"type":"Point","coordinates":[-63.1719,10.49603]}},{"type":"Feature","id":"node/5022807712","properties":{"name":"Guatamare","place":"village"},"geometry":{"type":"Point","coordinates":[-63.1674,10.50764]}},{"type":"Feature","id":"node/5022807713","properties":{"name":"Los Pozotes","place":"village"},"geometry":{"type":"Point","coordinates":[-63.13804,10.50807]}},{"type":"Feature","id":"node/5022807714","properties":{"name":"Valle Solo","place":"village"},"geometry":{"type":"Point","coordinates":[-63.14568,10.50511]}},{"type":"Feature","id":"node/5022807716","properties":{"name":"El Palmar","place":"village"},"geometry":{"type":"Point","coordinates":[-63.19868,10.51722]}},{"type":"Feature","id":"node/5022807719","properties":{"name":"La Cantina","place":"village"},"geometry":{"type":"Point","coordinates":[-63.18501,10.56273]}},{"type":"Feature","id":"node/5022807720","properties":{"name":"Guasimal","place":"village"},"geometry":{"type":"Point","coordinates":[-63.19542,10.56688]}},{"type":"Feature","id":"node/5022808421","properties":{"name":"San Basilio","place":"village"},"geometry":{"type":"Point","coordinates":[-63.20063,10.57458]}},{"type":"Feature","id":"node/5022808422","properties":{"name":"La Laguna","place":"village"},"geometry":{"type":"Point","coordinates":[-63.20211,10.58268]}},{"type":"Feature","id":"node/5022808423","properties":{"name":"Chuparipal","place":"village"},"geometry":{"type":"Point","coordinates":[-63.2163,10.56614]}},{"type":"Feature","id":"node/5022808462","properties":{"name":"Quebrada \u00d1o Carlos","place":"village"},"geometry":{"type":"Point","coordinates":[-63.05127,10.58164]}},{"type":"Feature","id":"node/5022808524","properties":{"name":"Quebrada de Los Rojos","place":"village"},"geometry":{"type":"Point","coordinates":[-63.002,10.58129]}},{"type":"Feature","id":"node/5022808525","properties":{"name":"R\u00edo de Agua","place":"village"},"geometry":{"type":"Point","coordinates":[-62.97183,10.58435]}},{"type":"Feature","id":"node/5022808526","properties":{"name":"Guayana","place":"village"},"geometry":{"type":"Point","coordinates":[-62.94405,10.58904]}},{"type":"Feature","id":"node/5022808542","properties":{"name":"Tunapuicito","place":"village"},"geometry":{"type":"Point","coordinates":[-63.13098,10.58812]}},{"type":"Feature","id":"node/5022808543","properties":{"name":"Cachicamo","place":"village"},"geometry":{"type":"Point","coordinates":[-63.13566,10.5792]}},{"type":"Feature","id":"node/5022808545","properties":{"name":"Los Arroyos","place":"village"},"geometry":{"type":"Point","coordinates":[-63.13442,10.56481]}},{"type":"Feature","id":"node/5022808546","properties":{"name":"Catuaro Abajo","place":"village"},"geometry":{"type":"Point","coordinates":[-63.07955,10.57731]}},{"type":"Feature","id":"node/5022808547","properties":{"name":"Aj\u00edes","place":"village"},"geometry":{"type":"Point","coordinates":[-63.09478,10.46089]}},{"type":"Feature","id":"node/5032740653","properties":{"name":"Sipara","place":"village"},"geometry":{"type":"Point","coordinates":[-62.70101,10.75154]}},{"type":"Feature","id":"node/5033338133","properties":{"name":"Jabillal","place":"village"},"geometry":{"type":"Point","coordinates":[-62.54925,10.7316]}},{"type":"Feature","id":"node/5033338410","properties":{"name":"Tacarigua","place":"village"},"geometry":{"type":"Point","coordinates":[-62.58639,10.73509]}},{"type":"Feature","id":"node/5033338411","properties":{"name":"Puerto La Cruz","place":"village"},"geometry":{"type":"Point","coordinates":[-62.576,10.73547]}},{"type":"Feature","id":"node/5109489815","properties":{"name":"Guariqu\u00e9n","place":"village"},"geometry":{"type":"Point","coordinates":[-62.93546,10.26173]}},{"type":"Feature","id":"node/5109502728","properties":{"name":"Guanoco","place":"village"},"geometry":{"type":"Point","coordinates":[-62.93592,10.1507]}},{"type":"Feature","id":"node/5244329224","properties":{"name":"Terranova","place":"village"},"geometry":{"type":"Point","coordinates":[-63.61595,10.48236]}},{"type":"Feature","id":"node/5245685383","properties":{"name":"San Juan de las Galdonas","place":"town"},"geometry":{"type":"Point","coordinates":[-62.84615,10.70949]}},{"type":"Feature","id":"node/5302068508","properties":{"name":"Bella Vista","place":"town"},"geometry":{"type":"Point","coordinates":[-64.30185,10.32865]}},{"type":"Feature","id":"node/5302068510","properties":{"name":"Plan de La Mesa","place":"village"},"geometry":{"type":"Point","coordinates":[-64.28903,10.3389]}},{"type":"Feature","id":"node/5302068511","properties":{"name":"Barbacoas","place":"town"},"geometry":{"type":"Point","coordinates":[-64.27358,10.35927]}},{"type":"Feature","id":"node/5302068730","properties":{"name":"El Tacal","place":"town"},"geometry":{"type":"Point","coordinates":[-64.23769,10.39667]}},{"type":"Feature","id":"node/5314800023","properties":{"name":"Chamariapa Afuera","place":"village"},"geometry":{"type":"Point","coordinates":[-63.5314,10.54727]}},{"type":"Feature","id":"node/5314800024","properties":{"name":"Chamariapa G\u00fciria","place":"village"},"geometry":{"type":"Point","coordinates":[-63.5223,10.57248]}},{"type":"Feature","id":"node/5314800025","properties":{"name":"Soledad de Cariaco","place":"village"},"geometry":{"type":"Point","coordinates":[-63.54002,10.58488]}},{"type":"Feature","id":"node/5333167192","properties":{"name":"Mochima","place":"village","population":"450"},"geometry":{"type":"Point","coordinates":[-64.34117,10.34663]}},{"type":"Feature","id":"node/5375295631","properties":{"name":"Guayac\u00e1n","place":"town"},"geometry":{"type":"Point","coordinates":[-63.83065,10.64838]}},{"type":"Feature","id":"node/5407170598","properties":{"name":"El Cord\u00f3n de Cariaco","place":"village"},"geometry":{"type":"Point","coordinates":[-63.5537,10.47396]}},{"type":"Feature","id":"node/5407170600","properties":{"name":"Villa Caldera","place":"village"},"geometry":{"type":"Point","coordinates":[-63.49765,10.49489]}},{"type":"Feature","id":"node/5407170601","properties":{"name":"Queremene","place":"village"},"geometry":{"type":"Point","coordinates":[-63.58696,10.50637]}},{"type":"Feature","id":"node/5407170602","properties":{"name":"Morahal","place":"village"},"geometry":{"type":"Point","coordinates":[-63.65449,10.55227]}},{"type":"Feature","id":"node/5438122500","properties":{"name":"Guanoquito","place":"village"},"geometry":{"type":"Point","coordinates":[-63.32108,10.54522]}},{"type":"Feature","id":"node/5453951475","properties":{"name":"San Juan","place":"town"},"geometry":{"type":"Point","coordinates":[-64.18403,10.36123]}},{"type":"Feature","id":"node/5453951476","properties":{"name":"Las Vegas","place":"village"},"geometry":{"type":"Point","coordinates":[-64.18111,10.36839]}},{"type":"Feature","id":"node/5453951477","properties":{"name":"San Juan Viejo","place":"village"},"geometry":{"type":"Point","coordinates":[-64.18629,10.34569]}},{"type":"Feature","id":"node/5453951478","properties":{"name":"Guaranache","place":"town"},"geometry":{"type":"Point","coordinates":[-64.20764,10.32342]}},{"type":"Feature","id":"node/5453951479","properties":{"name":"Sabaneta","place":"village"},"geometry":{"type":"Point","coordinates":[-64.25671,10.32062]}},{"type":"Feature","id":"node/5453952944","properties":{"name":"Los Ipures","place":"village"},"geometry":{"type":"Point","coordinates":[-64.17232,10.36657]}},{"type":"Feature","id":"node/5453952945","properties":{"name":"Chirgua","place":"village"},"geometry":{"type":"Point","coordinates":[-64.17642,10.35777]}},{"type":"Feature","id":"node/5453952946","properties":{"name":"Mochimita","place":"village"},"geometry":{"type":"Point","coordinates":[-64.16903,10.35017]}},{"type":"Feature","id":"node/5453952947","properties":{"name":"Valle Hondo","place":"village"},"geometry":{"type":"Point","coordinates":[-64.14966,10.35165]}},{"type":"Feature","id":"node/5453952948","properties":{"name":"Barrancas","place":"village"},"geometry":{"type":"Point","coordinates":[-64.14159,10.3442]}},{"type":"Feature","id":"node/5453952949","properties":{"name":"San Agust\u00edn","place":"village"},"geometry":{"type":"Point","coordinates":[-64.12084,10.34354]}},{"type":"Feature","id":"node/5453952950","properties":{"name":"Canifle","place":"village"},"geometry":{"type":"Point","coordinates":[-64.10762,10.34179]}},{"type":"Feature","id":"node/5453952951","properties":{"name":"Agua Santa","place":"village"},"geometry":{"type":"Point","coordinates":[-64.11466,10.34806]}},{"type":"Feature","id":"node/5453952952","properties":{"name":"Colorado","place":"village"},"geometry":{"type":"Point","coordinates":[-64.09833,10.34088]}},{"type":"Feature","id":"node/5453952953","properties":{"name":"Taracual","place":"village"},"geometry":{"type":"Point","coordinates":[-64.0849,10.34103]}},{"type":"Feature","id":"node/5453952954","properties":{"name":"Munegro","place":"village"},"geometry":{"type":"Point","coordinates":[-64.07477,10.34356]}},{"type":"Feature","id":"node/5453952955","properties":{"name":"El Chispero","place":"village"},"geometry":{"type":"Point","coordinates":[-64.08061,10.33102]}},{"type":"Feature","id":"node/5453952988","properties":{"name":"Rancher\u00eda","place":"village"},"geometry":{"type":"Point","coordinates":[-64.06516,10.34415]}},{"type":"Feature","id":"node/5453952989","properties":{"name":"Clavellino","place":"village"},"geometry":{"type":"Point","coordinates":[-64.04829,10.34059]}},{"type":"Feature","id":"node/5453952990","properties":{"name":"Cede\u00f1o","place":"village"},"geometry":{"type":"Point","coordinates":[-64.02651,10.33345]}},{"type":"Feature","id":"node/5453952991","properties":{"name":"El Chaco","place":"village"},"geometry":{"type":"Point","coordinates":[-64.00997,10.33134]}},{"type":"Feature","id":"node/5453952992","properties":{"name":"Pantanillo Adentro","place":"village"},"geometry":{"type":"Point","coordinates":[-64.11429,10.39858]}},{"type":"Feature","id":"node/5453952993","properties":{"name":"Canturria","place":"village"},"geometry":{"type":"Point","coordinates":[-64.10995,10.40331]}},{"type":"Feature","id":"node/5453952994","properties":{"name":"Ort\u00edz","place":"village"},"geometry":{"type":"Point","coordinates":[-64.08159,10.3906]}},{"type":"Feature","id":"node/5453952995","properties":{"name":"La Vaca","place":"village"},"geometry":{"type":"Point","coordinates":[-64.15503,10.3434]}},{"type":"Feature","id":"node/5453952996","properties":{"name":"Pie de Cuesta","place":"village"},"geometry":{"type":"Point","coordinates":[-63.98877,10.33123]}},{"type":"Feature","id":"node/5453952997","properties":{"name":"El Yaque","place":"village"},"geometry":{"type":"Point","coordinates":[-63.99602,10.32975]}},{"type":"Feature","id":"node/5453952998","properties":{"name":"Pie de Cuesta Arriba","place":"village"},"geometry":{"type":"Point","coordinates":[-63.98203,10.32304]}},{"type":"Feature","id":"node/5453952999","properties":{"name":"Bichoroco","place":"village"},"geometry":{"type":"Point","coordinates":[-63.96414,10.31839]}},{"type":"Feature","id":"node/5453953000","properties":{"name":"Vuelta de la Culebra","place":"village"},"geometry":{"type":"Point","coordinates":[-63.96974,10.32116]}},{"type":"Feature","id":"node/5453953001","properties":{"name":"Quebrada Seca (Villarroel)","place":"village"},"geometry":{"type":"Point","coordinates":[-63.95357,10.31464]}},{"type":"Feature","id":"node/5453953002","properties":{"name":"San Fernando","place":"village"},"geometry":{"type":"Point","coordinates":[-63.93565,10.3063]}},{"type":"Feature","id":"node/5453953003","properties":{"name":"La Pica","place":"village"},"geometry":{"type":"Point","coordinates":[-63.93966,10.29799]}},{"type":"Feature","id":"node/5453953005","properties":{"name":"El Palenque","place":"village"},"geometry":{"type":"Point","coordinates":[-63.93552,10.29408]}},{"type":"Feature","id":"node/5453953008","properties":{"name":"Cangrejal","place":"village"},"geometry":{"type":"Point","coordinates":[-63.96247,10.28458]}},{"type":"Feature","id":"node/5453953009","properties":{"name":"Los Pi\u00f1ones","place":"village"},"geometry":{"type":"Point","coordinates":[-63.98693,10.28221]}},{"type":"Feature","id":"node/5453953010","properties":{"name":"Bejucal","place":"village"},"geometry":{"type":"Point","coordinates":[-63.92218,10.28738]}},{"type":"Feature","id":"node/5453953011","properties":{"name":"Los Cedros","place":"village"},"geometry":{"type":"Point","coordinates":[-63.92426,10.2767]}},{"type":"Feature","id":"node/5453953012","properties":{"name":"La Guayana","place":"village"},"geometry":{"type":"Point","coordinates":[-63.92917,10.274]}},{"type":"Feature","id":"node/5453953014","properties":{"name":"Higuerote","place":"village"},"geometry":{"type":"Point","coordinates":[-63.91246,10.26332]}},{"type":"Feature","id":"node/5459248198","properties":{"name":"Sotillo","place":"village"},"geometry":{"type":"Point","coordinates":[-64.00364,10.40998]}},{"type":"Feature","id":"node/5459248208","properties":{"name":"Barranqu\u00edn","place":"village"},"geometry":{"type":"Point","coordinates":[-64.08663,10.36934]}},{"type":"Feature","id":"node/5459248723","properties":{"name":"La Monta\u00f1a","place":"village"},"geometry":{"type":"Point","coordinates":[-64.23475,10.38119]}},{"type":"Feature","id":"node/5459248734","properties":{"name":"Corozal","place":"village"},"geometry":{"type":"Point","coordinates":[-64.31568,10.33909]}},{"type":"Feature","id":"node/5459265864","properties":{"name":"Nurucual","place":"town"},"geometry":{"type":"Point","coordinates":[-64.38236,10.28449]}},{"type":"Feature","id":"node/5459265865","properties":{"name":"Yaguaracual","place":"town"},"geometry":{"type":"Point","coordinates":[-64.34288,10.30878]}},{"type":"Feature","id":"node/5459265866","properties":{"name":"El Marqu\u00e9s","place":"village"},"geometry":{"type":"Point","coordinates":[-64.35702,10.30413]}},{"type":"Feature","id":"node/5462016664","properties":{"name":"Orinoco","place":"village"},"geometry":{"type":"Point","coordinates":[-63.9053,10.21445]}},{"type":"Feature","id":"node/5462016665","properties":{"name":"El Yaque","place":"village"},"geometry":{"type":"Point","coordinates":[-63.8852,10.21859]}},{"type":"Feature","id":"node/5462016666","properties":{"name":"Los Dos Caminos","place":"village"},"geometry":{"type":"Point","coordinates":[-63.87054,10.21562]}},{"type":"Feature","id":"node/5462016667","properties":{"name":"Perfecto","place":"village"},"geometry":{"type":"Point","coordinates":[-63.86505,10.20939]}},{"type":"Feature","id":"node/5462016668","properties":{"name":"El Cacho","place":"village"},"geometry":{"type":"Point","coordinates":[-63.86198,10.19849]}},{"type":"Feature","id":"node/5462016669","properties":{"name":"Los Chorros","place":"village"},"geometry":{"type":"Point","coordinates":[-63.85584,10.19139]}},{"type":"Feature","id":"node/5462016670","properties":{"name":"Los Mangos","place":"village"},"geometry":{"type":"Point","coordinates":[-63.83649,10.17154]}},{"type":"Feature","id":"node/5462016682","properties":{"name":"Cuesta Abajo","place":"village"},"geometry":{"type":"Point","coordinates":[-63.84609,10.16418]}},{"type":"Feature","id":"node/5462016684","properties":{"name":"La Soledad","place":"village"},"geometry":{"type":"Point","coordinates":[-63.77713,10.16414]}},{"type":"Feature","id":"node/5462016754","properties":{"name":"El Encanto","place":"village"},"geometry":{"type":"Point","coordinates":[-63.57144,10.25611]}},{"type":"Feature","id":"node/5462016765","properties":{"name":"Los Cachimbos","place":"village"},"geometry":{"type":"Point","coordinates":[-63.59882,10.29779]}},{"type":"Feature","id":"node/5462016777","properties":{"name":"Mata de Mango","place":"village"},"geometry":{"type":"Point","coordinates":[-63.60746,10.30649]}},{"type":"Feature","id":"node/5462016796","properties":{"name":"La Fundaci\u00f3n","place":"village"},"geometry":{"type":"Point","coordinates":[-63.63517,10.29946]}},{"type":"Feature","id":"node/5462016797","properties":{"name":"Crucero","place":"village"},"geometry":{"type":"Point","coordinates":[-63.6195,10.30649]}},{"type":"Feature","id":"node/5462016825","properties":{"name":"Santa Ana","place":"village"},"geometry":{"type":"Point","coordinates":[-63.65353,10.30704]}},{"type":"Feature","id":"node/5462016826","properties":{"name":"El Lim\u00f3n","place":"village"},"geometry":{"type":"Point","coordinates":[-63.65531,10.32093]}},{"type":"Feature","id":"node/5462016827","properties":{"name":"Los Altos de Santa Mar\u00eda","place":"village"},"geometry":{"type":"Point","coordinates":[-63.59766,10.31428]}},{"type":"Feature","id":"node/5462016828","properties":{"name":"Potrerito","place":"village"},"geometry":{"type":"Point","coordinates":[-63.56358,10.32036]}},{"type":"Feature","id":"node/5462016829","properties":{"name":"Las Amanitas","place":"village"},"geometry":{"type":"Point","coordinates":[-63.55755,10.30214]}},{"type":"Feature","id":"node/5462016830","properties":{"name":"Agua Caliente","place":"village"},"geometry":{"type":"Point","coordinates":[-63.54258,10.31297]}},{"type":"Feature","id":"node/5462016831","properties":{"name":"Tarpa","place":"village"},"geometry":{"type":"Point","coordinates":[-63.58193,10.35734]}},{"type":"Feature","id":"node/5462016832","properties":{"name":"Buena Vista","place":"village"},"geometry":{"type":"Point","coordinates":[-63.60703,10.35464]}},{"type":"Feature","id":"node/5462016833","properties":{"name":"Los Carrizales","place":"village"},"geometry":{"type":"Point","coordinates":[-63.62143,10.36357]}},{"type":"Feature","id":"node/5462016834","properties":{"name":"R\u00edo Grande","place":"village"},"geometry":{"type":"Point","coordinates":[-63.63476,10.38621]}},{"type":"Feature","id":"node/5462016835","properties":{"name":"Quebrada Seca","place":"village"},"geometry":{"type":"Point","coordinates":[-63.63941,10.40466]}},{"type":"Feature","id":"node/5462016836","properties":{"name":"Santa Isabel","place":"village"},"geometry":{"type":"Point","coordinates":[-63.62448,10.42178]}},{"type":"Feature","id":"node/5462016837","properties":{"name":"Jabillar","place":"village"},"geometry":{"type":"Point","coordinates":[-63.62186,10.43172]}},{"type":"Feature","id":"node/5462016838","properties":{"name":"Blascoa","place":"village"},"geometry":{"type":"Point","coordinates":[-63.63433,10.4525]}},{"type":"Feature","id":"node/5462016839","properties":{"name":"El Amparo","place":"village"},"geometry":{"type":"Point","coordinates":[-63.53908,10.36439]}},{"type":"Feature","id":"node/5462016840","properties":{"name":"El Toro","place":"village"},"geometry":{"type":"Point","coordinates":[-63.56139,10.352]}},{"type":"Feature","id":"node/5462016841","properties":{"name":"La Sabaneta","place":"village"},"geometry":{"type":"Point","coordinates":[-63.52159,10.38195]}},{"type":"Feature","id":"node/5462438360","properties":{"name":"Los Botones","place":"village"},"geometry":{"type":"Point","coordinates":[-63.7908,10.52906]}},{"type":"Feature","id":"node/5462438361","properties":{"name":"Los Manzanillos","place":"village"},"geometry":{"type":"Point","coordinates":[-63.80108,10.5375]}},{"type":"Feature","id":"node/5462438362","properties":{"name":"La Cagalona","place":"village"},"geometry":{"type":"Point","coordinates":[-63.81357,10.5463]}},{"type":"Feature","id":"node/5462438368","properties":{"name":"Punta Retama","place":"village"},"geometry":{"type":"Point","coordinates":[-63.8375,10.64253]}},{"type":"Feature","id":"node/5462438378","properties":{"name":"San Pedro","place":"village"},"geometry":{"type":"Point","coordinates":[-63.53685,10.43228]}},{"type":"Feature","id":"node/5462438380","properties":{"name":"Sabana de Brito","place":"village"},"geometry":{"type":"Point","coordinates":[-63.59715,10.43088]}},{"type":"Feature","id":"node/5462438390","properties":{"name":"Garrapata","place":"village"},"geometry":{"type":"Point","coordinates":[-63.54405,10.40964]}},{"type":"Feature","id":"node/5462438399","properties":{"name":"La Providencia","place":"village"},"geometry":{"type":"Point","coordinates":[-63.56654,10.36072]}},{"type":"Feature","id":"node/5462438406","properties":{"name":"Maremare","place":"village"},"geometry":{"type":"Point","coordinates":[-63.51711,10.32923]}},{"type":"Feature","id":"node/5462438409","properties":{"name":"El Maco","place":"village"},"geometry":{"type":"Point","coordinates":[-63.63287,10.44433]}},{"type":"Feature","id":"node/5462438418","properties":{"name":"La Ceiba","place":"village"},"geometry":{"type":"Point","coordinates":[-63.65159,10.41349]}},{"type":"Feature","id":"node/5462438437","properties":{"name":"Chorrer\u00f3n","place":"village"},"geometry":{"type":"Point","coordinates":[-63.74198,10.39041]}},{"type":"Feature","id":"node/5462438438","properties":{"name":"Los Pozos","place":"village"},"geometry":{"type":"Point","coordinates":[-63.71333,10.38727]}},{"type":"Feature","id":"node/5462438439","properties":{"name":"San Juan de Cot\u00faa","place":"village"},"geometry":{"type":"Point","coordinates":[-63.68546,10.37098]}},{"type":"Feature","id":"node/5462438440","properties":{"name":"Los Mangos","place":"village"},"geometry":{"type":"Point","coordinates":[-63.69502,10.37548]}},{"type":"Feature","id":"node/5462438441","properties":{"name":"El Cant\u00f3n","place":"village"},"geometry":{"type":"Point","coordinates":[-63.69686,10.36524]}},{"type":"Feature","id":"node/5462438444","properties":{"name":"Cascajal","place":"village"},"geometry":{"type":"Point","coordinates":[-63.7183,10.37147]}},{"type":"Feature","id":"node/5462438446","properties":{"name":"El Tigre","place":"village"},"geometry":{"type":"Point","coordinates":[-63.73182,10.36368]}},{"type":"Feature","id":"node/5462438448","properties":{"name":"El Picacho","place":"village"},"geometry":{"type":"Point","coordinates":[-63.75566,10.3732]}},{"type":"Feature","id":"node/5462438449","properties":{"name":"El Carmen","place":"village"},"geometry":{"type":"Point","coordinates":[-63.74064,10.36661]}},{"type":"Feature","id":"node/5462438452","properties":{"name":"Maurate","place":"village"},"geometry":{"type":"Point","coordinates":[-63.7491,10.3454]}},{"type":"Feature","id":"node/5462438453","properties":{"name":"Soledad","place":"village"},"geometry":{"type":"Point","coordinates":[-63.76634,10.42768]}},{"type":"Feature","id":"node/5462438457","properties":{"name":"La Cuchilla","place":"village"},"geometry":{"type":"Point","coordinates":[-63.7667,10.41209]}},{"type":"Feature","id":"node/5462438459","properties":{"name":"El Zamuro","place":"village"},"geometry":{"type":"Point","coordinates":[-63.77447,10.40995]}},{"type":"Feature","id":"node/5462438460","properties":{"name":"Vuelta Larga","place":"village"},"geometry":{"type":"Point","coordinates":[-63.77796,10.40329]}},{"type":"Feature","id":"node/5462438463","properties":{"name":"El Paradero","place":"village"},"geometry":{"type":"Point","coordinates":[-63.77291,10.38487]}},{"type":"Feature","id":"node/5462438464","properties":{"name":"Limonar","place":"village"},"geometry":{"type":"Point","coordinates":[-63.78873,10.37838]}},{"type":"Feature","id":"node/5462438465","properties":{"name":"Limonar Adentro","place":"village"},"geometry":{"type":"Point","coordinates":[-63.7803,10.36488]}},{"type":"Feature","id":"node/5462438477","properties":{"name":"Maturincito","place":"village"},"geometry":{"type":"Point","coordinates":[-63.81621,10.36072]}},{"type":"Feature","id":"node/5462438478","properties":{"name":"Pata de Gallina","place":"village"},"geometry":{"type":"Point","coordinates":[-63.81381,10.35023]}},{"type":"Feature","id":"node/5462438479","properties":{"name":"Guasimillas","place":"village"},"geometry":{"type":"Point","coordinates":[-63.82006,10.33861]}},{"type":"Feature","id":"node/5462438484","properties":{"name":"San Cayetano","place":"village"},"geometry":{"type":"Point","coordinates":[-63.83529,10.35471]}},{"type":"Feature","id":"node/5462438485","properties":{"name":"Caratal","place":"village"},"geometry":{"type":"Point","coordinates":[-63.84786,10.35102]}},{"type":"Feature","id":"node/5462438488","properties":{"name":"Monte Oscuro","place":"village"},"geometry":{"type":"Point","coordinates":[-63.86983,10.34571]}},{"type":"Feature","id":"node/5462438492","properties":{"name":"La Mojina","place":"village"},"geometry":{"type":"Point","coordinates":[-63.89919,10.40528]}},{"type":"Feature","id":"node/5462438505","properties":{"name":"La Soriora","place":"village"},"geometry":{"type":"Point","coordinates":[-63.8958,10.36802]}},{"type":"Feature","id":"node/5462438516","properties":{"name":"Las Mercedes","place":"village"},"geometry":{"type":"Point","coordinates":[-63.94205,10.36099]}},{"type":"Feature","id":"node/5462438520","properties":{"name":"Boca de la Auyama","place":"village"},"geometry":{"type":"Point","coordinates":[-63.96739,10.37521]}},{"type":"Feature","id":"node/5462438521","properties":{"name":"San Sim\u00f3n","place":"village"},"geometry":{"type":"Point","coordinates":[-63.957,10.38268]}},{"type":"Feature","id":"node/5462438522","properties":{"name":"La Soledad","place":"village"},"geometry":{"type":"Point","coordinates":[-63.97116,10.40391]}},{"type":"Feature","id":"node/5462438523","properties":{"name":"El Barrio","place":"village"},"geometry":{"type":"Point","coordinates":[-63.96532,10.385]}},{"type":"Feature","id":"node/5462438524","properties":{"name":"Corozal","place":"village"},"geometry":{"type":"Point","coordinates":[-63.96848,10.39456]}},{"type":"Feature","id":"node/5462438529","properties":{"name":"La Raya","place":"village"},"geometry":{"type":"Point","coordinates":[-63.57627,10.61802]}},{"type":"Feature","id":"node/5462438530","properties":{"name":"Rinconada","place":"village"},"geometry":{"type":"Point","coordinates":[-63.56149,10.60992]}},{"type":"Feature","id":"node/5462438531","properties":{"name":"El Silencio","place":"village"},"geometry":{"type":"Point","coordinates":[-63.54212,10.59722]}},{"type":"Feature","id":"node/5462438533","properties":{"name":"El Vicio","place":"village"},"geometry":{"type":"Point","coordinates":[-63.58102,10.57824]}},{"type":"Feature","id":"node/5464787999","properties":{"name":"Juasjuillar","place":"village"},"geometry":{"type":"Point","coordinates":[-63.69457,10.28341]}},{"type":"Feature","id":"node/5464788006","properties":{"name":"El Rinc\u00f3n","place":"village"},"geometry":{"type":"Point","coordinates":[-63.78338,10.33126]}},{"type":"Feature","id":"node/5464788009","properties":{"name":"Pata de Gallina","place":"village"},"geometry":{"type":"Point","coordinates":[-63.7944,10.30239]}},{"type":"Feature","id":"node/5464789423","properties":{"name":"San Ram\u00f3n","place":"village"},"geometry":{"type":"Point","coordinates":[-63.683,10.31943]}},{"type":"Feature","id":"node/5464789425","properties":{"name":"Los Muertos","place":"village"},"geometry":{"type":"Point","coordinates":[-63.66457,10.29401]}},{"type":"Feature","id":"node/5464789436","properties":{"name":"Palmarito","place":"village"},"geometry":{"type":"Point","coordinates":[-63.80555,10.27061]}},{"type":"Feature","id":"node/5464789437","properties":{"name":"Mulas Afuera","place":"village"},"geometry":{"type":"Point","coordinates":[-63.77683,10.26531]}},{"type":"Feature","id":"node/5464789438","properties":{"name":"Santa Elena","place":"village"},"geometry":{"type":"Point","coordinates":[-63.76768,10.25667]}},{"type":"Feature","id":"node/5464789441","properties":{"name":"La Lagunita","place":"village"},"geometry":{"type":"Point","coordinates":[-63.77306,10.24209]}},{"type":"Feature","id":"node/5464789442","properties":{"name":"Cacahual","place":"village"},"geometry":{"type":"Point","coordinates":[-63.7308,10.25264]}},{"type":"Feature","id":"node/5464789451","properties":{"name":"Vuelta Larga","place":"village"},"geometry":{"type":"Point","coordinates":[-63.78686,10.20586]}},{"type":"Feature","id":"node/5464789467","properties":{"name":"El Alivio","place":"village"},"geometry":{"type":"Point","coordinates":[-63.80401,10.17154]}},{"type":"Feature","id":"node/5464789479","properties":{"name":"Naranjal","place":"village"},"geometry":{"type":"Point","coordinates":[-63.83822,10.22514]}},{"type":"Feature","id":"node/5464789481","properties":{"name":"Buenos Aires","place":"village"},"geometry":{"type":"Point","coordinates":[-63.8283,10.20143]}},{"type":"Feature","id":"node/5464789485","properties":{"name":"Agua Blanca","place":"village"},"geometry":{"type":"Point","coordinates":[-63.82675,10.23609]}},{"type":"Feature","id":"node/5464789487","properties":{"name":"Bebedero","place":"village"},"geometry":{"type":"Point","coordinates":[-63.89741,10.24932]}},{"type":"Feature","id":"node/5464789488","properties":{"name":"Valle Grande","place":"village"},"geometry":{"type":"Point","coordinates":[-63.87568,10.25054]}},{"type":"Feature","id":"node/5464789489","properties":{"name":"Sotillo","place":"village"},"geometry":{"type":"Point","coordinates":[-63.86567,10.25693]}},{"type":"Feature","id":"node/5464789494","properties":{"name":"San Juanillo","place":"village"},"geometry":{"type":"Point","coordinates":[-63.87454,10.27677]}},{"type":"Feature","id":"node/5464789495","properties":{"name":"Pueblo Nuevo","place":"village"},"geometry":{"type":"Point","coordinates":[-63.86726,10.2777]}},{"type":"Feature","id":"node/5464789496","properties":{"name":"Contador","place":"village"},"geometry":{"type":"Point","coordinates":[-63.8604,10.28702]}},{"type":"Feature","id":"node/5464789498","properties":{"name":"El Potrero","place":"village"},"geometry":{"type":"Point","coordinates":[-63.83551,10.32596]}},{"type":"Feature","id":"node/5464789499","properties":{"name":"La Florida","place":"village"},"geometry":{"type":"Point","coordinates":[-63.84997,10.30823]}},{"type":"Feature","id":"node/5464789501","properties":{"name":"Los Mangos","place":"village"},"geometry":{"type":"Point","coordinates":[-63.87525,10.31153]}},{"type":"Feature","id":"node/5464789503","properties":{"name":"Maraca","place":"village"},"geometry":{"type":"Point","coordinates":[-63.88803,10.29746]}},{"type":"Feature","id":"node/5464789506","properties":{"name":"Los Cedros","place":"village"},"geometry":{"type":"Point","coordinates":[-63.90949,10.27218]}},{"type":"Feature","id":"node/5464789508","properties":{"name":"La Horqueta","place":"village"},"geometry":{"type":"Point","coordinates":[-63.8849,10.2782]}},{"type":"Feature","id":"node/5464789509","properties":{"name":"Caldera","place":"village"},"geometry":{"type":"Point","coordinates":[-63.89623,10.27709]}},{"type":"Feature","id":"node/5464789514","properties":{"name":"San Juan","place":"village"},"geometry":{"type":"Point","coordinates":[-63.90737,10.30973]}},{"type":"Feature","id":"node/5464789515","properties":{"name":"El Malpaso","place":"village"},"geometry":{"type":"Point","coordinates":[-63.90055,10.30728]}},{"type":"Feature","id":"node/5464789517","properties":{"name":"Guatamare","place":"village"},"geometry":{"type":"Point","coordinates":[-63.60129,10.25164]}},{"type":"Feature","id":"node/5464789519","properties":{"name":"El Tropez\u00f3n","place":"village"},"geometry":{"type":"Point","coordinates":[-63.60551,10.27219]}},{"type":"Feature","id":"node/5464789520","properties":{"name":"La Rinconada","place":"village"},"geometry":{"type":"Point","coordinates":[-63.63385,10.26586]}},{"type":"Feature","id":"node/5464789921","properties":{"name":"R\u00edo Macho","place":"village"},"geometry":{"type":"Point","coordinates":[-63.6225,10.24662]}},{"type":"Feature","id":"node/5464789939","properties":{"name":"Potrerito","place":"village"},"geometry":{"type":"Point","coordinates":[-63.58175,10.31492]}},{"type":"Feature","id":"node/5464790379","properties":{"name":"La Loma","place":"village"},"geometry":{"type":"Point","coordinates":[-63.91729,10.18044]}},{"type":"Feature","id":"node/5464790381","properties":{"name":"La Fragua","place":"village"},"geometry":{"type":"Point","coordinates":[-63.92179,10.20433]}},{"type":"Feature","id":"node/5464790382","properties":{"name":"Las Trincheras","place":"village"},"geometry":{"type":"Point","coordinates":[-63.92392,10.19292]}},{"type":"Feature","id":"node/5464790389","properties":{"name":"Corocito","place":"village"},"geometry":{"type":"Point","coordinates":[-63.96671,10.25366]}},{"type":"Feature","id":"node/5464790390","properties":{"name":"Chaco Grande","place":"village"},"geometry":{"type":"Point","coordinates":[-63.97366,10.24474]}},{"type":"Feature","id":"node/5465464753","properties":{"name":"Mundo Nuevo","place":"village"},"geometry":{"type":"Point","coordinates":[-63.2507,10.51502]}},{"type":"Feature","id":"node/5465464756","properties":{"name":"Cacahual","place":"village"},"geometry":{"type":"Point","coordinates":[-63.49172,10.58263]}},{"type":"Feature","id":"node/5465464767","properties":{"name":"La Esperanza","place":"village"},"geometry":{"type":"Point","coordinates":[-63.36681,10.62462]}},{"type":"Feature","id":"node/5465464768","properties":{"name":"La Llanada de G\u00fciria","place":"village"},"geometry":{"type":"Point","coordinates":[-63.35542,10.63468]}},{"type":"Feature","id":"node/5465464776","properties":{"name":"Chacaracual","place":"village"},"geometry":{"type":"Point","coordinates":[-63.31856,10.57522]}},{"type":"Feature","id":"node/5465464777","properties":{"name":"Bijagual","place":"village"},"geometry":{"type":"Point","coordinates":[-63.32853,10.56132]}},{"type":"Feature","id":"node/5465464778","properties":{"name":"Los Mangos","place":"village"},"geometry":{"type":"Point","coordinates":[-63.33977,10.57146]}},{"type":"Feature","id":"node/5465464780","properties":{"name":"Buena Vista","place":"village"},"geometry":{"type":"Point","coordinates":[-63.36881,10.53918]}},{"type":"Feature","id":"node/5465464784","properties":{"name":"Las Tres Puertas","place":"village"},"geometry":{"type":"Point","coordinates":[-63.37757,10.55496]}},{"type":"Feature","id":"node/5465464786","properties":{"name":"Periquito (Areo)","place":"village"},"geometry":{"type":"Point","coordinates":[-63.36839,10.5733]}},{"type":"Feature","id":"node/5465464787","properties":{"name":"Sanguijuelas","place":"village"},"geometry":{"type":"Point","coordinates":[-63.35618,10.56358]}},{"type":"Feature","id":"node/5465464788","properties":{"name":"La Parima","place":"village"},"geometry":{"type":"Point","coordinates":[-63.35143,10.5567]}},{"type":"Feature","id":"node/5465464789","properties":{"name":"Manicuare","place":"village"},"geometry":{"type":"Point","coordinates":[-63.36138,10.55839]}},{"type":"Feature","id":"node/5465464791","properties":{"name":"Palo Sanal","place":"village"},"geometry":{"type":"Point","coordinates":[-63.33553,10.53799]}},{"type":"Feature","id":"node/5465464794","properties":{"name":"Revilla","place":"village"},"geometry":{"type":"Point","coordinates":[-63.30341,10.60002]}},{"type":"Feature","id":"node/5465464796","properties":{"name":"El Charcal","place":"village"},"geometry":{"type":"Point","coordinates":[-63.24606,10.57614]}},{"type":"Feature","id":"node/5465464797","properties":{"name":"Gran Pobre","place":"village"},"geometry":{"type":"Point","coordinates":[-63.25539,10.58436]}},{"type":"Feature","id":"node/5465464798","properties":{"name":"Loma del Carmen","place":"village"},"geometry":{"type":"Point","coordinates":[-63.29032,10.58398]}},{"type":"Feature","id":"node/5465464799","properties":{"name":"Mosc\u00fa","place":"village"},"geometry":{"type":"Point","coordinates":[-63.30142,10.57448]}},{"type":"Feature","id":"node/5465464800","properties":{"name":"Loma de Chuparipal","place":"village"},"geometry":{"type":"Point","coordinates":[-63.27038,10.57746]}},{"type":"Feature","id":"node/5465464801","properties":{"name":"Loma de Gran Pobre","place":"village"},"geometry":{"type":"Point","coordinates":[-63.25204,10.56342]}},{"type":"Feature","id":"node/5465464802","properties":{"name":"Loma de Mar\u00edn","place":"village"},"geometry":{"type":"Point","coordinates":[-63.30203,10.56429]}},{"type":"Feature","id":"node/5465464803","properties":{"name":"Guanoquito","place":"village"},"geometry":{"type":"Point","coordinates":[-63.31967,10.56038]}},{"type":"Feature","id":"node/5465464804","properties":{"name":"Campeare","place":"village"},"geometry":{"type":"Point","coordinates":[-63.31197,10.54696]}},{"type":"Feature","id":"node/5465464806","properties":{"name":"La Troja","place":"village"},"geometry":{"type":"Point","coordinates":[-63.31843,10.5105]}},{"type":"Feature","id":"node/5465464807","properties":{"name":"La Chara","place":"village"},"geometry":{"type":"Point","coordinates":[-63.29286,10.51672]}},{"type":"Feature","id":"node/5465464808","properties":{"name":"Los Teques","place":"village"},"geometry":{"type":"Point","coordinates":[-63.31192,10.52457]}},{"type":"Feature","id":"node/5465464809","properties":{"name":"El Jobo","place":"village"},"geometry":{"type":"Point","coordinates":[-63.28216,10.50888]}},{"type":"Feature","id":"node/5465464810","properties":{"name":"La Florida","place":"village"},"geometry":{"type":"Point","coordinates":[-63.29383,10.50626]}},{"type":"Feature","id":"node/5465464811","properties":{"name":"Galer\u00f3n","place":"village"},"geometry":{"type":"Point","coordinates":[-63.31036,10.50668]}},{"type":"Feature","id":"node/5465464812","properties":{"name":"Salobre","place":"village"},"geometry":{"type":"Point","coordinates":[-63.30528,10.50114]}},{"type":"Feature","id":"node/5465464813","properties":{"name":"Soro","place":"village"},"geometry":{"type":"Point","coordinates":[-63.31076,10.48518]}},{"type":"Feature","id":"node/5465464814","properties":{"name":"Chorochoro","place":"village"},"geometry":{"type":"Point","coordinates":[-63.28353,10.49174]}},{"type":"Feature","id":"node/5465464815","properties":{"name":"Campo Alegre","place":"village"},"geometry":{"type":"Point","coordinates":[-63.29571,10.48438]}},{"type":"Feature","id":"node/5465464816","properties":{"name":"Cangua","place":"village"},"geometry":{"type":"Point","coordinates":[-63.28983,10.4765]}},{"type":"Feature","id":"node/5465465523","properties":{"name":"Si Dios Quiere","place":"village"},"geometry":{"type":"Point","coordinates":[-63.26686,10.4953]}},{"type":"Feature","id":"node/5465465524","properties":{"name":"La Ceiba","place":"village"},"geometry":{"type":"Point","coordinates":[-63.26975,10.50492]}},{"type":"Feature","id":"node/5465465527","properties":{"name":"El Tropez\u00f3n","place":"village"},"geometry":{"type":"Point","coordinates":[-63.27402,10.53201]}},{"type":"Feature","id":"node/5465465528","properties":{"name":"La Pe\u00f1a de Pata","place":"village"},"geometry":{"type":"Point","coordinates":[-63.27365,10.54389]}},{"type":"Feature","id":"node/5465465535","properties":{"name":"El Algarrobito","place":"village"},"geometry":{"type":"Point","coordinates":[-63.20484,10.48677]}},{"type":"Feature","id":"node/5465465541","properties":{"name":"El Gu\u00e1rico","place":"village"},"geometry":{"type":"Point","coordinates":[-63.14428,10.64636]}},{"type":"Feature","id":"node/5465465542","properties":{"name":"La Pepita","place":"village"},"geometry":{"type":"Point","coordinates":[-63.15561,10.6355]}},{"type":"Feature","id":"node/5465465543","properties":{"name":"El Cuchape","place":"village"},"geometry":{"type":"Point","coordinates":[-63.13368,10.65456]}},{"type":"Feature","id":"node/5465465544","properties":{"name":"El Muco","place":"village"},"geometry":{"type":"Point","coordinates":[-63.15268,10.65968]}},{"type":"Feature","id":"node/5465465545","properties":{"name":"La Villa","place":"village"},"geometry":{"type":"Point","coordinates":[-63.15367,10.64935]}},{"type":"Feature","id":"node/5465465546","properties":{"name":"Juan Caribe","place":"village"},"geometry":{"type":"Point","coordinates":[-63.16796,10.66372]}},{"type":"Feature","id":"node/5465465550","properties":{"name":"R\u00edo Santiago","place":"village"},"geometry":{"type":"Point","coordinates":[-63.01795,10.64248]}},{"type":"Feature","id":"node/5465465551","properties":{"name":"La Concepci\u00f3n","place":"village"},"geometry":{"type":"Point","coordinates":[-63.01166,10.62976]}},{"type":"Feature","id":"node/5465465555","properties":{"name":"Manacal","place":"village"},"geometry":{"type":"Point","coordinates":[-63.04447,10.61726]}},{"type":"Feature","id":"node/5465465557","properties":{"name":"Quebrada Seca","place":"village"},"geometry":{"type":"Point","coordinates":[-63.05595,10.65483]}},{"type":"Feature","id":"node/5465465558","properties":{"name":"Chacaracual","place":"village"},"geometry":{"type":"Point","coordinates":[-63.03426,10.65392]}},{"type":"Feature","id":"node/5465465559","properties":{"name":"Catuaro","place":"village"},"geometry":{"type":"Point","coordinates":[-63.0451,10.64514]}},{"type":"Feature","id":"node/5465465560","properties":{"name":"Luc\u00eda","place":"village"},"geometry":{"type":"Point","coordinates":[-63.03407,10.63929]}},{"type":"Feature","id":"node/5465465563","properties":{"name":"R\u00edo Chiquito","place":"village"},"geometry":{"type":"Point","coordinates":[-63.05846,10.64427]}},{"type":"Feature","id":"node/5465465564","properties":{"name":"Catuarito","place":"village"},"geometry":{"type":"Point","coordinates":[-63.05743,10.63664]}},{"type":"Feature","id":"node/5465465567","properties":{"name":"Santa Mar\u00eda","place":"village"},"geometry":{"type":"Point","coordinates":[-63.0788,10.63035]}},{"type":"Feature","id":"node/5465465568","properties":{"name":"La Guaima","place":"village"},"geometry":{"type":"Point","coordinates":[-63.13473,10.63488]}},{"type":"Feature","id":"node/5465465569","properties":{"name":"Patucutal","place":"village"},"geometry":{"type":"Point","coordinates":[-63.09821,10.66348]}},{"type":"Feature","id":"node/5465465570","properties":{"name":"Mauraco","place":"village"},"geometry":{"type":"Point","coordinates":[-63.09124,10.65587]}},{"type":"Feature","id":"node/5465465572","properties":{"name":"Maraquito","place":"village"},"geometry":{"type":"Point","coordinates":[-63.10685,10.64675]}},{"type":"Feature","id":"node/5465465573","properties":{"name":"Mapurite","place":"village"},"geometry":{"type":"Point","coordinates":[-63.11773,10.64307]}},{"type":"Feature","id":"node/5465465575","properties":{"name":"El Papel\u00f3n","place":"village"},"geometry":{"type":"Point","coordinates":[-63.10308,10.62623]}},{"type":"Feature","id":"node/5465465576","properties":{"name":"Catuaro Arriba","place":"village"},"geometry":{"type":"Point","coordinates":[-63.07544,10.60317]}},{"type":"Feature","id":"node/5465465577","properties":{"name":"La Cumbre de Mariano Le\u00f3n","place":"village"},"geometry":{"type":"Point","coordinates":[-63.09425,10.61357]}},{"type":"Feature","id":"node/5465465578","properties":{"name":"La Coruma","place":"village"},"geometry":{"type":"Point","coordinates":[-63.12172,10.62381]}},{"type":"Feature","id":"node/5465465579","properties":{"name":"La Cumbre de San Antonio","place":"village"},"geometry":{"type":"Point","coordinates":[-63.10394,10.62017]}},{"type":"Feature","id":"node/5465465581","properties":{"name":"La Cuchilla","place":"village"},"geometry":{"type":"Point","coordinates":[-63.1465,10.62631]}},{"type":"Feature","id":"node/5465465582","properties":{"name":"Cangrejera","place":"village"},"geometry":{"type":"Point","coordinates":[-63.13338,10.60634]}},{"type":"Feature","id":"node/5465465585","properties":{"name":"El Calvario","place":"village"},"geometry":{"type":"Point","coordinates":[-63.19713,10.60704]}},{"type":"Feature","id":"node/5465465586","properties":{"name":"Sabaneta","place":"village"},"geometry":{"type":"Point","coordinates":[-63.17862,10.61303]}},{"type":"Feature","id":"node/5465465588","properties":{"name":"Chorochoro","place":"village"},"geometry":{"type":"Point","coordinates":[-63.14245,10.6096]}},{"type":"Feature","id":"node/5465465589","properties":{"name":"El Pozo","place":"village"},"geometry":{"type":"Point","coordinates":[-63.16098,10.60151]}},{"type":"Feature","id":"node/5465465590","properties":{"name":"Punta Brava","place":"village"},"geometry":{"type":"Point","coordinates":[-63.15167,10.5975]}},{"type":"Feature","id":"node/5465465591","properties":{"name":"Quebrada Seca","place":"village"},"geometry":{"type":"Point","coordinates":[-63.17491,10.57475]}},{"type":"Feature","id":"node/5465465592","properties":{"name":"Pan de A\u00f1o","place":"village"},"geometry":{"type":"Point","coordinates":[-63.16095,10.58828]}},{"type":"Feature","id":"node/5465465593","properties":{"name":"San Agust\u00edn","place":"village"},"geometry":{"type":"Point","coordinates":[-63.15746,10.58344]}},{"type":"Feature","id":"node/5465465594","properties":{"name":"Buena Vista","place":"village"},"geometry":{"type":"Point","coordinates":[-63.15176,10.57028]}},{"type":"Feature","id":"node/5465465597","properties":{"name":"Chaguaramas","place":"village"},"geometry":{"type":"Point","coordinates":[-63.17869,10.51682]}},{"type":"Feature","id":"node/5465465598","properties":{"name":"Cumacatal","place":"village"},"geometry":{"type":"Point","coordinates":[-63.22338,10.47131]}},{"type":"Feature","id":"node/5465465600","properties":{"name":"Agua Fr\u00eda Arriba","place":"village"},"geometry":{"type":"Point","coordinates":[-63.26549,10.4594]}},{"type":"Feature","id":"node/5465465601","properties":{"name":"Agua Fr\u00eda","place":"village"},"geometry":{"type":"Point","coordinates":[-63.28111,10.45163]}},{"type":"Feature","id":"node/5465465604","properties":{"name":"La Greda de Jab\u00f3n","place":"village"},"geometry":{"type":"Point","coordinates":[-63.18716,10.48044]}},{"type":"Feature","id":"node/5465465605","properties":{"name":"Cerro de Piedra","place":"village"},"geometry":{"type":"Point","coordinates":[-63.21638,10.45433]}},{"type":"Feature","id":"node/5465465606","properties":{"name":"La Colonia","place":"village"},"geometry":{"type":"Point","coordinates":[-63.18577,10.46181]}},{"type":"Feature","id":"node/5465465607","properties":{"name":"Buena Vista","place":"village"},"geometry":{"type":"Point","coordinates":[-63.18258,10.44339]}},{"type":"Feature","id":"node/5465465608","properties":{"name":"El Algarrobo","place":"village"},"geometry":{"type":"Point","coordinates":[-63.15649,10.46043]}},{"type":"Feature","id":"node/5465465612","properties":{"name":"R\u00edo Colorado","place":"village"},"geometry":{"type":"Point","coordinates":[-63.12219,10.4956]}},{"type":"Feature","id":"node/5465465616","properties":{"name":"Tacarigua","place":"village"},"geometry":{"type":"Point","coordinates":[-63.14283,10.47345]}},{"type":"Feature","id":"node/5465465617","properties":{"name":"Mapuey","place":"village"},"geometry":{"type":"Point","coordinates":[-63.10964,10.48331]}},{"type":"Feature","id":"node/5465465619","properties":{"name":"Coicual","place":"village"},"geometry":{"type":"Point","coordinates":[-63.11104,10.42898]}},{"type":"Feature","id":"node/5465465630","properties":{"name":"Campo Loco","place":"village"},"geometry":{"type":"Point","coordinates":[-63.23805,10.43518]}},{"type":"Feature","id":"node/5465465632","properties":{"name":"Buena Esperanza","place":"village"},"geometry":{"type":"Point","coordinates":[-63.25599,10.42845]}},{"type":"Feature","id":"node/5465465635","properties":{"name":"Chacaracual","place":"village"},"geometry":{"type":"Point","coordinates":[-63.20895,10.38946]}},{"type":"Feature","id":"node/5465465636","properties":{"name":"La Pascuala","place":"village"},"geometry":{"type":"Point","coordinates":[-63.24047,10.389]}},{"type":"Feature","id":"node/5465465637","properties":{"name":"El Escondido","place":"village"},"geometry":{"type":"Point","coordinates":[-63.22634,10.39065]}},{"type":"Feature","id":"node/5465465640","properties":{"name":"Los Cerritos","place":"village"},"geometry":{"type":"Point","coordinates":[-63.34363,10.50094]}},{"type":"Feature","id":"node/5465465642","properties":{"name":"Hueco Oscuro","place":"village"},"geometry":{"type":"Point","coordinates":[-63.35768,10.49052]}},{"type":"Feature","id":"node/5465465649","properties":{"name":"Palma Sola","place":"village"},"geometry":{"type":"Point","coordinates":[-63.35358,10.41726]}},{"type":"Feature","id":"node/5465465658","properties":{"name":"La Ladera","place":"village"},"geometry":{"type":"Point","coordinates":[-63.42161,10.43209]}},{"type":"Feature","id":"node/5465465665","properties":{"name":"La Funcia","place":"village"},"geometry":{"type":"Point","coordinates":[-63.46383,10.45069]}},{"type":"Feature","id":"node/5465465667","properties":{"name":"Los Rastrojos","place":"village"},"geometry":{"type":"Point","coordinates":[-63.45025,10.42172]}},{"type":"Feature","id":"node/5465465669","properties":{"name":"El Casta\u00f1o","place":"village"},"geometry":{"type":"Point","coordinates":[-63.46345,10.41455]}},{"type":"Feature","id":"node/5465465679","properties":{"name":"Malvascual","place":"village"},"geometry":{"type":"Point","coordinates":[-63.45537,10.35579]}},{"type":"Feature","id":"node/5465465681","properties":{"name":"La G\u00fciria","place":"village"},"geometry":{"type":"Point","coordinates":[-63.41595,10.3344]}},{"type":"Feature","id":"node/5467586177","properties":{"name":"Los Altos de Sucre","place":"town"},"geometry":{"type":"Point","coordinates":[-64.46974,10.21594]}},{"type":"Feature","id":"node/5467586199","properties":{"name":"Vega Grande","place":"village"},"geometry":{"type":"Point","coordinates":[-64.41887,10.18652]}},{"type":"Feature","id":"node/5467586200","properties":{"name":"El Maco","place":"village"},"geometry":{"type":"Point","coordinates":[-64.41724,10.21131]}},{"type":"Feature","id":"node/5467586202","properties":{"name":"San Pedro","place":"village"},"geometry":{"type":"Point","coordinates":[-64.41999,10.21578]}},{"type":"Feature","id":"node/5467586205","properties":{"name":"Zurita","place":"village"},"geometry":{"type":"Point","coordinates":[-64.43653,10.23231]}},{"type":"Feature","id":"node/5467586208","properties":{"name":"Corozal","place":"village"},"geometry":{"type":"Point","coordinates":[-64.40971,10.26291]}},{"type":"Feature","id":"node/5467586209","properties":{"name":"El Botal\u00f3n","place":"village"},"geometry":{"type":"Point","coordinates":[-64.41814,10.25933]}},{"type":"Feature","id":"node/5467586214","properties":{"name":"San Pedrito","place":"village"},"geometry":{"type":"Point","coordinates":[-64.40304,10.22566]}},{"type":"Feature","id":"node/5467587436","properties":{"name":"Mar\u00edn Arriba","place":"village"},"geometry":{"type":"Point","coordinates":[-64.34843,10.32603]}},{"type":"Feature","id":"node/5467587488","properties":{"name":"Cruz de Aragua","place":"village"},"geometry":{"type":"Point","coordinates":[-64.31887,10.16733]}},{"type":"Feature","id":"node/5467587490","properties":{"name":"Bajo Negro","place":"town"},"geometry":{"type":"Point","coordinates":[-64.33854,10.1649]}},{"type":"Feature","id":"node/5467587493","properties":{"name":"Paraparo","place":"village"},"geometry":{"type":"Point","coordinates":[-64.41329,10.1739]}},{"type":"Feature","id":"node/5467587645","properties":{"name":"Brito","place":"village"},"geometry":{"type":"Point","coordinates":[-64.1414,10.31533]}},{"type":"Feature","id":"node/5467587704","properties":{"name":"La Vega","place":"village"},"geometry":{"type":"Point","coordinates":[-64.03257,10.3194]}},{"type":"Feature","id":"node/5485002520","properties":{"name":"La Rinconada","place":"village"},"geometry":{"type":"Point","coordinates":[-63.17299,10.67633]}},{"type":"Feature","id":"node/5485003122","properties":{"name":"El Gavil\u00e1n","place":"village"},"geometry":{"type":"Point","coordinates":[-63.14225,10.6747]}},{"type":"Feature","id":"node/5485003123","properties":{"name":"La Llanada","place":"village"},"geometry":{"type":"Point","coordinates":[-63.1471,10.68481]}},{"type":"Feature","id":"node/5485003133","properties":{"name":"Caracolito","place":"village"},"geometry":{"type":"Point","coordinates":[-63.07074,10.70864]}},{"type":"Feature","id":"node/5485003137","properties":{"name":"Churupal","place":"village"},"geometry":{"type":"Point","coordinates":[-63.07433,10.67749]}},{"type":"Feature","id":"node/5485003138","properties":{"name":"R\u00edo Salado","place":"village"},"geometry":{"type":"Point","coordinates":[-63.0626,10.67257]}},{"type":"Feature","id":"node/5485003141","properties":{"name":"Chaguarama de Loero","place":"village"},"geometry":{"type":"Point","coordinates":[-63.04471,10.70245]}},{"type":"Feature","id":"node/5485003142","properties":{"name":"Nivaldo","place":"village"},"geometry":{"type":"Point","coordinates":[-63.02346,10.6935]}},{"type":"Feature","id":"node/5485003144","properties":{"name":"Medina","place":"village"},"geometry":{"type":"Point","coordinates":[-63.01957,10.70002]}},{"type":"Feature","id":"node/5485003146","properties":{"name":"Quebrada Honda","place":"village"},"geometry":{"type":"Point","coordinates":[-63.01731,10.67581]}},{"type":"Feature","id":"node/5485035164","properties":{"name":"Jurup\u00fa","place":"village"},"geometry":{"type":"Point","coordinates":[-62.9505,10.18518]}},{"type":"Feature","id":"node/5485090258","properties":{"name":"Manacal","place":"village"},"geometry":{"type":"Point","coordinates":[-62.65816,10.6739]}},{"type":"Feature","id":"node/5485090262","properties":{"name":"Las Melenas","place":"village"},"geometry":{"type":"Point","coordinates":[-62.62149,10.67793]}},{"type":"Feature","id":"node/5485090263","properties":{"name":"Roma","place":"village"},"geometry":{"type":"Point","coordinates":[-62.63253,10.67818]}},{"type":"Feature","id":"node/5485090265","properties":{"name":"Las Vegas","place":"village"},"geometry":{"type":"Point","coordinates":[-62.57587,10.67474]}},{"type":"Feature","id":"node/5485090274","properties":{"name":"Cumbre de Las Flores","place":"village"},"geometry":{"type":"Point","coordinates":[-62.72828,10.73503]}},{"type":"Feature","id":"node/5485090282","properties":{"name":"Macanillar","place":"village"},"geometry":{"type":"Point","coordinates":[-62.75107,10.70891]}},{"type":"Feature","id":"node/5485090283","properties":{"name":"Cumbre de Caballos","place":"village"},"geometry":{"type":"Point","coordinates":[-62.76429,10.72839]}},{"type":"Feature","id":"node/5485090284","properties":{"name":"Los Caballos","place":"village"},"geometry":{"type":"Point","coordinates":[-62.77195,10.73211]}},{"type":"Feature","id":"node/5485090287","properties":{"name":"Tigrillo","place":"village"},"geometry":{"type":"Point","coordinates":[-62.77977,10.71953]}},{"type":"Feature","id":"node/5485090289","properties":{"name":"Buenos Aires","place":"village"},"geometry":{"type":"Point","coordinates":[-62.78617,10.65699]}},{"type":"Feature","id":"node/5485090290","properties":{"name":"La Florida","place":"village"},"geometry":{"type":"Point","coordinates":[-62.76715,10.67412]}},{"type":"Feature","id":"node/5485090294","properties":{"name":"Guarataro","place":"town"},"geometry":{"type":"Point","coordinates":[-62.80607,10.72013]}},{"type":"Feature","id":"node/5485090295","properties":{"name":"Guacuco","place":"village"},"geometry":{"type":"Point","coordinates":[-62.82507,10.71594]}},{"type":"Feature","id":"node/5485090299","properties":{"name":"Buena Vista","place":"village"},"geometry":{"type":"Point","coordinates":[-62.79249,10.70845]}},{"type":"Feature","id":"node/5485090300","properties":{"name":"Catuchal","place":"village"},"geometry":{"type":"Point","coordinates":[-62.81473,10.69856]}},{"type":"Feature","id":"node/5485090301","properties":{"name":"La Palmera","place":"village"},"geometry":{"type":"Point","coordinates":[-62.81003,10.66449]}},{"type":"Feature","id":"node/5485090302","properties":{"name":"El Saco","place":"village"},"geometry":{"type":"Point","coordinates":[-62.8237,10.68294]}},{"type":"Feature","id":"node/5485090305","properties":{"name":"Las Clavellinas","place":"village"},"geometry":{"type":"Point","coordinates":[-62.84761,10.68307]}},{"type":"Feature","id":"node/5485090306","properties":{"name":"Betania","place":"village"},"geometry":{"type":"Point","coordinates":[-62.84441,10.66322]}},{"type":"Feature","id":"node/5485090307","properties":{"name":"Santa Cruz","place":"village"},"geometry":{"type":"Point","coordinates":[-62.8642,10.67934]}},{"type":"Feature","id":"node/5485090308","properties":{"name":"El Algarrobo","place":"village"},"geometry":{"type":"Point","coordinates":[-62.86856,10.66602]}},{"type":"Feature","id":"node/5485090309","properties":{"name":"El Lim\u00f3n","place":"village"},"geometry":{"type":"Point","coordinates":[-62.89043,10.68388]}},{"type":"Feature","id":"node/5485090310","properties":{"name":"Santa Elena","place":"village"},"geometry":{"type":"Point","coordinates":[-62.88795,10.67106]}},{"type":"Feature","id":"node/5485090312","properties":{"name":"Querepare","place":"village"},"geometry":{"type":"Point","coordinates":[-62.87212,10.69726]}},{"type":"Feature","id":"node/5485090313","properties":{"name":"Cangua","place":"village"},"geometry":{"type":"Point","coordinates":[-62.90198,10.6914]}},{"type":"Feature","id":"node/5485090319","properties":{"name":"Puipuy","place":"village"},"geometry":{"type":"Point","coordinates":[-62.9793,10.68868]}},{"type":"Feature","id":"node/5485090320","properties":{"name":"Chaguarama de Sotillo","place":"village"},"geometry":{"type":"Point","coordinates":[-62.9933,10.70027]}},{"type":"Feature","id":"node/5487172462","properties":{"name":"La Baba","place":"village"},"geometry":{"type":"Point","coordinates":[-63.45464,10.32272]}},{"type":"Feature","id":"node/5488815363","properties":{"name":"Cumbres de Arapo","place":"village"},"geometry":{"type":"Point","coordinates":[-64.50911,10.24291]}},{"type":"Feature","id":"node/5964400749","properties":{"name":"Manzanillo","place":"village"},"geometry":{"type":"Point","coordinates":[-63.58825,10.62873]}},{"type":"Feature","id":"node/6436054105","properties":{"name":"Sampayo","place":"village"},"geometry":{"type":"Point","coordinates":[-63.55662,10.5465]}},{"type":"Feature","id":"node/7861271314","properties":{"name":"Arapo","place":"town"},"geometry":{"type":"Point","coordinates":[-64.49344,10.23968]}},{"type":"Feature","id":"node/7861273969","properties":{"name":"Santa Cruz","place":"village"},"geometry":{"type":"Point","coordinates":[-64.44319,10.27451]}},{"type":"Feature","id":"node/7861275363","properties":{"name":"Arapito","place":"village"},"geometry":{"type":"Point","coordinates":[-64.47709,10.24185]}},{"type":"Feature","id":"node/8015851544","properties":{"name":"Quetepe","place":"village"},"geometry":{"type":"Point","coordinates":[-64.02421,10.43501]}},{"type":"Feature","id":"node/8015884318","properties":{"name":"Pericantar","place":"village"},"geometry":{"type":"Point","coordinates":[-63.7636,10.45122]}},{"type":"Feature","id":"node/8015925697","properties":{"name":"Cot\u00faa","place":"village"},"geometry":{"type":"Point","coordinates":[-63.6948,10.46535]}},{"type":"Feature","id":"node/8015926517","properties":{"name":"Tunantal","place":"village"},"geometry":{"type":"Point","coordinates":[-63.99697,10.44223]}},{"type":"Feature","id":"node/8169744799","properties":{"name":"Guaraguao","place":"town"},"geometry":{"type":"Point","coordinates":[-63.47127,10.64571]}},{"type":"Feature","id":"node/8169788825","properties":{"name":"Guaricuco","place":"village"},"geometry":{"type":"Point","coordinates":[-63.46832,10.63812]}},{"type":"Feature","id":"node/8169789330","properties":{"name":"Tronadora","place":"village"},"geometry":{"type":"Point","coordinates":[-63.48828,10.62289]}},{"type":"Feature","id":"node/8952491959","properties":{"name":"Tig\u00fcitig\u00fce","place":"village"},"geometry":{"type":"Point","coordinates":[-64.45546,10.32532]}},{"type":"Feature","id":"node/8952491960","properties":{"name":"Petare","place":"village"},"geometry":{"type":"Point","coordinates":[-64.37569,10.32121]}},{"type":"Feature","id":"node/8952492254","properties":{"name":"Monta\u00f1a de Mochima","place":"village"},"geometry":{"type":"Point","coordinates":[-64.33349,10.32542]}},{"type":"Feature","id":"node/8963517670","properties":{"name":"San Esteban","place":"village"},"geometry":{"type":"Point","coordinates":[-64.38794,10.29298]}},{"type":"Feature","id":"node/8963737152","properties":{"name":"El Totumo","place":"village"},"geometry":{"type":"Point","coordinates":[-64.36674,10.30024]}},{"type":"Feature","id":"node/8963763198","properties":{"name":"Mar\u00edn Abajo","place":"village"},"geometry":{"type":"Point","coordinates":[-64.35436,10.3178]}},{"type":"Feature","id":"node/8972243196","properties":{"name":"Vallecito","place":"village"},"geometry":{"type":"Point","coordinates":[-64.46641,10.24868]}},{"type":"Feature","id":"node/8972995583","properties":{"name":"Isla Arapito","place":"village"},"geometry":{"type":"Point","coordinates":[-64.47411,10.261]}},{"type":"Feature","id":"node/8989050309","properties":{"name":"Cancamure","place":"town"},"geometry":{"type":"Point","coordinates":[-64.2106,10.29301]}},{"type":"Feature","id":"node/9128400510","properties":{"place":"village"},"geometry":{"type":"Point","coordinates":[-64.11205,10.57231]}},{"type":"Feature","id":"node/9128400516","properties":{"place":"village"},"geometry":{"type":"Point","coordinates":[-64.06469,10.58285]}},{"type":"Feature","id":"node/9128406017","properties":{"place":"village"},"geometry":{"type":"Point","coordinates":[-64.07406,10.57947]}},{"type":"Feature","id":"node/9128406083","properties":{"name":"Lancecito","place":"village"},"geometry":{"type":"Point","coordinates":[-63.84259,10.55339]}},{"type":"Feature","id":"node/9360681188","properties":{"place":"village"},"geometry":{"type":"Point","coordinates":[-64.27239,10.58554]}},{"type":"Feature","id":"node/9711220897","properties":{"name":"Maraval","place":"village"},"geometry":{"type":"Point","coordinates":[-62.566,10.63375]}},{"type":"Feature","id":"node/9711220898","properties":{"name":"La Ceiba","place":"village"},"geometry":{"type":"Point","coordinates":[-62.68181,10.62364]}},{"type":"Feature","id":"node/9711220900","properties":{"name":"R\u00edo Chiquito Arriba","place":"village"},"geometry":{"type":"Point","coordinates":[-62.59658,10.61453]}},{"type":"Feature","id":"node/9711220901","properties":{"name":"Mundo Nuevo","place":"village"},"geometry":{"type":"Point","coordinates":[-62.54293,10.63391]}},{"type":"Feature","id":"node/9711220902","properties":{"name":"El Llano","place":"village"},"geometry":{"type":"Point","coordinates":[-62.67326,10.62959]}},{"type":"Feature","id":"node/9711220903","properties":{"name":"Ver y Callar","place":"village"},"geometry":{"type":"Point","coordinates":[-62.57861,10.60999]}},{"type":"Feature","id":"node/9711220904","properties":{"name":"San Antonio","place":"town"},"geometry":{"type":"Point","coordinates":[-62.50317,10.62816]}},{"type":"Feature","id":"node/9711220905","properties":{"name":"R\u00edo Seco","place":"village"},"geometry":{"type":"Point","coordinates":[-62.68642,10.63159]}},{"type":"Feature","id":"node/9711220906","properties":{"name":"Campo Claro","place":"town"},"geometry":{"type":"Point","coordinates":[-62.54108,10.60007]}},{"type":"Feature","id":"node/9711264797","properties":{"name":"R\u00edo Grande Arriba","place":"village"},"geometry":{"type":"Point","coordinates":[-62.62901,10.62437]}},{"type":"Feature","id":"node/9921437509","properties":{"name":"Palosanal","place":"village"},"geometry":{"type":"Point","coordinates":[-63.54493,10.52605]}},{"type":"Feature","id":"node/9928259805","properties":{"name":"Tarabaco\u00edta","place":"village"},"geometry":{"type":"Point","coordinates":[-63.82842,10.43885]}},{"type":"Feature","id":"node/9928259812","properties":{"name":"Cachamaure","place":"village"},"geometry":{"type":"Point","coordinates":[-63.8144,10.44057]}},{"type":"Feature","id":"node/9937594077","properties":{"name":"Valencia","place":"village"},"geometry":{"type":"Point","coordinates":[-62.55585,10.61525]}}]}