{"type":"FeatureCollection","features":[{"type":"Feature","id":"relation/2269155","properties":{"name":"Bol\u00edvar","level":4},"geometry":{"type":"Polygon","coordinates":[[[-62.66241,8.38705],[-62.66713,8.38416],[-62.71232,8.37775],[-62.7279,8.38314],[-62.75142,8.39978],[-62.76403,8.40309],[-62.77176,8.40199],[-62.77985,8.39568],[-62.7842,8.38823],[-62.79983,8.34051],[-62.81922,8.31554],[-62.83433,8.3028],[-62.86579,8.28365],[-62.88291,8.27647],[-62.90937,8.2762],[-62.93338,8.30093],[-62.96213,8.30926],[-62.98694,8.32633],[-63.04788,8.31197],[-63.06685,8.30968],[-63.07886,8.31129],[-63.11448,8.32306],[-63.14452,8.32293],[-63.22057,8.30068],[-63.24803,8.28947],[-63.25919,8.28106],[-63.27138,8.26484],[-63.27739,8.26025],[-63.32803,8.23256],[-63.39377,8.20639],[-63.41686,8.19255],[-63.43042,8.17343],[-63.43789,8.16969],[-63.47913,8.15899],[-63.50304,8.16098],[-63.54248,8.15211],[-63.55621,8.15181],[-63.58535,8.14242],[-63.61702,8.14752],[-63.73087,8.1377],[-63.76963,8.14284],[-63.791,8.14098],[-63.81735,8.12602],[-63.85168,8.09382],[-63.86704,8.0693],[-63.87627,8.0594],[-63.88867,8.02931],[-63.90532,8.00356],[-63.91674,7.97492],[-63.9503,7.94534],[-63.96412,7.93879],[-63.97236,7.93973],[-63.99313,7.94789],[-64.01648,7.9461],[-64.05072,7.95435],[-64.0836,7.95647],[-64.10106,7.96072],[-64.11218,7.96748],[-64.14574,8.00067],[-64.17423,8.01971],[-64.19337,8.04903],[-64.21989,8.07912],[-64.24418,8.08923],[-64.30658,8.0894],[-64.31336,8.086],[-64.31877,8.07929],[-64.32547,8.05154],[-64.33439,8.03917],[-64.38649,7.99753],[-64.39808,7.99498],[-64.4107,7.99608],[-64.42181,8.00093],[-64.43275,8.01249],[-64.44134,8.01776],[-64.46202,8.01848],[-64.48571,8.01011],[-64.51412,7.98775],[-64.56322,7.96565],[-64.57712,7.95367],[-64.5833,7.93548],[-64.58626,7.91469],[-64.58253,7.88821],[-64.57618,7.87154],[-64.56837,7.86245],[-64.5579,7.85564],[-64.49258,7.83303],[-64.48389,7.82776],[-64.47912,7.82072],[-64.4808,7.81141],[-64.49569,7.8007],[-64.49867,7.79332],[-64.5049,7.78877],[-64.51369,7.76806],[-64.51944,7.76117],[-64.53455,7.75683],[-64.55927,7.75658],[-64.58871,7.75836],[-64.62094,7.76436],[-64.65415,7.76389],[-64.67188,7.75335],[-64.68553,7.73965],[-64.71265,7.72069],[-64.74647,7.69049],[-64.8105,7.66421],[-64.83702,7.66157],[-64.86714,7.66506],[-64.91203,7.67858],[-64.95212,7.69755],[-64.9734,7.70147],[-64.99941,7.73362],[-65.02095,7.75054],[-65.0655,7.78022],[-65.10713,7.7917],[-65.11734,7.80046],[-65.1321,7.82053],[-65.14594,7.82852],[-65.17502,7.83362],[-65.2421,7.83507],[-65.2554,7.83915],[-65.29621,7.85879],[-65.3175,7.86406],[-65.34445,7.86168],[-65.39526,7.84791],[-65.41088,7.84672],[-65.44573,7.85046],[-65.47611,7.86168],[-65.48744,7.86882],[-65.53679,7.91048],[-65.55808,7.92],[-65.57679,7.92245],[-65.61378,7.91703],[-65.63833,7.90759],[-65.68846,7.87469],[-65.72863,7.84059],[-65.76871,7.81313],[-65.78201,7.79442],[-65.80884,7.73944],[-65.82162,7.72975],[-65.84673,7.71703],[-65.85772,7.70206],[-65.87359,7.69462],[-65.91908,7.69262],[-65.95462,7.68633],[-66.12534,7.68173],[-66.19203,7.66383],[-66.20893,7.65451],[-66.22378,7.63724],[-66.24558,7.62848],[-66.2655,7.63452],[-66.29004,7.6489],[-66.30378,7.65315],[-66.31948,7.65221],[-66.34232,7.64175],[-66.42291,7.58807],[-66.45767,7.53004],[-66.4963,7.4829],[-66.50393,7.46826],[-66.51089,7.44554],[-66.51578,7.42358],[-66.51818,7.38834],[-66.54076,7.34668],[-66.55088,7.33599],[-66.57389,7.3228],[-66.6138,7.32254],[-66.64032,7.31743],[-66.72392,7.28074],[-66.7337,7.27853],[-66.77078,7.27819],[-66.78692,7.27308],[-66.81404,7.25605],[-66.8458,7.21246],[-66.87339,7.18755],[-66.90571,7.1646],[-66.92493,7.15761],[-66.9821,7.15983],[-67.00287,7.15472],[-67.02518,7.13956],[-67.06192,7.10464],[-67.06664,7.09766],[-67.06904,7.08573],[-67.06407,7.04876],[-67.07694,7.01495],[-67.05746,6.98147],[-67.03772,6.96136],[-67.0233,6.93989],[-67.01626,6.91978],[-67.0166,6.9041],[-67.03205,6.83627],[-67.03591,6.76528],[-67.0396,6.75011],[-67.06458,6.69257],[-67.08733,6.66222],[-67.10432,6.64875],[-67.10973,6.63937],[-67.11694,6.60416],[-67.12561,6.58233],[-67.14535,6.48018],[-67.17058,6.44291],[-67.17977,6.43438],[-67.19813,6.42491],[-67.22148,6.396],[-67.24041,6.38026],[-67.25028,6.36601],[-67.26594,6.35556],[-67.28053,6.35059],[-67.2856,6.33492],[-67.30808,6.30591],[-67.31435,6.28006],[-67.33237,6.26914],[-67.39142,6.25549],[-67.41616,6.24436],[-67.42224,6.23485],[-67.43061,6.20588],[-67.43518,6.19969],[-67.44161,6.19593],[-67.43285,6.18951],[-67.43218,6.18776],[-67.43531,6.18652],[-67.43082,6.18719],[-67.43302,6.18346],[-67.43052,6.18215],[-67.42861,6.17329],[-67.42469,6.17361],[-67.4188,6.16844],[-67.41605,6.1688],[-67.41608,6.16451],[-67.40865,6.1576],[-67.40956,6.1561],[-67.40505,6.1515],[-67.40507,6.14378],[-67.40861,6.13847],[-67.39844,6.13025],[-67.39368,6.13098],[-67.37838,6.12397],[-67.37006,6.12514],[-67.35605,6.13478],[-67.35715,6.13679],[-67.35361,6.14341],[-67.34658,6.14698],[-67.34543,6.14978],[-67.32639,6.15102],[-67.31465,6.1479],[-67.30795,6.14884],[-67.30391,6.14662],[-67.30277,6.14202],[-67.29773,6.14058],[-67.29374,6.12929],[-67.28673,6.1256],[-67.28726,6.12243],[-67.28351,6.11901],[-67.28336,6.1152],[-67.28897,6.11616],[-67.29283,6.1109],[-67.29761,6.09622],[-67.28802,6.091],[-67.28148,6.0972],[-67.26736,6.1001],[-67.26094,6.09884],[-67.24886,6.10405],[-67.22633,6.11965],[-67.2132,6.118],[-67.20133,6.12124],[-67.18365,6.11698],[-67.17771,6.11205],[-67.176,6.10598],[-67.16457,6.09554],[-67.16284,6.08212],[-67.16537,6.07386],[-67.14374,6.06695],[-67.14288,6.06302],[-67.14657,6.05886],[-67.14608,6.0502],[-67.14181,6.03677],[-67.1447,6.03291],[-67.1435,6.02856],[-67.14696,6.02538],[-67.14603,6.02109],[-67.14912,6.01469],[-67.14779,6.01053],[-67.1438,6.0091],[-67.1411,5.99973],[-67.13686,5.99628],[-67.1394,5.98453],[-67.1473,5.97132],[-67.14239,5.96001],[-67.14466,5.95694],[-67.14374,5.95256],[-67.15058,5.9499],[-67.14818,5.93057],[-67.15176,5.9231],[-67.16822,5.9217],[-67.16895,5.91874],[-67.16228,5.91547],[-67.16369,5.90036],[-67.17526,5.89513],[-67.18974,5.88136],[-67.18981,5.8705],[-67.18449,5.86247],[-67.18648,5.85686],[-67.19285,5.85067],[-67.20124,5.84935],[-67.20906,5.83534],[-67.21753,5.83069],[-67.22054,5.83255],[-67.22311,5.83086],[-67.22423,5.82471],[-67.22071,5.8194],[-67.20721,5.81952],[-67.20103,5.81188],[-67.20045,5.8062],[-67.20715,5.79967],[-67.20551,5.79305],[-67.20916,5.78966],[-67.21238,5.77989],[-67.22137,5.77243],[-67.21923,5.76284],[-67.21358,5.76306],[-67.2136,5.75983],[-67.21918,5.75509],[-67.2247,5.75505],[-67.23129,5.75082],[-67.23011,5.74096],[-67.23504,5.73494],[-67.23425,5.73208],[-67.22856,5.7292],[-67.23186,5.72486],[-67.23167,5.72108],[-67.22549,5.71619],[-67.21684,5.71641],[-67.21358,5.70827],[-67.20925,5.70612],[-67.20255,5.70729],[-67.19721,5.70509],[-67.1925,5.70723],[-67.18427,5.70148],[-67.17835,5.70827],[-67.17676,5.7172],[-67.17335,5.71543],[-67.16147,5.71632],[-67.14966,5.72241],[-67.14221,5.72072],[-67.13767,5.72614],[-67.12877,5.72269],[-67.1264,5.73009],[-67.12855,5.7349],[-67.1283,5.74903],[-67.11316,5.75292],[-67.1061,5.75038],[-67.10037,5.74574],[-67.09816,5.7353],[-67.09563,5.73306],[-67.09679,5.72689],[-67.09488,5.72264],[-67.09831,5.72019],[-67.09803,5.71769],[-67.0934,5.71581],[-67.08475,5.72281],[-67.07578,5.72469],[-67.06372,5.71592],[-67.06557,5.70804],[-67.05716,5.70259],[-67.05636,5.69435],[-67.06255,5.69024],[-67.05939,5.67738],[-67.06145,5.66897],[-67.0559,5.66752],[-67.05074,5.66068],[-67.04117,5.65739],[-67.0363,5.64785],[-67.02512,5.64806],[-67.02285,5.65276],[-67.02008,5.65286],[-67.02014,5.64908],[-67.01733,5.64708],[-67.01836,5.64133],[-67.0098,5.63305],[-67.01111,5.62666],[-67.00523,5.62218],[-66.98667,5.62474],[-66.97598,5.61977],[-66.97023,5.62686],[-66.96184,5.62188],[-66.95246,5.63113],[-66.93886,5.63597],[-66.94369,5.64857],[-66.95886,5.66939],[-66.95051,5.67595],[-66.94547,5.68395],[-66.94616,5.68739],[-66.93736,5.69284],[-66.93219,5.6929],[-66.93225,5.68173],[-66.92577,5.67984],[-66.92543,5.67067],[-66.91554,5.66719],[-66.91807,5.6616],[-66.91489,5.65306],[-66.90564,5.64012],[-66.88919,5.63832],[-66.88107,5.64407],[-66.86857,5.64761],[-66.86453,5.65723],[-66.86749,5.67272],[-66.86142,5.67879],[-66.85063,5.6828],[-66.83644,5.67142],[-66.82505,5.66899],[-66.82419,5.6746],[-66.81883,5.67663],[-66.81029,5.67492],[-66.80694,5.67915],[-66.79999,5.68002],[-66.79278,5.68575],[-66.79147,5.68953],[-66.78327,5.69299],[-66.77522,5.68944],[-66.76722,5.69348],[-66.75967,5.68908],[-66.75634,5.68961],[-66.75428,5.69457],[-66.74407,5.69442],[-66.73945,5.70251],[-66.72909,5.70264],[-66.71821,5.7163],[-66.70734,5.71365],[-66.69582,5.71939],[-66.68962,5.71702],[-66.68218,5.72006],[-66.67975,5.72503],[-66.66041,5.72181],[-66.65837,5.72667],[-66.66161,5.73291],[-66.6586,5.73475],[-66.64759,5.73238],[-66.64367,5.73605],[-66.63227,5.7375],[-66.62266,5.73345],[-66.61467,5.73457],[-66.60605,5.74077],[-66.60196,5.74038],[-66.59028,5.7312],[-66.58148,5.73065],[-66.56206,5.74019],[-66.55676,5.73932],[-66.55226,5.74139],[-66.54887,5.75334],[-66.53614,5.76235],[-66.52582,5.76417],[-66.5169,5.76897],[-66.51406,5.76325],[-66.50827,5.76188],[-66.50432,5.75542],[-66.49979,5.75356],[-66.48372,5.76536],[-66.48012,5.77062],[-66.46812,5.77367],[-66.44475,5.74288],[-66.44007,5.72669],[-66.4327,5.72],[-66.43248,5.71581],[-66.42817,5.71233],[-66.42034,5.71106],[-66.41603,5.67439],[-66.41917,5.66618],[-66.4168,5.65728],[-66.4072,5.64994],[-66.4054,5.64413],[-66.39708,5.63909],[-66.39051,5.64372],[-66.38405,5.63783],[-66.38688,5.63371],[-66.38457,5.62869],[-66.38796,5.62263],[-66.398,5.61906],[-66.40012,5.61432],[-66.41004,5.61466],[-66.41521,5.61056],[-66.41441,5.60193],[-66.41102,5.60076],[-66.40997,5.5944],[-66.40482,5.58652],[-66.41227,5.56721],[-66.40853,5.55903],[-66.40733,5.54235],[-66.39922,5.52067],[-66.39615,5.51871],[-66.39781,5.51057],[-66.39639,5.49906],[-66.39014,5.50006],[-66.3815,5.49701],[-66.37575,5.50139],[-66.37034,5.49372],[-66.36684,5.49393],[-66.36401,5.5045],[-66.36478,5.51164],[-66.3541,5.51995],[-66.34807,5.5155],[-66.3406,5.51636],[-66.33811,5.51954],[-66.33148,5.51924],[-66.32633,5.51206],[-66.31813,5.50856],[-66.27161,5.51054],[-66.23522,5.52409],[-66.23574,5.53169],[-66.24112,5.53776],[-66.24061,5.54833],[-66.23919,5.5529],[-66.23196,5.55638],[-66.22715,5.56674],[-66.22923,5.57165],[-66.22687,5.57225],[-66.22657,5.57699],[-66.23166,5.58109],[-66.2337,5.58807],[-66.23314,5.59287],[-66.22747,5.59405],[-66.22518,5.60211],[-66.22773,5.61204],[-66.21969,5.61415],[-66.22003,5.61889],[-66.21404,5.61616],[-66.21078,5.61776],[-66.20812,5.62886],[-66.20235,5.63834],[-66.20394,5.64402],[-66.19988,5.65293],[-66.20091,5.65891],[-66.1969,5.66946],[-66.20057,5.67279],[-66.2002,5.68816],[-66.19269,5.69877],[-66.19666,5.70052],[-66.20042,5.70879],[-66.20724,5.70693],[-66.20868,5.70941],[-66.2043,5.71991],[-66.20473,5.73078],[-66.20239,5.73488],[-66.20501,5.7434],[-66.20396,5.75307],[-66.2014,5.75682],[-66.1957,5.75896],[-66.19267,5.76562],[-66.18741,5.76302],[-66.18372,5.76413],[-66.17999,5.77286],[-66.17121,5.7729],[-66.16222,5.78453],[-66.154,5.78925],[-66.1487,5.77886],[-66.14089,5.77843],[-66.13838,5.77335],[-66.12699,5.76682],[-66.12579,5.7622],[-66.11454,5.74816],[-66.10999,5.73532],[-66.10467,5.73477],[-66.10209,5.73966],[-66.09392,5.73703],[-66.09002,5.74066],[-66.07937,5.74425],[-66.05925,5.74288],[-66.04105,5.75038],[-66.03539,5.76383],[-66.03644,5.76978],[-66.02787,5.78044],[-66.03096,5.78646],[-66.02839,5.79502],[-66.01702,5.80304],[-66.015,5.81826],[-66.01114,5.82142],[-66.01524,5.82623],[-66.01854,5.84802],[-66.01225,5.85379],[-66.01208,5.85652],[-66.00221,5.86202],[-65.99226,5.86141],[-65.98932,5.86922],[-65.97292,5.87825],[-65.95022,5.87447],[-65.94807,5.87837],[-65.93977,5.87645],[-65.93338,5.87797],[-65.93001,5.87259],[-65.92153,5.87101],[-65.92123,5.87534],[-65.91488,5.8822],[-65.90649,5.88619],[-65.90958,5.88796],[-65.90921,5.89283],[-65.89728,5.90002],[-65.89718,5.9076],[-65.89479,5.9102],[-65.90311,5.91634],[-65.90033,5.91686],[-65.89986,5.92341],[-65.89602,5.92597],[-65.89718,5.93321],[-65.8916,5.93624],[-65.88357,5.9353],[-65.87859,5.94132],[-65.87975,5.94652],[-65.8851,5.95182],[-65.8837,5.96522],[-65.88544,5.97147],[-65.88136,5.97598],[-65.88816,5.98718],[-65.88872,5.99369],[-65.88175,5.99858],[-65.8751,5.99597],[-65.86817,5.99855],[-65.86926,6.00577],[-65.86402,6.03093],[-65.8516,6.03464],[-65.8463,6.04279],[-65.84197,6.05662],[-65.83046,6.06475],[-65.82669,6.0764],[-65.8283,6.08323],[-65.82265,6.08081],[-65.81521,6.0837],[-65.81375,6.08867],[-65.81596,6.10119],[-65.81377,6.10795],[-65.80856,6.10527],[-65.80802,6.10906],[-65.80326,6.11295],[-65.7862,6.10158],[-65.77905,6.10023],[-65.77669,6.0959],[-65.7686,6.09522],[-65.77023,6.08933],[-65.76414,6.08692],[-65.75532,6.07772],[-65.74925,6.08508],[-65.7447,6.08547],[-65.73253,6.09296],[-65.64925,6.10934],[-65.63368,6.12048],[-65.62971,6.12071],[-65.62535,6.11706],[-65.61254,6.12669],[-65.60606,6.12524],[-65.60366,6.10896],[-65.60522,6.10025],[-65.60057,6.09112],[-65.58707,6.08596],[-65.58671,6.07964],[-65.58351,6.0748],[-65.58643,6.0694],[-65.58381,6.05711],[-65.58804,6.05483],[-65.58855,6.05118],[-65.58553,6.048],[-65.59181,6.03867],[-65.58868,6.03323],[-65.59055,6.03123],[-65.59037,6.02141],[-65.58756,6.01315],[-65.5911,6.01061],[-65.59095,6.00342],[-65.59546,6.00026],[-65.60196,5.97715],[-65.60091,5.96656],[-65.60492,5.96025],[-65.60239,5.9573],[-65.60771,5.94616],[-65.60997,5.93205],[-65.61557,5.92826],[-65.61799,5.916],[-65.60986,5.91391],[-65.60934,5.91082],[-65.60482,5.90838],[-65.60539,5.90264],[-65.60921,5.90072],[-65.60728,5.89799],[-65.60872,5.89338],[-65.60209,5.88802],[-65.60177,5.88467],[-65.59853,5.88392],[-65.5963,5.8677],[-65.59724,5.86064],[-65.6075,5.84266],[-65.60651,5.83513],[-65.60889,5.83001],[-65.60477,5.82053],[-65.61303,5.7871],[-65.60917,5.78054],[-65.61121,5.77629],[-65.60692,5.76103],[-65.61241,5.753],[-65.61638,5.74071],[-65.61574,5.73404],[-65.60885,5.72994],[-65.60149,5.73398],[-65.59237,5.73099],[-65.58027,5.73468],[-65.58121,5.74034],[-65.57664,5.74764],[-65.57698,5.75164],[-65.56881,5.76075],[-65.56263,5.758],[-65.5581,5.74753],[-65.55323,5.74738],[-65.55291,5.72937],[-65.54903,5.71931],[-65.54441,5.72102],[-65.54538,5.7276],[-65.54051,5.73082],[-65.53036,5.73084],[-65.52379,5.71993],[-65.51783,5.72155],[-65.50476,5.71357],[-65.49412,5.72108],[-65.48942,5.71017],[-65.48847,5.69967],[-65.48345,5.70255],[-65.48206,5.7137],[-65.47206,5.73434],[-65.46528,5.73291],[-65.44603,5.74675],[-65.43687,5.74498],[-65.43129,5.74111],[-65.42738,5.74287],[-65.42071,5.74117],[-65.41296,5.74515],[-65.40963,5.74372],[-65.40532,5.74822],[-65.39653,5.746],[-65.39532,5.73244],[-65.39168,5.72866],[-65.3788,5.72738],[-65.3756,5.72175],[-65.35704,5.73697],[-65.34981,5.74925],[-65.33805,5.75776],[-65.33213,5.75866],[-65.33247,5.76334],[-65.3276,5.76556],[-65.32587,5.77437],[-65.31722,5.7729],[-65.31564,5.78794],[-65.3008,5.78842],[-65.29876,5.78479],[-65.2913,5.78133],[-65.28115,5.79126],[-65.28201,5.7983],[-65.27874,5.80729],[-65.274,5.80966],[-65.2696,5.8097],[-65.26321,5.80524],[-65.26117,5.79468],[-65.25342,5.78949],[-65.24641,5.77674],[-65.24036,5.77313],[-65.24055,5.76722],[-65.24418,5.7612],[-65.24272,5.75657],[-65.23589,5.75477],[-65.23169,5.75877],[-65.22748,5.75813],[-65.22014,5.74863],[-65.22126,5.72634],[-65.22645,5.72209],[-65.23325,5.72185],[-65.23398,5.7166],[-65.24452,5.70627],[-65.24267,5.69439],[-65.23843,5.68775],[-65.24023,5.68427],[-65.23632,5.6838],[-65.23544,5.68101],[-65.23847,5.67689],[-65.2345,5.67172],[-65.23776,5.66555],[-65.24235,5.66407],[-65.24467,5.6559],[-65.24141,5.6484],[-65.23669,5.64823],[-65.22461,5.6338],[-65.22615,5.62984],[-65.22433,5.62598],[-65.2289,5.61571],[-65.22383,5.6108],[-65.23059,5.60029],[-65.2275,5.59762],[-65.22868,5.59158],[-65.22021,5.5784],[-65.21266,5.57951],[-65.21085,5.57481],[-65.20068,5.57031],[-65.20017,5.56759],[-65.19592,5.57048],[-65.18997,5.56725],[-65.18599,5.56256],[-65.18774,5.55557],[-65.18558,5.55341],[-65.17671,5.55136],[-65.16869,5.55367],[-65.16444,5.54651],[-65.15865,5.54948],[-65.15335,5.54703],[-65.1547,5.5406],[-65.15118,5.52708],[-65.15412,5.51775],[-65.14687,5.51708],[-65.14648,5.50841],[-65.16208,5.48693],[-65.15491,5.48338],[-65.15041,5.47791],[-65.15032,5.46926],[-65.15298,5.46565],[-65.15129,5.46193],[-65.15384,5.45662],[-65.14753,5.4501],[-65.14242,5.45014],[-65.14493,5.43543],[-65.14875,5.4256],[-65.153,5.42124],[-65.14996,5.41885],[-65.1539,5.41539],[-65.15004,5.40983],[-65.14305,5.40548],[-65.13382,5.40381],[-65.14605,5.39097],[-65.14687,5.37843],[-65.15236,5.37617],[-65.15671,5.36927],[-65.16463,5.36634],[-65.16133,5.357],[-65.15712,5.3548],[-65.16407,5.34329],[-65.1709,5.34312],[-65.17637,5.33455],[-65.18281,5.3303],[-65.19364,5.33083],[-65.20596,5.32391],[-65.20914,5.32064],[-65.211,5.30962],[-65.21662,5.3066],[-65.22145,5.29861],[-65.23461,5.2972],[-65.23752,5.29069],[-65.24308,5.28902],[-65.25025,5.29259],[-65.25263,5.29643],[-65.25759,5.29319],[-65.27224,5.29278],[-65.27548,5.28876],[-65.27598,5.28152],[-65.27293,5.2746],[-65.26291,5.27278],[-65.26143,5.26855],[-65.25072,5.26357],[-65.2378,5.24921],[-65.23643,5.23844],[-65.23177,5.23325],[-65.23203,5.229],[-65.23662,5.2243],[-65.23686,5.21842],[-65.23338,5.214],[-65.23667,5.19925],[-65.23315,5.19643],[-65.23182,5.1891],[-65.22892,5.18699],[-65.22437,5.1885],[-65.22132,5.18077],[-65.2136,5.18173],[-65.21083,5.17741],[-65.20723,5.18222],[-65.20392,5.18284],[-65.2021,5.17147],[-65.19667,5.175],[-65.19272,5.17211],[-65.19025,5.16746],[-65.19607,5.15226],[-65.19,5.14115],[-65.18918,5.13407],[-65.17665,5.12516],[-65.17304,5.11847],[-65.17152,5.10721],[-65.16206,5.10932],[-65.15953,5.1065],[-65.16365,5.1009],[-65.1639,5.09539],[-65.17176,5.0903],[-65.17414,5.08419],[-65.17231,5.07526],[-65.168,5.06991],[-65.17345,5.05796],[-65.16624,5.05335],[-65.16581,5.04713],[-65.17182,5.03204],[-65.17064,5.02887],[-65.17517,5.02507],[-65.17535,5.01649],[-65.16472,5.01218],[-65.16777,5.00679],[-65.16697,5.0],[-65.17298,5.00002],[-65.17272,4.99422],[-65.17613,4.98845],[-65.1685,4.98191],[-65.16903,4.97655],[-65.16109,4.97441],[-65.15852,4.9696],[-65.15197,4.96859],[-65.14944,4.96273],[-65.15296,4.95878],[-65.15277,4.95288],[-65.1494,4.94018],[-65.13951,4.9305],[-65.14056,4.92746],[-65.13785,4.92496],[-65.13871,4.91992],[-65.13575,4.91263],[-65.12968,4.91004],[-65.1297,4.90508],[-65.12637,4.90181],[-65.1324,4.89088],[-65.13161,4.88394],[-65.14114,4.88026],[-65.14099,4.87566],[-65.13479,4.87339],[-65.13584,4.86747],[-65.13414,4.86551],[-65.12341,4.86882],[-65.11833,4.85943],[-65.12125,4.85524],[-65.11798,4.84994],[-65.12015,4.84507],[-65.11839,4.84156],[-65.11092,4.84333],[-65.10592,4.83951],[-65.10605,4.83085],[-65.10065,4.83356],[-65.0982,4.82916],[-65.08981,4.82591],[-65.08794,4.82084],[-65.0767,4.81712],[-65.06054,4.81674],[-65.05571,4.81184],[-65.05589,4.80743],[-65.04868,4.80583],[-65.04707,4.79418],[-65.044,4.79217],[-65.04494,4.78068],[-65.03782,4.77463],[-65.03846,4.76942],[-65.03303,4.76732],[-65.0384,4.75951],[-65.03612,4.75569],[-65.03906,4.75205],[-65.03627,4.74606],[-65.03739,4.74059],[-65.03108,4.73494],[-65.03353,4.72705],[-65.03052,4.7235],[-65.02357,4.72132],[-65.0121,4.72354],[-65.00992,4.71929],[-65.00297,4.71863],[-65.00205,4.7108],[-64.9957,4.70695],[-64.99295,4.7009],[-64.98944,4.69842],[-64.97385,4.69596],[-64.9707,4.68882],[-64.96542,4.68813],[-64.96147,4.68272],[-64.95453,4.68094],[-64.95233,4.66936],[-64.93328,4.65845],[-64.93514,4.65068],[-64.93259,4.63396],[-64.93525,4.63101],[-64.93551,4.6244],[-64.94051,4.6201],[-64.93845,4.6186],[-64.9301,4.62004],[-64.91888,4.63045],[-64.90008,4.63225],[-64.89761,4.63646],[-64.88506,4.63471],[-64.87751,4.63843],[-64.87588,4.64192],[-64.87092,4.64174],[-64.8624,4.6331],[-64.86453,4.62635],[-64.85828,4.62286],[-64.8577,4.61713],[-64.86141,4.61247],[-64.85815,4.60511],[-64.84157,4.60417],[-64.83268,4.60062],[-64.82333,4.59285],[-64.8173,4.59384],[-64.80747,4.58389],[-64.79423,4.57888],[-64.78567,4.55998],[-64.7803,4.55936],[-64.77561,4.5601],[-64.76749,4.56862],[-64.75619,4.56524],[-64.74408,4.57294],[-64.74376,4.59775],[-64.73838,4.60015],[-64.7382,4.60598],[-64.73224,4.60577],[-64.73215,4.61152],[-64.72501,4.61576],[-64.72342,4.62049],[-64.71812,4.61918],[-64.71643,4.6352],[-64.71808,4.63924],[-64.7158,4.64363],[-64.71027,4.63999],[-64.7034,4.63049],[-64.70355,4.62699],[-64.68958,4.62951],[-64.67995,4.61698],[-64.67124,4.62526],[-64.66701,4.62359],[-64.65216,4.62819],[-64.64167,4.62404],[-64.64029,4.63144],[-64.63568,4.63041],[-64.63534,4.62759],[-64.62467,4.62611],[-64.61935,4.64016],[-64.60214,4.6559],[-64.60188,4.66478],[-64.59581,4.66696],[-64.59397,4.67111],[-64.58236,4.67528],[-64.54456,4.69757],[-64.53014,4.7103],[-64.51631,4.69782],[-64.50262,4.69649],[-64.49408,4.69897],[-64.48734,4.69495],[-64.48168,4.69483],[-64.46962,4.70051],[-64.45833,4.69376],[-64.45404,4.68394],[-64.45636,4.67675],[-64.45106,4.67291],[-64.45816,4.65791],[-64.47402,4.65225],[-64.48013,4.65321],[-64.48724,4.6413],[-64.48678,4.62686],[-64.49327,4.62036],[-64.49636,4.61155],[-64.50125,4.61208],[-64.50161,4.60804],[-64.50583,4.60904],[-64.50715,4.59865],[-64.5118,4.59775],[-64.51751,4.59266],[-64.51569,4.59026],[-64.51899,4.58327],[-64.52788,4.58389],[-64.52882,4.57959],[-64.53174,4.58038],[-64.53957,4.57285],[-64.53519,4.56682],[-64.53835,4.55397],[-64.54352,4.54686],[-64.55453,4.54406],[-64.55837,4.54736],[-64.56575,4.54614],[-64.5685,4.53524],[-64.56296,4.53056],[-64.56369,4.51777],[-64.57644,4.50259],[-64.57201,4.48992],[-64.57665,4.47875],[-64.58013,4.47828],[-64.58081,4.47161],[-64.58437,4.46951],[-64.57953,4.45803],[-64.5812,4.454],[-64.58558,4.45272],[-64.58822,4.44812],[-64.59974,4.45077],[-64.60377,4.44271],[-64.6113,4.43509],[-64.61843,4.43524],[-64.63699,4.42373],[-64.64173,4.42835],[-64.64791,4.42583],[-64.65184,4.43259],[-64.65847,4.43349],[-64.6619,4.43148],[-64.66379,4.43377],[-64.67091,4.43458],[-64.67177,4.42313],[-64.66817,4.40972],[-64.66993,4.40752],[-64.66634,4.39791],[-64.66887,4.3898],[-64.66403,4.38073],[-64.66529,4.37622],[-64.65999,4.37177],[-64.66141,4.35555],[-64.65656,4.35127],[-64.64862,4.35039],[-64.64742,4.35546],[-64.6431,4.3551],[-64.63695,4.34305],[-64.63963,4.33999],[-64.63989,4.33456],[-64.6454,4.33342],[-64.64656,4.32189],[-64.65222,4.31774],[-64.65261,4.31404],[-64.6586,4.30969],[-64.66688,4.31154],[-64.66499,4.29641],[-64.66926,4.29258],[-64.67493,4.29151],[-64.68752,4.27625],[-64.68679,4.2685],[-64.68973,4.26491],[-64.67872,4.25704],[-64.67611,4.25175],[-64.68106,4.24764],[-64.69026,4.24945],[-64.68788,4.24459],[-64.69088,4.24129],[-64.68696,4.2292],[-64.69148,4.22773],[-64.69237,4.21909],[-64.70964,4.21767],[-64.70674,4.20902],[-64.69797,4.20398],[-64.68917,4.20476],[-64.68854,4.19245],[-64.6789,4.19135],[-64.67953,4.18294],[-64.67716,4.17977],[-64.67015,4.17755],[-64.66748,4.16954],[-64.66251,4.16456],[-64.6482,4.15514],[-64.63843,4.15845],[-64.64082,4.15285],[-64.63397,4.14635],[-64.63771,4.13875],[-64.63298,4.13531],[-64.63535,4.12465],[-64.63029,4.11486],[-64.61826,4.11637],[-64.61012,4.11063],[-64.60236,4.11424],[-64.59212,4.10859],[-64.58892,4.11077],[-64.58969,4.11346],[-64.58508,4.1148],[-64.5787,4.11304],[-64.57925,4.10922],[-64.57616,4.10556],[-64.56831,4.10407],[-64.56455,4.10094],[-64.5616,4.10557],[-64.55316,4.10528],[-64.54833,4.11027],[-64.54372,4.10471],[-64.53922,4.1113],[-64.54025,4.11796],[-64.53346,4.12038],[-64.52583,4.11727],[-64.52013,4.11863],[-64.51598,4.11076],[-64.50178,4.10575],[-64.5002,4.10943],[-64.49572,4.10985],[-64.49339,4.11375],[-64.48962,4.10994],[-64.48714,4.11163],[-64.49008,4.13265],[-64.48284,4.13141],[-64.47459,4.13993],[-64.47094,4.13903],[-64.46899,4.13321],[-64.46037,4.13257],[-64.45309,4.1278],[-64.45507,4.12393],[-64.45354,4.12083],[-64.44464,4.11925],[-64.44388,4.11638],[-64.44093,4.11765],[-64.43961,4.11543],[-64.43388,4.11698],[-64.43104,4.1292],[-64.42612,4.13124],[-64.42205,4.14304],[-64.41721,4.14205],[-64.41682,4.13755],[-64.4115,4.13373],[-64.39823,4.13518],[-64.39741,4.13729],[-64.38505,4.13676],[-64.38096,4.13437],[-64.37956,4.14322],[-64.36572,4.14335],[-64.36523,4.13956],[-64.36109,4.13726],[-64.3576,4.14314],[-64.35105,4.1457],[-64.3466,4.14361],[-64.34417,4.14661],[-64.33788,4.14623],[-64.33655,4.13627],[-64.32746,4.13717],[-64.3277,4.13428],[-64.3202,4.12977],[-64.31873,4.12588],[-64.31442,4.12568],[-64.31208,4.13112],[-64.30676,4.13322],[-64.30722,4.13997],[-64.30418,4.14152],[-64.30426,4.14662],[-64.3004,4.15051],[-64.29611,4.16264],[-64.27605,4.15091],[-64.26188,4.14963],[-64.26314,4.14536],[-64.26695,4.1438],[-64.26648,4.14103],[-64.25551,4.13445],[-64.2422,4.13016],[-64.23737,4.12379],[-64.23402,4.12404],[-64.23325,4.11892],[-64.23104,4.11817],[-64.22699,4.12302],[-64.21958,4.12177],[-64.19229,4.10675],[-64.19077,4.1038],[-64.18517,4.10307],[-64.17683,4.09402],[-64.16963,4.09589],[-64.16372,4.09246],[-64.16081,4.10044],[-64.15497,4.09626],[-64.14929,4.09819],[-64.14743,4.09655],[-64.1434,4.09884],[-64.14186,4.10675],[-64.13692,4.10792],[-64.13198,4.10299],[-64.13134,4.09545],[-64.12743,4.08927],[-64.12773,4.08346],[-64.12155,4.07201],[-64.10683,4.0697],[-64.10632,4.06235],[-64.10007,4.06281],[-64.10004,4.04972],[-64.09642,4.04225],[-64.08644,4.02944],[-64.0772,4.02151],[-64.07272,4.02062],[-64.07416,4.0163],[-64.07104,4.00692],[-64.06016,3.99465],[-64.05511,3.97809],[-64.04889,3.97305],[-64.04735,3.96873],[-64.04264,3.9676],[-64.03611,3.97709],[-64.02815,3.97475],[-64.02301,3.9762],[-64.02197,3.9717],[-64.01883,3.9716],[-64.01607,3.95541],[-64.01341,3.95526],[-64.00858,3.94678],[-64.01085,3.93965],[-64.0086,3.93145],[-64.00379,3.93208],[-63.99648,3.90408],[-63.98826,3.89713],[-63.98087,3.90151],[-63.97639,3.89849],[-63.97382,3.8869],[-63.96758,3.88073],[-63.9697,3.87795],[-63.9662,3.87147],[-63.96157,3.87443],[-63.96186,3.87764],[-63.95435,3.87886],[-63.95905,3.88092],[-63.95858,3.89052],[-63.95133,3.88897],[-63.94653,3.89286],[-63.94686,3.89921],[-63.93922,3.90017],[-63.93672,3.90997],[-63.93782,3.91442],[-63.93371,3.91725],[-63.93014,3.92461],[-63.92045,3.92883],[-63.91821,3.93392],[-63.92118,3.93693],[-63.91684,3.94098],[-63.91067,3.94178],[-63.91053,3.93916],[-63.90457,3.93811],[-63.90301,3.93166],[-63.89889,3.93353],[-63.89197,3.93042],[-63.88786,3.93539],[-63.87917,3.93555],[-63.87362,3.94033],[-63.86849,3.93906],[-63.86156,3.94778],[-63.85384,3.9444],[-63.85044,3.95087],[-63.84745,3.9518],[-63.84495,3.95055],[-63.84648,3.94811],[-63.84481,3.94686],[-63.83348,3.9459],[-63.83153,3.94043],[-63.81442,3.94032],[-63.80827,3.93601],[-63.7966,3.93332],[-63.79098,3.9335],[-63.78711,3.93637],[-63.77977,3.93401],[-63.77271,3.93924],[-63.76683,3.9364],[-63.76322,3.93859],[-63.76513,3.94003],[-63.76375,3.94208],[-63.76102,3.94243],[-63.74008,3.93361],[-63.73902,3.92694],[-63.74339,3.92003],[-63.74014,3.91972],[-63.74037,3.9134],[-63.73271,3.91283],[-63.72541,3.91654],[-63.71511,3.91263],[-63.70621,3.91516],[-63.70289,3.91309],[-63.69716,3.91457],[-63.68834,3.90914],[-63.6818,3.90848],[-63.67662,3.91166],[-63.67784,3.91643],[-63.67581,3.91784],[-63.67051,3.91562],[-63.66453,3.92296],[-63.66708,3.92498],[-63.67353,3.92336],[-63.67523,3.92621],[-63.67343,3.92883],[-63.67924,3.92873],[-63.68033,3.93683],[-63.6827,3.93913],[-63.68426,3.93667],[-63.69437,3.93841],[-63.69503,3.94289],[-63.6999,3.94472],[-63.70068,3.94935],[-63.69557,3.95846],[-63.69625,3.96663],[-63.68789,3.99592],[-63.6893,4.00127],[-63.68557,4.00662],[-63.68553,4.01132],[-63.68754,4.0108],[-63.68942,4.01597],[-63.67912,4.02003],[-63.66816,4.01203],[-63.661,4.01181],[-63.65069,4.00023],[-63.64498,3.98538],[-63.64015,3.98413],[-63.63364,3.9736],[-63.61758,3.96166],[-63.61146,3.94498],[-63.60299,3.94055],[-63.59887,3.93151],[-63.58846,3.91845],[-63.59115,3.91632],[-63.59023,3.91301],[-63.59391,3.90486],[-63.58199,3.90202],[-63.58473,3.89573],[-63.58941,3.89498],[-63.5944,3.89001],[-63.59218,3.88522],[-63.58816,3.88424],[-63.58127,3.88792],[-63.57207,3.88247],[-63.56943,3.88563],[-63.5546,3.88976],[-63.55561,3.87423],[-63.55063,3.8649],[-63.54447,3.86278],[-63.53891,3.8653],[-63.53499,3.85995],[-63.52694,3.85664],[-63.52197,3.85778],[-63.5179,3.85295],[-63.52237,3.85054],[-63.5205,3.84868],[-63.51471,3.85057],[-63.50958,3.84735],[-63.50627,3.85051],[-63.50073,3.84979],[-63.50135,3.84305],[-63.49898,3.84075],[-63.49687,3.84374],[-63.49592,3.84956],[-63.49802,3.85401],[-63.49603,3.85639],[-63.50366,3.86143],[-63.50383,3.86461],[-63.50103,3.86893],[-63.49324,3.86799],[-63.49458,3.87488],[-63.48515,3.88293],[-63.48319,3.8816],[-63.4837,3.87361],[-63.47724,3.87181],[-63.47142,3.86683],[-63.46394,3.8741],[-63.4621,3.86313],[-63.45537,3.85761],[-63.45114,3.85789],[-63.44379,3.86702],[-63.43701,3.86631],[-63.43439,3.8759],[-63.43811,3.87967],[-63.43793,3.88327],[-63.42439,3.89814],[-63.41654,3.90243],[-63.41218,3.91304],[-63.41802,3.92185],[-63.41569,3.93261],[-63.42133,3.93807],[-63.42585,3.93441],[-63.43023,3.93619],[-63.44259,3.93306],[-63.4457,3.93454],[-63.44188,3.93905],[-63.44171,3.94935],[-63.4481,3.95102],[-63.45259,3.95548],[-63.44891,3.96142],[-63.43705,3.96618],[-63.42927,3.97587],[-63.4133,3.97412],[-63.40086,3.97778],[-63.39922,3.98022],[-63.39182,3.97983],[-63.36578,3.96271],[-63.34721,3.95559],[-63.33059,3.9603],[-63.32525,3.96703],[-63.3177,3.96291],[-63.31363,3.97661],[-63.3099,3.98154],[-63.28588,3.97032],[-63.28343,3.96112],[-63.27589,3.95772],[-63.27479,3.95434],[-63.27188,3.95804],[-63.26733,3.95583],[-63.26046,3.95639],[-63.2539,3.96575],[-63.25074,3.96386],[-63.2506,3.95375],[-63.24851,3.95197],[-63.23956,3.95027],[-63.23756,3.95408],[-63.22946,3.94773],[-63.22017,3.94868],[-63.20786,3.94421],[-63.22456,3.89517],[-63.22409,3.89031],[-63.23409,3.88065],[-63.23385,3.8716],[-63.22941,3.86246],[-63.22052,3.85569],[-63.22799,3.85479],[-63.23316,3.85109],[-63.22821,3.84321],[-63.22885,3.83206],[-63.22475,3.82979],[-63.21945,3.83178],[-63.21492,3.81925],[-63.21113,3.81471],[-63.20527,3.81369],[-63.20484,3.81013],[-63.19896,3.81274],[-63.18265,3.80941],[-63.17736,3.81167],[-63.16825,3.80343],[-63.15828,3.80497],[-63.1462,3.7997],[-63.14326,3.80397],[-63.13667,3.8012],[-63.12036,3.80371],[-63.09343,3.78355],[-63.08881,3.77893],[-63.09146,3.77591],[-63.08959,3.77096],[-63.07747,3.76577],[-63.07786,3.75973],[-63.07393,3.75706],[-63.07499,3.75507],[-63.06974,3.74042],[-63.06206,3.73517],[-63.06418,3.7286],[-63.06189,3.72376],[-63.06412,3.72027],[-63.06242,3.71738],[-63.06925,3.71282],[-63.06639,3.70894],[-63.06363,3.70883],[-63.06451,3.70303],[-63.06865,3.69526],[-63.08023,3.69339],[-63.07248,3.68398],[-63.06677,3.68417],[-63.0564,3.67948],[-63.05567,3.67432],[-63.05243,3.67179],[-63.04195,3.66581],[-63.02899,3.66279],[-63.0279,3.65282],[-63.02473,3.64817],[-63.01603,3.645],[-63.01642,3.63955],[-63.00721,3.63222],[-62.99726,3.61549],[-62.9864,3.61065],[-62.98269,3.61361],[-62.97677,3.61037],[-62.96938,3.61027],[-62.96464,3.6153],[-62.95947,3.61185],[-62.95368,3.61564],[-62.94691,3.61577],[-62.94368,3.62275],[-62.92962,3.63474],[-62.92145,3.65511],[-62.92177,3.67316],[-62.9193,3.67477],[-62.90561,3.67093],[-62.88982,3.67821],[-62.88544,3.6874],[-62.86973,3.70294],[-62.85081,3.71404],[-62.85006,3.71939],[-62.84285,3.72451],[-62.83982,3.73556],[-62.82274,3.73341],[-62.80849,3.72384],[-62.80624,3.72643],[-62.79968,3.72633],[-62.79905,3.72292],[-62.79171,3.71718],[-62.78996,3.70881],[-62.78071,3.69609],[-62.77092,3.69172],[-62.76669,3.68088],[-62.75563,3.67845],[-62.75429,3.67532],[-62.74483,3.67913],[-62.74515,3.68838],[-62.73706,3.6877],[-62.73522,3.69883],[-62.73123,3.70564],[-62.73407,3.71806],[-62.73386,3.73586],[-62.73893,3.75029],[-62.74,3.76146],[-62.74676,3.76121],[-62.7494,3.76435],[-62.74067,3.77399],[-62.73502,3.77605],[-62.73464,3.77977],[-62.74026,3.78326],[-62.74161,3.78825],[-62.73215,3.79476],[-62.72949,3.80426],[-62.74206,3.8096],[-62.7743,3.83606],[-62.7704,3.84039],[-62.75999,3.84397],[-62.75508,3.84841],[-62.7563,3.8575],[-62.77687,3.87501],[-62.77629,3.88041],[-62.78478,3.88646],[-62.7889,3.89331],[-62.7885,3.90642],[-62.78493,3.91222],[-62.78594,3.91411],[-62.78256,3.91687],[-62.78503,3.92647],[-62.78354,3.93413],[-62.77313,3.9352],[-62.7624,3.94142],[-62.7573,3.94877],[-62.75835,3.95117],[-62.75352,3.96071],[-62.74355,3.973],[-62.74415,3.97842],[-62.75084,3.97708],[-62.76332,3.98485],[-62.76247,3.98957],[-62.76627,3.99422],[-62.76555,4.00298],[-62.76886,4.00769],[-62.76086,4.01628],[-62.74932,4.02093],[-62.75282,4.02783],[-62.75198,4.03239],[-62.74084,4.03756],[-62.73864,4.0363],[-62.73385,4.04016],[-62.72965,4.03711],[-62.71452,4.03578],[-62.69954,4.03078],[-62.698,4.03278],[-62.69017,4.03268],[-62.6778,4.0397],[-62.67058,4.03601],[-62.66811,4.03767],[-62.65987,4.03453],[-62.65662,4.03752],[-62.65648,4.04271],[-62.64795,4.04707],[-62.62819,4.03977],[-62.61224,4.04155],[-62.60914,4.0448],[-62.60188,4.0363],[-62.5936,4.03543],[-62.58723,4.03184],[-62.58651,4.02729],[-62.58155,4.02689],[-62.57983,4.01769],[-62.57559,4.01456],[-62.55644,4.01655],[-62.55358,4.02035],[-62.56019,4.02476],[-62.561,4.03788],[-62.55664,4.03836],[-62.55495,4.0422],[-62.54789,4.04527],[-62.54459,4.04496],[-62.54053,4.04],[-62.53245,4.041],[-62.53263,4.04312],[-62.53699,4.04374],[-62.53248,4.04835],[-62.53549,4.05369],[-62.54006,4.05575],[-62.54336,4.06296],[-62.53955,4.07779],[-62.54172,4.07982],[-62.55006,4.07536],[-62.55667,4.07865],[-62.55704,4.08106],[-62.55194,4.08266],[-62.55096,4.09484],[-62.54404,4.09873],[-62.55265,4.10911],[-62.54694,4.11264],[-62.54124,4.10882],[-62.53968,4.11221],[-62.53296,4.11543],[-62.52676,4.11162],[-62.52103,4.12307],[-62.52665,4.12985],[-62.52976,4.1305],[-62.5314,4.13595],[-62.52762,4.13798],[-62.52019,4.13713],[-62.51095,4.12905],[-62.50733,4.13196],[-62.50881,4.13889],[-62.50309,4.14454],[-62.49342,4.14253],[-62.49048,4.13689],[-62.47722,4.13112],[-62.47386,4.13699],[-62.47057,4.136],[-62.46472,4.13955],[-62.46053,4.14294],[-62.4641,4.14762],[-62.46284,4.15271],[-62.45394,4.15707],[-62.46217,4.1631],[-62.47071,4.1637],[-62.46373,4.17817],[-62.45729,4.17784],[-62.45465,4.17398],[-62.44963,4.1749],[-62.44791,4.17986],[-62.4438,4.17968],[-62.43735,4.18363],[-62.42346,4.18248],[-62.41858,4.18441],[-62.41426,4.17928],[-62.40784,4.17998],[-62.40119,4.17394],[-62.39292,4.17455],[-62.39051,4.17855],[-62.38783,4.17327],[-62.38439,4.17484],[-62.38025,4.17298],[-62.38035,4.17026],[-62.37229,4.16477],[-62.36565,4.16354],[-62.36344,4.16772],[-62.35995,4.16829],[-62.35416,4.16559],[-62.35097,4.1513],[-62.33829,4.14552],[-62.3366,4.14289],[-62.33797,4.14058],[-62.33012,4.13529],[-62.32164,4.1324],[-62.32265,4.13841],[-62.32031,4.14109],[-62.31638,4.14197],[-62.31284,4.13704],[-62.3034,4.13715],[-62.29319,4.14175],[-62.27805,4.12967],[-62.2696,4.13246],[-62.2595,4.12772],[-62.25479,4.1272],[-62.25212,4.12932],[-62.24838,4.12765],[-62.24599,4.11849],[-62.24203,4.11657],[-62.23333,4.11884],[-62.22543,4.11184],[-62.21287,4.10857],[-62.19828,4.11359],[-62.19337,4.10971],[-62.19135,4.09764],[-62.18272,4.09379],[-62.15809,4.09033],[-62.15649,4.08402],[-62.15191,4.08347],[-62.14493,4.07488],[-62.14054,4.07598],[-62.1419,4.08091],[-62.13912,4.084],[-62.11092,4.09235],[-62.11405,4.09853],[-62.11164,4.09974],[-62.11775,4.10383],[-62.11613,4.10433],[-62.11643,4.1121],[-62.1189,4.115],[-62.11671,4.11777],[-62.10393,4.11569],[-62.09766,4.12007],[-62.09916,4.12533],[-62.08928,4.12844],[-62.08665,4.12218],[-62.08107,4.12075],[-62.07009,4.12442],[-62.07077,4.13074],[-62.07648,4.1344],[-62.07639,4.14011],[-62.08004,4.14395],[-62.07531,4.15403],[-62.06452,4.15716],[-62.04792,4.15123],[-62.03366,4.15798],[-62.03011,4.15113],[-62.02484,4.1508],[-62.02152,4.15299],[-62.02064,4.15694],[-62.0131,4.15615],[-62.00794,4.15842],[-62.00375,4.16371],[-61.99996,4.16463],[-61.99094,4.17698],[-61.98205,4.18068],[-61.98027,4.16172],[-61.97173,4.15907],[-61.96615,4.16136],[-61.96596,4.15586],[-61.95999,4.15316],[-61.95997,4.14642],[-61.95673,4.1459],[-61.95122,4.13229],[-61.9413,4.13219],[-61.93736,4.12998],[-61.938,4.12688],[-61.93296,4.11765],[-61.92632,4.1219],[-61.92553,4.13453],[-61.92081,4.13977],[-61.92125,4.14987],[-61.92423,4.15437],[-61.92243,4.15687],[-61.91764,4.15638],[-61.91367,4.15939],[-61.90489,4.15703],[-61.89953,4.16172],[-61.89191,4.15999],[-61.88835,4.1532],[-61.88142,4.15631],[-61.87633,4.1534],[-61.86914,4.1575],[-61.87457,4.16951],[-61.87124,4.17274],[-61.86747,4.17255],[-61.8665,4.17704],[-61.85854,4.17127],[-61.85378,4.17465],[-61.84951,4.1746],[-61.85035,4.16972],[-61.84745,4.16486],[-61.84157,4.16397],[-61.83994,4.15913],[-61.82476,4.1645],[-61.81652,4.16369],[-61.81552,4.16737],[-61.81952,4.17919],[-61.81521,4.18918],[-61.81916,4.19188],[-61.81792,4.19568],[-61.82121,4.20002],[-61.81002,4.19997],[-61.80649,4.21077],[-61.79965,4.21702],[-61.80159,4.21804],[-61.80179,4.22787],[-61.79139,4.22946],[-61.78176,4.22371],[-61.7695,4.22749],[-61.76413,4.23298],[-61.77469,4.24903],[-61.75761,4.25176],[-61.75359,4.25567],[-61.73961,4.25469],[-61.73551,4.25794],[-61.73522,4.26252],[-61.72864,4.26739],[-61.72406,4.26881],[-61.72102,4.26701],[-61.72332,4.2583],[-61.72892,4.25447],[-61.72353,4.24383],[-61.70507,4.25451],[-61.6983,4.25523],[-61.69284,4.25215],[-61.68637,4.25744],[-61.6794,4.25361],[-61.6695,4.26311],[-61.65389,4.26223],[-61.65339,4.25787],[-61.64733,4.25589],[-61.64811,4.2544],[-61.64277,4.2499],[-61.64124,4.23823],[-61.63088,4.24122],[-61.62525,4.2531],[-61.6195,4.25116],[-61.6078,4.26063],[-61.60309,4.25766],[-61.59843,4.24752],[-61.58728,4.24302],[-61.5837,4.2476],[-61.57565,4.24767],[-61.57608,4.25045],[-61.55777,4.25246],[-61.55352,4.25822],[-61.55361,4.265],[-61.54255,4.27151],[-61.53742,4.27973],[-61.53256,4.28158],[-61.53153,4.28538],[-61.51919,4.2874],[-61.52029,4.29107],[-61.5246,4.29211],[-61.52667,4.29564],[-61.51729,4.2999],[-61.51538,4.30683],[-61.51,4.31121],[-61.50614,4.31941],[-61.50758,4.32219],[-61.52072,4.32636],[-61.52048,4.3334],[-61.52573,4.33993],[-61.52331,4.3465],[-61.52447,4.35101],[-61.51638,4.35561],[-61.5191,4.3742],[-61.52395,4.37964],[-61.51341,4.39125],[-61.51567,4.39819],[-61.51377,4.40657],[-61.5097,4.40573],[-61.50439,4.40863],[-61.49569,4.40747],[-61.49488,4.41059],[-61.48565,4.41127],[-61.48147,4.4166],[-61.47621,4.41776],[-61.47327,4.42421],[-61.46778,4.42381],[-61.46184,4.42717],[-61.46142,4.43577],[-61.44748,4.43948],[-61.44464,4.4349],[-61.43844,4.4361],[-61.43503,4.43285],[-61.43471,4.43124],[-61.44404,4.42688],[-61.43999,4.4236],[-61.4266,4.42566],[-61.42591,4.43227],[-61.42083,4.43338],[-61.40797,4.43109],[-61.40416,4.42476],[-61.39216,4.42321],[-61.37924,4.42668],[-61.37201,4.42621],[-61.34494,4.41753],[-61.3381,4.42136],[-61.33796,4.42691],[-61.3192,4.42996],[-61.32039,4.43681],[-61.32487,4.44068],[-61.32435,4.44421],[-61.3168,4.44627],[-61.3109,4.45716],[-61.30492,4.45919],[-61.30242,4.45651],[-61.28891,4.45554],[-61.28468,4.46409],[-61.27751,4.46757],[-61.27852,4.47796],[-61.29002,4.47602],[-61.29631,4.481],[-61.29406,4.48252],[-61.29755,4.49227],[-61.30466,4.49458],[-61.31279,4.50408],[-61.31792,4.50113],[-61.32312,4.50429],[-61.32123,4.50981],[-61.32883,4.51422],[-61.32737,4.51784],[-61.32895,4.52188],[-61.32417,4.52711],[-61.32354,4.53394],[-61.31107,4.53316],[-61.30536,4.53753],[-61.29032,4.53444],[-61.28412,4.53731],[-61.27539,4.52729],[-61.26779,4.53628],[-61.25668,4.53575],[-61.25255,4.52481],[-61.24617,4.53314],[-61.24064,4.53104],[-61.2389,4.52741],[-61.23402,4.52776],[-61.22355,4.52152],[-61.22052,4.52159],[-61.21683,4.53067],[-61.20359,4.51813],[-61.19058,4.52265],[-61.18693,4.5199],[-61.18521,4.51428],[-61.17639,4.51159],[-61.16993,4.50114],[-61.16473,4.50174],[-61.16362,4.49647],[-61.15172,4.49554],[-61.14945,4.48297],[-61.14555,4.48016],[-61.14136,4.48778],[-61.13414,4.49017],[-61.13282,4.49653],[-61.1284,4.49829],[-61.12554,4.50572],[-61.09781,4.51615],[-61.09235,4.52332],[-61.08419,4.51776],[-61.07348,4.51742],[-61.06469,4.52353],[-61.05214,4.52416],[-61.01884,4.51852],[-61.01107,4.52431],[-61.00066,4.52117],[-61.00197,4.51799],[-60.99784,4.51617],[-60.99293,4.5214],[-60.99392,4.52647],[-60.99079,4.53298],[-60.98723,4.5321],[-60.98557,4.54293],[-60.97835,4.54188],[-60.95775,4.54496],[-60.95801,4.55677],[-60.95293,4.56037],[-60.95668,4.58149],[-60.95307,4.58275],[-60.94947,4.58016],[-60.93991,4.58013],[-60.93376,4.58519],[-60.9366,4.59558],[-60.94358,4.59933],[-60.93695,4.60563],[-60.93763,4.61223],[-60.93441,4.61318],[-60.93306,4.61656],[-60.93373,4.62138],[-60.93772,4.6253],[-60.93688,4.63391],[-60.94934,4.63695],[-60.9516,4.64316],[-60.94787,4.64877],[-60.9476,4.65581],[-60.93459,4.65616],[-60.9302,4.66198],[-60.91989,4.66297],[-60.91254,4.67772],[-60.9134,4.68345],[-60.91028,4.68809],[-60.91379,4.69643],[-60.90315,4.71527],[-60.90014,4.71807],[-60.88388,4.71263],[-60.87703,4.71522],[-60.87049,4.70911],[-60.85292,4.70267],[-60.84667,4.71136],[-60.84055,4.71295],[-60.83319,4.72795],[-60.82081,4.72501],[-60.81517,4.7282],[-60.80999,4.73982],[-60.8107,4.74392],[-60.80746,4.74779],[-60.80285,4.74757],[-60.80058,4.75054],[-60.79116,4.74876],[-60.78562,4.75386],[-60.77508,4.75249],[-60.76464,4.7583],[-60.75574,4.75379],[-60.74982,4.75454],[-60.75011,4.75687],[-60.74185,4.76275],[-60.73954,4.77013],[-60.72597,4.77345],[-60.72114,4.77767],[-60.7273,4.78975],[-60.71822,4.80015],[-60.70703,4.80816],[-60.69309,4.81294],[-60.68781,4.81785],[-60.68483,4.82572],[-60.67685,4.83134],[-60.67605,4.83714],[-60.67164,4.84301],[-60.65831,4.84834],[-60.65719,4.86241],[-60.65305,4.86317],[-60.64949,4.87322],[-60.65479,4.88122],[-60.63829,4.88682],[-60.62711,4.88765],[-60.6252,4.89232],[-60.62608,4.90397],[-60.62124,4.90694],[-60.6138,4.91876],[-60.60215,4.92545],[-60.59123,4.92768],[-60.59046,4.93452],[-60.58608,4.94185],[-60.58771,4.95034],[-60.58288,4.95722],[-60.59478,4.97391],[-60.59451,4.98916],[-60.59745,4.9967],[-60.60531,5.00401],[-60.61775,5.00711],[-60.61335,5.01645],[-60.61035,5.03294],[-60.61152,5.03803],[-60.62016,5.04266],[-60.62782,5.03751],[-60.63277,5.04565],[-60.6455,5.05185],[-60.64655,5.05666],[-60.64395,5.06553],[-60.64563,5.07772],[-60.64288,5.08512],[-60.64699,5.08765],[-60.64237,5.11096],[-60.6509,5.11606],[-60.65762,5.1114],[-60.65689,5.11975],[-60.66138,5.1305],[-60.65831,5.13794],[-60.65865,5.15107],[-60.66647,5.16462],[-60.67603,5.1706],[-60.67439,5.17511],[-60.68025,5.1797],[-60.68128,5.19109],[-60.68864,5.19566],[-60.69652,5.19629],[-60.71942,5.19395],[-60.73755,5.20189],[-60.74839,5.22498],[-61.38273,5.939],[-61.37978,5.94265],[-61.3787,5.95231],[-61.3746,5.95492],[-61.37508,5.96019],[-61.36906,5.96143],[-61.36549,5.96828],[-61.36323,5.96674],[-61.35764,5.96893],[-61.35303,5.97452],[-61.35137,5.98526],[-61.33073,5.99942],[-61.33572,6.00487],[-61.33327,6.01531],[-61.32598,6.02593],[-61.32008,6.02733],[-61.31579,6.04236],[-61.31089,6.04649],[-61.3119,6.05244],[-61.30199,6.05441],[-61.30433,6.06041],[-61.2989,6.063],[-61.2974,6.0672],[-61.29118,6.06936],[-61.29431,6.07401],[-61.28505,6.07717],[-61.28638,6.08023],[-61.27934,6.08329],[-61.27957,6.09444],[-61.27726,6.09199],[-61.27502,6.09288],[-61.27489,6.10326],[-61.27025,6.10635],[-61.26982,6.10997],[-61.26254,6.11025],[-61.25937,6.11284],[-61.25341,6.10811],[-61.24561,6.10802],[-61.24219,6.1121],[-61.24085,6.11065],[-61.23561,6.11864],[-61.23702,6.12158],[-61.23406,6.12535],[-61.23121,6.12532],[-61.23212,6.12705],[-61.22747,6.1235],[-61.2264,6.12564],[-61.22298,6.1255],[-61.21531,6.11123],[-61.21463,6.11542],[-61.20925,6.11152],[-61.20632,6.11675],[-61.20826,6.1183],[-61.20242,6.12755],[-61.20362,6.13411],[-61.19979,6.13105],[-61.18905,6.13263],[-61.19241,6.13973],[-61.18421,6.14731],[-61.18473,6.15339],[-61.18264,6.15497],[-61.18305,6.15939],[-61.18589,6.15999],[-61.18525,6.1625],[-61.18742,6.16172],[-61.1898,6.16651],[-61.18766,6.17051],[-61.18918,6.17161],[-61.18665,6.17131],[-61.1868,6.176],[-61.18456,6.17637],[-61.18664,6.17877],[-61.18345,6.17875],[-61.17937,6.18721],[-61.17631,6.18701],[-61.17179,6.18088],[-61.16942,6.18476],[-61.16445,6.18462],[-61.16304,6.18188],[-61.15719,6.1827],[-61.1376,6.17691],[-61.13299,6.18086],[-61.13362,6.18881],[-61.12753,6.18811],[-61.12414,6.19453],[-61.12976,6.19595],[-61.13214,6.20105],[-61.12649,6.20781],[-61.12998,6.20867],[-61.13087,6.20531],[-61.1344,6.20526],[-61.1346,6.20986],[-61.13948,6.21127],[-61.14254,6.21626],[-61.14097,6.22123],[-61.13803,6.22208],[-61.13716,6.22859],[-61.13216,6.23146],[-61.13562,6.23969],[-61.13224,6.25522],[-61.12881,6.25503],[-61.12571,6.263],[-61.12105,6.26319],[-61.11389,6.2714],[-61.12108,6.27622],[-61.12231,6.27312],[-61.12797,6.274],[-61.12983,6.27184],[-61.13713,6.27249],[-61.13825,6.2764],[-61.14039,6.27509],[-61.14283,6.28356],[-61.14038,6.28775],[-61.1435,6.28778],[-61.14798,6.29237],[-61.15631,6.28886],[-61.1611,6.29405],[-61.16114,6.29819],[-61.16487,6.29971],[-61.16441,6.30384],[-61.16739,6.30804],[-61.16534,6.31348],[-61.17495,6.32651],[-61.18429,6.33091],[-61.17591,6.33329],[-61.1781,6.34076],[-61.17174,6.336],[-61.17397,6.34185],[-61.16872,6.34802],[-61.16882,6.35234],[-61.16415,6.3545],[-61.16361,6.36073],[-61.15858,6.36638],[-61.16808,6.37959],[-61.16478,6.38074],[-61.16108,6.37685],[-61.16191,6.38364],[-61.15774,6.38615],[-61.16103,6.38829],[-61.16595,6.38652],[-61.16789,6.39287],[-61.16638,6.39466],[-61.16015,6.39195],[-61.16129,6.38903],[-61.1579,6.39014],[-61.1586,6.40681],[-61.15504,6.41127],[-61.15809,6.41531],[-61.1551,6.41587],[-61.15156,6.41144],[-61.14813,6.41298],[-61.14649,6.41838],[-61.14993,6.4201],[-61.15018,6.42361],[-61.1436,6.42916],[-61.15217,6.43032],[-61.15575,6.43672],[-61.15378,6.44122],[-61.15475,6.44659],[-61.14938,6.44535],[-61.14837,6.44741],[-61.14978,6.44956],[-61.15472,6.44891],[-61.15759,6.45228],[-61.15211,6.45837],[-61.15285,6.46432],[-61.15736,6.4647],[-61.15984,6.45875],[-61.1633,6.45696],[-61.17665,6.46485],[-61.17863,6.47086],[-61.18297,6.4719],[-61.18197,6.4762],[-61.17602,6.48078],[-61.18622,6.48269],[-61.18302,6.48924],[-61.17443,6.49311],[-61.17455,6.49848],[-61.17124,6.50472],[-61.17589,6.50808],[-61.17257,6.51886],[-61.18237,6.5224],[-61.1811,6.53026],[-61.18968,6.52586],[-61.19722,6.52706],[-61.19666,6.53701],[-61.20475,6.53538],[-61.20668,6.5328],[-61.20383,6.52137],[-61.20623,6.52162],[-61.2122,6.52989],[-61.21496,6.52537],[-61.22279,6.526],[-61.22049,6.53897],[-61.20902,6.53778],[-61.20937,6.54066],[-61.21337,6.54202],[-61.20991,6.54866],[-61.21503,6.5528],[-61.22498,6.55309],[-61.22035,6.55874],[-61.2201,6.5657],[-61.22827,6.56702],[-61.23219,6.57041],[-61.22876,6.57578],[-61.22443,6.57302],[-61.22039,6.57491],[-61.22371,6.5831],[-61.22398,6.5917],[-61.21615,6.59308],[-61.2104,6.5895],[-61.20722,6.59298],[-61.20762,6.5974],[-61.20193,6.60721],[-61.20362,6.61036],[-61.20042,6.61294],[-61.20053,6.6249],[-61.19619,6.62729],[-61.19137,6.62602],[-61.1891,6.62949],[-61.18177,6.63145],[-61.18386,6.63513],[-61.18254,6.6396],[-61.1893,6.64615],[-61.19018,6.65259],[-61.18462,6.65648],[-61.18302,6.67133],[-61.17821,6.67616],[-61.17211,6.67495],[-61.16833,6.68085],[-61.16236,6.67881],[-61.16151,6.68355],[-61.16612,6.69107],[-61.15173,6.68846],[-61.14899,6.69434],[-61.1524,6.69661],[-61.1528,6.70008],[-61.15043,6.70948],[-61.14137,6.71929],[-61.13593,6.7226],[-61.11346,6.71793],[-61.10896,6.7207],[-61.10289,6.71811],[-61.09557,6.70582],[-61.08964,6.70309],[-61.08455,6.70598],[-61.08057,6.72522],[-61.0766,6.72923],[-61.05719,6.72025],[-61.05248,6.72302],[-61.0399,6.71677],[-61.02301,6.71847],[-61.01261,6.72839],[-61.00565,6.73068],[-60.99833,6.72856],[-60.98326,6.71616],[-60.96836,6.7146],[-60.95097,6.71723],[-60.94275,6.7226],[-60.93904,6.73524],[-60.93496,6.74095],[-60.92877,6.74408],[-60.90937,6.74717],[-60.90142,6.75502],[-60.90074,6.75906],[-60.90422,6.76745],[-60.91966,6.77464],[-60.92605,6.79127],[-60.92468,6.80321],[-60.92076,6.81015],[-60.91071,6.81518],[-60.89784,6.81228],[-60.87709,6.79436],[-60.8502,6.781],[-60.83911,6.78145],[-60.82282,6.79385],[-60.81366,6.79466],[-60.78898,6.78002],[-60.74723,6.76146],[-60.72916,6.75477],[-60.71837,6.75531],[-60.70901,6.76249],[-60.70489,6.77103],[-60.69663,6.77872],[-60.68371,6.80668],[-60.66376,6.82945],[-60.6317,6.84028],[-60.60964,6.84324],[-60.59655,6.85257],[-60.55632,6.85576],[-60.5435,6.86214],[-60.5378,6.87539],[-60.53211,6.87954],[-60.5119,6.87826],[-60.50388,6.88039],[-60.4907,6.89036],[-60.47935,6.90919],[-60.4655,6.91814],[-60.46208,6.92675],[-60.45406,6.93658],[-60.42229,6.94091],[-60.40809,6.94666],[-60.40101,6.94692],[-60.3817,6.92794],[-60.37815,6.9312],[-60.37554,6.93055],[-60.37583,6.93443],[-60.37255,6.93815],[-60.37353,6.94404],[-60.37136,6.94622],[-60.37394,6.94883],[-60.37134,6.9541],[-60.37267,6.95942],[-60.36833,6.96149],[-60.36938,6.96388],[-60.3675,6.96392],[-60.36727,6.96733],[-60.36513,6.96655],[-60.36618,6.96934],[-60.36437,6.97102],[-60.36539,6.97545],[-60.36733,6.97512],[-60.36538,6.97736],[-60.36619,6.98139],[-60.36932,6.98331],[-60.36838,6.98746],[-60.36579,6.98684],[-60.3664,6.99211],[-60.36009,6.99958],[-60.36091,7.00251],[-60.35734,7.00303],[-60.3518,7.01139],[-60.33591,7.01305],[-60.33349,7.01703],[-60.32682,7.01698],[-60.32493,7.02081],[-60.31765,7.02363],[-60.3198,7.02624],[-60.31902,7.03113],[-60.31107,7.03309],[-60.30666,7.03848],[-60.3079,7.04583],[-60.30364,7.06029],[-60.29932,7.06606],[-60.29534,7.06655],[-60.29556,7.06971],[-60.29274,7.06766],[-60.28986,7.07036],[-60.29198,7.07433],[-60.28788,7.08076],[-60.28938,7.08442],[-60.28775,7.08761],[-60.29598,7.09471],[-60.29297,7.09759],[-60.29657,7.10172],[-60.29214,7.10661],[-60.2948,7.11183],[-60.29263,7.11449],[-60.29536,7.11645],[-60.29279,7.12047],[-60.29668,7.12641],[-60.29355,7.13353],[-60.2996,7.13554],[-60.29978,7.13923],[-60.30344,7.1392],[-60.30371,7.14199],[-60.30793,7.14235],[-60.30761,7.14461],[-60.31045,7.14418],[-60.31826,7.15195],[-60.32347,7.15179],[-60.32842,7.15637],[-60.33269,7.15791],[-60.34338,7.15235],[-60.34481,7.15758],[-60.34759,7.15755],[-60.34747,7.16902],[-60.35477,7.16974],[-60.36108,7.18187],[-60.36522,7.18178],[-60.36715,7.18476],[-60.37287,7.18399],[-60.37352,7.18189],[-60.38712,7.18101],[-60.39518,7.17703],[-60.40334,7.17716],[-60.40942,7.17331],[-60.41302,7.17732],[-60.42066,7.17645],[-60.42519,7.19409],[-60.43179,7.20057],[-60.43846,7.20066],[-60.44086,7.19765],[-60.4495,7.20481],[-60.45695,7.20277],[-60.45951,7.20477],[-60.46459,7.195],[-60.47116,7.19448],[-60.47236,7.19131],[-60.48267,7.18719],[-60.4839,7.18413],[-60.48771,7.18592],[-60.4901,7.18409],[-60.49339,7.18671],[-60.4969,7.1845],[-60.49907,7.18887],[-60.50154,7.1888],[-60.50527,7.17725],[-60.50292,7.17247],[-60.50927,7.17202],[-60.51215,7.16914],[-60.51134,7.16562],[-60.51447,7.16386],[-60.51986,7.16702],[-60.52183,7.16544],[-60.52204,7.15915],[-60.52004,7.157],[-60.52857,7.14872],[-60.52955,7.14356],[-60.5274,7.13802],[-60.53771,7.13293],[-60.53969,7.13049],[-60.53716,7.12673],[-60.54027,7.12374],[-60.54653,7.12572],[-60.55794,7.14774],[-60.55868,7.15435],[-60.56623,7.15808],[-60.57744,7.17409],[-60.58858,7.17572],[-60.59943,7.18437],[-60.59941,7.20137],[-60.6063,7.20587],[-60.61229,7.20284],[-60.61825,7.20456],[-60.62447,7.21096],[-60.62868,7.2315],[-60.63517,7.23882],[-60.6352,7.24321],[-60.63795,7.24599],[-60.63434,7.25429],[-60.63618,7.26173],[-60.63037,7.27113],[-60.61617,7.27791],[-60.61697,7.28203],[-60.61291,7.28728],[-60.61543,7.29869],[-60.60817,7.30233],[-60.60695,7.30731],[-60.59243,7.3079],[-60.58814,7.31428],[-60.59341,7.32335],[-60.59145,7.33173],[-60.59803,7.33887],[-60.59341,7.35085],[-60.60426,7.35885],[-60.61134,7.3691],[-60.60731,7.37568],[-60.61158,7.383],[-60.61256,7.39032],[-60.60722,7.39356],[-60.6098,7.3967],[-60.61457,7.39551],[-60.61943,7.40156],[-60.62533,7.40262],[-60.62744,7.40949],[-60.64311,7.41839],[-60.64121,7.42269],[-60.6424,7.42796],[-60.63713,7.43392],[-60.638,7.44302],[-60.64056,7.4443],[-60.63921,7.44724],[-60.64838,7.45291],[-60.65353,7.4525],[-60.65561,7.45565],[-60.66488,7.4599],[-60.67228,7.45374],[-60.68328,7.46274],[-60.68241,7.47134],[-60.6856,7.47585],[-60.69283,7.47453],[-60.69764,7.47907],[-60.69778,7.48585],[-60.70591,7.49626],[-60.70431,7.50677],[-60.71019,7.51317],[-60.70708,7.51898],[-60.70867,7.52303],[-60.71355,7.52566],[-60.71133,7.52919],[-60.714,7.53441],[-60.71794,7.53496],[-60.72036,7.53884],[-60.71203,7.54313],[-60.7122,7.547],[-60.70957,7.54932],[-60.71158,7.55357],[-60.70746,7.55523],[-60.7058,7.56011],[-60.6938,7.55779],[-60.69262,7.55575],[-60.68767,7.55811],[-60.6901,7.56087],[-60.68858,7.56654],[-60.69235,7.57557],[-60.68944,7.5782],[-60.68574,7.5781],[-60.68252,7.5681],[-60.67923,7.56599],[-60.6756,7.56489],[-60.67242,7.56876],[-60.66557,7.57063],[-60.66035,7.56457],[-60.64624,7.57097],[-60.64599,7.57523],[-60.64316,7.5744],[-60.63887,7.57758],[-60.6369,7.58253],[-60.64036,7.58483],[-60.6423,7.5928],[-60.63828,7.59768],[-60.63959,7.60072],[-60.62856,7.60383],[-60.62773,7.60937],[-60.62258,7.61048],[-60.61953,7.61694],[-60.6261,7.62331],[-60.62521,7.6331],[-60.61784,7.64268],[-60.61236,7.64347],[-60.60506,7.63787],[-60.59944,7.63946],[-60.59548,7.63251],[-60.59032,7.63148],[-60.58838,7.6353],[-60.59082,7.63695],[-60.58985,7.64365],[-60.59222,7.6497],[-60.58931,7.65409],[-60.59175,7.65673],[-60.58772,7.66065],[-60.59278,7.66753],[-60.59338,7.6739],[-60.58967,7.67953],[-60.58212,7.6787],[-60.58188,7.68654],[-60.57745,7.68891],[-60.57942,7.69625],[-60.56814,7.7056],[-60.57077,7.715],[-60.57639,7.72052],[-60.57471,7.72296],[-60.57617,7.72627],[-60.58268,7.72822],[-60.58364,7.73422],[-60.5818,7.73826],[-60.57914,7.73651],[-60.57545,7.74172],[-60.57198,7.74014],[-60.56801,7.74285],[-60.56382,7.75303],[-60.56202,7.76616],[-60.55891,7.77019],[-60.55147,7.76991],[-60.5522,7.7775],[-60.54929,7.78251],[-60.54398,7.78278],[-60.54257,7.78704],[-60.53847,7.78793],[-60.53778,7.79181],[-60.53223,7.79509],[-60.5371,7.80298],[-60.53539,7.80491],[-60.54151,7.81102],[-60.54017,7.81573],[-60.53058,7.82181],[-60.52079,7.82231],[-60.51646,7.82502],[-60.51459,7.82988],[-60.50977,7.82735],[-60.50778,7.83213],[-60.50117,7.83502],[-60.49908,7.82981],[-60.4957,7.83141],[-60.49501,7.82915],[-60.49224,7.83162],[-60.48805,7.82976],[-60.48002,7.83333],[-60.47606,7.83113],[-60.47588,7.83399],[-60.47105,7.83409],[-60.46697,7.83832],[-60.46433,7.83558],[-60.45257,7.83543],[-60.44819,7.83957],[-60.43763,7.83613],[-60.4345,7.82712],[-60.42862,7.8307],[-60.42733,7.82856],[-60.42344,7.82931],[-60.42135,7.82507],[-60.40721,7.82547],[-60.40482,7.82079],[-60.40138,7.82358],[-60.40168,7.82662],[-60.39217,7.83],[-60.38893,7.82886],[-60.38254,7.83285],[-60.37948,7.83984],[-60.37645,7.83363],[-60.37005,7.83257],[-60.36811,7.82719],[-60.36352,7.82795],[-60.362,7.82508],[-60.35889,7.82554],[-60.35685,7.82897],[-60.3498,7.83],[-60.34228,7.83914],[-60.33983,7.83778],[-60.33099,7.8423],[-60.33116,7.84543],[-60.32912,7.84608],[-60.33089,7.84693],[-60.33021,7.85081],[-60.32595,7.85453],[-60.32156,7.85407],[-60.32036,7.85745],[-60.31711,7.85682],[-60.31869,7.8596],[-60.31476,7.86242],[-60.31254,7.87116],[-60.30698,7.87002],[-60.30273,7.87311],[-60.29947,7.87111],[-60.29587,7.87738],[-60.29522,7.87501],[-60.29359,7.87611],[-60.29252,7.88139],[-60.28873,7.87892],[-60.28794,7.88463],[-60.28364,7.88188],[-60.28249,7.88571],[-60.27872,7.88627],[-60.27875,7.88934],[-60.27761,7.88686],[-60.27491,7.88972],[-60.27324,7.89442],[-60.26328,7.89859],[-60.26364,7.90364],[-60.26007,7.90267],[-60.25377,7.91584],[-60.24981,7.91495],[-60.24891,7.91099],[-60.24639,7.91142],[-60.24294,7.9252],[-60.24974,7.9278],[-60.25571,7.92386],[-60.2671,7.92433],[-60.26994,7.92767],[-60.28413,7.92278],[-60.28582,7.92321],[-60.28457,7.92553],[-60.29196,7.92481],[-60.2929,7.92772],[-60.29599,7.92731],[-60.29769,7.93042],[-60.30284,7.93233],[-60.30198,7.93964],[-60.31829,7.93917],[-60.32041,7.94328],[-60.32625,7.94268],[-60.32906,7.94474],[-60.33378,7.94315],[-60.33492,7.94961],[-60.33957,7.95127],[-60.34718,7.94665],[-60.35841,7.94897],[-60.36142,7.95125],[-60.35954,7.95638],[-60.36483,7.96197],[-60.37578,7.96489],[-60.37812,7.96232],[-60.38499,7.96151],[-60.38778,7.96802],[-60.39288,7.96935],[-60.40018,7.9664],[-60.40299,7.97241],[-60.41719,7.97296],[-60.42056,7.97975],[-60.42414,7.98173],[-60.42969,7.98041],[-60.42973,7.97486],[-60.43578,7.972],[-60.44459,7.97526],[-60.45406,7.9749],[-60.45395,7.97775],[-60.4586,7.97863],[-60.45893,7.98263],[-60.46884,7.98754],[-60.47031,7.99658],[-60.47743,7.99391],[-60.48969,8.00355],[-60.50192,7.99985],[-60.50492,8.00519],[-60.50499,8.01207],[-60.51096,8.01474],[-60.51541,8.00863],[-60.5271,8.01146],[-60.52788,8.00049],[-60.53179,7.99706],[-60.53189,7.99321],[-60.53631,7.99155],[-60.54055,7.99486],[-60.53946,7.99259],[-60.54239,7.99241],[-60.54137,7.98652],[-60.55301,7.98229],[-60.54882,7.97778],[-60.54866,7.96333],[-60.55283,7.96156],[-60.55251,7.95774],[-60.55637,7.95796],[-60.56098,7.93994],[-60.57097,7.93155],[-60.57184,7.92782],[-60.57823,7.92726],[-60.58264,7.92958],[-60.59317,7.92719],[-60.596,7.92433],[-60.6026,7.92841],[-60.60746,7.92285],[-60.61237,7.92319],[-60.6142,7.92023],[-60.62078,7.9227],[-60.62355,7.92133],[-60.62415,7.92613],[-60.62992,7.92871],[-60.63025,7.93304],[-60.62713,7.93514],[-60.63615,7.93856],[-60.63433,7.94223],[-60.63547,7.94752],[-60.64061,7.94624],[-60.64435,7.94974],[-60.65124,7.94822],[-60.65214,7.95064],[-60.65846,7.95129],[-60.66344,7.92923],[-60.66137,7.91566],[-60.66615,7.91033],[-60.67067,7.90919],[-60.67968,7.89559],[-60.68769,7.89614],[-60.6884,7.89077],[-60.69228,7.89209],[-60.69637,7.88811],[-60.70392,7.89122],[-60.71695,7.8839],[-60.72164,7.88739],[-60.7268,7.88752],[-60.72853,7.89434],[-60.73308,7.89273],[-60.7415,7.89761],[-60.74386,7.89659],[-60.74298,7.90206],[-60.75171,7.90741],[-60.75354,7.90591],[-60.75187,7.90498],[-60.75882,7.90071],[-60.75886,7.90389],[-60.76074,7.90098],[-60.76107,7.90284],[-60.77171,7.90267],[-60.77467,7.90519],[-60.77514,7.90232],[-60.78671,7.90018],[-60.78592,7.90267],[-60.78924,7.90191],[-60.79191,7.90452],[-60.792,7.90162],[-60.79352,7.90328],[-60.79911,7.89786],[-60.81057,7.89488],[-60.81002,7.89247],[-60.81879,7.89379],[-60.82182,7.88843],[-60.82661,7.89246],[-60.82909,7.88965],[-60.83179,7.89011],[-60.83236,7.88264],[-60.84064,7.88853],[-60.84723,7.88004],[-60.85205,7.88352],[-60.85405,7.88138],[-60.85687,7.88301],[-60.86173,7.87699],[-60.86428,7.8773],[-60.86547,7.8733],[-60.87058,7.87129],[-60.86852,7.86507],[-60.86703,7.86724],[-60.86602,7.86585],[-60.87095,7.85982],[-60.8792,7.85261],[-60.88609,7.85048],[-60.8854,7.84838],[-60.8891,7.84408],[-60.88536,7.84183],[-60.8891,7.83929],[-60.88368,7.83794],[-60.88334,7.83573],[-60.88476,7.83077],[-60.88983,7.82804],[-60.88781,7.82614],[-60.89249,7.82524],[-60.8927,7.82041],[-60.89573,7.82112],[-60.90109,7.81792],[-60.90614,7.8101],[-60.92232,7.81245],[-60.92543,7.80713],[-60.93093,7.80485],[-60.92942,7.80113],[-60.93248,7.80174],[-60.93315,7.79945],[-60.92952,7.7972],[-60.93316,7.79604],[-60.932,7.79159],[-60.93657,7.78724],[-60.93602,7.78383],[-60.93861,7.78424],[-60.93256,7.77796],[-60.93404,7.77177],[-60.93084,7.77009],[-60.93619,7.76719],[-60.94294,7.77106],[-60.94689,7.76967],[-60.94802,7.76626],[-60.95179,7.76811],[-60.95402,7.7652],[-60.96004,7.76799],[-60.97096,7.76808],[-60.97268,7.77061],[-60.97528,7.77019],[-60.97512,7.77276],[-60.97798,7.77117],[-60.98067,7.77414],[-60.98511,7.77313],[-60.98862,7.77661],[-60.98934,7.77488],[-60.99733,7.77615],[-60.99872,7.77955],[-61.003,7.77799],[-61.00334,7.78006],[-61.00716,7.78088],[-61.00803,7.7782],[-61.01073,7.7812],[-61.01221,7.77926],[-61.01401,7.78107],[-61.02206,7.7796],[-61.02595,7.78605],[-61.02521,7.78885],[-61.02973,7.79356],[-61.0394,7.79749],[-61.04185,7.79648],[-61.04718,7.80155],[-61.05561,7.79826],[-61.0574,7.80001],[-61.05833,7.79741],[-61.0605,7.80077],[-61.06214,7.79971],[-61.06267,7.803],[-61.06323,7.80148],[-61.07154,7.8041],[-61.07336,7.81151],[-61.07813,7.81061],[-61.07784,7.81306],[-61.0912,7.81784],[-61.09312,7.82236],[-61.098,7.82387],[-61.1019,7.83005],[-61.1042,7.84039],[-61.10822,7.84512],[-61.09751,7.85295],[-61.09466,7.85895],[-61.08828,7.8616],[-61.21204,7.98002],[-61.24768,8.01117],[-61.25806,8.0293],[-61.26336,8.02665],[-61.26306,8.02453],[-61.26731,8.02523],[-61.27278,8.02191],[-61.27116,8.01767],[-61.27519,8.01193],[-61.27836,8.01093],[-61.28171,8.01332],[-61.28374,8.00963],[-61.29006,8.01053],[-61.30598,7.998],[-61.30898,8.00024],[-61.31289,7.99733],[-61.31808,7.99783],[-61.32019,7.99542],[-61.32693,7.99449],[-61.32808,7.9916],[-61.33367,7.99221],[-61.33633,7.98873],[-61.33867,7.99188],[-61.39685,7.94982],[-61.40008,7.95002],[-61.40203,7.94538],[-61.40943,7.94284],[-61.41591,7.9363],[-61.41893,7.93511],[-61.41692,7.94008],[-61.42216,7.93817],[-61.47072,7.90989],[-61.47756,7.9098],[-61.4852,7.90627],[-61.49233,7.90721],[-61.49735,7.89554],[-61.5105,7.89297],[-61.53294,7.87788],[-61.54125,7.87129],[-61.54341,7.86595],[-61.53777,7.84434],[-61.5427,7.80047],[-61.55429,7.79766],[-61.55164,7.80227],[-61.55535,7.80749],[-61.56215,7.80627],[-61.57441,7.81174],[-61.57699,7.81121],[-61.57705,7.80801],[-61.58214,7.80963],[-61.58479,7.80669],[-61.58894,7.81367],[-61.58738,7.81842],[-61.58984,7.81925],[-61.59101,7.82825],[-61.5996,7.83005],[-61.60084,7.83703],[-61.60444,7.84044],[-61.60248,7.84317],[-61.60552,7.84965],[-61.61277,7.85365],[-61.61216,7.85643],[-61.62038,7.86268],[-61.61947,7.86636],[-61.62199,7.86594],[-61.62483,7.86988],[-61.62288,7.87257],[-61.62376,7.87792],[-61.61906,7.87973],[-61.61352,7.88812],[-61.61431,7.89403],[-61.62075,7.90387],[-61.62039,7.91142],[-61.61768,7.91446],[-61.62088,7.91885],[-61.62249,7.92827],[-61.62116,7.93477],[-61.61734,7.9389],[-61.61981,7.94505],[-61.6294,7.95515],[-61.63816,7.95232],[-61.64651,7.96293],[-61.65202,7.96471],[-61.6481,7.98294],[-61.6514,8.00083],[-61.64594,8.00521],[-61.64647,8.01294],[-61.64349,8.01618],[-61.65002,8.03261],[-61.64933,8.03778],[-61.65371,8.03698],[-61.65502,8.03986],[-61.65211,8.04599],[-61.65575,8.05012],[-61.6548,8.0535],[-61.65741,8.05601],[-61.65929,8.06499],[-61.65778,8.07077],[-61.66027,8.07347],[-61.65696,8.08739],[-61.67718,8.09207],[-61.6818,8.10166],[-61.6859,8.10424],[-61.69459,8.10232],[-61.69712,8.11646],[-61.70244,8.12578],[-61.71404,8.12915],[-61.71594,8.13466],[-61.71406,8.13874],[-61.72016,8.1381],[-61.71919,8.14002],[-61.72216,8.14372],[-61.72353,8.14985],[-61.72151,8.15185],[-61.72879,8.16244],[-61.73429,8.16216],[-61.73174,8.17075],[-61.73359,8.17613],[-61.7283,8.17701],[-61.72543,8.18306],[-61.73798,8.18364],[-61.73763,8.18682],[-61.74034,8.1895],[-61.73594,8.19072],[-61.73732,8.19501],[-61.73467,8.19793],[-61.73853,8.20384],[-61.73417,8.21691],[-61.73638,8.22009],[-61.7451,8.22179],[-61.74546,8.22764],[-61.73972,8.23187],[-61.74046,8.23709],[-61.73746,8.24065],[-61.73822,8.24465],[-61.74342,8.24668],[-61.74001,8.25607],[-61.74646,8.25541],[-61.74888,8.25853],[-61.75455,8.25947],[-61.7549,8.26758],[-61.76542,8.27999],[-61.76542,8.28286],[-61.76146,8.2855],[-61.76151,8.29017],[-61.76404,8.28946],[-61.76973,8.29599],[-61.76273,8.29836],[-61.76657,8.30688],[-61.7611,8.31707],[-61.75321,8.32002],[-61.74872,8.319],[-61.72008,8.32979],[-61.71011,8.33072],[-61.70298,8.33524],[-61.69671,8.34347],[-61.69873,8.34689],[-61.6976,8.35331],[-61.69315,8.35481],[-61.69278,8.35895],[-61.68284,8.36441],[-61.68175,8.36761],[-61.68507,8.36791],[-61.68563,8.37075],[-61.68134,8.3788],[-61.6858,8.38107],[-61.6855,8.39265],[-61.69076,8.39318],[-61.69372,8.39625],[-61.69733,8.3955],[-61.69836,8.40002],[-61.69413,8.40224],[-61.69742,8.4126],[-61.69486,8.41621],[-61.70333,8.41991],[-61.70202,8.4252],[-61.70629,8.42374],[-61.70472,8.43141],[-61.70017,8.43329],[-61.70107,8.43594],[-61.69649,8.4357],[-61.69764,8.44583],[-61.6881,8.45236],[-61.68673,8.45879],[-62.25441,8.30429],[-62.51624,8.39171],[-62.53321,8.40394],[-62.53491,8.40986],[-62.53224,8.41243],[-62.53598,8.41551],[-62.53623,8.42004],[-62.54753,8.42767],[-62.61462,8.45945],[-62.61945,8.4475],[-62.62201,8.43141],[-62.63443,8.41243],[-62.64842,8.39698],[-62.66241,8.38705]]]}}]}