{"type":"FeatureCollection","features":[{"type":"Feature","id":"node/313507005","properties":{"name":"Puerto Ordaz","place":"city","population":"438773"},"geometry":{"type":"Point","coordinates":[-62.75583,8.27504]}},{"type":"Feature","id":"node/313507067","properties":{"name":"San F\u00e9lix","place":"city","population":"438773"},"geometry":{"type":"Point","coordinates":[-62.64713,8.34754]}},{"type":"Feature","id":"node/313507201","properties":{"name":"Ciudad Guayana","place":"city","population":"820780"},"geometry":{"type":"Point","coordinates":[-62.68966,8.32238]}},{"type":"Feature","id":"node/313508522","properties":{"name":"Ciudad Bol\u00edvar","place":"city","population":"567693"},"geometry":{"type":"Point","coordinates":[-63.54696,8.10285]}},{"type":"Feature","id":"node/321717073","properties":{"name":"El Callao","place":"city"},"geometry":{"type":"Point","coordinates":[-61.83319,7.34736]}},{"type":"Feature","id":"node/321732473","properties":{"name":"Upata","place":"city","population":"117476"},"geometry":{"type":"Point","coordinates":[-62.39779,8.00734]}},{"type":"Feature","id":"node/366595137","properties":{"name":"Santa Elena de Uair\u00e9n","place":"city","population":"42000"},"geometry":{"type":"Point","coordinates":[-61.11059,4.59587]}},{"type":"Feature","id":"node/416880766","properties":{"name":"Ciudad Piar","place":"town"},"geometry":{"type":"Point","coordinates":[-63.31967,7.4502]}},{"type":"Feature","id":"node/416881096","properties":{"name":"La Paragua","place":"city"},"geometry":{"type":"Point","coordinates":[-63.34001,6.83894]}},{"type":"Feature","id":"node/829010839","properties":{"name":"Caicara del Orinoco","place":"city","population":"117476"},"geometry":{"type":"Point","coordinates":[-66.16128,7.62542]}},{"type":"Feature","id":"node/829334039","properties":{"name":"Santa Mar\u00eda de Erebato","place":"village"},"geometry":{"type":"Point","coordinates":[-64.83073,5.14586]}},{"type":"Feature","id":"node/1172771080","properties":{"name":"Pendare","place":"village"},"geometry":{"type":"Point","coordinates":[-67.06682,6.10013]}},{"type":"Feature","id":"node/1224876249","properties":{"name":"Para\u00edso","place":"village"},"geometry":{"type":"Point","coordinates":[-62.74525,8.18894]}},{"type":"Feature","id":"node/1224879012","properties":{"name":"El Guerro","place":"village"},"geometry":{"type":"Point","coordinates":[-62.73737,8.23251]}},{"type":"Feature","id":"node/1226351278","properties":{"name":"Santa Fe","place":"village"},"geometry":{"type":"Point","coordinates":[-62.6474,8.27337]}},{"type":"Feature","id":"node/1226355380","properties":{"name":"Chaparralito","place":"village"},"geometry":{"type":"Point","coordinates":[-62.77019,8.10679]}},{"type":"Feature","id":"node/1226366753","properties":{"name":"El Bosque","place":"village"},"geometry":{"type":"Point","coordinates":[-62.78546,8.08363]}},{"type":"Feature","id":"node/1232113374","properties":{"name":"El Dorado","place":"town"},"geometry":{"type":"Point","coordinates":[-61.63725,6.71505]}},{"type":"Feature","id":"node/1308916521","properties":{"name":"Canaima","place":"town"},"geometry":{"type":"Point","coordinates":[-62.85294,6.23579]}},{"type":"Feature","id":"node/1691369112","properties":{"name":"R\u00edo Claro","place":"town"},"geometry":{"type":"Point","coordinates":[-62.59899,8.40853]}},{"type":"Feature","id":"node/1691372171","properties":{"name":"Hato Gil","place":"village"},"geometry":{"type":"Point","coordinates":[-62.70217,8.24391]}},{"type":"Feature","id":"node/1691443730","properties":{"name":"La Ceiba","place":"town"},"geometry":{"type":"Point","coordinates":[-62.93824,8.2503]}},{"type":"Feature","id":"node/1691443927","properties":{"name":"Kil\u00f3metro 70","place":"town"},"geometry":{"type":"Point","coordinates":[-62.93985,8.1504]}},{"type":"Feature","id":"node/1691457500","properties":{"name":"Parcelamiento Los Melones","place":"village"},"geometry":{"type":"Point","coordinates":[-63.07009,7.93199]}},{"type":"Feature","id":"node/1691457508","properties":{"name":"Santa B\u00e1rbara del Oeste","place":"village"},"geometry":{"type":"Point","coordinates":[-63.18757,7.3757]}},{"type":"Feature","id":"node/1691457524","properties":{"name":"San Juan de Tocoma","place":"village"},"geometry":{"type":"Point","coordinates":[-63.18867,7.74752]}},{"type":"Feature","id":"node/1691457525","properties":{"name":"Palmarito","place":"village"},"geometry":{"type":"Point","coordinates":[-63.36399,8.19563]}},{"type":"Feature","id":"node/1691457547","properties":{"name":"El Bong\u00f3","place":"village"},"geometry":{"type":"Point","coordinates":[-63.29691,8.199]}},{"type":"Feature","id":"node/1849057267","properties":{"name":"El Pauj\u00ed","place":"village"},"geometry":{"type":"Point","coordinates":[-61.59184,4.4742]}},{"type":"Feature","id":"node/1866103540","properties":{"name":"Santa Barbara","place":"village"},"geometry":{"type":"Point","coordinates":[-62.24389,7.68315]}},{"type":"Feature","id":"node/1867532614","properties":{"name":"Santa Mar\u00eda de Upata","place":"village"},"geometry":{"type":"Point","coordinates":[-62.29286,7.93024]}},{"type":"Feature","id":"node/1877037045","properties":{"name":"San Lorenzo","place":"town"},"geometry":{"type":"Point","coordinates":[-62.43519,7.97707]}},{"type":"Feature","id":"node/1901666322","properties":{"name":"Los Rosos","place":"town"},"geometry":{"type":"Point","coordinates":[-62.44132,8.1702]}},{"type":"Feature","id":"node/1901679292","properties":{"name":"El Valle","place":"town"},"geometry":{"type":"Point","coordinates":[-62.42431,8.09584]}},{"type":"Feature","id":"node/2279622552","properties":{"name":"Sabaneta","place":"town"},"geometry":{"type":"Point","coordinates":[-62.50247,7.98026]}},{"type":"Feature","id":"node/2279622553","properties":{"name":"Mundo Nuevo","place":"village"},"geometry":{"type":"Point","coordinates":[-62.46028,8.03893]}},{"type":"Feature","id":"node/2279788245","properties":{"name":"Santa Rosa","place":"village"},"geometry":{"type":"Point","coordinates":[-62.45783,7.94955]}},{"type":"Feature","id":"node/2610096215","properties":{"name":"Tumeremo","place":"city","population":"90384"},"geometry":{"type":"Point","coordinates":[-61.50442,7.29904]}},{"type":"Feature","id":"node/2811597836","properties":{"name":"Playa Blanca de Waipar\u00fa","place":"village"},"geometry":{"type":"Point","coordinates":[-61.82623,4.36375]}},{"type":"Feature","id":"node/2811597988","properties":{"name":"Ikabar\u00fa","place":"village"},"geometry":{"type":"Point","coordinates":[-61.7367,4.33045]}},{"type":"Feature","id":"node/2835200718","properties":{"name":"San Ignacio del Yuruan\u00ed","place":"village"},"geometry":{"type":"Point","coordinates":[-61.14603,5.00971]}},{"type":"Feature","id":"node/3077418682","properties":{"name":"San Mart\u00edn de Turumbang","place":"village"},"geometry":{"type":"Point","coordinates":[-61.0933,6.71343]}},{"type":"Feature","id":"node/4242835674","properties":{"name":"Kil\u00f3metro 88","place":"town"},"geometry":{"type":"Point","coordinates":[-61.43122,6.15607]}},{"type":"Feature","id":"node/4242835675","properties":{"name":"Las Claritas","place":"town"},"geometry":{"type":"Point","coordinates":[-61.42359,6.18137]}},{"type":"Feature","id":"node/8012421866","properties":{"name":"Maripa","place":"town"},"geometry":{"type":"Point","coordinates":[-65.18397,7.41691]}},{"type":"Feature","id":"node/5143313382","properties":{"name":"Guasipati","place":"city"},"geometry":{"type":"Point","coordinates":[-61.89679,7.4766]}},{"type":"Feature","id":"node/5143313383","properties":{"name":"El Palmar","place":"town"},"geometry":{"type":"Point","coordinates":[-61.90708,8.01089]}},{"type":"Feature","id":"node/4316207743","properties":{"name":"La Filomena","place":"town"},"geometry":{"type":"Point","coordinates":[-63.27672,7.42903]}},{"type":"Feature","id":"node/4316207744","properties":{"name":"El Vesubio","place":"village"},"geometry":{"type":"Point","coordinates":[-63.28447,7.42896]}},{"type":"Feature","id":"node/4316207787","properties":{"name":"Santa Cruz","place":"village"},"geometry":{"type":"Point","coordinates":[-63.24937,7.41552]}},{"type":"Feature","id":"node/4316207952","properties":{"name":"Santa B\u00e1rbara","place":"village"},"geometry":{"type":"Point","coordinates":[-63.27146,7.34815]}},{"type":"Feature","id":"node/4406170902","properties":{"name":"Kumarakapay","place":"village"},"geometry":{"type":"Point","coordinates":[-61.09658,5.05741]}},{"type":"Feature","id":"node/4496525151","properties":{"name":"Cuchivero","place":"village"},"geometry":{"type":"Point","coordinates":[-65.8502,7.52166]}},{"type":"Feature","id":"node/4496602273","properties":{"name":"Santa Rosal\u00eda","place":"town"},"geometry":{"type":"Point","coordinates":[-65.65333,7.48709]}},{"type":"Feature","id":"node/4498256131","properties":{"name":"La Culebra","place":"village"},"geometry":{"type":"Point","coordinates":[-65.55485,7.43169]}},{"type":"Feature","id":"node/4689279676","properties":{"name":"Paraitepuy del Roraima","place":"village"},"geometry":{"type":"Point","coordinates":[-60.93415,5.05608]}},{"type":"Feature","id":"node/5219969770","properties":{"name":"San Francisco del Aro","place":"town"},"geometry":{"type":"Point","coordinates":[-63.62758,7.08995]}},{"type":"Feature","id":"node/5219978662","properties":{"name":"Moitaco","place":"town"},"geometry":{"type":"Point","coordinates":[-64.35331,8.00192]}},{"type":"Feature","id":"node/5219979826","properties":{"name":"Las Flores","place":"village"},"geometry":{"type":"Point","coordinates":[-64.40252,7.65918]}},{"type":"Feature","id":"node/5219979903","properties":{"name":"Corumutopo","place":"village"},"geometry":{"type":"Point","coordinates":[-64.50661,7.74766]}},{"type":"Feature","id":"node/5234711692","properties":{"name":"Guarataro","place":"town"},"geometry":{"type":"Point","coordinates":[-64.80073,7.44381]}},{"type":"Feature","id":"node/5234711696","properties":{"name":"Guayabal","place":"village"},"geometry":{"type":"Point","coordinates":[-64.97686,7.06268]}},{"type":"Feature","id":"node/5234731453","properties":{"name":"El Manteco","place":"city"},"geometry":{"type":"Point","coordinates":[-62.53954,7.34832]}},{"type":"Feature","id":"node/5234749205","properties":{"name":"El Miamo","place":"village"},"geometry":{"type":"Point","coordinates":[-61.81732,7.63071]}},{"type":"Feature","id":"node/5241533001","properties":{"name":"San Jacinto 1","place":"town"},"geometry":{"type":"Point","coordinates":[-62.91874,8.19775]}},{"type":"Feature","id":"node/5244907215","properties":{"name":"Maurak","place":"village","population":"1500"},"geometry":{"type":"Point","coordinates":[-61.18101,4.58382]}},{"type":"Feature","id":"node/5245636857","properties":{"name":"Kanarakuni","place":"village"},"geometry":{"type":"Point","coordinates":[-64.12961,4.43105]}},{"type":"Feature","id":"node/5245636858","properties":{"name":"Majawa","place":"village"},"geometry":{"type":"Point","coordinates":[-65.04558,5.12553]}},{"type":"Feature","id":"node/5269939235","properties":{"name":"San Jos\u00e9 de Kayam\u00e1","place":"village"},"geometry":{"type":"Point","coordinates":[-65.38113,6.33111]}},{"type":"Feature","id":"node/5370095615","properties":{"name":"El Pao","place":"town"},"geometry":{"type":"Point","coordinates":[-62.65379,8.03482]}},{"type":"Feature","id":"node/5377760715","properties":{"name":"La Grulla","place":"village"},"geometry":{"type":"Point","coordinates":[-62.37094,8.2056]}},{"type":"Feature","id":"node/5377760716","properties":{"name":"Altagracia","place":"town"},"geometry":{"type":"Point","coordinates":[-62.42401,8.06467]}},{"type":"Feature","id":"node/5418208883","properties":{"name":"Comunidad Araimatepuy","place":"village"},"geometry":{"type":"Point","coordinates":[-61.35263,6.23384]}},{"type":"Feature","id":"node/5418208884","properties":{"name":"Comunidad Joboshirima","place":"village"},"geometry":{"type":"Point","coordinates":[-61.34021,6.24832]}},{"type":"Feature","id":"node/5418208885","properties":{"name":"San Miguel de Betania","place":"village"},"geometry":{"type":"Point","coordinates":[-61.31745,6.2912]}},{"type":"Feature","id":"node/5418208886","properties":{"name":"Comunidad Apanao","place":"village"},"geometry":{"type":"Point","coordinates":[-61.5179,6.45555]}},{"type":"Feature","id":"node/5418208887","properties":{"name":"Santa Teresa","place":"village"},"geometry":{"type":"Point","coordinates":[-61.55509,6.50648]}},{"type":"Feature","id":"node/5434116745","properties":{"name":"El Silvestre","place":"town"},"geometry":{"type":"Point","coordinates":[-62.61778,8.2515]}},{"type":"Feature","id":"node/5434116746","properties":{"name":"Kil\u00f3metro 17","place":"town"},"geometry":{"type":"Point","coordinates":[-62.61322,8.23273]}},{"type":"Feature","id":"node/5434116747","properties":{"name":"Las Mulas","place":"village"},"geometry":{"type":"Point","coordinates":[-62.63328,8.21489]}},{"type":"Feature","id":"node/5434116748","properties":{"name":"Mina Arriba","place":"village"},"geometry":{"type":"Point","coordinates":[-62.59339,8.19456]}},{"type":"Feature","id":"node/5434116818","properties":{"name":"El Chispero","place":"village"},"geometry":{"type":"Point","coordinates":[-62.55689,8.20491]}},{"type":"Feature","id":"node/5434117542","properties":{"name":"La Sabanita","place":"town"},"geometry":{"type":"Point","coordinates":[-62.51753,8.23079]}},{"type":"Feature","id":"node/5434117546","properties":{"name":"La Josefina","place":"village"},"geometry":{"type":"Point","coordinates":[-62.51712,8.24366]}},{"type":"Feature","id":"node/5434117783","properties":{"name":"Guanaima","place":"village"},"geometry":{"type":"Point","coordinates":[-62.4497,8.28443]}},{"type":"Feature","id":"node/5434118039","properties":{"name":"Quebrada Honda","place":"village"},"geometry":{"type":"Point","coordinates":[-62.62576,8.18248]}},{"type":"Feature","id":"node/5434118040","properties":{"name":"Pozo Verde","place":"village"},"geometry":{"type":"Point","coordinates":[-62.64769,8.16774]}},{"type":"Feature","id":"node/5434118041","properties":{"name":"Sierra Caron\u00ed","place":"village"},"geometry":{"type":"Point","coordinates":[-62.65563,8.13486]}},{"type":"Feature","id":"node/5434118046","properties":{"name":"Las Dos Ceibas","place":"village"},"geometry":{"type":"Point","coordinates":[-62.63825,8.10263]}},{"type":"Feature","id":"node/5434118098","properties":{"name":"Mina Abajo","place":"village"},"geometry":{"type":"Point","coordinates":[-62.61951,8.12676]}},{"type":"Feature","id":"node/5434118473","properties":{"name":"Taparote","place":"village"},"geometry":{"type":"Point","coordinates":[-62.68879,8.07779]}},{"type":"Feature","id":"node/5434118474","properties":{"name":"Cerro Azul","place":"village"},"geometry":{"type":"Point","coordinates":[-62.6728,8.10341]}},{"type":"Feature","id":"node/5434118512","properties":{"name":"Los Jabillos","place":"village"},"geometry":{"type":"Point","coordinates":[-62.63911,8.00517]}},{"type":"Feature","id":"node/5434118626","properties":{"name":"El Retumbo","place":"village"},"geometry":{"type":"Point","coordinates":[-62.71707,7.96131]}},{"type":"Feature","id":"node/5434118627","properties":{"name":"El Trical","place":"village"},"geometry":{"type":"Point","coordinates":[-62.74906,7.99442]}},{"type":"Feature","id":"node/5434118628","properties":{"name":"Los Cayenes","place":"village"},"geometry":{"type":"Point","coordinates":[-62.76374,7.99886]}},{"type":"Feature","id":"node/5434118629","properties":{"name":"La Fortuna","place":"village"},"geometry":{"type":"Point","coordinates":[-62.7958,8.03636]}},{"type":"Feature","id":"node/5434118630","properties":{"name":"La Laguna","place":"village"},"geometry":{"type":"Point","coordinates":[-62.79324,8.0605]}},{"type":"Feature","id":"node/5434118631","properties":{"name":"El Tesoro","place":"village"},"geometry":{"type":"Point","coordinates":[-62.79119,8.09277]}},{"type":"Feature","id":"node/5434118632","properties":{"name":"5 de Marzo","place":"village"},"geometry":{"type":"Point","coordinates":[-62.75514,8.12385]}},{"type":"Feature","id":"node/5434118660","properties":{"name":"Ezequiel Zamora","place":"village"},"geometry":{"type":"Point","coordinates":[-62.74026,8.20329]}},{"type":"Feature","id":"node/5434118661","properties":{"name":"Las Guayas","place":"village"},"geometry":{"type":"Point","coordinates":[-62.71886,8.22243]}},{"type":"Feature","id":"node/5434118662","properties":{"name":"Perla de Caruachi","place":"village"},"geometry":{"type":"Point","coordinates":[-62.67666,8.25418]}},{"type":"Feature","id":"node/5434118663","properties":{"name":"Campo Alegre","place":"village"},"geometry":{"type":"Point","coordinates":[-62.66833,8.23902]}},{"type":"Feature","id":"node/5434118670","properties":{"name":"Las Taparitas","place":"village"},"geometry":{"type":"Point","coordinates":[-62.65406,8.23897]}},{"type":"Feature","id":"node/5509183295","properties":{"name":"Sakoro Ken","place":"village"},"geometry":{"type":"Point","coordinates":[-63.52004,6.56939]}},{"type":"Feature","id":"node/5509186396","properties":{"name":"Parepona","place":"village"},"geometry":{"type":"Point","coordinates":[-63.55505,6.44878]}},{"type":"Feature","id":"node/5509186397","properties":{"name":"El Casabe","place":"village"},"geometry":{"type":"Point","coordinates":[-63.59491,6.41216]}},{"type":"Feature","id":"node/5509188262","properties":{"name":"Boca del Toron\u00f3","place":"village"},"geometry":{"type":"Point","coordinates":[-63.74643,6.15807]}},{"type":"Feature","id":"node/5509191030","properties":{"name":"Chiguao","place":"village"},"geometry":{"type":"Point","coordinates":[-63.05996,6.12225]}},{"type":"Feature","id":"node/5509281366","properties":{"name":"Los Cajones","place":"village"},"geometry":{"type":"Point","coordinates":[-61.67419,6.60643]}},{"type":"Feature","id":"node/5509281368","properties":{"name":"Contrabando","place":"village"},"geometry":{"type":"Point","coordinates":[-61.64566,6.65852]}},{"type":"Feature","id":"node/5509281417","properties":{"name":"San Antonio de Roscio","place":"village"},"geometry":{"type":"Point","coordinates":[-61.5659,6.46278]}},{"type":"Feature","id":"node/5512030418","properties":{"name":"Suasua","place":"village"},"geometry":{"type":"Point","coordinates":[-61.61792,6.95454]}},{"type":"Feature","id":"node/5512030419","properties":{"name":"Caripito","place":"village"},"geometry":{"type":"Point","coordinates":[-61.40855,6.99273]}},{"type":"Feature","id":"node/5512030420","properties":{"name":"El Delirio","place":"village"},"geometry":{"type":"Point","coordinates":[-61.42883,7.00464]}},{"type":"Feature","id":"node/5512034878","properties":{"name":"Puerto Arturo","place":"village"},"geometry":{"type":"Point","coordinates":[-61.61132,6.87163]}},{"type":"Feature","id":"node/5512646639","properties":{"name":"El Tigrito","place":"village"},"geometry":{"type":"Point","coordinates":[-63.58617,6.43183]}},{"type":"Feature","id":"node/5535706687","properties":{"name":"Los Hicoteos","place":"village"},"geometry":{"type":"Point","coordinates":[-63.96024,7.63896]}},{"type":"Feature","id":"node/5535706688","properties":{"name":"La Flor","place":"village"},"geometry":{"type":"Point","coordinates":[-63.96725,7.60794]}},{"type":"Feature","id":"node/5535707190","properties":{"name":"La Esperanza","place":"village"},"geometry":{"type":"Point","coordinates":[-64.01402,7.49727]}},{"type":"Feature","id":"node/5535933643","properties":{"name":"Mayagua","place":"village"},"geometry":{"type":"Point","coordinates":[-63.80975,7.99076]}},{"type":"Feature","id":"node/5535933725","properties":{"name":"La Danta","place":"village"},"geometry":{"type":"Point","coordinates":[-63.84477,7.86264]}},{"type":"Feature","id":"node/5535933726","properties":{"name":"Curiapo","place":"village"},"geometry":{"type":"Point","coordinates":[-63.82972,7.88606]}},{"type":"Feature","id":"node/5535933849","properties":{"name":"Agua Linda","place":"village"},"geometry":{"type":"Point","coordinates":[-63.8057,7.92603]}},{"type":"Feature","id":"node/5535934448","properties":{"name":"Las Casitas","place":"village"},"geometry":{"type":"Point","coordinates":[-63.88336,7.80449]}},{"type":"Feature","id":"node/5535935065","properties":{"name":"Carrizal","place":"village"},"geometry":{"type":"Point","coordinates":[-63.88941,7.77221]}},{"type":"Feature","id":"node/5535935161","properties":{"name":"La Carolina","place":"village"},"geometry":{"type":"Point","coordinates":[-63.90279,7.73485]}},{"type":"Feature","id":"node/5535935163","properties":{"name":"Las Cocuizas","place":"village"},"geometry":{"type":"Point","coordinates":[-63.90363,7.72375]}},{"type":"Feature","id":"node/5538589927","properties":{"name":"Las Mulas","place":"village"},"geometry":{"type":"Point","coordinates":[-63.85004,8.06514]}},{"type":"Feature","id":"node/5538589930","properties":{"name":"El Almac\u00e9n","place":"village"},"geometry":{"type":"Point","coordinates":[-63.85364,8.05507]}},{"type":"Feature","id":"node/5538589931","properties":{"name":"La Vig\u00eda","place":"village"},"geometry":{"type":"Point","coordinates":[-63.84388,8.03668]}},{"type":"Feature","id":"node/5538748869","properties":{"name":"El Chaparral","place":"village"},"geometry":{"type":"Point","coordinates":[-62.90905,8.17469]}},{"type":"Feature","id":"node/5538757308","properties":{"name":"La Victoria","place":"village"},"geometry":{"type":"Point","coordinates":[-63.36502,8.16925]}},{"type":"Feature","id":"node/5538757365","properties":{"name":"Hicacal Bajo","place":"village"},"geometry":{"type":"Point","coordinates":[-63.44866,8.12632]}},{"type":"Feature","id":"node/5538757384","properties":{"name":"Guaimire","place":"village"},"geometry":{"type":"Point","coordinates":[-63.28457,8.08969]}},{"type":"Feature","id":"node/5538757512","properties":{"name":"Las Galeras","place":"village"},"geometry":{"type":"Point","coordinates":[-63.1201,8.30458]}},{"type":"Feature","id":"node/5538757978","properties":{"name":"San Jacinto 3","place":"village"},"geometry":{"type":"Point","coordinates":[-62.97831,8.2368]}},{"type":"Feature","id":"node/5569081637","properties":{"name":"La Monta\u00f1ita","place":"village"},"geometry":{"type":"Point","coordinates":[-64.08247,7.7378]}},{"type":"Feature","id":"node/5569081638","properties":{"name":"La Mata de Tapaquire","place":"village"},"geometry":{"type":"Point","coordinates":[-64.08488,7.77414]}},{"type":"Feature","id":"node/5569086910","properties":{"name":"Borb\u00f3n","place":"village"},"geometry":{"type":"Point","coordinates":[-64.09864,7.93639]}},{"type":"Feature","id":"node/5569086911","properties":{"name":"Bajo Borb\u00f3n","place":"village"},"geometry":{"type":"Point","coordinates":[-64.131,7.93171]}},{"type":"Feature","id":"node/5569090522","properties":{"name":"San Antonio","place":"village"},"geometry":{"type":"Point","coordinates":[-64.32002,7.98718]}},{"type":"Feature","id":"node/5569091303","properties":{"name":"Guasimal","place":"village"},"geometry":{"type":"Point","coordinates":[-64.28181,8.03721]}},{"type":"Feature","id":"node/5569377788","properties":{"name":"El Sarrapio","place":"village"},"geometry":{"type":"Point","coordinates":[-64.46245,7.68782]}},{"type":"Feature","id":"node/5569378681","properties":{"name":"Camurica","place":"village"},"geometry":{"type":"Point","coordinates":[-64.38709,7.88035]}},{"type":"Feature","id":"node/6478743822","properties":{"name":"San Cayetano","place":"village"},"geometry":{"type":"Point","coordinates":[-62.22878,7.9033]}},{"type":"Feature","id":"node/6478743823","properties":{"name":"Las Moreas","place":"village"},"geometry":{"type":"Point","coordinates":[-62.21384,7.90007]}},{"type":"Feature","id":"node/6478744592","properties":{"name":"El Tigre","place":"village"},"geometry":{"type":"Point","coordinates":[-62.4643,7.93911]}},{"type":"Feature","id":"node/6478744609","properties":{"name":"Laguna Larga","place":"village"},"geometry":{"type":"Point","coordinates":[-62.37043,7.968]}},{"type":"Feature","id":"node/6478744610","properties":{"name":"Parcelamiento La Madama","place":"village"},"geometry":{"type":"Point","coordinates":[-62.35445,7.95619]}},{"type":"Feature","id":"node/6478744615","properties":{"name":"El Salto","place":"village"},"geometry":{"type":"Point","coordinates":[-62.30759,7.9252]}},{"type":"Feature","id":"node/6478746070","properties":{"name":"Villa Flor","place":"village"},"geometry":{"type":"Point","coordinates":[-62.26291,7.91787]}},{"type":"Feature","id":"node/6479250159","properties":{"name":"Mina Botamano Oeste","place":"village"},"geometry":{"type":"Point","coordinates":[-61.23363,7.0735]}},{"type":"Feature","id":"node/6479250831","properties":{"name":"Mina Botamano Sur","place":"village"},"geometry":{"type":"Point","coordinates":[-61.19702,7.05001]}},{"type":"Feature","id":"node/6479250882","properties":{"name":"Mina Carrizal Norte","place":"village"},"geometry":{"type":"Point","coordinates":[-61.24653,7.00674]}},{"type":"Feature","id":"node/6479250883","properties":{"name":"Costa de Botamano","place":"village"},"geometry":{"type":"Point","coordinates":[-61.23803,7.00873]}},{"type":"Feature","id":"node/6479251135","properties":{"name":"Carrizal Pueblo","place":"village"},"geometry":{"type":"Point","coordinates":[-61.28647,6.93405]}},{"type":"Feature","id":"node/6479251136","properties":{"name":"Mina Carrizal Este","place":"village"},"geometry":{"type":"Point","coordinates":[-61.24414,6.99827]}},{"type":"Feature","id":"node/6479251215","properties":{"name":"Mina Carrizal Oeste","place":"village"},"geometry":{"type":"Point","coordinates":[-61.29158,6.99933]}},{"type":"Feature","id":"node/6479251231","properties":{"name":"Quebrada Honda","place":"village"},"geometry":{"type":"Point","coordinates":[-61.24243,7.42255]}},{"type":"Feature","id":"node/6479251242","properties":{"name":"La Tranquera","place":"village"},"geometry":{"type":"Point","coordinates":[-61.47838,7.35659]}},{"type":"Feature","id":"node/6479252223","properties":{"name":"Potracal del Oeste","place":"village"},"geometry":{"type":"Point","coordinates":[-61.44915,7.20928]}},{"type":"Feature","id":"node/6479252602","properties":{"name":"Potracal del Este","place":"village"},"geometry":{"type":"Point","coordinates":[-61.4202,7.21578]}},{"type":"Feature","id":"node/6479252611","properties":{"name":"Caiguao","place":"village"},"geometry":{"type":"Point","coordinates":[-61.37026,7.21211]}},{"type":"Feature","id":"node/6479252749","properties":{"name":"Parcelamiento La Plata","place":"village"},"geometry":{"type":"Point","coordinates":[-61.57033,7.09564]}},{"type":"Feature","id":"node/6479252751","properties":{"name":"Paisolandia","place":"village"},"geometry":{"type":"Point","coordinates":[-61.59219,7.03367]}},{"type":"Feature","id":"node/6479252761","properties":{"name":"La Campesina","place":"village"},"geometry":{"type":"Point","coordinates":[-61.61041,6.85625]}},{"type":"Feature","id":"node/6479252791","properties":{"name":"Mina Carrizal Sur","place":"village"},"geometry":{"type":"Point","coordinates":[-61.28076,6.93508]}},{"type":"Feature","id":"node/6479716877","properties":{"name":"Urim\u00e1n","place":"village"},"geometry":{"type":"Point","coordinates":[-62.67026,5.3571]}},{"type":"Feature","id":"node/6479716878","properties":{"name":"Parup\u00e1 del Paragua","place":"village"},"geometry":{"type":"Point","coordinates":[-63.61924,5.47658]}},{"type":"Feature","id":"node/6480755185","properties":{"name":"El Diamante","place":"village"},"geometry":{"type":"Point","coordinates":[-65.83004,6.41351]}},{"type":"Feature","id":"node/6481323591","properties":{"name":"Santa Rosa del Este","place":"village"},"geometry":{"type":"Point","coordinates":[-62.19729,8.11982]}},{"type":"Feature","id":"node/6481323592","properties":{"name":"Santa Rosa del Oeste","place":"village"},"geometry":{"type":"Point","coordinates":[-62.21714,8.11757]}},{"type":"Feature","id":"node/6481323614","properties":{"name":"Curaima","place":"village"},"geometry":{"type":"Point","coordinates":[-61.82115,8.05664]}},{"type":"Feature","id":"node/6481323618","properties":{"name":"R\u00edo Grande","place":"village"},"geometry":{"type":"Point","coordinates":[-61.76264,8.08496]}},{"type":"Feature","id":"node/6481323656","properties":{"name":"San Jos\u00e9","place":"village"},"geometry":{"type":"Point","coordinates":[-61.86219,8.04754]}},{"type":"Feature","id":"node/6481324974","properties":{"name":"El Buey del Oeste","place":"village"},"geometry":{"type":"Point","coordinates":[-62.22553,8.08612]}},{"type":"Feature","id":"node/6481324975","properties":{"name":"El Buey del Este","place":"village"},"geometry":{"type":"Point","coordinates":[-62.19845,8.10032]}},{"type":"Feature","id":"node/6481518308","properties":{"name":"Asentamiento Paraulata","place":"village"},"geometry":{"type":"Point","coordinates":[-62.59802,8.23761]}},{"type":"Feature","id":"node/6481518381","properties":{"name":"Asentamiento San Miguel","place":"village"},"geometry":{"type":"Point","coordinates":[-62.54836,8.23468]}},{"type":"Feature","id":"node/6481518617","properties":{"name":"Las Morucas","place":"town","population":"3500"},"geometry":{"type":"Point","coordinates":[-62.55639,8.3622]}},{"type":"Feature","id":"node/6481518618","properties":{"name":"Cacahual Las Pi\u00f1as","place":"village"},"geometry":{"type":"Point","coordinates":[-62.58776,8.36285]}},{"type":"Feature","id":"node/6481518619","properties":{"name":"San Mateo","place":"village"},"geometry":{"type":"Point","coordinates":[-62.4513,8.17402]}},{"type":"Feature","id":"node/6481519086","properties":{"name":"Parcelamiento Madre Vieja","place":"village"},"geometry":{"type":"Point","coordinates":[-62.52541,8.18202]}},{"type":"Feature","id":"node/6481519087","properties":{"name":"Parcelamiento Sucuta","place":"village"},"geometry":{"type":"Point","coordinates":[-62.49813,8.18035]}},{"type":"Feature","id":"node/6481519091","properties":{"name":"Agua Blanca del Norte","place":"village"},"geometry":{"type":"Point","coordinates":[-62.53429,8.20442]}},{"type":"Feature","id":"node/6481519092","properties":{"name":"Agua Blanca del Sur","place":"village"},"geometry":{"type":"Point","coordinates":[-62.55502,8.18154]}},{"type":"Feature","id":"node/6481519174","properties":{"name":"Quebrada de Piedra","place":"village"},"geometry":{"type":"Point","coordinates":[-62.57664,8.25238]}},{"type":"Feature","id":"node/6481519590","properties":{"name":"Los Arados","place":"village"},"geometry":{"type":"Point","coordinates":[-62.52259,8.27216]}},{"type":"Feature","id":"node/6481519591","properties":{"name":"R\u00edo Yocoima","place":"village"},"geometry":{"type":"Point","coordinates":[-62.49557,8.26072]}},{"type":"Feature","id":"node/6481520357","properties":{"name":"Platanal Este","place":"village"},"geometry":{"type":"Point","coordinates":[-62.48019,8.34543]}},{"type":"Feature","id":"node/6481520358","properties":{"name":"Platanal Oeste","place":"village"},"geometry":{"type":"Point","coordinates":[-62.48985,8.33769]}},{"type":"Feature","id":"node/6481520425","properties":{"name":"El Rosario","place":"town"},"geometry":{"type":"Point","coordinates":[-62.55553,8.31204]}},{"type":"Feature","id":"node/6481520529","properties":{"name":"Los Cul\u00edes","place":"town"},"geometry":{"type":"Point","coordinates":[-62.47403,8.27822]}},{"type":"Feature","id":"node/6481520936","properties":{"name":"Rosa Blanca","place":"village"},"geometry":{"type":"Point","coordinates":[-62.29465,8.24378]}},{"type":"Feature","id":"node/6481520938","properties":{"name":"El Pueblito","place":"village"},"geometry":{"type":"Point","coordinates":[-62.35421,8.21656]}},{"type":"Feature","id":"node/6481520939","properties":{"name":"Los Mamonales","place":"village"},"geometry":{"type":"Point","coordinates":[-62.39342,8.19376]}},{"type":"Feature","id":"node/6481520940","properties":{"name":"Monte Ralo","place":"village"},"geometry":{"type":"Point","coordinates":[-62.40598,8.18467]}},{"type":"Feature","id":"node/6481520969","properties":{"name":"Boca de Monte","place":"village"},"geometry":{"type":"Point","coordinates":[-62.4359,8.15062]}},{"type":"Feature","id":"node/6481520971","properties":{"name":"Mamonal","place":"village"},"geometry":{"type":"Point","coordinates":[-62.38755,8.08185]}},{"type":"Feature","id":"node/6520940978","properties":{"name":"El Guaray Adentro","place":"village"},"geometry":{"type":"Point","coordinates":[-64.15408,7.60749]}},{"type":"Feature","id":"node/6520940979","properties":{"name":"Lomas del Viento","place":"village"},"geometry":{"type":"Point","coordinates":[-64.23678,7.58152]}},{"type":"Feature","id":"node/6520940980","properties":{"name":"La Esmeralda","place":"village"},"geometry":{"type":"Point","coordinates":[-64.27616,7.56469]}},{"type":"Feature","id":"node/6520940981","properties":{"name":"Peramanal","place":"village"},"geometry":{"type":"Point","coordinates":[-64.20509,7.58552]}},{"type":"Feature","id":"node/6520940982","properties":{"name":"El Guaray Afuera","place":"village"},"geometry":{"type":"Point","coordinates":[-64.13279,7.60062]}},{"type":"Feature","id":"node/7935027257","properties":{"name":"La Salvaci\u00f3n","place":"village"},"geometry":{"type":"Point","coordinates":[-65.81641,6.32387]}},{"type":"Feature","id":"node/7935027258","properties":{"name":"El Milagro","place":"village"},"geometry":{"type":"Point","coordinates":[-65.82318,6.37306]}},{"type":"Feature","id":"node/8272399440","properties":{"name":"Maisanta","place":"village"},"geometry":{"type":"Point","coordinates":[-62.58238,8.41448]}},{"type":"Feature","id":"node/8275901713","properties":{"name":"El Toco","place":"village"},"geometry":{"type":"Point","coordinates":[-62.57905,8.40586]}},{"type":"Feature","id":"node/8281999416","properties":{"name":"Asentamiento La Monta\u00f1a","place":"village"},"geometry":{"type":"Point","coordinates":[-62.59766,8.2661]}},{"type":"Feature","id":"node/8324005494","properties":{"name":"Aranaya","place":"village"},"geometry":{"type":"Point","coordinates":[-62.59722,8.44336]}},{"type":"Feature","id":"node/8349569681","properties":{"name":"Puente Roto","place":"village"},"geometry":{"type":"Point","coordinates":[-62.5863,8.41013]}},{"type":"Feature","id":"node/8349569685","properties":{"name":"El Remanso","place":"village"},"geometry":{"type":"Point","coordinates":[-62.58336,8.4075]}},{"type":"Feature","id":"node/8528126768","properties":{"place":"village"},"geometry":{"type":"Point","coordinates":[-64.79954,5.03508]}},{"type":"Feature","id":"node/8663690805","properties":{"name":"Kamarata","place":"village"},"geometry":{"type":"Point","coordinates":[-62.34382,5.71789]}},{"type":"Feature","id":"node/8663690807","properties":{"name":"Kavanay\u00e9n","place":"village"},"geometry":{"type":"Point","coordinates":[-61.75191,5.5857]}},{"type":"Feature","id":"node/8903528485","properties":{"name":"Kuana","place":"village"},"geometry":{"type":"Point","coordinates":[-62.24918,5.78754]}},{"type":"Feature","id":"node/8938779264","properties":{"name":"Las Bonitas","place":"village"},"geometry":{"type":"Point","coordinates":[-65.66249,7.86913]}},{"type":"Feature","id":"node/8939267886","properties":{"name":"El Pao de La Fortuna","place":"village"},"geometry":{"type":"Point","coordinates":[-63.23944,7.09009]}},{"type":"Feature","id":"node/8939740391","properties":{"name":"El Le\u00f3n","place":"village"},"geometry":{"type":"Point","coordinates":[-62.39867,8.10308]}},{"type":"Feature","id":"node/8939896636","properties":{"name":"El Mereycito","place":"village"},"geometry":{"type":"Point","coordinates":[-63.22964,7.45805]}},{"type":"Feature","id":"node/9022220462","properties":{"name":"Widiki","place":"village"},"geometry":{"type":"Point","coordinates":[-64.37309,4.18669]}},{"type":"Feature","id":"node/9066837860","properties":{"name":"Santa Cruz de Mapaur\u00ed","place":"village"},"geometry":{"type":"Point","coordinates":[-61.11237,4.93906]}},{"type":"Feature","id":"node/9201892364","properties":{"name":"Parkupik","place":"village"},"geometry":{"type":"Point","coordinates":[-62.18484,4.34748]}},{"type":"Feature","id":"node/9307151395","properties":{"name":"Wonk\u00e9n","place":"village"},"geometry":{"type":"Point","coordinates":[-61.73511,4.98255]}},{"type":"Feature","id":"node/9330951985","properties":{"name":"Guanay","place":"village"},"geometry":{"type":"Point","coordinates":[-66.35626,5.6799]}},{"type":"Feature","id":"node/9338709046","properties":{"name":"San Pedro de Adawa\u00f1a","place":"village"},"geometry":{"type":"Point","coordinates":[-64.23925,5.35677]}},{"type":"Feature","id":"node/9338851527","properties":{"name":"La Colonial","place":"village","population":"160"},"geometry":{"type":"Point","coordinates":[-65.11039,7.20778]}},{"type":"Feature","id":"node/9338892982","properties":{"name":"Aripao","place":"village"},"geometry":{"type":"Point","coordinates":[-65.17792,7.34561]}},{"type":"Feature","id":"node/9338924220","properties":{"name":"Porlamar del Caura","place":"village"},"geometry":{"type":"Point","coordinates":[-65.01029,7.17472]}},{"type":"Feature","id":"node/9348340498","properties":{"name":"San Pedro de Las Bonitas","place":"village"},"geometry":{"type":"Point","coordinates":[-65.66176,7.70602]}},{"type":"Feature","id":"node/9348340669","properties":{"name":"Puerto El Banco","place":"village"},"geometry":{"type":"Point","coordinates":[-65.97473,7.55186]}},{"type":"Feature","id":"node/9348357715","properties":{"name":"Soroima","place":"village"},"geometry":{"type":"Point","coordinates":[-65.61346,7.47388]}},{"type":"Feature","id":"node/9348496704","properties":{"place":"village"},"geometry":{"type":"Point","coordinates":[-65.25244,7.43041]}},{"type":"Feature","id":"node/9350430010","properties":{"name":"Paranakire","place":"village"},"geometry":{"type":"Point","coordinates":[-64.54974,5.67367]}},{"type":"Feature","id":"node/9350478122","properties":{"place":"village"},"geometry":{"type":"Point","coordinates":[-64.15779,5.24227]}},{"type":"Feature","id":"node/9350478152","properties":{"name":"Medakunadin\u00f1a","place":"village"},"geometry":{"type":"Point","coordinates":[-64.41438,5.66534]}},{"type":"Feature","id":"node/9350478158","properties":{"name":"Entre R\u00edos","place":"village"},"geometry":{"type":"Point","coordinates":[-64.42857,5.93617]}},{"type":"Feature","id":"node/9355228252","properties":{"name":"Dojo","place":"village"},"geometry":{"type":"Point","coordinates":[-64.81532,4.9552]}},{"type":"Feature","id":"node/9355228277","properties":{"place":"village"},"geometry":{"type":"Point","coordinates":[-64.728,5.41159]}},{"type":"Feature","id":"node/9355228278","properties":{"name":"Suyun\u00f1a","place":"village"},"geometry":{"type":"Point","coordinates":[-64.73427,5.40987]}},{"type":"Feature","id":"node/9355349827","properties":{"name":"Wanana","place":"village"},"geometry":{"type":"Point","coordinates":[-63.97956,4.49829]}},{"type":"Feature","id":"node/9360510679","properties":{"name":"Kasanak Pupay","place":"village"},"geometry":{"type":"Point","coordinates":[-61.32066,4.71923]}},{"type":"Feature","id":"node/9407187099","properties":{"name":"San Juan de Venamo","place":"village"},"geometry":{"type":"Point","coordinates":[-61.1402,6.23955]}},{"type":"Feature","id":"node/9448306870","properties":{"name":"Comunidad Indigena Zaruma","place":"village"},"geometry":{"type":"Point","coordinates":[-62.63091,8.2109]}},{"type":"Feature","id":"node/9481033233","properties":{"name":"Kosoiba","place":"village"},"geometry":{"type":"Point","coordinates":[-63.11571,4.51341]}},{"type":"Feature","id":"node/9562872140","properties":{"name":"La Maraca","place":"village"},"geometry":{"type":"Point","coordinates":[-66.92081,5.95121]}},{"type":"Feature","id":"node/9580154119","properties":{"name":"Chivapure","place":"village"},"geometry":{"type":"Point","coordinates":[-66.27577,6.04242]}},{"type":"Feature","id":"node/9779347956","properties":{"name":"Santa Rosa","place":"village"},"geometry":{"type":"Point","coordinates":[-61.9545,7.69749]}},{"type":"Feature","id":"node/9779347963","properties":{"name":"El Cintillo","place":"village"},"geometry":{"type":"Point","coordinates":[-61.96172,7.65133]}},{"type":"Feature","id":"node/9791524500","properties":{"name":"Aguamena Bajo","place":"village"},"geometry":{"type":"Point","coordinates":[-67.2771,6.22574]}},{"type":"Feature","id":"node/9791524552","properties":{"name":"San Rafael del Parguaza","place":"village"},"geometry":{"type":"Point","coordinates":[-67.07677,6.11861]}},{"type":"Feature","id":"node/9791524596","properties":{"name":"Tierra Blanca","place":"village"},"geometry":{"type":"Point","coordinates":[-67.09532,6.19716]}},{"type":"Feature","id":"node/9791524698","properties":{"name":"Delicias 1","place":"village"},"geometry":{"type":"Point","coordinates":[-67.37288,6.22684]}},{"type":"Feature","id":"node/9799068904","properties":{"name":"El Palomo","place":"village"},"geometry":{"type":"Point","coordinates":[-66.99805,6.53039]}},{"type":"Feature","id":"node/9799079633","properties":{"name":"Garzoncito del Ore","place":"village"},"geometry":{"type":"Point","coordinates":[-67.07536,6.31259]}},{"type":"Feature","id":"node/9799080162","properties":{"name":"Baragu\u00e1n","place":"village"},"geometry":{"type":"Point","coordinates":[-66.94935,6.83823]}},{"type":"Feature","id":"node/9799080211","properties":{"name":"Las Bateas","place":"village"},"geometry":{"type":"Point","coordinates":[-66.71196,6.57407]}},{"type":"Feature","id":"node/9799080217","properties":{"name":"Punta Brava","place":"village"},"geometry":{"type":"Point","coordinates":[-66.70225,6.56136]}},{"type":"Feature","id":"node/9799080397","properties":{"name":"Rimo Aje","place":"village"},"geometry":{"type":"Point","coordinates":[-66.2558,6.10746]}},{"type":"Feature","id":"node/9806644393","properties":{"name":"El Jobal","place":"village"},"geometry":{"type":"Point","coordinates":[-67.007,6.94969]}},{"type":"Feature","id":"node/9849137873","properties":{"name":"Agua Negra","place":"village"},"geometry":{"type":"Point","coordinates":[-66.50216,7.25072]}},{"type":"Feature","id":"node/9849138155","properties":{"name":"Los Capuchinos","place":"village"},"geometry":{"type":"Point","coordinates":[-66.31708,7.63578]}},{"type":"Feature","id":"node/9849138173","properties":{"name":"Guacara del Orinoco","place":"village"},"geometry":{"type":"Point","coordinates":[-66.47327,7.47302]}},{"type":"Feature","id":"node/9849138201","properties":{"name":"La Urbana","place":"town"},"geometry":{"type":"Point","coordinates":[-66.93537,7.13487]}},{"type":"Feature","id":"node/9849138214","properties":{"name":"Kiribana","place":"village"},"geometry":{"type":"Point","coordinates":[-66.13861,7.53204]}},{"type":"Feature","id":"node/9849138239","properties":{"name":"Sakoima","place":"village"},"geometry":{"type":"Point","coordinates":[-66.14544,7.45581]}},{"type":"Feature","id":"node/9849138351","properties":{"name":"Macanilla","place":"village"},"geometry":{"type":"Point","coordinates":[-66.47262,7.18762]}},{"type":"Feature","id":"node/9849138365","properties":{"name":"Chaviripa","place":"village"},"geometry":{"type":"Point","coordinates":[-66.51274,7.13246]}},{"type":"Feature","id":"node/9849138371","properties":{"name":"Los Morrocoyes","place":"village"},"geometry":{"type":"Point","coordinates":[-66.50663,7.05231]}},{"type":"Feature","id":"node/9849138405","properties":{"name":"Los Ca\u00f1itos","place":"village"},"geometry":{"type":"Point","coordinates":[-66.58436,6.88988]}},{"type":"Feature","id":"node/9859181313","properties":{"name":"Quebrada del Medio","place":"village"},"geometry":{"type":"Point","coordinates":[-66.14464,7.34997]}},{"type":"Feature","id":"node/9882083772","properties":{"name":"Betania","place":"village"},"geometry":{"type":"Point","coordinates":[-61.38314,4.65832]}},{"type":"Feature","id":"node/9882083778","properties":{"name":"Waramas\u00e9n","place":"village"},"geometry":{"type":"Point","coordinates":[-61.27571,4.5614]}},{"type":"Feature","id":"node/9882083812","properties":{"name":"Apoip\u00f3","place":"village"},"geometry":{"type":"Point","coordinates":[-61.48456,4.74983]}},{"type":"Feature","id":"node/9976703268","properties":{"name":"Las Majadas","place":"village"},"geometry":{"type":"Point","coordinates":[-64.83092,7.62858]}},{"type":"Feature","id":"node/9986286516","properties":{"name":"Guri","place":"town"},"geometry":{"type":"Point","coordinates":[-62.99826,7.77555]}},{"type":"Feature","id":"node/9992927825","properties":{"name":"El Porvenir","place":"village"},"geometry":{"type":"Point","coordinates":[-61.86511,7.42901]}},{"type":"Feature","id":"node/9992954490","properties":{"name":"Guaruco","place":"village"},"geometry":{"type":"Point","coordinates":[-61.72503,7.36168]}},{"type":"Feature","id":"node/9992954491","properties":{"name":"Bel\u00e9n","place":"village"},"geometry":{"type":"Point","coordinates":[-61.71538,7.35996]}},{"type":"Feature","id":"node/9996035073","properties":{"name":"Santo Domingo de Turas\u00e9n","place":"village"},"geometry":{"type":"Point","coordinates":[-61.17272,4.55456]}},{"type":"Feature","id":"node/10268928268","properties":{"name":"Moruca","place":"village"},"geometry":{"type":"Point","coordinates":[-62.55229,8.4169]}},{"type":"Feature","id":"node/12855419272","properties":{"name":"Aripichi","place":"village"},"geometry":{"type":"Point","coordinates":[-62.33993,4.7472]}},{"type":"Feature","id":"node/12855544800","properties":{"name":"Apakara","place":"village"},"geometry":{"type":"Point","coordinates":[-62.46276,5.20022]}},{"type":"Feature","id":"node/12942570638","properties":{"name":"Mamonal","place":"village"},"geometry":{"type":"Point","coordinates":[-62.59864,7.31826]}},{"type":"Feature","id":"node/13104510828","properties":{"name":"El Plomo","place":"village"},"geometry":{"type":"Point","coordinates":[-62.84021,6.80747]}},{"type":"Feature","id":"node/13107939644","properties":{"name":"Periquera","place":"village"},"geometry":{"type":"Point","coordinates":[-62.97914,6.82433]}},{"type":"Feature","id":"node/13107939648","properties":{"name":"Santa Marta del Paragua","place":"village"},"geometry":{"type":"Point","coordinates":[-63.21563,6.88595]}},{"type":"Feature","id":"node/13113329833","properties":{"name":"San Francisco de Las Babas","place":"village"},"geometry":{"type":"Point","coordinates":[-62.91945,6.49399]}},{"type":"Feature","id":"node/13113337656","properties":{"name":"Kurup\u00e1n","place":"village"},"geometry":{"type":"Point","coordinates":[-61.66745,4.83459]}},{"type":"Feature","id":"node/13113337657","properties":{"name":"Pampat\u00e1","place":"village"},"geometry":{"type":"Point","coordinates":[-61.6204,4.80438]}},{"type":"Feature","id":"node/13113361924","properties":{"name":"Las Bonitas","place":"village"},"geometry":{"type":"Point","coordinates":[-63.011,6.37857]}},{"type":"Feature","id":"node/13113361925","properties":{"name":"San Salvador de Paul","place":"village"},"geometry":{"type":"Point","coordinates":[-62.89354,6.02136]}},{"type":"Feature","id":"node/13113361929","properties":{"name":"Parupita","place":"village"},"geometry":{"type":"Point","coordinates":[-62.90298,5.70516]}},{"type":"Feature","id":"node/13113361931","properties":{"name":"Samaria","place":"village"},"geometry":{"type":"Point","coordinates":[-62.80995,5.37575]}},{"type":"Feature","id":"node/13113361944","properties":{"name":"Param\u00e1n","place":"village"},"geometry":{"type":"Point","coordinates":[-61.57228,4.73812]}},{"type":"Feature","id":"node/13114703262","properties":{"name":"Awarauka","place":"village"},"geometry":{"type":"Point","coordinates":[-62.50601,5.10555]}},{"type":"Feature","id":"node/13160096355","properties":{"name":"Campo Alegre","place":"village"},"geometry":{"type":"Point","coordinates":[-61.19916,4.93006]}},{"type":"Feature","id":"node/13167895364","properties":{"name":"Karuayk\u00e9n","place":"village"},"geometry":{"type":"Point","coordinates":[-61.38323,4.97532]}},{"type":"Feature","id":"node/13167895365","properties":{"name":"Maipat\u00e1","place":"village"},"geometry":{"type":"Point","coordinates":[-61.41891,4.85292]}},{"type":"Feature","id":"node/13184450448","properties":{"name":"San Rafael del Kamoir\u00e1n","place":"village"},"geometry":{"type":"Point","coordinates":[-61.34761,5.57694]}},{"type":"Feature","id":"node/13186895811","properties":{"name":"Waipar\u00fa","place":"village"},"geometry":{"type":"Point","coordinates":[-61.62479,4.52989]}},{"type":"Feature","id":"node/13186907166","properties":{"name":"Las Agallas","place":"village"},"geometry":{"type":"Point","coordinates":[-61.52947,4.56528]}},{"type":"Feature","id":"node/13190847555","properties":{"name":"Itewata","place":"village"},"geometry":{"type":"Point","coordinates":[-61.26848,5.0414]}},{"type":"Feature","id":"node/13246084798","properties":{"name":"Zapata","place":"village"},"geometry":{"type":"Point","coordinates":[-61.77835,4.28962]}},{"type":"Feature","id":"node/13248912465","properties":{"name":"Mina El Polaco","place":"village"},"geometry":{"type":"Point","coordinates":[-61.44293,4.5464]}},{"type":"Feature","id":"node/13255084372","properties":{"name":"Comunidad Kinok Pan","place":"village"},"geometry":{"type":"Point","coordinates":[-61.21682,4.55769]}},{"type":"Feature","id":"node/13285526842","properties":{"name":"El Gu\u00e1namo","place":"village"},"geometry":{"type":"Point","coordinates":[-61.73518,8.11859]}},{"type":"Feature","id":"node/13285527538","properties":{"name":"Juan de Dios","place":"village"},"geometry":{"type":"Point","coordinates":[-61.88348,8.02851]}},{"type":"Feature","id":"node/13320139311","properties":{"name":"T\u00fariba","place":"village"},"geometry":{"type":"Point","coordinates":[-66.65445,6.64984]}},{"type":"Feature","id":"node/13320139323","properties":{"name":"El Burro","place":"village"},"geometry":{"type":"Point","coordinates":[-67.42349,6.21289]}},{"type":"Feature","id":"node/13320291596","properties":{"name":"Paraparo","place":"village"},"geometry":{"type":"Point","coordinates":[-66.56055,6.82772]}},{"type":"Feature","id":"node/13320375258","properties":{"name":"La Tigrera","place":"village"},"geometry":{"type":"Point","coordinates":[-64.86768,7.48593]}},{"type":"Feature","id":"node/13320389023","properties":{"name":"Trinidad de Turapa","place":"village"},"geometry":{"type":"Point","coordinates":[-64.46255,7.48237]}},{"type":"Feature","id":"node/13369742292","properties":{"place":"village"},"geometry":{"type":"Point","coordinates":[-62.4497,6.66841]}},{"type":"Feature","id":"node/13418189298","properties":{"name":"Punta Blanca","place":"village"},"geometry":{"type":"Point","coordinates":[-62.57248,5.32157]}},{"type":"Feature","id":"node/13419129431","properties":{"name":"Taraipa","place":"village"},"geometry":{"type":"Point","coordinates":[-62.88731,6.1281]}},{"type":"Feature","id":"node/13419193259","properties":{"name":"Murey Pupay","place":"village"},"geometry":{"type":"Point","coordinates":[-62.71185,5.34323]}},{"type":"Feature","id":"node/13433184429","properties":{"place":"village"},"geometry":{"type":"Point","coordinates":[-62.51454,7.29124]}},{"type":"Feature","id":"node/13446743997","properties":{"name":"Kowipa","place":"village"},"geometry":{"type":"Point","coordinates":[-62.33754,5.73454]}},{"type":"Feature","id":"node/13509535733","properties":{"name":"Carapo","place":"village"},"geometry":{"type":"Point","coordinates":[-63.85674,5.65716]}},{"type":"Feature","id":"node/13509654341","properties":{"name":"Musuk Pa","place":"village"},"geometry":{"type":"Point","coordinates":[-63.74632,6.1769]}},{"type":"Feature","id":"node/13509654342","properties":{"name":"Zea","place":"village"},"geometry":{"type":"Point","coordinates":[-63.59482,6.40656]}},{"type":"Feature","id":"node/13520616166","properties":{"name":"Ewene Ken","place":"village"},"geometry":{"type":"Point","coordinates":[-63.06897,5.09261]}},{"type":"Feature","id":"node/13565468108","properties":{"name":"Osirito","place":"village"},"geometry":{"type":"Point","coordinates":[-63.78389,6.20638]}},{"type":"Feature","id":"node/13602806047","properties":{"name":"El Cristo","place":"village"},"geometry":{"type":"Point","coordinates":[-63.36192,6.95823]}},{"type":"Feature","id":"node/13602860514","properties":{"name":"Agua Verde","place":"village"},"geometry":{"type":"Point","coordinates":[-63.25151,7.04158]}},{"type":"Feature","id":"node/13602860517","properties":{"name":"Los Yopitos","place":"village"},"geometry":{"type":"Point","coordinates":[-63.2987,7.00834]}},{"type":"Feature","id":"node/13602860518","properties":{"name":"Guamal Norte","place":"village"},"geometry":{"type":"Point","coordinates":[-63.18697,7.04189]}},{"type":"Feature","id":"node/13602860519","properties":{"name":"Guamal Sur","place":"village"},"geometry":{"type":"Point","coordinates":[-63.19254,7.02461]}},{"type":"Feature","id":"node/13602860520","properties":{"name":"Los Guacos","place":"village"},"geometry":{"type":"Point","coordinates":[-63.1995,6.99465]}},{"type":"Feature","id":"node/13602860521","properties":{"name":"La Pica","place":"village"},"geometry":{"type":"Point","coordinates":[-63.14495,6.91535]}},{"type":"Feature","id":"node/13602860522","properties":{"name":"Periquera","place":"village"},"geometry":{"type":"Point","coordinates":[-63.20126,6.91519]}},{"type":"Feature","id":"node/13615852958","properties":{"name":"Parcelamiento Caraque\u00f1a","place":"village"},"geometry":{"type":"Point","coordinates":[-63.26689,7.56397]}},{"type":"Feature","id":"node/13615926102","properties":{"name":"R\u00edo Claro","place":"village"},"geometry":{"type":"Point","coordinates":[-63.11808,7.91848]}},{"type":"Feature","id":"node/13628810674","properties":{"name":"San Jacinto 2","place":"village"},"geometry":{"type":"Point","coordinates":[-62.94342,8.22576]}},{"type":"Feature","id":"node/13630141915","properties":{"name":"Hicacal Alto","place":"village"},"geometry":{"type":"Point","coordinates":[-63.42283,8.10937]}},{"type":"Feature","id":"node/13630146729","properties":{"name":"San Juan del Orinoco","place":"village"},"geometry":{"type":"Point","coordinates":[-63.31263,8.19235]}},{"type":"Feature","id":"node/13630974252","properties":{"name":"Los Tanques","place":"village"},"geometry":{"type":"Point","coordinates":[-63.11107,7.93111]}},{"type":"Feature","id":"node/13675090546","properties":{"name":"Ca\u00f1o Colorado","place":"village"},"geometry":{"type":"Point","coordinates":[-66.57353,6.84203]}},{"type":"Feature","id":"node/13681949947","properties":{"name":"El Cachicamo","place":"village"},"geometry":{"type":"Point","coordinates":[-65.8794,7.46163]}},{"type":"Feature","id":"node/13683692612","properties":{"name":"Guamure","place":"village"},"geometry":{"type":"Point","coordinates":[-66.63059,6.66855]}},{"type":"Feature","id":"node/13685761714","properties":{"name":"Candelaria del Cuchivero","place":"village"},"geometry":{"type":"Point","coordinates":[-65.59924,7.11752]}},{"type":"Feature","id":"node/13799309455","properties":{"name":"Cogollal del Orinoco","place":"village"},"geometry":{"type":"Point","coordinates":[-66.4726,7.48626]}}]}