{"type":"FeatureCollection","features":[{"type":"Feature","id":"relation/3395162","properties":{"name":"Apure","level":4},"geometry":{"type":"Polygon","coordinates":[[[-72.19973,7.42065],[-72.20938,7.42225],[-72.21141,7.42758],[-72.21803,7.42911],[-72.22065,7.43486],[-72.23068,7.42838],[-72.23954,7.42833],[-72.24309,7.42173],[-72.25517,7.4232],[-72.26074,7.42131],[-72.26242,7.4241],[-72.27356,7.42567],[-72.28201,7.43139],[-72.2921,7.42669],[-72.29937,7.42839],[-72.30576,7.43488],[-72.30955,7.43202],[-72.32035,7.435],[-72.32731,7.42626],[-72.34012,7.4282],[-72.33927,7.42438],[-72.34244,7.4196],[-72.34972,7.41888],[-72.36576,7.42344],[-72.36707,7.41995],[-72.37342,7.41955],[-72.39127,7.41024],[-72.40742,7.4116],[-72.41265,7.40832],[-72.41392,7.40291],[-72.41857,7.39988],[-72.41942,7.39342],[-72.41249,7.39128],[-72.40308,7.39579],[-72.38959,7.39225],[-72.38014,7.39816],[-72.35998,7.39401],[-72.35367,7.39677],[-72.33814,7.38793],[-72.32502,7.3756],[-72.31174,7.3806],[-72.31082,7.38478],[-72.3013,7.39101],[-72.29306,7.38997],[-72.29148,7.39159],[-72.27959,7.38367],[-72.26903,7.38168],[-72.26668,7.38399],[-72.25644,7.37875],[-72.25534,7.38097],[-72.25212,7.37977],[-72.24791,7.38696],[-72.24239,7.39081],[-72.23387,7.39001],[-72.22122,7.39518],[-72.21084,7.3921],[-72.20657,7.38691],[-72.20295,7.38819],[-72.20148,7.38509],[-72.19485,7.38501],[-72.19541,7.38061],[-72.18736,7.37396],[-72.18058,7.35518],[-72.15367,7.32775],[-72.15957,7.32],[-72.15881,7.31244],[-72.1702,7.29103],[-72.16742,7.27145],[-72.17155,7.26767],[-72.17076,7.26477],[-72.17434,7.25751],[-72.17055,7.25508],[-72.05334,7.04873],[-72.05001,7.0397],[-72.01854,7.03156],[-72.00862,7.0263],[-71.998,7.02647],[-71.97435,7.01912],[-71.96328,7.01294],[-71.92286,7.02129],[-71.9055,7.01682],[-71.89826,7.02557],[-71.87936,7.01903],[-71.8734,7.02304],[-71.85471,7.02287],[-71.84385,7.02809],[-71.83016,7.02919],[-71.82436,7.03226],[-71.82215,7.03626],[-71.82291,7.04385],[-71.82696,7.05047],[-71.8263,7.05509],[-71.81065,7.06665],[-71.77887,7.06099],[-71.75368,7.0678],[-71.74012,7.06461],[-71.72686,7.05728],[-71.71871,7.04791],[-71.71412,7.03837],[-71.70545,7.03347],[-71.67498,7.03858],[-71.65963,7.03337],[-71.64004,7.05468],[-71.62788,7.05551],[-71.62032,7.05226],[-71.6144,7.04397],[-71.60773,7.03948],[-71.59026,7.03522],[-71.58867,7.02921],[-71.59065,7.01857],[-71.58563,7.01397],[-71.57391,7.01737],[-71.56477,7.03271],[-71.56044,7.03475],[-71.53941,7.02973],[-71.50889,7.03079],[-71.48181,7.01316],[-71.46323,7.00979],[-71.45461,7.01256],[-71.44765,7.02082],[-71.43585,7.02581],[-71.43068,7.03558],[-71.42407,7.03863],[-71.41198,7.03526],[-71.3927,7.03592],[-71.38666,7.03214],[-71.38062,7.01995],[-71.37011,7.01516],[-71.3562,7.01976],[-71.33869,7.01669],[-71.32485,7.01782],[-71.29987,7.02723],[-71.28099,7.02453],[-71.26429,7.03277],[-71.26065,7.03015],[-71.26045,7.02243],[-71.25795,7.01883],[-71.24678,7.01667],[-71.24043,7.01055],[-71.236,7.01472],[-71.23368,7.02339],[-71.22816,7.02749],[-71.21077,7.01912],[-71.19966,7.02545],[-71.19099,7.01882],[-71.17399,7.02512],[-71.14771,7.02835],[-71.14276,7.03322],[-71.13028,7.03297],[-71.12471,7.02752],[-71.12328,7.01322],[-71.11824,7.01037],[-71.10898,7.01217],[-71.10258,7.00676],[-71.10292,7.00425],[-71.11432,7.00042],[-71.11115,6.99024],[-71.09698,6.98789],[-71.09072,6.98348],[-71.08296,6.98436],[-71.07663,6.98087],[-71.07005,6.98281],[-71.06573,6.98082],[-71.06099,6.9827],[-71.05364,6.98087],[-71.04175,6.98218],[-71.02239,6.97399],[-70.99397,6.98398],[-70.98437,7.00056],[-70.97444,7.00318],[-70.97238,7.0152],[-70.96724,7.02044],[-70.94591,7.01501],[-70.92763,7.02342],[-70.9217,7.03054],[-70.92821,7.03362],[-70.93168,7.04178],[-70.91856,7.05282],[-70.91474,7.05247],[-70.90958,7.04076],[-70.90407,7.03969],[-70.89495,7.05935],[-70.88692,7.06465],[-70.87317,7.0631],[-70.86154,7.05503],[-70.85023,7.05645],[-70.84967,7.06914],[-70.85763,7.0726],[-70.85319,7.07774],[-70.84532,7.07457],[-70.83623,7.07874],[-70.83102,7.07415],[-70.8214,7.07138],[-70.81725,7.07946],[-70.80932,7.07954],[-70.79328,7.08478],[-70.77723,7.07674],[-70.76244,7.09718],[-70.75761,7.09708],[-70.74258,7.08913],[-70.73525,7.08892],[-70.7164,7.09415],[-70.69253,7.09457],[-70.68316,7.10424],[-70.67963,7.0926],[-70.67398,7.08629],[-70.64473,7.07809],[-70.64156,7.06879],[-70.62422,7.07025],[-70.60576,7.0642],[-70.5861,7.06873],[-70.58483,7.0757],[-70.57509,7.07559],[-70.56975,7.08135],[-70.56298,7.07778],[-70.5555,7.07947],[-70.5545,7.07569],[-70.54955,7.07507],[-70.54368,7.06926],[-70.54179,7.06151],[-70.53484,7.05463],[-70.53749,7.05036],[-70.54075,7.0507],[-70.54087,7.04805],[-70.53911,7.04517],[-70.53343,7.04764],[-70.53181,7.04617],[-70.53836,7.04024],[-70.52817,7.04197],[-70.52512,7.03557],[-70.51058,7.0277],[-70.51431,7.02082],[-70.50848,7.01804],[-70.509,7.01414],[-70.50414,7.01068],[-70.50232,7.00565],[-70.49247,7.00544],[-70.4927,7.00835],[-70.49053,7.00933],[-70.47437,7.00139],[-70.46654,7.00057],[-70.46592,7.00347],[-70.4591,7.00281],[-70.45719,7.01063],[-70.45408,7.01216],[-70.45,7.00734],[-70.45506,7.00409],[-70.44344,7.00297],[-70.4391,7.0083],[-70.43703,7.00112],[-70.43674,7.00671],[-70.43035,7.00744],[-70.42614,6.99815],[-70.42718,6.99375],[-70.41639,6.98107],[-70.41103,6.98242],[-70.40982,6.98537],[-70.40609,6.98472],[-70.40386,6.98839],[-70.39712,6.98156],[-70.38637,6.9857],[-70.37923,6.98071],[-70.37153,6.98103],[-70.371,6.97195],[-70.36554,6.96703],[-70.36092,6.96699],[-70.36234,6.96231],[-70.36024,6.95616],[-70.35114,6.95629],[-70.35485,6.95359],[-70.35394,6.95182],[-70.34851,6.95275],[-70.34378,6.94436],[-70.33818,6.94505],[-70.3328,6.9407],[-70.32741,6.94086],[-70.32282,6.93497],[-70.3081,6.93766],[-70.29442,6.93396],[-70.28747,6.93658],[-70.284,6.94119],[-70.27774,6.93776],[-70.2727,6.94135],[-70.26598,6.94115],[-70.24907,6.95357],[-70.24951,6.95868],[-70.23018,6.96556],[-70.2287,6.97118],[-70.22361,6.97505],[-70.21043,6.97458],[-70.20525,6.97854],[-70.2016,6.97579],[-70.19602,6.97914],[-70.19164,6.97613],[-70.18856,6.97868],[-70.18256,6.97667],[-70.18006,6.9794],[-70.17273,6.97641],[-70.14851,6.98442],[-70.14523,6.98257],[-70.14454,6.97855],[-70.13356,6.97505],[-70.11736,6.97997],[-69.53764,6.2462],[-69.43668,6.10566],[-69.41881,6.11113],[-69.41308,6.1218],[-69.40614,6.12717],[-69.37986,6.12792],[-69.35663,6.14608],[-69.34978,6.14766],[-69.33596,6.14107],[-69.32721,6.13179],[-69.3136,6.09547],[-69.30706,6.08903],[-69.28815,6.08835],[-69.27498,6.08165],[-69.26013,6.08335],[-69.24736,6.07936],[-69.23904,6.08045],[-69.23509,6.08342],[-69.21906,6.10347],[-69.21389,6.11935],[-69.19065,6.13612],[-69.17898,6.15195],[-69.1637,6.1538],[-69.14939,6.15961],[-69.13419,6.18416],[-69.12817,6.18806],[-69.11381,6.1909],[-69.10523,6.20675],[-69.09158,6.2108],[-69.0807,6.21944],[-69.04851,6.22508],[-69.04176,6.22518],[-69.0306,6.21996],[-69.01929,6.20121],[-69.0115,6.19801],[-68.97084,6.19602],[-68.95344,6.18713],[-68.94144,6.18346],[-68.92451,6.18326],[-68.91007,6.17591],[-68.88522,6.17622],[-68.85316,6.18329],[-68.83151,6.18081],[-68.79572,6.16906],[-68.78658,6.15624],[-68.77536,6.14984],[-68.76759,6.15086],[-68.74742,6.15997],[-68.73143,6.16146],[-68.71457,6.15841],[-68.69635,6.15269],[-68.69453,6.14169],[-68.69,6.13697],[-68.6729,6.13219],[-68.6559,6.13593],[-68.64627,6.13548],[-68.62533,6.14896],[-68.61256,6.16101],[-68.60024,6.16217],[-68.58046,6.17042],[-68.5711,6.16936],[-68.54834,6.15233],[-68.53488,6.1531],[-68.52297,6.1611],[-68.51832,6.18329],[-68.51164,6.1851],[-68.49113,6.18429],[-68.47113,6.18937],[-68.44493,6.18998],[-68.42843,6.18512],[-68.40873,6.19001],[-68.36685,6.19105],[-68.36135,6.18898],[-68.35618,6.18222],[-68.32809,6.18092],[-68.28059,6.16146],[-68.27402,6.16321],[-68.26668,6.16918],[-68.24967,6.1954],[-68.24239,6.20157],[-68.21639,6.21036],[-68.1863,6.21219],[-68.17819,6.21656],[-68.16126,6.23167],[-68.15403,6.23444],[-68.13624,6.23143],[-68.10968,6.23354],[-68.09526,6.22732],[-68.08022,6.23549],[-68.07019,6.23453],[-68.06322,6.23079],[-68.05817,6.21628],[-68.04811,6.20323],[-68.0367,6.19628],[-68.02264,6.19517],[-68.00166,6.20797],[-67.97943,6.21102],[-67.96233,6.22439],[-67.93203,6.23814],[-67.9131,6.2556],[-67.90298,6.27373],[-67.89265,6.28254],[-67.87388,6.28926],[-67.86452,6.2989],[-67.85249,6.30527],[-67.83809,6.31752],[-67.83254,6.32533],[-67.81309,6.32869],[-67.77326,6.31495],[-67.75704,6.30094],[-67.74762,6.2977],[-67.69786,6.29347],[-67.64414,6.29446],[-67.62059,6.29009],[-67.59945,6.26366],[-67.58719,6.25915],[-67.55679,6.26608],[-67.53846,6.25981],[-67.48604,6.22087],[-67.45261,6.1901],[-67.43885,6.19728],[-67.43061,6.20588],[-67.42224,6.23485],[-67.41616,6.24436],[-67.39142,6.25549],[-67.33237,6.26914],[-67.31435,6.28006],[-67.30808,6.30591],[-67.2856,6.33492],[-67.28053,6.35059],[-67.26594,6.35556],[-67.25028,6.36601],[-67.24041,6.38026],[-67.22148,6.396],[-67.19813,6.42491],[-67.17977,6.43438],[-67.17058,6.44291],[-67.14535,6.48018],[-67.12561,6.58233],[-67.11694,6.60416],[-67.10973,6.63937],[-67.10432,6.64875],[-67.08733,6.66222],[-67.06458,6.69257],[-67.0396,6.75011],[-67.03591,6.76528],[-67.03205,6.83627],[-67.0166,6.9041],[-67.01626,6.91978],[-67.0233,6.93989],[-67.03772,6.96136],[-67.05746,6.98147],[-67.07694,7.01495],[-67.06467,7.04502],[-67.06432,7.05933],[-67.06896,7.08931],[-67.06192,7.10464],[-67.02518,7.13956],[-67.00287,7.15472],[-66.9821,7.15983],[-66.92493,7.15761],[-66.90571,7.1646],[-66.87339,7.18755],[-66.8458,7.21246],[-66.81404,7.25605],[-66.78692,7.27308],[-66.77078,7.27819],[-66.7337,7.27853],[-66.72392,7.28074],[-66.64032,7.31743],[-66.6138,7.32254],[-66.57389,7.3228],[-66.55088,7.33599],[-66.54076,7.34668],[-66.51818,7.38834],[-66.51578,7.42358],[-66.51089,7.44554],[-66.50393,7.46826],[-66.4963,7.4829],[-66.45767,7.53004],[-66.42291,7.58807],[-66.38678,7.61351],[-66.33029,7.64815],[-66.33821,7.67029],[-66.32826,7.68391],[-66.3304,7.68785],[-66.3371,7.68846],[-66.34146,7.69272],[-66.35417,7.71901],[-66.36049,7.7261],[-66.36607,7.72513],[-66.37305,7.71993],[-66.38128,7.72023],[-66.38873,7.71379],[-66.40474,7.711],[-66.4194,7.7158],[-66.43979,7.71628],[-66.44971,7.72248],[-66.46204,7.72508],[-66.46845,7.72999],[-66.48594,7.73192],[-66.48738,7.73835],[-66.47661,7.75118],[-66.47787,7.76058],[-66.48577,7.76707],[-66.51443,7.7802],[-66.51363,7.79321],[-66.52243,7.79201],[-66.52456,7.80415],[-66.52959,7.81374],[-66.55233,7.80231],[-66.54409,7.78499],[-66.54807,7.777],[-66.55321,7.77325],[-66.55683,7.77488],[-66.54964,7.7802],[-66.54895,7.78404],[-66.55172,7.78568],[-66.56587,7.77643],[-66.58308,7.78044],[-66.58304,7.77552],[-66.58995,7.77707],[-66.59591,7.76793],[-66.60441,7.76422],[-66.61844,7.76514],[-66.629,7.77432],[-66.63546,7.76968],[-66.63721,7.7607],[-66.64611,7.7677],[-66.65588,7.76778],[-66.6564,7.76027],[-66.66572,7.75575],[-66.66275,7.74662],[-66.65994,7.74499],[-66.65663,7.75008],[-66.65141,7.74938],[-66.65025,7.74315],[-66.6565,7.73907],[-66.65041,7.73642],[-66.64793,7.72788],[-66.64378,7.72672],[-66.63556,7.72936],[-66.64926,7.7006],[-66.66545,7.69478],[-66.66586,7.70397],[-66.67119,7.70545],[-66.68355,7.69839],[-66.68537,7.70004],[-66.68012,7.70258],[-66.67877,7.71168],[-66.68116,7.71839],[-66.68644,7.72079],[-66.69005,7.71708],[-66.68929,7.70664],[-66.69219,7.70153],[-66.70053,7.69988],[-66.71364,7.68952],[-66.71771,7.69422],[-66.7292,7.69278],[-66.72512,7.68942],[-66.7251,7.68651],[-66.73109,7.68916],[-66.73281,7.69409],[-66.74431,7.69851],[-66.74671,7.69613],[-66.75701,7.69562],[-66.76182,7.69749],[-66.7613,7.70141],[-66.77383,7.70056],[-66.7771,7.70379],[-66.77675,7.71076],[-66.78224,7.70991],[-66.78276,7.70617],[-66.78825,7.71229],[-66.78997,7.7111],[-66.78808,7.70294],[-66.79357,7.7043],[-66.79546,7.71348],[-66.80817,7.72097],[-66.8128,7.72947],[-66.81692,7.73237],[-66.83134,7.72879],[-66.83632,7.7339],[-66.84576,7.73594],[-66.84782,7.72998],[-66.84679,7.72369],[-66.84885,7.72233],[-66.87305,7.72488],[-66.87838,7.72828],[-66.88353,7.72505],[-66.8825,7.73135],[-66.8911,7.738],[-66.88867,7.74597],[-66.91116,7.75554],[-66.91622,7.75027],[-66.93111,7.74925],[-66.93702,7.74051],[-66.95391,7.74768],[-66.95888,7.74495],[-66.96493,7.75374],[-66.96666,7.74699],[-66.97031,7.74669],[-66.96737,7.75812],[-66.96954,7.76257],[-66.97456,7.76419],[-66.99989,7.76687],[-67.00496,7.76936],[-67.00847,7.76445],[-67.00759,7.75717],[-67.00974,7.75683],[-67.02433,7.76648],[-67.029,7.77478],[-67.0369,7.77732],[-67.05017,7.78961],[-67.05801,7.78262],[-67.06456,7.78308],[-67.09478,7.77593],[-67.09619,7.76448],[-67.12256,7.76506],[-67.13152,7.76116],[-67.13868,7.76457],[-67.14729,7.75935],[-67.1567,7.75812],[-67.15997,7.7618],[-67.15995,7.76949],[-67.15428,7.77476],[-67.15465,7.77949],[-67.1583,7.77986],[-67.16501,7.776],[-67.16935,7.78028],[-67.18183,7.78122],[-67.19169,7.77497],[-67.21886,7.77617],[-67.22518,7.78948],[-67.22368,7.79316],[-67.22538,7.79799],[-67.23491,7.80302],[-67.23754,7.80216],[-67.23804,7.81223],[-67.25073,7.81687],[-67.25186,7.81403],[-67.25413,7.81559],[-67.25826,7.83078],[-67.2653,7.82813],[-67.2756,7.83138],[-67.28832,7.82945],[-67.30213,7.83562],[-67.30432,7.83876],[-67.30284,7.84105],[-67.30759,7.8452],[-67.30952,7.84255],[-67.32282,7.84932],[-67.32098,7.86632],[-67.32435,7.86684],[-67.32673,7.86374],[-67.3309,7.86822],[-67.31912,7.88158],[-67.32695,7.88112],[-67.33194,7.88978],[-67.33731,7.88692],[-67.3358,7.89413],[-67.34278,7.88939],[-67.3491,7.88007],[-67.35317,7.88271],[-67.34763,7.88662],[-67.34701,7.89218],[-67.35523,7.89395],[-67.35527,7.88401],[-67.3601,7.88133],[-67.36634,7.88663],[-67.36742,7.89048],[-67.36457,7.89334],[-67.3681,7.89445],[-67.36977,7.90113],[-67.37564,7.90229],[-67.38008,7.89751],[-67.38342,7.90677],[-67.39057,7.90768],[-67.39634,7.91539],[-67.39766,7.91448],[-67.39447,7.90909],[-67.39588,7.90731],[-67.40177,7.9128],[-67.41693,7.9075],[-67.42234,7.89259],[-67.43274,7.88934],[-67.42986,7.88693],[-67.43055,7.88314],[-67.46706,7.9],[-67.51324,7.90296],[-67.51939,7.91806],[-67.51884,7.9255],[-67.52199,7.93268],[-67.53802,7.93493],[-67.55238,7.94198],[-67.57637,7.96125],[-67.59742,7.98519],[-67.60679,7.98176],[-67.62293,7.96803],[-67.63177,7.9638],[-67.63851,7.96374],[-67.64863,7.97144],[-67.65065,7.97057],[-67.65829,7.96324],[-67.65517,7.95858],[-67.658,7.95787],[-67.65394,7.94859],[-67.6497,7.95307],[-67.64566,7.95154],[-67.64731,7.94639],[-67.64309,7.94072],[-67.64418,7.93668],[-67.6661,7.92943],[-67.66578,7.93437],[-67.66167,7.93958],[-67.66267,7.94321],[-67.6828,7.94345],[-67.68674,7.93927],[-67.68378,7.93473],[-67.68443,7.93157],[-67.68944,7.92184],[-67.69359,7.92112],[-67.69693,7.91449],[-67.7034,7.91719],[-67.71016,7.91079],[-67.71388,7.91178],[-67.72143,7.90846],[-67.72763,7.91669],[-67.73471,7.91819],[-67.75094,7.90935],[-67.75649,7.9098],[-67.76056,7.90368],[-67.76999,7.91046],[-67.77884,7.909],[-67.78003,7.91374],[-67.78268,7.91326],[-67.78608,7.91859],[-67.79347,7.91973],[-67.7945,7.92397],[-67.79943,7.92103],[-67.80095,7.91444],[-67.80395,7.91254],[-67.80792,7.91743],[-67.81336,7.91562],[-67.81576,7.91894],[-67.82622,7.9237],[-67.83259,7.91904],[-67.83177,7.91382],[-67.83303,7.90961],[-67.83644,7.90837],[-67.83594,7.90414],[-67.84565,7.9064],[-67.8447,7.90395],[-67.84657,7.89892],[-67.84922,7.89838],[-67.85,7.89343],[-67.85012,7.88739],[-67.84687,7.88531],[-67.84967,7.88529],[-67.85148,7.88196],[-67.85259,7.88459],[-67.85616,7.88187],[-67.86094,7.88928],[-67.86682,7.87877],[-67.87161,7.88222],[-67.87587,7.88174],[-67.87939,7.89048],[-67.88602,7.89664],[-67.8955,7.89649],[-67.89848,7.8911],[-67.90401,7.8895],[-67.90689,7.89353],[-67.91188,7.89177],[-67.91782,7.89845],[-67.92157,7.89654],[-67.93231,7.90338],[-67.93523,7.90228],[-67.9362,7.90631],[-67.94419,7.90947],[-67.96427,7.90085],[-67.97028,7.89371],[-67.98652,7.89405],[-67.98757,7.89604],[-67.99912,7.89134],[-68.00838,7.89143],[-68.01025,7.89528],[-68.01142,7.89149],[-68.02158,7.88644],[-68.0248,7.88084],[-68.03792,7.88029],[-68.04035,7.87428],[-68.04476,7.87784],[-68.05134,7.86875],[-68.0548,7.87054],[-68.06215,7.8673],[-68.06332,7.87207],[-68.07383,7.87419],[-68.07721,7.87868],[-68.09192,7.88235],[-68.10592,7.89779],[-68.11326,7.90076],[-68.11578,7.89938],[-68.11787,7.90252],[-68.12393,7.90347],[-68.14,7.89721],[-68.14935,7.89984],[-68.15184,7.904],[-68.15316,7.90228],[-68.15445,7.90425],[-68.16492,7.9055],[-68.17352,7.90148],[-68.18256,7.90363],[-68.184,7.90126],[-68.18702,7.90318],[-68.19264,7.89969],[-68.20097,7.90189],[-68.2149,7.89522],[-68.21463,7.89828],[-68.21976,7.89917],[-68.21594,7.90564],[-68.22019,7.91179],[-68.22434,7.91232],[-68.22906,7.90622],[-68.2365,7.90284],[-68.24419,7.91033],[-68.25059,7.90524],[-68.25032,7.90138],[-68.25819,7.89963],[-68.27791,7.90712],[-68.29195,7.90716],[-68.29407,7.91468],[-68.29588,7.91111],[-68.30257,7.91],[-68.30517,7.90495],[-68.31496,7.89878],[-68.32029,7.89758],[-68.32212,7.89944],[-68.32776,7.89664],[-68.33236,7.90013],[-68.33251,7.89284],[-68.33677,7.89091],[-68.33573,7.8875],[-68.34781,7.88029],[-68.35787,7.89242],[-68.36526,7.89456],[-68.38539,7.90801],[-68.38661,7.91162],[-68.38445,7.91737],[-68.39951,7.91728],[-68.40125,7.91915],[-68.39949,7.92132],[-68.414,7.93064],[-68.42579,7.92693],[-68.43991,7.93947],[-68.46047,7.93284],[-68.47688,7.93233],[-68.5039,7.92708],[-68.52205,7.93288],[-68.54136,7.94727],[-68.5546,7.9535],[-68.57108,7.95192],[-68.58971,7.95877],[-68.61428,7.96251],[-68.64087,7.95687],[-68.65116,7.93259],[-68.65708,7.92538],[-68.66371,7.9237],[-68.68891,7.93127],[-68.69558,7.93012],[-68.70914,7.91154],[-68.72285,7.90209],[-68.74021,7.90175],[-68.76557,7.90787],[-68.77469,7.89524],[-68.78508,7.89001],[-68.79265,7.8911],[-68.8034,7.89894],[-68.82364,7.89191],[-68.85746,7.90071],[-68.86803,7.89435],[-68.87509,7.89339],[-68.88022,7.8952],[-68.89438,7.91165],[-68.91543,7.91669],[-68.93123,7.9138],[-68.93792,7.9172],[-68.94086,7.9264],[-68.93395,7.94208],[-68.93462,7.94753],[-68.94884,7.96281],[-68.95878,7.98482],[-68.95942,7.99262],[-68.96601,7.9987],[-68.97305,7.99649],[-68.9894,7.99755],[-69.0029,7.99326],[-69.01901,8.00233],[-69.02608,8.00254],[-69.03551,7.99381],[-69.03901,7.97768],[-69.05057,7.97568],[-69.08557,7.99353],[-69.11139,7.99651],[-69.11999,8.00382],[-69.12475,8.02579],[-69.13458,8.0355],[-69.14724,8.04223],[-69.17027,8.04691],[-69.20018,8.06437],[-69.22784,8.06671],[-69.24507,8.05838],[-69.27612,8.05687],[-69.2978,8.05202],[-69.31103,8.05836],[-69.33348,8.05388],[-69.33897,8.06274],[-69.3486,8.0646],[-69.36135,8.0567],[-69.38152,8.04924],[-69.38553,8.05101],[-69.39059,8.0581],[-69.40666,8.06722],[-69.43495,8.06724],[-69.44516,8.06439],[-69.45933,8.05536],[-69.47546,8.05188],[-69.4781,8.03599],[-69.47361,8.02354],[-69.47923,8.01111],[-69.48878,8.00756],[-69.50627,8.00726],[-69.52144,8.00343],[-69.53934,7.98746],[-69.56768,7.9723],[-69.58062,7.95518],[-69.57841,7.94255],[-69.58009,7.93373],[-69.5844,7.93093],[-69.59472,7.93388],[-69.6018,7.92712],[-69.60287,7.91012],[-69.60547,7.90315],[-69.61693,7.90098],[-69.62643,7.89388],[-69.64263,7.89004],[-69.65686,7.88209],[-69.66313,7.87675],[-69.67619,7.85696],[-69.70529,7.85067],[-69.71074,7.84446],[-69.71241,7.83211],[-69.71954,7.8225],[-69.74919,7.82382],[-69.76735,7.81587],[-69.78687,7.81702],[-69.79777,7.81292],[-69.80878,7.79419],[-69.82217,7.79009],[-69.82938,7.79274],[-69.83468,7.80879],[-69.85202,7.80031],[-69.88013,7.80082],[-69.89519,7.79721],[-69.90547,7.79077],[-69.91302,7.77631],[-69.91933,7.76987],[-69.9209,7.76564],[-69.91903,7.75679],[-69.92485,7.75169],[-69.94188,7.75216],[-69.95959,7.74703],[-69.96405,7.74858],[-69.96645,7.75294],[-69.97128,7.75369],[-69.99046,7.74286],[-70.01649,7.74797],[-70.03246,7.74622],[-70.03928,7.74297],[-70.04115,7.73625],[-70.04443,7.73383],[-70.06486,7.7268],[-70.07137,7.72195],[-70.07883,7.72077],[-70.0901,7.72469],[-70.09039,7.72167],[-70.08482,7.71617],[-70.08636,7.71258],[-70.10376,7.71473],[-70.11838,7.68992],[-70.14271,7.68475],[-70.15279,7.66895],[-70.1547,7.66027],[-70.15246,7.65181],[-70.1614,7.64683],[-70.16408,7.6251],[-70.16944,7.61721],[-70.18405,7.61709],[-70.19289,7.61042],[-70.20935,7.60548],[-70.21154,7.60143],[-70.21037,7.59299],[-70.21697,7.58952],[-70.22197,7.59049],[-70.23194,7.60023],[-70.2407,7.59617],[-70.2454,7.59664],[-70.25057,7.61225],[-70.25549,7.61515],[-70.27203,7.60683],[-70.29143,7.60911],[-70.31651,7.60613],[-70.32226,7.60187],[-70.32801,7.58827],[-70.32075,7.57697],[-70.32077,7.57267],[-70.34023,7.56434],[-70.34196,7.5549],[-70.34927,7.53996],[-70.36006,7.52848],[-70.36388,7.51518],[-70.35904,7.49029],[-70.37344,7.48091],[-70.38194,7.4562],[-70.39033,7.44935],[-70.39517,7.43967],[-70.40123,7.43806],[-70.41557,7.44003],[-70.43936,7.42088],[-70.46362,7.41744],[-70.48515,7.42],[-70.51156,7.41009],[-70.51457,7.40709],[-70.51457,7.40063],[-70.50756,7.38515],[-70.50749,7.37795],[-70.51414,7.36496],[-70.51666,7.36529],[-70.52214,7.37299],[-70.53037,7.37244],[-70.54195,7.37534],[-70.55849,7.35268],[-70.57682,7.34102],[-70.58935,7.33789],[-70.6049,7.32593],[-70.61517,7.32665],[-70.62701,7.3321],[-70.64104,7.33216],[-70.64995,7.32987],[-70.6595,7.32301],[-70.67555,7.32123],[-70.67958,7.31315],[-70.68793,7.30714],[-70.69329,7.29527],[-70.6989,7.29574],[-70.7018,7.29275],[-70.71634,7.29562],[-70.7185,7.30125],[-70.72179,7.29863],[-70.72717,7.30459],[-70.73265,7.30576],[-70.73521,7.29387],[-70.74583,7.30172],[-70.74442,7.28922],[-70.74994,7.28728],[-70.75513,7.29624],[-70.76112,7.2959],[-70.76922,7.3024],[-70.78482,7.2996],[-70.78697,7.29729],[-70.79666,7.30443],[-70.80336,7.30449],[-70.80158,7.31175],[-70.80904,7.3156],[-70.82079,7.31307],[-70.83199,7.31934],[-70.84364,7.31282],[-70.84443,7.31438],[-70.83932,7.31949],[-70.84431,7.32026],[-70.84982,7.32582],[-70.8562,7.32331],[-70.85967,7.32629],[-70.85933,7.33216],[-70.86164,7.3351],[-70.86587,7.32955],[-70.87289,7.33362],[-70.8815,7.33128],[-70.88272,7.3274],[-70.87478,7.32814],[-70.87654,7.32245],[-70.88253,7.31813],[-70.8909,7.32077],[-70.89396,7.316],[-70.90576,7.31024],[-70.91592,7.31635],[-70.92324,7.31095],[-70.92908,7.31173],[-70.93154,7.30785],[-70.93794,7.30765],[-70.94348,7.31063],[-70.9482,7.30597],[-70.95794,7.30613],[-70.96017,7.30871],[-70.96368,7.30754],[-70.96366,7.31616],[-70.96853,7.32279],[-70.97617,7.32748],[-70.98691,7.32607],[-70.98776,7.33223],[-70.99685,7.34019],[-71.00133,7.33845],[-71.01184,7.34017],[-71.01406,7.34273],[-71.01426,7.33714],[-71.01177,7.3337],[-71.01387,7.33221],[-71.01791,7.3403],[-71.0228,7.3383],[-71.02715,7.34069],[-71.03022,7.34953],[-71.03733,7.34585],[-71.0375,7.35083],[-71.04163,7.35457],[-71.05991,7.34766],[-71.06674,7.35119],[-71.07103,7.35056],[-71.07496,7.35353],[-71.07445,7.35999],[-71.08085,7.35792],[-71.08436,7.36694],[-71.08716,7.36857],[-71.09693,7.36516],[-71.09919,7.36961],[-71.10397,7.37136],[-71.10975,7.36243],[-71.11902,7.36814],[-71.12502,7.36334],[-71.13419,7.36656],[-71.15348,7.36411],[-71.1774,7.37758],[-71.17823,7.38038],[-71.1754,7.38328],[-71.17708,7.38873],[-71.1831,7.38736],[-71.19098,7.39166],[-71.19854,7.38585],[-71.20051,7.39601],[-71.20864,7.39865],[-71.21839,7.40798],[-71.21985,7.41328],[-71.21355,7.41872],[-71.21588,7.4222],[-71.22075,7.42022],[-71.23114,7.42222],[-71.24089,7.41748],[-71.24329,7.41911],[-71.24461,7.42682],[-71.25049,7.43],[-71.25949,7.42593],[-71.26878,7.43054],[-71.27317,7.42975],[-71.27528,7.42384],[-71.2783,7.42297],[-71.28193,7.42758],[-71.27812,7.43378],[-71.28094,7.4347],[-71.2883,7.43146],[-71.29071,7.4379],[-71.29549,7.43826],[-71.30699,7.44531],[-71.31422,7.44316],[-71.31831,7.4387],[-71.32372,7.44079],[-71.32681,7.44639],[-71.34099,7.44289],[-71.34878,7.44592],[-71.35056,7.43819],[-71.35358,7.43542],[-71.3621,7.44097],[-71.37113,7.43788],[-71.37872,7.44495],[-71.3926,7.44464],[-71.39489,7.45134],[-71.40433,7.44348],[-71.40684,7.44372],[-71.40873,7.44987],[-71.41162,7.44785],[-71.40997,7.44519],[-71.41174,7.44232],[-71.42107,7.4451],[-71.42567,7.44214],[-71.43155,7.44928],[-71.43808,7.44991],[-71.43981,7.45649],[-71.44864,7.45764],[-71.45474,7.46252],[-71.45831,7.4599],[-71.45381,7.45642],[-71.45461,7.4532],[-71.46154,7.45643],[-71.46338,7.46047],[-71.46686,7.4607],[-71.46963,7.45765],[-71.46734,7.452],[-71.46874,7.44909],[-71.47404,7.44861],[-71.48108,7.45198],[-71.4829,7.44499],[-71.49258,7.4415],[-71.49497,7.43614],[-71.49883,7.43567],[-71.50589,7.441],[-71.51203,7.44096],[-71.51475,7.43764],[-71.50261,7.43241],[-71.50083,7.4283],[-71.5037,7.42554],[-71.50973,7.42702],[-71.51696,7.42024],[-71.52285,7.41905],[-71.53446,7.42046],[-71.54096,7.42683],[-71.55165,7.421],[-71.55996,7.42918],[-71.57378,7.43344],[-71.58302,7.42639],[-71.5901,7.4265],[-71.59332,7.41841],[-71.59815,7.41716],[-71.60757,7.4276],[-71.61959,7.43005],[-71.62329,7.43956],[-71.62644,7.44082],[-71.63358,7.43325],[-71.63707,7.43288],[-71.64057,7.42715],[-71.6539,7.42116],[-71.67444,7.42318],[-71.68214,7.41817],[-71.68618,7.41867],[-71.6911,7.42374],[-71.70435,7.42162],[-71.72652,7.43201],[-71.73744,7.44022],[-71.75141,7.4703],[-71.7578,7.47086],[-71.77263,7.4653],[-71.78849,7.47724],[-71.801,7.47954],[-71.81198,7.47645],[-71.82514,7.48007],[-71.83168,7.49419],[-71.83661,7.49726],[-71.84259,7.49449],[-71.84432,7.48769],[-71.84896,7.48198],[-71.84968,7.4744],[-71.8549,7.4702],[-71.85357,7.45838],[-71.85609,7.45432],[-71.85247,7.4471],[-71.86072,7.44359],[-71.86137,7.43767],[-71.85884,7.43503],[-71.8643,7.42799],[-71.86991,7.42755],[-71.86902,7.41928],[-71.87376,7.4213],[-71.87914,7.41331],[-71.88426,7.41423],[-71.88603,7.41087],[-71.89419,7.4081],[-71.90541,7.40818],[-71.91766,7.3972],[-71.92391,7.39922],[-71.92818,7.39465],[-71.94012,7.39181],[-71.94775,7.38508],[-71.95398,7.3861],[-71.95915,7.38232],[-71.96471,7.38163],[-71.97768,7.3694],[-71.99417,7.36429],[-71.99681,7.36132],[-72.00466,7.36381],[-72.01698,7.36141],[-72.02962,7.36559],[-72.03987,7.36358],[-72.04396,7.36636],[-72.05045,7.36387],[-72.0733,7.36819],[-72.07574,7.37193],[-72.07498,7.37868],[-72.07898,7.3812],[-72.08153,7.39541],[-72.08978,7.39407],[-72.1006,7.4005],[-72.10433,7.39811],[-72.11393,7.40561],[-72.11925,7.4017],[-72.1242,7.40277],[-72.13992,7.39335],[-72.14345,7.39271],[-72.14953,7.39616],[-72.15518,7.39199],[-72.16005,7.39155],[-72.16618,7.3858],[-72.16758,7.39321],[-72.17009,7.39518],[-72.16949,7.40199],[-72.18041,7.40388],[-72.18356,7.40919],[-72.18695,7.40899],[-72.19308,7.41847],[-72.1975,7.41818],[-72.19973,7.42065]]]}},{"type":"Feature","id":"relation/3763132","properties":{"name":"Barinas","level":4},"geometry":{"type":"Polygon","coordinates":[[[-67.83632,8.28985],[-67.84265,8.28707],[-67.84244,8.3071],[-67.8598,8.31772],[-67.86033,8.30965],[-67.87589,8.30295],[-67.87611,8.30021],[-67.87889,8.2993],[-67.88172,8.30252],[-67.88131,8.30538],[-67.85403,8.33396],[-67.85235,8.33975],[-67.85529,8.3512],[-67.86325,8.35014],[-67.87071,8.33785],[-67.87339,8.34385],[-67.88614,8.34519],[-67.90291,8.3658],[-67.90591,8.37185],[-67.89868,8.37649],[-67.90024,8.37932],[-67.90815,8.38001],[-67.9308,8.37246],[-67.93824,8.37403],[-67.93943,8.37648],[-67.93573,8.3796],[-67.94012,8.39041],[-67.94463,8.39363],[-67.951,8.39298],[-67.95965,8.40571],[-67.96435,8.40888],[-67.95792,8.42054],[-67.96646,8.42266],[-67.97829,8.43423],[-67.99184,8.43805],[-67.98957,8.44634],[-67.97308,8.45306],[-67.97339,8.46876],[-67.99841,8.46624],[-68.00857,8.47448],[-67.9993,8.48724],[-68.01898,8.49228],[-68.01561,8.4969],[-68.01497,8.5031],[-68.02107,8.51334],[-68.0212,8.52989],[-68.02686,8.5326],[-68.04636,8.53446],[-68.05091,8.53879],[-68.05274,8.55286],[-68.04858,8.56068],[-68.05657,8.56333],[-68.05273,8.57829],[-68.06715,8.57229],[-68.07973,8.58372],[-68.08287,8.5797],[-68.0887,8.5777],[-68.09031,8.58276],[-68.08579,8.58773],[-68.088,8.58992],[-68.09316,8.58505],[-68.09779,8.588],[-68.10105,8.58594],[-68.10251,8.58915],[-68.09867,8.59097],[-68.09858,8.59366],[-68.10136,8.59488],[-68.10338,8.59292],[-68.10507,8.59534],[-68.1057,8.59222],[-68.10897,8.59301],[-68.10499,8.60267],[-68.10974,8.60185],[-68.11144,8.6048],[-68.11611,8.60435],[-68.1179,8.59509],[-68.1252,8.59885],[-68.12669,8.60319],[-68.13106,8.59789],[-68.13724,8.59525],[-68.13764,8.59938],[-68.13987,8.59839],[-68.14476,8.60136],[-68.14599,8.60849],[-68.14802,8.60243],[-68.14632,8.59736],[-68.15207,8.59963],[-68.15656,8.5971],[-68.16077,8.60491],[-68.16929,8.60522],[-68.17062,8.6022],[-68.17767,8.60342],[-68.17915,8.60072],[-68.18132,8.60507],[-68.18581,8.60532],[-68.1879,8.60256],[-68.19212,8.6051],[-68.20027,8.59573],[-68.20465,8.60225],[-68.20857,8.60327],[-68.22207,8.59149],[-68.22762,8.5921],[-68.23366,8.58925],[-68.24508,8.59998],[-68.25917,8.60121],[-68.26196,8.60421],[-68.2649,8.60024],[-68.26325,8.59433],[-68.27138,8.59375],[-68.28229,8.58655],[-68.29456,8.59462],[-68.29838,8.59325],[-68.29847,8.59913],[-68.31003,8.61109],[-68.32349,8.60721],[-68.32746,8.59675],[-68.3242,8.59522],[-68.32482,8.59354],[-68.33244,8.59431],[-68.33759,8.60251],[-68.34144,8.60232],[-68.34796,8.60689],[-68.35599,8.60834],[-68.35713,8.60569],[-68.36172,8.60452],[-68.36799,8.61197],[-68.37963,8.61389],[-68.38306,8.61218],[-68.38584,8.60533],[-68.41558,8.60076],[-68.42103,8.59434],[-68.42482,8.5947],[-68.43013,8.60088],[-68.4375,8.60322],[-68.44177,8.60748],[-68.45181,8.60286],[-68.45945,8.60697],[-68.46254,8.60487],[-68.46711,8.60935],[-68.47055,8.59982],[-68.47348,8.59764],[-68.48828,8.59678],[-68.49456,8.60211],[-68.50698,8.5984],[-68.50388,8.5869],[-68.50719,8.56868],[-68.51077,8.56609],[-68.51292,8.57104],[-68.52374,8.5709],[-68.52873,8.5481],[-68.5272,8.54634],[-68.54622,8.51758],[-68.55852,8.51325],[-68.60004,8.47019],[-68.60227,8.46696],[-68.60318,8.44876],[-68.634,8.42516],[-68.672,8.4025],[-68.69191,8.38334],[-68.69004,8.38181],[-68.69721,8.37637],[-68.69933,8.37797],[-68.70087,8.37612],[-68.69899,8.37466],[-68.71778,8.355],[-68.71885,8.35722],[-68.73403,8.34294],[-68.74149,8.34276],[-68.74856,8.33571],[-68.74871,8.33942],[-68.75448,8.34205],[-68.75895,8.33341],[-68.78225,8.32764],[-68.78226,8.32211],[-68.77899,8.32182],[-68.78173,8.31478],[-68.78695,8.31703],[-68.78822,8.31435],[-68.78711,8.31217],[-68.78198,8.31162],[-68.77759,8.304],[-68.7827,8.29466],[-68.78297,8.28966],[-68.78732,8.28776],[-68.79046,8.27891],[-68.78752,8.27838],[-68.7834,8.24142],[-68.7967,8.23454],[-68.79554,8.23224],[-68.8086,8.23003],[-68.8092,8.22078],[-68.81321,8.21956],[-68.81413,8.2149],[-68.82573,8.20889],[-68.84338,8.20697],[-68.83984,8.18604],[-68.82994,8.19011],[-68.82421,8.17519],[-68.82863,8.17087],[-68.82549,8.16246],[-68.82199,8.16572],[-68.81989,8.16503],[-68.82428,8.15129],[-68.81941,8.14972],[-68.83336,8.10628],[-68.83957,8.09445],[-68.84432,8.09792],[-68.85022,8.09163],[-68.85192,8.09372],[-68.85556,8.09258],[-68.86447,8.10204],[-68.86205,8.10506],[-68.8675,8.1053],[-68.86912,8.10867],[-68.87154,8.10249],[-68.87307,8.10326],[-68.86837,8.1136],[-68.87229,8.11595],[-68.87544,8.11278],[-68.88231,8.11525],[-68.88184,8.11924],[-68.88587,8.12409],[-68.88308,8.12755],[-68.88804,8.12964],[-68.88493,8.13561],[-68.8922,8.1364],[-68.89347,8.13985],[-68.89154,8.14233],[-68.89529,8.14376],[-68.89129,8.14784],[-68.8931,8.15178],[-68.89932,8.15074],[-68.90433,8.15401],[-68.9057,8.15131],[-68.90249,8.14801],[-68.90651,8.14747],[-68.90654,8.15221],[-68.9093,8.154],[-68.91857,8.15242],[-68.91838,8.16143],[-68.92415,8.16251],[-68.92895,8.17383],[-68.9377,8.17542],[-68.93904,8.17944],[-68.94568,8.17811],[-68.94685,8.18493],[-68.9534,8.18368],[-68.95971,8.19212],[-68.95887,8.19842],[-68.96171,8.21029],[-68.9593,8.2118],[-68.96484,8.21616],[-68.96378,8.22278],[-68.96679,8.22595],[-68.96599,8.22977],[-68.96967,8.2379],[-68.97365,8.23399],[-68.97503,8.2358],[-68.9797,8.23509],[-68.98239,8.23712],[-68.98075,8.24077],[-68.98437,8.23902],[-68.99066,8.24192],[-68.9923,8.24403],[-68.99026,8.24525],[-68.99389,8.25049],[-68.99562,8.25175],[-68.99725,8.24958],[-69.0032,8.25468],[-69.00297,8.26004],[-68.99827,8.26149],[-69.00416,8.26766],[-69.00988,8.26877],[-69.01372,8.2644],[-69.01541,8.26741],[-69.02131,8.26419],[-69.02714,8.2692],[-69.03744,8.27223],[-69.03691,8.27412],[-69.03319,8.27393],[-69.03383,8.27676],[-69.04161,8.28034],[-69.04453,8.28585],[-69.04632,8.28621],[-69.04742,8.28278],[-69.05118,8.28584],[-69.05498,8.28341],[-69.05518,8.28932],[-69.06253,8.28671],[-69.07083,8.29026],[-69.0693,8.29576],[-69.07198,8.29852],[-69.07822,8.29652],[-69.08445,8.29991],[-69.08707,8.29094],[-69.09024,8.29404],[-69.09831,8.28986],[-69.10205,8.29131],[-69.1026,8.29548],[-69.09808,8.29522],[-69.09658,8.2993],[-69.09136,8.30076],[-69.09492,8.30772],[-69.09301,8.31308],[-69.09603,8.31207],[-69.09879,8.31849],[-69.10218,8.31974],[-69.09941,8.32622],[-69.10421,8.3289],[-69.10372,8.33144],[-69.10906,8.336],[-69.11531,8.33556],[-69.12711,8.34089],[-69.12591,8.3463],[-69.13202,8.34735],[-69.13297,8.3513],[-69.13899,8.35267],[-69.14492,8.36642],[-69.1442,8.36982],[-69.14039,8.37123],[-69.13885,8.37959],[-69.14367,8.38274],[-69.13728,8.38825],[-69.13439,8.39604],[-69.13394,8.40483],[-69.14004,8.40131],[-69.14044,8.40537],[-69.1216,8.41422],[-69.11599,8.41199],[-69.11297,8.41804],[-69.11588,8.41994],[-69.11576,8.42273],[-69.11924,8.4234],[-69.11948,8.42841],[-69.12237,8.42918],[-69.12194,8.43567],[-69.12881,8.43768],[-69.12758,8.44098],[-69.13167,8.44044],[-69.13009,8.44401],[-69.13255,8.44733],[-69.14436,8.44726],[-69.14836,8.44309],[-69.15741,8.4461],[-69.16029,8.44379],[-69.16562,8.452],[-69.16998,8.45187],[-69.17635,8.45915],[-69.17536,8.46938],[-69.18001,8.46571],[-69.19088,8.47151],[-69.18745,8.49331],[-69.18891,8.49786],[-69.18242,8.50082],[-69.18598,8.50967],[-69.18266,8.51126],[-69.18449,8.51597],[-69.18922,8.51868],[-69.19233,8.51722],[-69.19358,8.52262],[-69.19731,8.52369],[-69.20116,8.53256],[-69.21016,8.53055],[-69.21557,8.53545],[-69.21501,8.54521],[-69.21197,8.55002],[-69.21534,8.55277],[-69.21602,8.55712],[-69.2247,8.55563],[-69.22881,8.55907],[-69.23276,8.55482],[-69.23745,8.5591],[-69.24145,8.5592],[-69.23534,8.56273],[-69.23976,8.56411],[-69.24489,8.57394],[-69.24854,8.57462],[-69.25404,8.58894],[-69.25996,8.58342],[-69.26064,8.58842],[-69.26634,8.58944],[-69.27121,8.59865],[-69.27567,8.59913],[-69.28041,8.60662],[-69.2855,8.60575],[-69.29074,8.61094],[-69.29663,8.60417],[-69.29778,8.60524],[-69.29516,8.61375],[-69.29878,8.61509],[-69.30554,8.63415],[-69.30959,8.63109],[-69.3107,8.63447],[-69.31175,8.6326],[-69.31677,8.63373],[-69.31982,8.62932],[-69.32171,8.62955],[-69.32238,8.63449],[-69.33107,8.63207],[-69.33439,8.62822],[-69.34027,8.62897],[-69.33933,8.63528],[-69.34488,8.63654],[-69.3492,8.64363],[-69.35695,8.64617],[-69.36049,8.64966],[-69.36037,8.65354],[-69.36535,8.65183],[-69.36531,8.65433],[-69.36934,8.65505],[-69.37016,8.66366],[-69.3978,8.66809],[-69.40446,8.66275],[-69.40609,8.66486],[-69.40924,8.66377],[-69.41312,8.66859],[-69.41848,8.66952],[-69.41847,8.67656],[-69.42188,8.67775],[-69.42259,8.66512],[-69.43014,8.6672],[-69.43249,8.66564],[-69.42913,8.66112],[-69.43087,8.65638],[-69.4294,8.65487],[-69.43386,8.65012],[-69.44141,8.65633],[-69.44768,8.65042],[-69.44976,8.65782],[-69.45444,8.65944],[-69.45382,8.65347],[-69.49973,8.64885],[-69.5011,8.68091],[-69.50593,8.67872],[-69.50863,8.68132],[-69.50243,8.68919],[-69.50655,8.68933],[-69.51242,8.68238],[-69.51489,8.68964],[-69.5261,8.69015],[-69.52636,8.6822],[-69.53012,8.68164],[-69.53539,8.68964],[-69.52702,8.69494],[-69.52899,8.70303],[-69.53481,8.69349],[-69.5388,8.69461],[-69.5472,8.69108],[-69.55382,8.69857],[-69.56004,8.69473],[-69.56045,8.70853],[-69.55823,8.71477],[-69.57221,8.72033],[-69.57785,8.72807],[-69.60237,8.73176],[-69.60719,8.72923],[-69.61763,8.73376],[-69.6313,8.72826],[-69.63286,8.73339],[-69.63584,8.73446],[-69.64952,8.7239],[-69.65067,8.71326],[-69.65347,8.71364],[-69.6583,8.72257],[-69.66452,8.72223],[-69.66349,8.71685],[-69.65786,8.71275],[-69.65969,8.70682],[-69.66554,8.70834],[-69.67046,8.71814],[-69.67336,8.71927],[-69.68222,8.71579],[-69.686,8.70864],[-69.68907,8.7077],[-69.70776,8.7171],[-69.71163,8.71253],[-69.7165,8.71207],[-69.71884,8.72362],[-69.72288,8.72442],[-69.72718,8.72047],[-69.73181,8.72026],[-69.73835,8.72583],[-69.74023,8.73253],[-69.74417,8.73566],[-69.74932,8.73599],[-69.7616,8.73107],[-69.76355,8.73489],[-69.76008,8.74334],[-69.76228,8.74667],[-69.77039,8.7398],[-69.78154,8.74203],[-69.79367,8.74077],[-69.805,8.74968],[-69.82369,8.74357],[-69.83029,8.7458],[-69.83536,8.75186],[-69.84654,8.75502],[-69.85304,8.75376],[-69.85795,8.76118],[-69.8638,8.75775],[-69.87056,8.75844],[-69.87311,8.76172],[-69.87073,8.76896],[-69.87305,8.77239],[-69.87989,8.77135],[-69.88471,8.76577],[-69.88799,8.7669],[-69.88254,8.77983],[-69.88608,8.78798],[-69.89122,8.78641],[-69.89214,8.774],[-69.90077,8.7724],[-69.91186,8.78539],[-69.92285,8.78998],[-69.92817,8.78791],[-69.93246,8.78987],[-69.9325,8.79512],[-69.9251,8.79673],[-69.9229,8.80278],[-69.93241,8.80274],[-69.93594,8.80887],[-69.94341,8.80991],[-69.94198,8.81241],[-69.94491,8.81685],[-69.94934,8.81724],[-69.9553,8.82247],[-69.962,8.82106],[-69.97392,8.83062],[-69.98679,8.82608],[-69.99201,8.83531],[-70.00009,8.84184],[-70.01093,8.84413],[-70.02976,8.8699],[-70.03409,8.8897],[-70.04232,8.89408],[-70.05338,8.92925],[-70.09303,8.95573],[-70.10704,8.9574],[-70.11333,8.96206],[-70.12372,8.96488],[-70.12818,8.97154],[-70.1391,8.97603],[-70.15086,8.97408],[-70.16328,8.9808],[-70.17684,8.99394],[-70.18626,9.01655],[-70.18435,9.03605],[-70.18857,9.04382],[-70.19923,9.05212],[-70.21822,9.05356],[-70.22484,9.05784],[-70.23677,9.06075],[-70.25149,9.04787],[-70.25714,9.03819],[-70.27946,9.03242],[-70.30173,9.03879],[-70.32196,9.04844],[-70.32395,9.05172],[-70.33369,9.05187],[-70.34178,9.05884],[-70.347,9.0591],[-70.35714,9.05314],[-70.36303,9.05694],[-70.38043,9.05718],[-70.38532,9.05452],[-70.38669,9.05076],[-70.39858,9.04871],[-70.39798,9.04273],[-70.40176,9.0384],[-70.41754,9.02888],[-70.4201,9.02512],[-70.423,9.02616],[-70.43403,9.02147],[-70.44424,9.02156],[-70.4637,9.01049],[-70.47862,9.01188],[-70.48669,9.00939],[-70.49711,9.00306],[-70.49801,8.99814],[-70.50556,8.99627],[-70.51864,8.97406],[-70.53187,8.96612],[-70.53566,8.95857],[-70.54369,8.95739],[-70.54538,8.95363],[-70.55629,8.95032],[-70.55894,8.94524],[-70.55525,8.93936],[-70.54926,8.93691],[-70.55262,8.93056],[-70.56069,8.92458],[-70.56652,8.91331],[-70.57469,8.90712],[-70.57888,8.89566],[-70.57614,8.88946],[-70.578,8.88719],[-70.5762,8.87996],[-70.57856,8.87225],[-70.5755,8.86851],[-70.57314,8.86916],[-70.57252,8.86295],[-70.56664,8.85732],[-70.58539,8.84451],[-70.59899,8.84837],[-70.60746,8.84517],[-70.613,8.83532],[-70.62488,8.8375],[-70.63277,8.84487],[-70.64366,8.8442],[-70.64885,8.83728],[-70.66048,8.83065],[-70.66522,8.82086],[-70.66305,8.81546],[-70.66561,8.81123],[-70.68476,8.7996],[-70.69034,8.78522],[-70.6975,8.77657],[-70.7034,8.7733],[-70.70466,8.76842],[-70.72188,8.75279],[-70.72632,8.75407],[-70.73363,8.75017],[-70.75713,8.72645],[-70.75843,8.7214],[-70.75237,8.71626],[-70.75244,8.71359],[-70.75744,8.71331],[-70.75847,8.70594],[-70.7619,8.70168],[-70.74085,8.69107],[-70.72226,8.67523],[-70.72993,8.6686],[-70.73572,8.65511],[-70.73042,8.64535],[-70.72759,8.64475],[-70.72761,8.63893],[-70.73335,8.63412],[-70.73702,8.63463],[-70.74293,8.63085],[-70.75692,8.61574],[-70.76959,8.6143],[-70.78155,8.60993],[-70.79012,8.61215],[-70.79465,8.60541],[-70.80688,8.59875],[-70.81483,8.59924],[-70.81857,8.60216],[-70.82663,8.60056],[-70.83447,8.59308],[-70.84294,8.5891],[-70.84219,8.5665],[-70.8393,8.55544],[-70.83535,8.55144],[-70.83861,8.5489],[-70.83691,8.54111],[-70.8391,8.52865],[-70.8384,8.5223],[-70.83424,8.51579],[-70.83806,8.51352],[-70.83868,8.51035],[-70.83321,8.50098],[-70.8326,8.49489],[-70.83445,8.46433],[-70.83133,8.45474],[-70.82845,8.45364],[-70.82516,8.44664],[-70.82866,8.43846],[-70.83756,8.43418],[-70.8364,8.43166],[-70.84091,8.42792],[-70.84558,8.41414],[-70.84938,8.40969],[-70.84552,8.40786],[-70.84624,8.4053],[-70.8603,8.38845],[-70.8632,8.3771],[-70.87755,8.36919],[-70.88922,8.36692],[-70.89268,8.36216],[-70.89249,8.35309],[-70.89997,8.3504],[-70.90685,8.34372],[-70.90608,8.33207],[-70.91038,8.32627],[-70.91173,8.31599],[-70.90591,8.31166],[-70.90666,8.30841],[-70.90411,8.30635],[-70.91061,8.29081],[-70.90917,8.28505],[-70.90644,8.28367],[-70.90604,8.27646],[-70.90945,8.27322],[-70.91944,8.27358],[-70.92881,8.26961],[-70.9372,8.26377],[-70.93968,8.25624],[-70.96177,8.24963],[-70.96648,8.25476],[-70.96441,8.25958],[-70.96908,8.26818],[-70.9771,8.27456],[-70.9858,8.27181],[-70.99254,8.27279],[-71.01206,8.25559],[-71.01359,8.24883],[-71.02682,8.2489],[-71.03014,8.25294],[-71.03484,8.25322],[-71.02316,8.23257],[-71.02618,8.23016],[-71.02819,8.22326],[-71.02047,8.22126],[-71.02317,8.21633],[-71.01015,8.19897],[-71.01428,8.19281],[-71.01529,8.18601],[-71.01335,8.18341],[-71.01902,8.1812],[-71.01842,8.1766],[-71.02724,8.16717],[-71.03652,8.163],[-71.0395,8.1574],[-71.04376,8.15493],[-71.04319,8.14893],[-71.04627,8.1488],[-71.04884,8.13727],[-71.04434,8.13181],[-71.04651,8.12966],[-71.04484,8.12484],[-71.04842,8.12422],[-71.0455,8.11581],[-71.04815,8.11073],[-71.05256,8.10954],[-71.0526,8.10627],[-71.05708,8.10649],[-71.05633,8.1007],[-71.05909,8.10187],[-71.05889,8.09889],[-71.06161,8.09896],[-71.06058,8.09668],[-71.06725,8.09011],[-71.07064,8.0911],[-71.07006,8.08739],[-71.08089,8.07292],[-71.08962,8.06959],[-71.09386,8.07367],[-71.09408,8.05899],[-71.10231,8.05473],[-71.10345,8.04263],[-71.10803,8.04367],[-71.11211,8.03884],[-71.10752,8.03677],[-71.11495,8.03887],[-71.11777,8.03395],[-71.12014,8.03865],[-71.1264,8.0394],[-71.13562,8.02199],[-71.15062,8.01979],[-71.15831,8.0118],[-71.16085,8.01163],[-71.16245,8.01473],[-71.16447,8.01139],[-71.16764,8.01131],[-71.16663,8.00771],[-71.17147,8.00479],[-71.1679,7.99967],[-71.17005,7.99439],[-71.18023,7.99418],[-71.18603,7.98727],[-71.19258,7.98449],[-71.19997,7.97524],[-71.21484,7.96896],[-71.22632,7.95749],[-71.22843,7.95938],[-71.23082,7.95668],[-71.23427,7.95769],[-71.23472,7.95184],[-71.22984,7.94937],[-71.23125,7.94396],[-71.2375,7.94707],[-71.23649,7.94033],[-71.2428,7.93848],[-71.24742,7.93155],[-71.25215,7.92904],[-71.25295,7.92485],[-71.25503,7.92634],[-71.25646,7.92284],[-71.26114,7.92179],[-71.26054,7.91708],[-71.26718,7.91812],[-71.26819,7.90793],[-71.287,7.90154],[-71.29383,7.90393],[-71.32513,7.87588],[-71.3895,7.83158],[-71.42748,7.79723],[-71.46761,7.77342],[-71.4658,7.75246],[-71.46381,7.75061],[-71.46641,7.74592],[-71.46367,7.74196],[-71.46632,7.72605],[-71.45427,7.71663],[-71.44358,7.69971],[-71.44341,7.69542],[-71.44645,7.69249],[-71.45308,7.69323],[-71.46744,7.68013],[-71.47478,7.68091],[-71.47799,7.67703],[-71.47662,7.66922],[-71.48856,7.66641],[-71.49232,7.65766],[-71.49901,7.65407],[-71.50219,7.64857],[-71.50038,7.64372],[-71.49673,7.64401],[-71.49386,7.6517],[-71.48832,7.64662],[-71.49099,7.64136],[-71.49977,7.63381],[-71.49897,7.62969],[-71.4917,7.62635],[-71.49411,7.62325],[-71.50144,7.62303],[-71.49742,7.6158],[-71.49924,7.61023],[-71.50437,7.60866],[-71.50397,7.60456],[-71.49607,7.59748],[-71.4925,7.59693],[-71.48955,7.6006],[-71.49439,7.60706],[-71.49338,7.61082],[-71.4746,7.6127],[-71.47466,7.60932],[-71.48081,7.60583],[-71.47953,7.60163],[-71.46481,7.59614],[-71.45922,7.59002],[-71.45022,7.59596],[-71.44675,7.58954],[-71.44339,7.58819],[-71.44358,7.58335],[-71.43932,7.57762],[-71.43187,7.57919],[-71.42833,7.57513],[-71.42113,7.57676],[-71.41717,7.57424],[-71.42148,7.56907],[-71.41896,7.56233],[-71.42015,7.55518],[-71.42365,7.55463],[-71.43424,7.56273],[-71.43558,7.56029],[-71.43044,7.55243],[-71.41643,7.54998],[-71.41257,7.55117],[-71.40716,7.55779],[-71.40383,7.55727],[-71.39972,7.54709],[-71.4015,7.54076],[-71.39841,7.54041],[-71.39511,7.54437],[-71.39275,7.54057],[-71.3984,7.53412],[-71.40752,7.54027],[-71.41022,7.53988],[-71.41055,7.53681],[-71.40494,7.52982],[-71.39291,7.52977],[-71.38119,7.52589],[-71.37647,7.52929],[-71.37213,7.51619],[-71.36539,7.50979],[-71.3636,7.50381],[-71.35613,7.50487],[-71.35201,7.4996],[-71.34971,7.5015],[-71.35116,7.50774],[-71.34945,7.51135],[-71.3446,7.51096],[-71.33909,7.50533],[-71.33652,7.50758],[-71.3356,7.51468],[-71.33066,7.51607],[-71.32973,7.51207],[-71.33302,7.50664],[-71.33322,7.49981],[-71.33008,7.49703],[-71.32102,7.49819],[-71.31692,7.49635],[-71.3153,7.49356],[-71.31667,7.4864],[-71.31802,7.4898],[-71.3293,7.4786],[-71.33752,7.47462],[-71.34811,7.47892],[-71.35637,7.47843],[-71.36144,7.47405],[-71.37693,7.48125],[-71.39212,7.47681],[-71.39724,7.48245],[-71.40284,7.47649],[-71.4067,7.48166],[-71.4146,7.48282],[-71.41607,7.49401],[-71.42196,7.49951],[-71.43362,7.50532],[-71.44101,7.50558],[-71.44509,7.50922],[-71.44884,7.50915],[-71.45633,7.50092],[-71.46868,7.49715],[-71.48999,7.49867],[-71.50454,7.50935],[-71.52563,7.51641],[-71.52891,7.52343],[-71.53889,7.51632],[-71.54985,7.5186],[-71.55604,7.51395],[-71.56103,7.52125],[-71.57527,7.52672],[-71.57733,7.52267],[-71.5762,7.51817],[-71.58112,7.51058],[-71.59191,7.51325],[-71.59406,7.5227],[-71.59878,7.52683],[-71.60135,7.5256],[-71.60027,7.51872],[-71.6051,7.51554],[-71.61263,7.52231],[-71.62665,7.51916],[-71.63869,7.52962],[-71.64271,7.52768],[-71.64398,7.52147],[-71.64703,7.51991],[-71.64963,7.52192],[-71.6503,7.5305],[-71.6532,7.53159],[-71.65855,7.52873],[-71.66171,7.53542],[-71.67558,7.53846],[-71.6802,7.54347],[-71.68661,7.54361],[-71.6895,7.54789],[-71.69355,7.54682],[-71.69448,7.53949],[-71.69713,7.53688],[-71.70265,7.54139],[-71.71044,7.53922],[-71.71727,7.54452],[-71.72105,7.54403],[-71.7209,7.53325],[-71.72614,7.5297],[-71.73228,7.53629],[-71.74054,7.53892],[-71.746,7.53853],[-71.75236,7.5333],[-71.76155,7.54145],[-71.76277,7.54527],[-71.76717,7.54644],[-71.77127,7.54023],[-71.7653,7.53269],[-71.76603,7.52951],[-71.77661,7.52869],[-71.78181,7.52417],[-71.7895,7.52817],[-71.78495,7.53697],[-71.78682,7.54018],[-71.79913,7.53619],[-71.80176,7.53789],[-71.80285,7.54388],[-71.80624,7.54465],[-71.808,7.54039],[-71.80404,7.53445],[-71.80719,7.53053],[-71.82613,7.53571],[-71.82848,7.53276],[-71.83765,7.53241],[-71.83977,7.53001],[-71.83875,7.52246],[-71.84422,7.51818],[-71.84849,7.5191],[-71.85404,7.52584],[-71.85424,7.51358],[-71.87332,7.50943],[-71.87836,7.50066],[-71.8687,7.49661],[-71.86314,7.50181],[-71.85394,7.4959],[-71.84899,7.50255],[-71.84464,7.4947],[-71.83778,7.49722],[-71.83238,7.49514],[-71.82593,7.48037],[-71.81198,7.47645],[-71.801,7.47954],[-71.78849,7.47724],[-71.77381,7.46552],[-71.7578,7.47086],[-71.75141,7.4703],[-71.73744,7.44022],[-71.72652,7.43201],[-71.70435,7.42162],[-71.6911,7.42374],[-71.68618,7.41867],[-71.68214,7.41817],[-71.67444,7.42318],[-71.6539,7.42116],[-71.64057,7.42715],[-71.63707,7.43288],[-71.63358,7.43325],[-71.62644,7.44082],[-71.62329,7.43956],[-71.61959,7.43005],[-71.60757,7.4276],[-71.59815,7.41716],[-71.59332,7.41841],[-71.5901,7.4265],[-71.58302,7.42639],[-71.57378,7.43344],[-71.55996,7.42918],[-71.55165,7.421],[-71.54096,7.42683],[-71.53446,7.42046],[-71.52285,7.41905],[-71.51696,7.42024],[-71.50973,7.42702],[-71.5037,7.42554],[-71.50083,7.4283],[-71.50261,7.43241],[-71.51475,7.43764],[-71.51203,7.44096],[-71.50589,7.441],[-71.49883,7.43567],[-71.49497,7.43614],[-71.49258,7.4415],[-71.4829,7.44499],[-71.48108,7.45198],[-71.47404,7.44861],[-71.46874,7.44909],[-71.46734,7.452],[-71.46963,7.45765],[-71.46686,7.4607],[-71.46338,7.46047],[-71.46154,7.45643],[-71.45461,7.4532],[-71.45381,7.45642],[-71.45831,7.4599],[-71.45474,7.46252],[-71.44864,7.45764],[-71.43981,7.45649],[-71.43808,7.44991],[-71.43155,7.44928],[-71.42567,7.44214],[-71.42107,7.4451],[-71.41174,7.44232],[-71.40997,7.44519],[-71.41162,7.44785],[-71.40873,7.44987],[-71.40684,7.44372],[-71.40433,7.44348],[-71.39489,7.45134],[-71.3926,7.44464],[-71.37872,7.44495],[-71.37113,7.43788],[-71.3621,7.44097],[-71.35358,7.43542],[-71.35056,7.43819],[-71.34878,7.44592],[-71.34099,7.44289],[-71.32681,7.44639],[-71.32372,7.44079],[-71.31831,7.4387],[-71.31422,7.44316],[-71.30699,7.44531],[-71.29549,7.43826],[-71.29071,7.4379],[-71.2883,7.43146],[-71.28094,7.4347],[-71.27812,7.43378],[-71.28193,7.42758],[-71.2783,7.42297],[-71.27528,7.42384],[-71.27317,7.42975],[-71.26878,7.43054],[-71.25949,7.42593],[-71.25049,7.43],[-71.24461,7.42682],[-71.24329,7.41911],[-71.24089,7.41748],[-71.23114,7.42222],[-71.22075,7.42022],[-71.21588,7.4222],[-71.21355,7.41872],[-71.21985,7.41328],[-71.21839,7.40798],[-71.20864,7.39865],[-71.20051,7.39601],[-71.19854,7.38585],[-71.19098,7.39166],[-71.1831,7.38736],[-71.17708,7.38873],[-71.1754,7.38328],[-71.17823,7.38038],[-71.1774,7.37758],[-71.15348,7.36411],[-71.13419,7.36656],[-71.12502,7.36334],[-71.11902,7.36814],[-71.10975,7.36243],[-71.10397,7.37136],[-71.09919,7.36961],[-71.09693,7.36516],[-71.08716,7.36857],[-71.08436,7.36694],[-71.08085,7.35792],[-71.07445,7.35999],[-71.07496,7.35353],[-71.07103,7.35056],[-71.06674,7.35119],[-71.05991,7.34766],[-71.04163,7.35457],[-71.0375,7.35083],[-71.03733,7.34585],[-71.03022,7.34953],[-71.02715,7.34069],[-71.0228,7.3383],[-71.01791,7.3403],[-71.01387,7.33221],[-71.01177,7.3337],[-71.01426,7.33714],[-71.01406,7.34273],[-71.01184,7.34017],[-71.00133,7.33845],[-70.99685,7.34019],[-70.98776,7.33223],[-70.98691,7.32607],[-70.97617,7.32748],[-70.96853,7.32279],[-70.96366,7.31616],[-70.96368,7.30754],[-70.96017,7.30871],[-70.95794,7.30613],[-70.9482,7.30597],[-70.94348,7.31063],[-70.93794,7.30765],[-70.93154,7.30785],[-70.92908,7.31173],[-70.92324,7.31095],[-70.91592,7.31635],[-70.90576,7.31024],[-70.89396,7.316],[-70.8909,7.32077],[-70.88253,7.31813],[-70.87654,7.32245],[-70.87478,7.32814],[-70.88272,7.3274],[-70.8815,7.33128],[-70.87289,7.33362],[-70.86587,7.32955],[-70.86164,7.3351],[-70.85933,7.33216],[-70.85967,7.32629],[-70.8562,7.32331],[-70.84982,7.32582],[-70.84431,7.32026],[-70.83932,7.31949],[-70.84443,7.31438],[-70.84364,7.31282],[-70.83199,7.31934],[-70.82079,7.31307],[-70.80904,7.3156],[-70.80158,7.31175],[-70.80336,7.30449],[-70.79666,7.30443],[-70.78697,7.29729],[-70.78482,7.2996],[-70.76922,7.3024],[-70.76112,7.2959],[-70.75513,7.29624],[-70.74994,7.28728],[-70.74442,7.28922],[-70.74583,7.30172],[-70.73521,7.29387],[-70.73265,7.30576],[-70.72717,7.30459],[-70.72179,7.29863],[-70.7185,7.30125],[-70.71634,7.29562],[-70.70206,7.29269],[-70.6989,7.29574],[-70.69329,7.29527],[-70.68793,7.30714],[-70.67958,7.31315],[-70.67555,7.32123],[-70.6595,7.32301],[-70.64995,7.32987],[-70.64104,7.33216],[-70.62701,7.3321],[-70.61517,7.32665],[-70.6049,7.32593],[-70.58935,7.33789],[-70.57682,7.34102],[-70.55849,7.35268],[-70.54195,7.37534],[-70.53037,7.37244],[-70.52214,7.37299],[-70.51666,7.36529],[-70.51414,7.36496],[-70.50749,7.37795],[-70.50756,7.38515],[-70.51457,7.40063],[-70.51457,7.40709],[-70.51156,7.41009],[-70.48515,7.42],[-70.46362,7.41744],[-70.43936,7.42088],[-70.41557,7.44003],[-70.40123,7.43806],[-70.39517,7.43967],[-70.39033,7.44935],[-70.38194,7.4562],[-70.37344,7.48091],[-70.35904,7.49029],[-70.36388,7.51518],[-70.36006,7.52848],[-70.34927,7.53996],[-70.34196,7.5549],[-70.34023,7.56434],[-70.32077,7.57267],[-70.32075,7.57697],[-70.32801,7.58827],[-70.32226,7.60187],[-70.31651,7.60613],[-70.29143,7.60911],[-70.27203,7.60683],[-70.25549,7.61515],[-70.25057,7.61225],[-70.2454,7.59664],[-70.2407,7.59617],[-70.23194,7.60023],[-70.22197,7.59049],[-70.21697,7.58952],[-70.21037,7.59299],[-70.21154,7.60143],[-70.20935,7.60548],[-70.19289,7.61042],[-70.18405,7.61709],[-70.16944,7.61721],[-70.16408,7.6251],[-70.1614,7.64683],[-70.15246,7.65181],[-70.1547,7.66027],[-70.15279,7.66895],[-70.14271,7.68475],[-70.11838,7.68992],[-70.10376,7.71473],[-70.08636,7.71258],[-70.08482,7.71617],[-70.09039,7.72167],[-70.0901,7.72469],[-70.07883,7.72077],[-70.07137,7.72195],[-70.06486,7.7268],[-70.04443,7.73383],[-70.04115,7.73625],[-70.03928,7.74297],[-70.03246,7.74622],[-70.01649,7.74797],[-69.99046,7.74286],[-69.97128,7.75369],[-69.96645,7.75294],[-69.96405,7.74858],[-69.95959,7.74703],[-69.94188,7.75216],[-69.92485,7.75169],[-69.91903,7.75679],[-69.9209,7.76564],[-69.91933,7.76987],[-69.91302,7.77631],[-69.90547,7.79077],[-69.89519,7.79721],[-69.88013,7.80082],[-69.85202,7.80031],[-69.83468,7.80879],[-69.82938,7.79274],[-69.82217,7.79009],[-69.80878,7.79419],[-69.79777,7.81292],[-69.78687,7.81702],[-69.76735,7.81587],[-69.74919,7.82382],[-69.71954,7.8225],[-69.71241,7.83211],[-69.71074,7.84446],[-69.70529,7.85067],[-69.67619,7.85696],[-69.66313,7.87675],[-69.65686,7.88209],[-69.64263,7.89004],[-69.62643,7.89388],[-69.61693,7.90098],[-69.60547,7.90315],[-69.60287,7.91012],[-69.6018,7.92712],[-69.59472,7.93388],[-69.5844,7.93093],[-69.58009,7.93373],[-69.57841,7.94255],[-69.58062,7.95518],[-69.56768,7.9723],[-69.53934,7.98746],[-69.52144,8.00343],[-69.50627,8.00726],[-69.48878,8.00756],[-69.47923,8.01111],[-69.47361,8.02354],[-69.47803,8.03526],[-69.47631,8.05113],[-69.45508,8.05705],[-69.44516,8.06439],[-69.4372,8.06709],[-69.40666,8.06722],[-69.39059,8.0581],[-69.38553,8.05101],[-69.38152,8.04924],[-69.36135,8.0567],[-69.3486,8.0646],[-69.33897,8.06274],[-69.33348,8.05388],[-69.31103,8.05836],[-69.2978,8.05202],[-69.27612,8.05687],[-69.24507,8.05838],[-69.22784,8.06671],[-69.20018,8.06437],[-69.17027,8.04691],[-69.14724,8.04223],[-69.13458,8.0355],[-69.12475,8.02579],[-69.11999,8.00382],[-69.11139,7.99651],[-69.08557,7.99353],[-69.05057,7.97568],[-69.03901,7.97768],[-69.03551,7.99381],[-69.02608,8.00254],[-69.01901,8.00233],[-69.0029,7.99326],[-68.9894,7.99755],[-68.97305,7.99649],[-68.96601,7.9987],[-68.95942,7.99262],[-68.95878,7.98482],[-68.94884,7.96281],[-68.93462,7.94753],[-68.93395,7.94208],[-68.94086,7.9264],[-68.93792,7.9172],[-68.93123,7.9138],[-68.91543,7.91669],[-68.89438,7.91165],[-68.88022,7.8952],[-68.87509,7.89339],[-68.86803,7.89435],[-68.85746,7.90071],[-68.82364,7.89191],[-68.8034,7.89894],[-68.79265,7.8911],[-68.78508,7.89001],[-68.77469,7.89524],[-68.76557,7.90787],[-68.74021,7.90175],[-68.72285,7.90209],[-68.70914,7.91154],[-68.69558,7.93012],[-68.68891,7.93127],[-68.66371,7.9237],[-68.65708,7.92538],[-68.65116,7.93259],[-68.64087,7.95687],[-68.61595,7.96251],[-68.59136,7.95917],[-68.57108,7.95192],[-68.5546,7.9535],[-68.54136,7.94727],[-68.52205,7.93288],[-68.5039,7.92708],[-68.47688,7.93233],[-68.46047,7.93284],[-68.43991,7.93947],[-68.42579,7.92693],[-68.414,7.93064],[-68.39949,7.92132],[-68.40125,7.91915],[-68.39951,7.91728],[-68.38445,7.91737],[-68.38661,7.91162],[-68.38539,7.90801],[-68.36526,7.89456],[-68.35787,7.89242],[-68.34781,7.88029],[-68.33573,7.8875],[-68.33677,7.89091],[-68.33251,7.89284],[-68.33236,7.90013],[-68.32776,7.89664],[-68.32212,7.89944],[-68.32029,7.89758],[-68.31496,7.89878],[-68.30517,7.90495],[-68.30257,7.91],[-68.29588,7.91111],[-68.29407,7.91468],[-68.29195,7.90716],[-68.27791,7.90712],[-68.25819,7.89963],[-68.25032,7.90138],[-68.25059,7.90524],[-68.24419,7.91033],[-68.2365,7.90284],[-68.22906,7.90622],[-68.22416,7.91237],[-68.21748,7.90957],[-68.21595,7.90539],[-68.21999,7.90021],[-68.21463,7.89828],[-68.2149,7.89522],[-68.20097,7.90189],[-68.19264,7.89969],[-68.18702,7.90318],[-68.184,7.90126],[-68.18256,7.90363],[-68.17352,7.90148],[-68.16492,7.9055],[-68.15445,7.90425],[-68.15316,7.90228],[-68.15184,7.904],[-68.14935,7.89984],[-68.14,7.89721],[-68.12393,7.90347],[-68.11787,7.90252],[-68.11578,7.89938],[-68.11326,7.90076],[-68.10592,7.89779],[-68.09192,7.88235],[-68.07721,7.87868],[-68.07383,7.87419],[-68.06332,7.87207],[-68.06215,7.8673],[-68.0548,7.87054],[-68.05134,7.86875],[-68.04476,7.87784],[-68.04035,7.87428],[-68.03792,7.88029],[-68.0248,7.88084],[-68.02158,7.88644],[-68.01142,7.89149],[-68.01025,7.89528],[-68.00838,7.89143],[-67.99912,7.89134],[-67.98757,7.89604],[-67.98652,7.89405],[-67.97028,7.89371],[-67.96427,7.90085],[-67.94419,7.90947],[-67.93915,7.90847],[-67.93537,7.90236],[-67.93231,7.90338],[-67.92803,7.8991],[-67.92142,7.89651],[-67.91767,7.89838],[-67.91131,7.89149],[-67.90704,7.89357],[-67.90289,7.88951],[-67.89832,7.89124],[-67.89567,7.89642],[-67.88823,7.89732],[-67.88167,7.89345],[-67.87577,7.88167],[-67.87193,7.88232],[-67.86646,7.87886],[-67.86052,7.88936],[-67.85635,7.88196],[-67.85259,7.88459],[-67.85148,7.88196],[-67.84657,7.88584],[-67.85012,7.88739],[-67.85,7.89343],[-67.84922,7.89838],[-67.84657,7.89892],[-67.8447,7.90395],[-67.84565,7.9064],[-67.83594,7.90414],[-67.83644,7.90837],[-67.83303,7.90961],[-67.83177,7.91382],[-67.83259,7.91904],[-67.82556,7.9238],[-67.8135,7.91567],[-67.80792,7.91743],[-67.80395,7.91254],[-67.80095,7.91444],[-67.79943,7.92103],[-67.7945,7.92397],[-67.79347,7.91973],[-67.78608,7.91859],[-67.78268,7.91326],[-67.78003,7.91374],[-67.77884,7.909],[-67.76999,7.91046],[-67.76056,7.90368],[-67.75649,7.9098],[-67.75094,7.90935],[-67.73439,7.91823],[-67.72763,7.91669],[-67.72252,7.90887],[-67.71925,7.91051],[-67.71724,7.90889],[-67.71429,7.91169],[-67.70987,7.91096],[-67.70371,7.9171],[-67.6974,7.91443],[-67.69505,7.91611],[-67.69385,7.9208],[-67.68984,7.92132],[-67.68443,7.93157],[-67.6867,7.93956],[-67.68252,7.94356],[-67.66267,7.94321],[-67.66167,7.93958],[-67.66578,7.93437],[-67.66626,7.92946],[-67.64712,7.93442],[-67.64298,7.9394],[-67.64717,7.94561],[-67.64523,7.95032],[-67.6497,7.95307],[-67.65394,7.94859],[-67.65478,7.95001],[-67.658,7.95787],[-67.65517,7.95858],[-67.65842,7.963],[-67.65507,7.96732],[-67.64863,7.97144],[-67.63851,7.96374],[-67.63177,7.9638],[-67.59948,7.98508],[-67.59515,7.9842],[-67.59304,7.97857],[-67.58248,7.96999],[-67.57549,7.96047],[-67.55238,7.94198],[-67.53802,7.93493],[-67.54026,7.93975],[-67.53823,7.94343],[-67.51846,7.94959],[-67.50312,7.95138],[-67.50385,7.95858],[-67.51289,7.97151],[-67.52301,7.97375],[-67.5303,7.9788],[-67.53448,7.97667],[-67.53502,7.96935],[-67.54085,7.97498],[-67.54839,7.97597],[-67.55391,7.96607],[-67.55791,7.96427],[-67.55819,7.96929],[-67.55276,7.97521],[-67.55365,7.97951],[-67.57334,7.98989],[-67.5608,7.9994],[-67.55707,8.01176],[-67.56158,8.01255],[-67.56744,8.00547],[-67.57056,8.00567],[-67.57701,8.02315],[-67.5806,8.02228],[-67.5944,8.02707],[-67.59183,8.02973],[-67.58548,8.02971],[-67.58551,8.03415],[-67.59003,8.03625],[-67.60021,8.03598],[-67.60611,8.04145],[-67.60246,8.04856],[-67.59745,8.05033],[-67.59107,8.04865],[-67.57773,8.06384],[-67.5749,8.07447],[-67.58345,8.08842],[-67.60183,8.09083],[-67.60779,8.10042],[-67.61212,8.09675],[-67.62198,8.10346],[-67.62579,8.11642],[-67.63148,8.12431],[-67.66365,8.13727],[-67.66381,8.14951],[-67.66822,8.15204],[-67.67535,8.15118],[-67.67073,8.15967],[-67.66703,8.18151],[-67.67854,8.18817],[-67.67827,8.19661],[-67.68059,8.20192],[-67.68725,8.19958],[-67.69695,8.20358],[-67.69935,8.21427],[-67.7076,8.22771],[-67.74823,8.23191],[-67.75178,8.2307],[-67.76113,8.21828],[-67.77171,8.21851],[-67.77411,8.22281],[-67.77585,8.24157],[-67.7853,8.25453],[-67.78789,8.26976],[-67.7905,8.27146],[-67.79391,8.2697],[-67.79148,8.25805],[-67.7953,8.25356],[-67.81182,8.26182],[-67.82023,8.25534],[-67.82555,8.25842],[-67.83208,8.25778],[-67.83363,8.26067],[-67.82981,8.26254],[-67.82797,8.26681],[-67.82899,8.28342],[-67.83632,8.28985]]]}}]}