{"type":"FeatureCollection","features":[{"type":"Feature","id":"relation/3419300","properties":{"name":"Municipio P\u00e1ez","level":6,"population":"100125"},"geometry":{"type":"Polygon","coordinates":[[[-70.08976,7.02302],[-70.0997,7.02451],[-70.10312,7.03055],[-70.1083,7.03131],[-70.1153,7.02824],[-70.12366,7.03375],[-70.12609,7.03824],[-70.14122,7.03923],[-70.15033,7.03254],[-70.16124,7.03854],[-70.16355,7.04304],[-70.17139,7.04194],[-70.17934,7.04859],[-70.1861,7.04672],[-70.18681,7.05094],[-70.18993,7.05164],[-70.19615,7.13062],[-70.20055,7.13212],[-70.20282,7.12914],[-70.20639,7.13342],[-70.22478,7.13359],[-70.22193,7.21603],[-70.21919,7.224],[-70.20528,7.22813],[-70.20145,7.22726],[-70.19673,7.23235],[-70.18695,7.23066],[-70.17311,7.2391],[-70.16344,7.23706],[-70.15981,7.24385],[-70.1542,7.24071],[-70.1477,7.24482],[-70.14493,7.24381],[-70.1415,7.23788],[-70.14191,7.23386],[-70.1343,7.22408],[-70.12731,7.22382],[-70.11877,7.21588],[-70.11267,7.2152],[-70.1065,7.20951],[-70.1025,7.21379],[-70.09005,7.21357],[-70.08828,7.21665],[-70.08315,7.21731],[-70.08205,7.21468],[-70.07661,7.21623],[-70.06,7.2123],[-70.04279,7.22034],[-70.03776,7.21908],[-70.03273,7.22157],[-70.02804,7.21844],[-70.02616,7.22406],[-70.02319,7.22089],[-70.02315,7.2245],[-70.01851,7.21833],[-70.01664,7.21986],[-70.0149,7.21764],[-70.00906,7.22178],[-70.00584,7.22133],[-70.001,7.21312],[-69.99518,7.21367],[-69.99504,7.21577],[-69.99129,7.21547],[-69.99027,7.21849],[-69.98389,7.22026],[-69.98481,7.22826],[-69.98186,7.23161],[-69.9847,7.23465],[-69.97904,7.2373],[-69.97075,7.23633],[-69.96781,7.24044],[-69.96522,7.23964],[-69.96269,7.23364],[-69.95485,7.237],[-69.95297,7.23165],[-69.9504,7.23397],[-69.94502,7.2264],[-69.94178,7.22757],[-69.94232,7.22544],[-69.93851,7.2226],[-69.92894,7.22807],[-69.92556,7.22692],[-69.91529,7.23427],[-69.90817,7.23235],[-69.90514,7.23421],[-69.89009,7.22859],[-69.87969,7.23219],[-69.87862,7.23022],[-69.8769,7.23316],[-69.86226,7.23322],[-69.85934,7.2363],[-69.85248,7.23776],[-69.845,7.23308],[-69.83346,7.24004],[-69.83361,7.24352],[-69.83108,7.2428],[-69.82475,7.25023],[-69.81239,7.25826],[-69.81121,7.26379],[-69.80863,7.26274],[-69.80833,7.26499],[-69.80077,7.2658],[-69.79227,7.25812],[-69.78934,7.26001],[-69.78819,7.2568],[-69.78339,7.25987],[-69.78064,7.27056],[-69.77253,7.26986],[-69.76999,7.27343],[-69.76081,7.2731],[-69.75877,7.27805],[-69.74989,7.28244],[-69.73781,7.28258],[-69.73507,7.27872],[-69.72803,7.27905],[-69.72224,7.27015],[-69.71609,7.27105],[-69.712,7.27655],[-69.70665,7.27486],[-69.70262,7.27797],[-69.70214,7.27437],[-69.69467,7.27369],[-69.69604,7.27601],[-69.69413,7.27821],[-69.69157,7.27582],[-69.68888,7.27683],[-69.69013,7.28187],[-69.68749,7.28147],[-69.68731,7.28633],[-69.68381,7.28658],[-69.68496,7.28823],[-69.67892,7.2887],[-69.67931,7.29105],[-69.67586,7.28907],[-69.67294,7.29484],[-69.66613,7.29951],[-69.65939,7.29556],[-69.66045,7.30143],[-69.65325,7.30292],[-69.65075,7.30603],[-69.65271,7.30944],[-69.65062,7.30965],[-69.65106,7.31359],[-69.64494,7.31572],[-69.64463,7.3241],[-69.63641,7.33703],[-69.61432,7.33991],[-69.6125,7.35105],[-69.61696,7.35579],[-69.61516,7.35876],[-69.6204,7.36603],[-69.6169,7.36829],[-69.61748,7.37142],[-69.61314,7.37949],[-69.5904,7.38396],[-69.59926,7.42359],[-69.60366,7.42457],[-69.60653,7.45696],[-69.61323,7.45353],[-69.61665,7.47179],[-69.63497,7.49219],[-69.65752,7.5498],[-69.66192,7.54874],[-69.66575,7.55404],[-69.67116,7.54833],[-69.67335,7.55209],[-69.68474,7.54904],[-69.72528,7.61086],[-69.72693,7.60971],[-69.74192,7.61861],[-69.74922,7.61202],[-69.76172,7.6084],[-69.76219,7.61185],[-69.75809,7.61223],[-69.76151,7.6218],[-69.76341,7.62062],[-69.7637,7.65159],[-69.7799,7.64806],[-69.78851,7.66487],[-69.79202,7.66439],[-69.80183,7.6803],[-69.81479,7.67467],[-69.8188,7.68238],[-69.82776,7.67838],[-69.82982,7.68669],[-69.83483,7.68446],[-69.84484,7.73042],[-69.84765,7.73204],[-69.8485,7.74319],[-69.85188,7.74672],[-69.87694,7.7317],[-69.87934,7.75577],[-69.88155,7.7549],[-69.88926,7.77989],[-69.89386,7.78382],[-69.90002,7.77601],[-69.91042,7.78084],[-69.92006,7.7687],[-69.91903,7.75679],[-69.92485,7.75169],[-69.94188,7.75216],[-69.95959,7.74703],[-69.96405,7.74858],[-69.96645,7.75294],[-69.97128,7.75369],[-69.99046,7.74286],[-70.01649,7.74797],[-70.03246,7.74622],[-70.03928,7.74297],[-70.04115,7.73625],[-70.04443,7.73383],[-70.06486,7.7268],[-70.07137,7.72195],[-70.07883,7.72077],[-70.0901,7.72469],[-70.09039,7.72167],[-70.08482,7.71617],[-70.08636,7.71258],[-70.10376,7.71473],[-70.11838,7.68992],[-70.14271,7.68475],[-70.15279,7.66895],[-70.1547,7.66027],[-70.15246,7.65181],[-70.1614,7.64683],[-70.16408,7.6251],[-70.16891,7.61778],[-70.17163,7.616],[-70.18405,7.61709],[-70.19289,7.61042],[-70.21016,7.605],[-70.21024,7.59346],[-70.21279,7.59113],[-70.22058,7.58969],[-70.23275,7.60037],[-70.24467,7.5962],[-70.25057,7.61225],[-70.25549,7.61515],[-70.27203,7.60683],[-70.29143,7.60911],[-70.31651,7.60613],[-70.32226,7.60187],[-70.32801,7.58827],[-70.32075,7.57697],[-70.32077,7.57267],[-70.34023,7.56434],[-70.34196,7.5549],[-70.34927,7.53996],[-70.36006,7.52848],[-70.36388,7.51518],[-70.35904,7.49029],[-70.37344,7.48091],[-70.38194,7.4562],[-70.39033,7.44935],[-70.39517,7.43967],[-70.40123,7.43806],[-70.41557,7.44003],[-70.43936,7.42088],[-70.46362,7.41744],[-70.48515,7.42],[-70.51156,7.41009],[-70.51457,7.40709],[-70.51457,7.40063],[-70.50756,7.38515],[-70.50749,7.37795],[-70.51414,7.36496],[-70.51666,7.36529],[-70.52214,7.37299],[-70.53037,7.37244],[-70.54195,7.37534],[-70.55849,7.35268],[-70.57682,7.34102],[-70.58935,7.33789],[-70.6049,7.32593],[-70.61517,7.32665],[-70.62701,7.3321],[-70.64104,7.33216],[-70.64995,7.32987],[-70.6595,7.32301],[-70.67555,7.32123],[-70.67958,7.31315],[-70.68793,7.30714],[-70.69329,7.29527],[-70.6989,7.29574],[-70.70206,7.29269],[-70.71634,7.29562],[-70.7185,7.30125],[-70.72179,7.29863],[-70.72717,7.30459],[-70.73265,7.30576],[-70.73521,7.29387],[-70.74583,7.30172],[-70.74442,7.28922],[-70.74994,7.28728],[-70.75513,7.29624],[-70.76112,7.2959],[-70.76922,7.3024],[-70.78482,7.2996],[-70.78697,7.29729],[-70.79666,7.30443],[-70.80336,7.30449],[-70.80158,7.31175],[-70.80904,7.3156],[-70.82079,7.31307],[-70.83199,7.31934],[-70.84364,7.31282],[-70.84443,7.31438],[-70.83932,7.31949],[-70.84431,7.32026],[-70.84982,7.32582],[-70.8562,7.32331],[-70.85967,7.32629],[-70.85933,7.33216],[-70.86164,7.3351],[-70.86587,7.32955],[-70.87289,7.33362],[-70.8815,7.33128],[-70.88272,7.3274],[-70.87478,7.32814],[-70.87654,7.32245],[-70.88253,7.31813],[-70.8909,7.32077],[-70.89396,7.316],[-70.90576,7.31024],[-70.91592,7.31635],[-70.92324,7.31095],[-70.92908,7.31173],[-70.93154,7.30785],[-70.93794,7.30765],[-70.94348,7.31063],[-70.9482,7.30597],[-70.95794,7.30613],[-70.96017,7.30871],[-70.96368,7.30754],[-70.96366,7.31616],[-70.96853,7.32279],[-70.97617,7.32748],[-70.98691,7.32607],[-70.98776,7.33223],[-70.99685,7.34019],[-71.00133,7.33845],[-71.01184,7.34017],[-71.01406,7.34273],[-71.01426,7.33714],[-71.01177,7.3337],[-71.01387,7.33221],[-71.01791,7.3403],[-71.0228,7.3383],[-71.02715,7.34069],[-71.03022,7.34953],[-71.03733,7.34585],[-71.0375,7.35083],[-71.04163,7.35457],[-71.05991,7.34766],[-71.06674,7.35119],[-71.07103,7.35056],[-71.07496,7.35353],[-71.07445,7.35999],[-71.08085,7.35792],[-71.08436,7.36694],[-71.08716,7.36857],[-71.09693,7.36516],[-71.09919,7.36961],[-71.10397,7.37136],[-71.10975,7.36243],[-71.11902,7.36814],[-71.12502,7.36334],[-71.13419,7.36656],[-71.15348,7.36411],[-71.1774,7.37758],[-71.17823,7.38038],[-71.1754,7.38328],[-71.17708,7.38873],[-71.1831,7.38736],[-71.19098,7.39166],[-71.19854,7.38585],[-71.20051,7.39601],[-71.20864,7.39865],[-71.21839,7.40798],[-71.21985,7.41328],[-71.21355,7.41872],[-71.21588,7.4222],[-71.22075,7.42022],[-71.23114,7.42222],[-71.24089,7.41748],[-71.24329,7.41911],[-71.24461,7.42682],[-71.25049,7.43],[-71.25949,7.42593],[-71.26878,7.43054],[-71.27317,7.42975],[-71.27528,7.42384],[-71.2783,7.42297],[-71.28193,7.42758],[-71.27812,7.43378],[-71.28094,7.4347],[-71.2883,7.43146],[-71.29071,7.4379],[-71.29549,7.43826],[-71.30699,7.44531],[-71.31422,7.44316],[-71.31831,7.4387],[-71.32372,7.44079],[-71.32681,7.44639],[-71.34099,7.44289],[-71.34878,7.44592],[-71.35056,7.43819],[-71.35358,7.43542],[-71.3621,7.44097],[-71.37113,7.43788],[-71.37872,7.44495],[-71.3926,7.44464],[-71.39489,7.45134],[-71.40433,7.44348],[-71.40684,7.44372],[-71.40873,7.44987],[-71.41162,7.44785],[-71.40997,7.44519],[-71.41174,7.44232],[-71.42107,7.4451],[-71.42567,7.44214],[-71.43155,7.44928],[-71.43808,7.44991],[-71.43981,7.45649],[-71.44864,7.45764],[-71.45474,7.46252],[-71.45831,7.4599],[-71.45381,7.45642],[-71.45461,7.4532],[-71.46154,7.45643],[-71.46338,7.46047],[-71.46686,7.4607],[-71.46963,7.45765],[-71.46734,7.452],[-71.46874,7.44909],[-71.47404,7.44861],[-71.48108,7.45198],[-71.4829,7.44499],[-71.49258,7.4415],[-71.49497,7.43614],[-71.49883,7.43567],[-71.50589,7.441],[-71.51203,7.44096],[-71.51475,7.43764],[-71.50261,7.43241],[-71.50083,7.4283],[-71.5037,7.42554],[-71.50973,7.42702],[-71.51696,7.42024],[-71.52285,7.41905],[-71.53446,7.42046],[-71.54096,7.42683],[-71.55165,7.421],[-71.55996,7.42918],[-71.57378,7.43344],[-71.58302,7.42639],[-71.5901,7.4265],[-71.59332,7.41841],[-71.59815,7.41716],[-71.60757,7.4276],[-71.61959,7.43005],[-71.62329,7.43956],[-71.62644,7.44082],[-71.63358,7.43325],[-71.63707,7.43288],[-71.64057,7.42715],[-71.6539,7.42116],[-71.67444,7.42318],[-71.68214,7.41817],[-71.68618,7.41867],[-71.6911,7.42374],[-71.70435,7.42162],[-71.72652,7.43201],[-71.73744,7.44022],[-71.75141,7.4703],[-71.7578,7.47086],[-71.77263,7.4653],[-71.78849,7.47724],[-71.801,7.47954],[-71.81198,7.47645],[-71.82514,7.48007],[-71.83168,7.49419],[-71.83661,7.49726],[-71.84259,7.49449],[-71.84432,7.48769],[-71.84896,7.48198],[-71.84968,7.4744],[-71.8549,7.4702],[-71.85357,7.45838],[-71.85609,7.45432],[-71.85247,7.4471],[-71.86072,7.44359],[-71.86137,7.43767],[-71.85884,7.43503],[-71.8643,7.42799],[-71.86991,7.42755],[-71.86902,7.41928],[-71.87376,7.4213],[-71.87914,7.41331],[-71.88426,7.41423],[-71.88603,7.41087],[-71.89419,7.4081],[-71.90541,7.40818],[-71.91766,7.3972],[-71.92391,7.39922],[-71.92818,7.39465],[-71.94012,7.39181],[-71.94775,7.38508],[-71.95398,7.3861],[-71.95915,7.38232],[-71.96471,7.38163],[-71.97768,7.3694],[-71.99417,7.36429],[-71.99681,7.36132],[-72.00466,7.36381],[-72.01698,7.36141],[-72.02962,7.36559],[-72.03987,7.36358],[-72.04396,7.36636],[-72.05045,7.36387],[-72.0733,7.36819],[-72.07574,7.37193],[-72.07498,7.37868],[-72.07898,7.3812],[-72.08153,7.39541],[-72.08978,7.39407],[-72.1006,7.4005],[-72.10433,7.39811],[-72.11393,7.40561],[-72.11925,7.4017],[-72.1242,7.40277],[-72.13992,7.39335],[-72.14345,7.39271],[-72.14953,7.39616],[-72.15518,7.39199],[-72.16005,7.39155],[-72.16618,7.3858],[-72.16758,7.39321],[-72.17009,7.39518],[-72.16949,7.40199],[-72.18041,7.40388],[-72.18356,7.40919],[-72.18695,7.40899],[-72.19324,7.41858],[-72.20938,7.42225],[-72.21141,7.42758],[-72.21803,7.42911],[-72.22065,7.43486],[-72.23068,7.42838],[-72.23954,7.42833],[-72.24309,7.42173],[-72.25517,7.4232],[-72.26074,7.42131],[-72.26242,7.4241],[-72.27356,7.42567],[-72.28201,7.43139],[-72.2921,7.42669],[-72.29937,7.42839],[-72.30576,7.43488],[-72.30955,7.43202],[-72.32035,7.435],[-72.32731,7.42626],[-72.34012,7.4282],[-72.33927,7.42438],[-72.34244,7.4196],[-72.34972,7.41888],[-72.36576,7.42344],[-72.36707,7.41995],[-72.37342,7.41955],[-72.39127,7.41024],[-72.40742,7.4116],[-72.41265,7.40832],[-72.41375,7.40317],[-72.41997,7.39671],[-72.41784,7.39173],[-72.41249,7.39128],[-72.40398,7.39581],[-72.38959,7.39225],[-72.38014,7.39816],[-72.35998,7.39401],[-72.35367,7.39677],[-72.33814,7.38793],[-72.32502,7.3756],[-72.31174,7.3806],[-72.31082,7.38478],[-72.3013,7.39101],[-72.29306,7.38997],[-72.29148,7.39159],[-72.27959,7.38367],[-72.26903,7.38168],[-72.26668,7.38399],[-72.25644,7.37875],[-72.25534,7.38097],[-72.25212,7.37977],[-72.24791,7.38696],[-72.24239,7.39081],[-72.23387,7.39001],[-72.22122,7.39518],[-72.21084,7.3921],[-72.20657,7.38691],[-72.20295,7.38819],[-72.20148,7.38509],[-72.19485,7.38501],[-72.19541,7.38061],[-72.18736,7.37396],[-72.18058,7.35518],[-72.15367,7.32775],[-72.15957,7.32],[-72.15881,7.31244],[-72.1702,7.29103],[-72.16742,7.27145],[-72.17155,7.26767],[-72.17076,7.26477],[-72.17434,7.25751],[-72.17055,7.25508],[-72.05334,7.04873],[-72.05001,7.0397],[-72.01854,7.03156],[-72.00862,7.0263],[-71.998,7.02647],[-71.97435,7.01912],[-71.96328,7.01294],[-71.92286,7.02129],[-71.9055,7.01682],[-71.89826,7.02557],[-71.87936,7.01903],[-71.8734,7.02304],[-71.85471,7.02287],[-71.84385,7.02809],[-71.83016,7.02919],[-71.82436,7.03226],[-71.82215,7.03626],[-71.82291,7.04385],[-71.82696,7.05047],[-71.8263,7.05509],[-71.81065,7.06665],[-71.77887,7.06099],[-71.75368,7.0678],[-71.74012,7.06461],[-71.72686,7.05728],[-71.71871,7.04791],[-71.71412,7.03837],[-71.70545,7.03347],[-71.67498,7.03858],[-71.65963,7.03337],[-71.64004,7.05468],[-71.62788,7.05551],[-71.62032,7.05226],[-71.6144,7.04397],[-71.60773,7.03948],[-71.59026,7.03522],[-71.58867,7.02921],[-71.59065,7.01857],[-71.58563,7.01397],[-71.57391,7.01737],[-71.56477,7.03271],[-71.56044,7.03475],[-71.53941,7.02973],[-71.50889,7.03079],[-71.48181,7.01316],[-71.46323,7.00979],[-71.45461,7.01256],[-71.44765,7.02082],[-71.43585,7.02581],[-71.43068,7.03558],[-71.42407,7.03863],[-71.41198,7.03526],[-71.3927,7.03592],[-71.38666,7.03214],[-71.38062,7.01995],[-71.37011,7.01516],[-71.3562,7.01976],[-71.33869,7.01669],[-71.32485,7.01782],[-71.29987,7.02723],[-71.28099,7.02453],[-71.26429,7.03277],[-71.26065,7.03015],[-71.26045,7.02243],[-71.25795,7.01883],[-71.24678,7.01667],[-71.24043,7.01055],[-71.236,7.01472],[-71.23368,7.02339],[-71.22816,7.02749],[-71.21077,7.01912],[-71.19966,7.02545],[-71.19099,7.01882],[-71.17399,7.02512],[-71.14771,7.02835],[-71.14276,7.03322],[-71.13028,7.03297],[-71.12471,7.02752],[-71.12328,7.01322],[-71.11824,7.01037],[-71.10898,7.01217],[-71.10258,7.00676],[-71.10292,7.00425],[-71.11432,7.00042],[-71.11115,6.99024],[-71.09698,6.98789],[-71.09072,6.98348],[-71.08296,6.98436],[-71.07663,6.98087],[-71.07005,6.98281],[-71.06573,6.98082],[-71.06099,6.9827],[-71.05364,6.98087],[-71.04175,6.98218],[-71.02239,6.97399],[-70.99397,6.98398],[-70.98437,7.00056],[-70.97444,7.00318],[-70.97238,7.0152],[-70.96724,7.02044],[-70.94591,7.01501],[-70.92763,7.02342],[-70.9217,7.03054],[-70.92821,7.03362],[-70.93168,7.04178],[-70.91856,7.05282],[-70.91474,7.05247],[-70.90958,7.04076],[-70.90407,7.03969],[-70.89495,7.05935],[-70.88692,7.06465],[-70.87317,7.0631],[-70.86154,7.05503],[-70.85023,7.05645],[-70.84967,7.06914],[-70.85763,7.0726],[-70.85319,7.07774],[-70.84532,7.07457],[-70.83623,7.07874],[-70.83102,7.07415],[-70.8214,7.07138],[-70.81725,7.07946],[-70.80932,7.07954],[-70.79328,7.08478],[-70.77723,7.07674],[-70.76244,7.09718],[-70.75761,7.09708],[-70.74258,7.08913],[-70.73525,7.08892],[-70.7164,7.09415],[-70.69253,7.09457],[-70.68316,7.10424],[-70.67963,7.0926],[-70.67398,7.08629],[-70.64473,7.07809],[-70.64156,7.06879],[-70.62422,7.07025],[-70.60576,7.0642],[-70.5861,7.06873],[-70.58483,7.0757],[-70.57509,7.07559],[-70.56975,7.08135],[-70.56298,7.07778],[-70.5555,7.07947],[-70.5545,7.07569],[-70.54955,7.07507],[-70.54368,7.06926],[-70.54179,7.06151],[-70.53484,7.05463],[-70.53749,7.05036],[-70.54075,7.0507],[-70.54087,7.04805],[-70.53911,7.04517],[-70.53343,7.04764],[-70.53181,7.04617],[-70.53836,7.04024],[-70.52817,7.04197],[-70.52512,7.03557],[-70.51058,7.0277],[-70.51431,7.02082],[-70.50848,7.01804],[-70.509,7.01414],[-70.50414,7.01068],[-70.50232,7.00565],[-70.49247,7.00544],[-70.4927,7.00835],[-70.49053,7.00933],[-70.47437,7.00139],[-70.46654,7.00057],[-70.46592,7.00347],[-70.4591,7.00281],[-70.45719,7.01063],[-70.45408,7.01216],[-70.45,7.00734],[-70.45506,7.00409],[-70.44344,7.00297],[-70.4391,7.0083],[-70.43703,7.00112],[-70.43674,7.00671],[-70.43035,7.00744],[-70.42614,6.99815],[-70.42718,6.99375],[-70.41639,6.98107],[-70.41103,6.98242],[-70.40982,6.98537],[-70.40609,6.98472],[-70.40386,6.98839],[-70.39712,6.98156],[-70.38637,6.9857],[-70.37923,6.98071],[-70.37153,6.98103],[-70.371,6.97195],[-70.36554,6.96703],[-70.36092,6.96699],[-70.36234,6.96231],[-70.36038,6.95633],[-70.35104,6.95623],[-70.35447,6.95233],[-70.34804,6.95244],[-70.34378,6.94436],[-70.33818,6.94505],[-70.3328,6.9407],[-70.32741,6.94086],[-70.32282,6.93497],[-70.3081,6.93766],[-70.29442,6.93396],[-70.28747,6.93658],[-70.28421,6.94113],[-70.27759,6.93778],[-70.25687,6.94622],[-70.24895,6.95374],[-70.24951,6.95868],[-70.23018,6.96556],[-70.2287,6.97118],[-70.22377,6.97501],[-70.21043,6.97458],[-70.20525,6.97854],[-70.2016,6.97579],[-70.19602,6.97914],[-70.19164,6.97613],[-70.18856,6.97868],[-70.18256,6.97667],[-70.18006,6.9794],[-70.17273,6.97641],[-70.14851,6.98442],[-70.14523,6.98257],[-70.14454,6.97855],[-70.13356,6.97505],[-70.1175,6.9799],[-70.10908,6.98627],[-70.10762,6.9901],[-70.10178,6.98976],[-70.10065,6.9943],[-70.09576,6.99541],[-70.09722,6.99915],[-70.09501,7.00476],[-70.08955,7.01049],[-70.09347,7.01583],[-70.08976,7.02302]]]}},{"type":"Feature","id":"relation/3419320","properties":{"name":"Municipio Achaguas","level":6,"population":"58516"},"geometry":{"type":"Polygon","coordinates":[[[-68.82675,7.89092],[-68.82611,7.88636],[-68.84309,7.87349],[-68.84846,7.87331],[-68.849,7.86688],[-68.85592,7.86567],[-68.85787,7.8621],[-68.8666,7.85757],[-68.86656,7.8534],[-68.87998,7.84359],[-68.87903,7.83765],[-68.88117,7.83855],[-68.88177,7.83395],[-68.86972,7.82714],[-68.87056,7.81073],[-68.88298,7.80651],[-68.86309,7.79149],[-68.84351,7.74534],[-68.8499,7.74242],[-68.8421,7.72605],[-68.83424,7.70291],[-68.83596,7.70238],[-68.83507,7.69955],[-68.83306,7.69966],[-68.82198,7.6669],[-68.80888,7.66329],[-68.79986,7.60328],[-68.81076,7.60134],[-68.81715,7.59904],[-68.81569,7.59706],[-68.82341,7.5949],[-68.82384,7.57316],[-68.82849,7.57078],[-68.82812,7.56493],[-68.83729,7.56973],[-68.84901,7.56844],[-68.85465,7.57096],[-68.85327,7.55702],[-68.85623,7.55156],[-68.8671,7.55391],[-68.8789,7.55228],[-68.88027,7.54894],[-68.8885,7.54503],[-68.89324,7.54613],[-68.91661,7.53259],[-68.91648,7.52073],[-68.95435,7.50677],[-68.94412,7.47197],[-68.93993,7.47385],[-68.93751,7.46792],[-68.93997,7.46432],[-68.93931,7.46067],[-68.93141,7.45707],[-68.93273,7.45441],[-68.92923,7.45221],[-68.93022,7.45052],[-68.92141,7.44316],[-68.93975,7.40636],[-68.92383,7.39254],[-68.92285,7.3755],[-68.94365,7.36594],[-68.94468,7.33059],[-68.93893,7.31731],[-68.948,7.31194],[-68.9493,7.30344],[-68.95484,7.29987],[-68.95301,7.29193],[-68.95798,7.28609],[-68.96615,7.2881],[-68.96752,7.27514],[-68.98149,7.27113],[-68.97893,7.26397],[-68.9815,7.25738],[-68.98992,7.25727],[-68.99012,7.24941],[-68.99279,7.24472],[-69.00508,7.24035],[-69.00491,7.23479],[-69.00003,7.22801],[-68.99622,7.22666],[-68.9962,7.22367],[-68.99857,7.22141],[-69.01376,7.22038],[-69.01342,7.20735],[-69.01952,7.204],[-69.00488,7.17308],[-68.97685,7.14197],[-68.97322,7.14495],[-68.96386,7.13467],[-68.96001,7.12503],[-68.9527,7.11909],[-68.9403,7.1244],[-68.93158,7.1019],[-68.91824,7.08358],[-68.91901,7.05308],[-68.9209,7.05215],[-68.91904,7.05096],[-68.9191,7.04447],[-68.91284,7.0468],[-68.91096,6.99208],[-68.88663,6.99272],[-68.88877,6.96005],[-68.88062,6.96013],[-68.87843,6.85242],[-68.87212,6.85165],[-68.87809,6.82815],[-68.88553,6.82039],[-68.88685,6.82526],[-68.88919,6.82569],[-68.88873,6.81985],[-68.89279,6.81158],[-68.88453,6.79069],[-68.87047,6.78638],[-68.87171,6.78209],[-68.86228,6.77724],[-68.7635,6.73664],[-68.75835,6.73845],[-68.7443,6.71495],[-68.70466,6.67485],[-68.69769,6.67342],[-68.6912,6.66815],[-68.68902,6.663],[-68.69013,6.6561],[-68.68584,6.65555],[-68.67697,6.6451],[-68.66879,6.64987],[-68.6614,6.64589],[-68.64816,6.6468],[-68.6328,6.63878],[-68.62506,6.63918],[-68.61735,6.64586],[-68.61038,6.64208],[-68.60583,6.64275],[-68.60154,6.63808],[-68.60189,6.6338],[-68.59768,6.633],[-68.59097,6.6198],[-68.58569,6.61637],[-68.57189,6.61724],[-68.5601,6.62925],[-68.55926,6.63423],[-68.55244,6.63661],[-68.54227,6.62545],[-68.53,6.6234],[-68.52393,6.61812],[-68.52167,6.60943],[-68.5239,6.603],[-68.53849,6.59254],[-68.53894,6.58123],[-68.53358,6.57775],[-68.52619,6.57679],[-68.52658,6.57075],[-68.52141,6.56973],[-68.52205,6.56312],[-68.51295,6.56033],[-68.51254,6.55185],[-68.50919,6.54689],[-68.49923,6.54584],[-68.48551,6.54864],[-68.48434,6.55659],[-68.47084,6.55944],[-68.47188,6.56931],[-68.46352,6.57841],[-68.46303,6.58852],[-68.4408,6.57632],[-68.4388,6.58198],[-68.44309,6.58831],[-68.44368,6.59388],[-68.4382,6.59972],[-68.43292,6.60133],[-68.42472,6.5994],[-68.40604,6.58081],[-68.40286,6.57511],[-68.40292,6.56583],[-68.39916,6.56269],[-68.39135,6.5631],[-68.37937,6.55874],[-68.36543,6.55897],[-68.35086,6.55059],[-68.3442,6.55155],[-68.33859,6.55974],[-68.334,6.55977],[-68.32446,6.55419],[-68.31649,6.53984],[-68.31129,6.54254],[-68.30399,6.54241],[-68.29848,6.54621],[-68.2831,6.54736],[-68.2862,6.56512],[-68.28223,6.56389],[-68.27713,6.5533],[-68.26829,6.54863],[-68.26873,6.55882],[-68.26641,6.56417],[-68.25482,6.55635],[-68.25015,6.5391],[-68.2247,6.52373],[-68.22269,6.52442],[-68.21933,6.53498],[-68.21149,6.53927],[-68.2092,6.543],[-68.19905,6.53978],[-68.19818,6.54689],[-68.19419,6.54305],[-68.19422,6.54801],[-68.19741,6.55202],[-68.1935,6.55624],[-68.17617,6.55688],[-68.17058,6.55194],[-68.16138,6.55287],[-68.15746,6.54614],[-68.15023,6.54512],[-68.14548,6.55194],[-68.14582,6.55931],[-68.13209,6.56497],[-68.12895,6.56092],[-68.11946,6.55759],[-68.11796,6.55208],[-68.10985,6.54904],[-68.10608,6.56434],[-68.09693,6.58053],[-68.08018,6.58059],[-68.07915,6.57368],[-68.075,6.57187],[-68.07275,6.56494],[-68.06586,6.56838],[-68.0616,6.5671],[-68.05197,6.57059],[-68.05804,6.58742],[-68.05378,6.59086],[-68.04274,6.58921],[-68.04144,6.59438],[-68.04414,6.613],[-68.05427,6.61728],[-68.0552,6.61964],[-68.05468,6.62405],[-68.05006,6.62904],[-68.0495,6.63764],[-68.04504,6.63883],[-68.04338,6.63283],[-68.02949,6.62862],[-68.02275,6.63344],[-68.02048,6.64336],[-68.01316,6.64581],[-68.01697,6.64936],[-68.01883,6.64855],[-68.02141,6.65463],[-68.02874,6.65661],[-68.03509,6.66229],[-68.02726,6.67677],[-68.02359,6.69769],[-68.06919,6.89803],[-68.09135,6.93463],[-68.09278,6.9885],[-68.07647,7.31934],[-68.08426,7.34185],[-68.08251,7.3477],[-68.08913,7.36333],[-68.0806,7.37811],[-68.05318,7.38852],[-68.11072,7.50113],[-68.09892,7.50683],[-68.08294,7.50277],[-68.07556,7.50909],[-68.06445,7.5073],[-68.04556,7.51313],[-68.05109,7.5233],[-68.04187,7.5349],[-68.03848,7.5315],[-68.03348,7.53543],[-68.01805,7.53368],[-68.01701,7.53871],[-68.01156,7.53888],[-68.00769,7.54371],[-68.00096,7.54669],[-67.9875,7.54701],[-67.98381,7.55503],[-67.98102,7.5546],[-67.97564,7.54787],[-67.96818,7.55369],[-67.96726,7.5434],[-67.96452,7.54374],[-67.9614,7.54854],[-67.96217,7.55373],[-67.95658,7.55491],[-67.95664,7.55727],[-67.96035,7.55821],[-67.9573,7.56599],[-67.95223,7.56382],[-67.95051,7.5693],[-67.94391,7.576],[-67.93793,7.57516],[-67.93198,7.57988],[-67.92555,7.57913],[-67.91879,7.58171],[-67.91174,7.59034],[-67.90531,7.58889],[-67.90316,7.58482],[-67.89925,7.58417],[-67.89843,7.58731],[-67.89119,7.58533],[-67.88946,7.58272],[-67.88175,7.58304],[-67.87652,7.57901],[-67.87265,7.58426],[-67.8612,7.58331],[-67.85147,7.61075],[-67.85344,7.62334],[-67.86422,7.62263],[-67.86565,7.65053],[-67.86955,7.6543],[-67.86545,7.66323],[-67.86965,7.66597],[-67.85773,7.68651],[-67.86284,7.69049],[-67.86274,7.70173],[-67.85508,7.70395],[-67.8495,7.71002],[-67.85569,7.72265],[-67.85178,7.72619],[-67.8533,7.72787],[-67.84945,7.737],[-67.85683,7.73901],[-67.86102,7.73307],[-67.87394,7.73451],[-67.87054,7.74091],[-67.87087,7.74733],[-67.86537,7.75045],[-67.8668,7.75455],[-67.86194,7.75529],[-67.86071,7.76214],[-67.85748,7.76337],[-67.86008,7.76899],[-67.85437,7.76982],[-67.85484,7.77949],[-67.85757,7.77881],[-67.85559,7.78111],[-67.85715,7.78903],[-67.86429,7.7878],[-67.86464,7.79889],[-67.86954,7.79639],[-67.87772,7.80085],[-67.87725,7.80311],[-67.87421,7.8033],[-67.87521,7.80992],[-67.87689,7.81],[-67.87631,7.81555],[-67.86702,7.81392],[-67.86698,7.82122],[-67.85499,7.81794],[-67.85681,7.82234],[-67.85453,7.83024],[-67.85987,7.83155],[-67.85858,7.83592],[-67.86143,7.83679],[-67.85901,7.85088],[-67.87608,7.85579],[-67.8727,7.866],[-67.87668,7.86608],[-67.88145,7.87176],[-67.88731,7.8678],[-67.89219,7.89565],[-67.89567,7.89642],[-67.89832,7.89124],[-67.90289,7.88951],[-67.90704,7.89357],[-67.91131,7.89149],[-67.91782,7.89845],[-67.92157,7.89654],[-67.93231,7.90338],[-67.93537,7.90236],[-67.93614,7.90624],[-67.9407,7.90911],[-67.95357,7.9065],[-67.96439,7.90076],[-67.97028,7.89371],[-67.98652,7.89405],[-67.98757,7.89604],[-67.99912,7.89134],[-68.00838,7.89143],[-68.01025,7.89528],[-68.01142,7.89149],[-68.02158,7.88644],[-68.0248,7.88084],[-68.03792,7.88029],[-68.04035,7.87428],[-68.04476,7.87784],[-68.05134,7.86875],[-68.0548,7.87054],[-68.06198,7.8673],[-68.06332,7.87207],[-68.07383,7.87419],[-68.07721,7.87868],[-68.09192,7.88235],[-68.10592,7.89779],[-68.11326,7.90076],[-68.11578,7.89938],[-68.11787,7.90252],[-68.12393,7.90347],[-68.14,7.89721],[-68.14935,7.89984],[-68.15184,7.904],[-68.15316,7.90228],[-68.15445,7.90425],[-68.16492,7.9055],[-68.17352,7.90148],[-68.18256,7.90363],[-68.184,7.90126],[-68.18702,7.90318],[-68.19264,7.89969],[-68.20097,7.90189],[-68.2149,7.89522],[-68.21463,7.89828],[-68.21999,7.90021],[-68.21595,7.90539],[-68.21748,7.90957],[-68.22416,7.91237],[-68.22906,7.90622],[-68.2365,7.90284],[-68.24419,7.91033],[-68.25059,7.90524],[-68.25032,7.90138],[-68.25819,7.89963],[-68.27791,7.90712],[-68.29195,7.90716],[-68.29407,7.91468],[-68.29588,7.91111],[-68.30257,7.91],[-68.30517,7.90495],[-68.31496,7.89878],[-68.32029,7.89758],[-68.32212,7.89944],[-68.32776,7.89664],[-68.33236,7.90013],[-68.33251,7.89284],[-68.33677,7.89091],[-68.33573,7.8875],[-68.34781,7.88029],[-68.35787,7.89242],[-68.36526,7.89456],[-68.38539,7.90801],[-68.38661,7.91162],[-68.38445,7.91737],[-68.39951,7.91728],[-68.40125,7.91915],[-68.39949,7.92132],[-68.414,7.93064],[-68.42579,7.92693],[-68.43991,7.93947],[-68.46047,7.93284],[-68.47688,7.93233],[-68.5039,7.92708],[-68.52205,7.93288],[-68.54136,7.94727],[-68.5546,7.9535],[-68.57108,7.95192],[-68.58971,7.95877],[-68.61428,7.96251],[-68.64087,7.95687],[-68.65219,7.93069],[-68.65906,7.92451],[-68.66786,7.92447],[-68.68987,7.9314],[-68.69764,7.92918],[-68.70099,7.9209],[-68.70914,7.91154],[-68.72182,7.90241],[-68.74021,7.90175],[-68.76459,7.90804],[-68.77469,7.89524],[-68.78336,7.89044],[-68.79265,7.8911],[-68.8034,7.89894],[-68.82675,7.89092]]]}},{"type":"Feature","id":"relation/3419321","properties":{"name":"Municipio Biruaca","level":6,"population":"54323"},"geometry":{"type":"Polygon","coordinates":[[[-67.87668,7.86608],[-67.87269,7.86591],[-67.87608,7.85579],[-67.85901,7.85088],[-67.86143,7.83679],[-67.85858,7.83592],[-67.85987,7.83155],[-67.85453,7.83024],[-67.85681,7.82234],[-67.85499,7.81794],[-67.86698,7.82122],[-67.86702,7.81392],[-67.87631,7.81555],[-67.87722,7.81291],[-67.87415,7.80424],[-67.87772,7.80085],[-67.86954,7.79639],[-67.86464,7.79889],[-67.86429,7.7878],[-67.85715,7.78903],[-67.85559,7.78111],[-67.85773,7.77964],[-67.85484,7.77949],[-67.85437,7.77073],[-67.86008,7.76899],[-67.85748,7.76337],[-67.86071,7.76214],[-67.86194,7.75529],[-67.8668,7.75455],[-67.86537,7.75045],[-67.87087,7.74733],[-67.87054,7.74091],[-67.87394,7.73451],[-67.86102,7.73307],[-67.85683,7.73901],[-67.84945,7.737],[-67.85301,7.72855],[-67.84944,7.72901],[-67.84874,7.72423],[-67.844,7.72193],[-67.83474,7.72467],[-67.83676,7.71394],[-67.83254,7.71539],[-67.8292,7.71146],[-67.82206,7.71328],[-67.81851,7.70952],[-67.81311,7.71055],[-67.81326,7.71353],[-67.80389,7.71281],[-67.80235,7.71557],[-67.7964,7.71181],[-67.79144,7.71368],[-67.78908,7.70997],[-67.78283,7.71136],[-67.77826,7.70827],[-67.77194,7.71117],[-67.76922,7.70359],[-67.76001,7.70421],[-67.76101,7.70086],[-67.75788,7.69952],[-67.75529,7.69242],[-67.74528,7.69808],[-67.73941,7.69917],[-67.73472,7.6972],[-67.73168,7.70075],[-67.72143,7.70257],[-67.71781,7.70104],[-67.71556,7.69647],[-67.70212,7.69617],[-67.70252,7.68629],[-67.69464,7.68438],[-67.69312,7.68754],[-67.68096,7.68819],[-67.68128,7.68991],[-67.67762,7.68852],[-67.67026,7.69205],[-67.66749,7.68668],[-67.66412,7.68525],[-67.65692,7.69027],[-67.65143,7.68945],[-67.63974,7.69754],[-67.63335,7.6975],[-67.63361,7.70044],[-67.62645,7.70036],[-67.61762,7.68397],[-67.61515,7.68546],[-67.61049,7.68246],[-67.6051,7.6882],[-67.60255,7.6852],[-67.59367,7.68326],[-67.5832,7.68452],[-67.576,7.6797],[-67.56975,7.67806],[-67.56562,7.67962],[-67.5559,7.67175],[-67.55114,7.67154],[-67.54935,7.67403],[-67.54322,7.67369],[-67.53318,7.68355],[-67.52328,7.68119],[-67.51669,7.68448],[-67.51395,7.68198],[-67.51128,7.6857],[-67.50526,7.68678],[-67.49537,7.70879],[-67.47304,7.71039],[-67.45636,7.725],[-67.43182,7.73454],[-67.42704,7.75091],[-67.42726,7.76039],[-67.44013,7.7649],[-67.44039,7.76987],[-67.44805,7.77808],[-67.45204,7.78108],[-67.46456,7.78362],[-67.46382,7.78712],[-67.4673,7.78871],[-67.46621,7.8123],[-67.47144,7.81345],[-67.48697,7.828],[-67.4904,7.83922],[-67.48961,7.84438],[-67.49484,7.84867],[-67.49176,7.85391],[-67.50269,7.86336],[-67.49807,7.86554],[-67.49717,7.87057],[-67.50193,7.87508],[-67.49962,7.88],[-67.5027,7.89037],[-67.50827,7.89853],[-67.50787,7.90205],[-67.51526,7.90506],[-67.52159,7.9322],[-67.53802,7.93493],[-67.55238,7.94198],[-67.57637,7.96125],[-67.5966,7.98505],[-67.60679,7.98176],[-67.62293,7.96803],[-67.63177,7.9638],[-67.63851,7.96374],[-67.64863,7.97144],[-67.65065,7.97057],[-67.65829,7.96324],[-67.65517,7.95858],[-67.658,7.95787],[-67.65394,7.94859],[-67.6497,7.95307],[-67.64566,7.95154],[-67.64731,7.94639],[-67.64309,7.94072],[-67.64418,7.93668],[-67.6661,7.92943],[-67.66578,7.93437],[-67.66167,7.93958],[-67.66267,7.94321],[-67.6828,7.94345],[-67.68674,7.93927],[-67.68378,7.93473],[-67.68443,7.93157],[-67.68944,7.92184],[-67.69359,7.92112],[-67.69693,7.91449],[-67.7034,7.91719],[-67.71016,7.91079],[-67.71388,7.91178],[-67.72143,7.90846],[-67.72763,7.91669],[-67.73471,7.91819],[-67.75094,7.90935],[-67.75649,7.9098],[-67.76056,7.90368],[-67.76999,7.91046],[-67.77884,7.909],[-67.78003,7.91374],[-67.78268,7.91326],[-67.78608,7.91859],[-67.79347,7.91973],[-67.7945,7.92397],[-67.79943,7.92103],[-67.80095,7.91444],[-67.80395,7.91254],[-67.80792,7.91743],[-67.8135,7.91567],[-67.82556,7.9238],[-67.83259,7.91904],[-67.83177,7.91382],[-67.83303,7.90961],[-67.83644,7.90837],[-67.83594,7.90414],[-67.84565,7.9064],[-67.8447,7.90395],[-67.84657,7.89892],[-67.84922,7.89838],[-67.85,7.89343],[-67.85012,7.88739],[-67.84657,7.88584],[-67.85148,7.88196],[-67.85259,7.88459],[-67.85635,7.88196],[-67.86052,7.88936],[-67.86646,7.87886],[-67.87193,7.88232],[-67.87577,7.88167],[-67.88242,7.89429],[-67.89005,7.89698],[-67.89219,7.89565],[-67.88731,7.8678],[-67.88145,7.87176],[-67.87668,7.86608]]]}},{"type":"Feature","id":"relation/3419322","properties":{"name":"Municipio Mu\u00f1oz","level":6,"population":"27542"},"geometry":{"type":"Polygon","coordinates":[[[-69.56169,7.28537],[-69.55573,7.27713],[-69.54836,7.28167],[-69.54465,7.27195],[-69.5296,7.27838],[-69.52753,7.2709],[-69.53001,7.26831],[-69.52571,7.26381],[-69.52315,7.25296],[-69.51084,7.23372],[-69.51297,7.2345],[-69.51111,7.22719],[-69.51373,7.22485],[-69.50897,7.21037],[-69.49717,7.20515],[-69.4984,7.20385],[-69.49547,7.19997],[-69.48828,7.20377],[-69.48533,7.20062],[-69.47905,7.20729],[-69.47286,7.20595],[-69.46005,7.21246],[-69.45432,7.2126],[-69.45231,7.21381],[-69.45423,7.2189],[-69.45012,7.22206],[-69.44629,7.21645],[-69.44329,7.21955],[-69.4379,7.21687],[-69.43658,7.21263],[-69.42682,7.21949],[-69.41495,7.22345],[-69.40968,7.21438],[-69.40607,7.21812],[-69.40492,7.21689],[-69.40314,7.20528],[-69.39128,7.2093],[-69.39391,7.20077],[-69.38889,7.20161],[-69.38678,7.19462],[-69.37828,7.19915],[-69.36573,7.21103],[-69.35851,7.20795],[-69.35834,7.20392],[-69.35381,7.20007],[-69.34555,7.20152],[-69.34567,7.204],[-69.33321,7.20983],[-69.33165,7.20642],[-69.32139,7.21102],[-69.31853,7.20442],[-69.28977,7.2213],[-69.26963,7.22029],[-69.19181,7.18559],[-69.17738,7.15047],[-69.14337,7.13465],[-69.13144,7.13846],[-69.13002,7.14375],[-69.12447,7.14813],[-69.12397,7.15386],[-69.11183,7.16175],[-69.10542,7.16116],[-69.10065,7.15708],[-69.09562,7.15888],[-69.09114,7.16472],[-69.08705,7.17716],[-69.06132,7.18547],[-69.05738,7.197],[-69.05552,7.19646],[-69.05428,7.19965],[-69.05623,7.20024],[-69.05182,7.20493],[-69.0468,7.20565],[-69.03465,7.19978],[-69.0147,7.20514],[-69.01289,7.20983],[-69.01415,7.21998],[-68.99857,7.22141],[-68.99593,7.22447],[-69.00491,7.23479],[-69.00508,7.24035],[-68.99279,7.24472],[-68.99012,7.24941],[-68.98992,7.25727],[-68.9815,7.25738],[-68.97893,7.26397],[-68.98131,7.27149],[-68.96752,7.27514],[-68.96615,7.2881],[-68.95653,7.28717],[-68.95245,7.29415],[-68.95495,7.29955],[-68.9493,7.30344],[-68.94833,7.31151],[-68.93893,7.31731],[-68.94468,7.33059],[-68.94365,7.36594],[-68.92285,7.3755],[-68.92383,7.39254],[-68.93975,7.40636],[-68.92141,7.44316],[-68.93022,7.45052],[-68.92923,7.45221],[-68.93273,7.45441],[-68.93141,7.45707],[-68.93931,7.46067],[-68.93997,7.46432],[-68.93751,7.46792],[-68.93993,7.47385],[-68.94412,7.47197],[-68.95435,7.50677],[-68.91648,7.52073],[-68.91661,7.53259],[-68.89324,7.54613],[-68.8885,7.54503],[-68.88027,7.54894],[-68.8789,7.55228],[-68.8671,7.55391],[-68.85623,7.55156],[-68.85327,7.55702],[-68.85465,7.57096],[-68.84901,7.56844],[-68.83729,7.56973],[-68.82812,7.56493],[-68.82849,7.57078],[-68.82384,7.57316],[-68.82341,7.5949],[-68.81569,7.59706],[-68.81715,7.59904],[-68.81076,7.60134],[-68.79986,7.60328],[-68.80888,7.66329],[-68.82198,7.6669],[-68.83306,7.69966],[-68.83507,7.69955],[-68.83596,7.70238],[-68.83424,7.70291],[-68.8421,7.72605],[-68.8499,7.74242],[-68.84351,7.74534],[-68.86309,7.79149],[-68.88298,7.80651],[-68.87056,7.81073],[-68.86972,7.82714],[-68.88177,7.83395],[-68.88117,7.83855],[-68.87903,7.83765],[-68.87998,7.84359],[-68.86656,7.8534],[-68.8666,7.85757],[-68.85787,7.8621],[-68.85592,7.86567],[-68.849,7.86688],[-68.84846,7.87331],[-68.84309,7.87349],[-68.82611,7.88636],[-68.82675,7.89092],[-68.82364,7.89191],[-68.85276,7.90066],[-68.86085,7.90013],[-68.87007,7.89365],[-68.87733,7.89384],[-68.89438,7.91165],[-68.91543,7.91669],[-68.93123,7.9138],[-68.93792,7.9172],[-68.94086,7.9264],[-68.93395,7.94208],[-68.93462,7.94753],[-68.94884,7.96281],[-68.95878,7.98482],[-68.95942,7.99262],[-68.96601,7.9987],[-68.97305,7.99649],[-68.9894,7.99755],[-69.0029,7.99326],[-69.01901,8.00233],[-69.02608,8.00254],[-69.03551,7.99381],[-69.03901,7.97768],[-69.05057,7.97568],[-69.08557,7.99353],[-69.11139,7.99651],[-69.11999,8.00382],[-69.12475,8.02579],[-69.13458,8.0355],[-69.14724,8.04223],[-69.17027,8.04691],[-69.20018,8.06437],[-69.22784,8.06671],[-69.24507,8.05838],[-69.27612,8.05687],[-69.2978,8.05202],[-69.31103,8.05836],[-69.33348,8.05388],[-69.33897,8.06274],[-69.3486,8.0646],[-69.36135,8.0567],[-69.38152,8.04924],[-69.38553,8.05101],[-69.39059,8.0581],[-69.40666,8.06722],[-69.4372,8.06709],[-69.44516,8.06439],[-69.45508,8.05705],[-69.47631,8.05113],[-69.47803,8.03526],[-69.47361,8.02354],[-69.47923,8.01111],[-69.48878,8.00756],[-69.50627,8.00726],[-69.52144,8.00343],[-69.53934,7.98746],[-69.56768,7.9723],[-69.58062,7.95518],[-69.57841,7.94255],[-69.58009,7.93373],[-69.5844,7.93093],[-69.59472,7.93388],[-69.6018,7.92712],[-69.60287,7.91012],[-69.60547,7.90315],[-69.61693,7.90098],[-69.62643,7.89388],[-69.64263,7.89004],[-69.65686,7.88209],[-69.66313,7.87675],[-69.67619,7.85696],[-69.70529,7.85067],[-69.71074,7.84446],[-69.71241,7.83211],[-69.71954,7.8225],[-69.74919,7.82382],[-69.76735,7.81587],[-69.78687,7.81702],[-69.79777,7.81292],[-69.80878,7.79419],[-69.82217,7.79009],[-69.82938,7.79274],[-69.83275,7.8075],[-69.83599,7.80886],[-69.85202,7.80031],[-69.88013,7.80082],[-69.89807,7.79634],[-69.90319,7.793],[-69.91042,7.78084],[-69.90002,7.77601],[-69.89386,7.78382],[-69.88926,7.77989],[-69.88508,7.76205],[-69.88155,7.7549],[-69.87934,7.75577],[-69.87694,7.7317],[-69.85188,7.74672],[-69.8485,7.74319],[-69.84765,7.73204],[-69.84484,7.73042],[-69.83483,7.68446],[-69.82982,7.68669],[-69.82776,7.67838],[-69.8188,7.68238],[-69.81479,7.67467],[-69.80183,7.6803],[-69.79202,7.66439],[-69.78851,7.66487],[-69.7799,7.64806],[-69.7637,7.65159],[-69.76341,7.62062],[-69.76151,7.6218],[-69.75809,7.61223],[-69.76219,7.61185],[-69.76172,7.6084],[-69.74922,7.61202],[-69.74192,7.61861],[-69.72693,7.60971],[-69.72528,7.61086],[-69.68474,7.54904],[-69.67335,7.55209],[-69.67116,7.54833],[-69.66575,7.55404],[-69.66295,7.54928],[-69.65707,7.54918],[-69.63497,7.49219],[-69.61665,7.47179],[-69.61323,7.45353],[-69.60653,7.45696],[-69.60366,7.42457],[-69.59926,7.42359],[-69.59054,7.38611],[-69.5904,7.38396],[-69.61297,7.37966],[-69.61748,7.37142],[-69.6169,7.36829],[-69.61942,7.36678],[-69.56169,7.28537]]]}},{"type":"Feature","id":"relation/3419323","properties":{"name":"Municipio Pedro Camejo","level":6,"population":"28966"},"geometry":{"type":"Polygon","coordinates":[[[-69.43668,6.10566],[-69.41881,6.11113],[-69.41308,6.1218],[-69.40614,6.12717],[-69.37986,6.12792],[-69.35663,6.14608],[-69.34978,6.14766],[-69.33596,6.14107],[-69.32721,6.13179],[-69.3136,6.09547],[-69.30706,6.08903],[-69.28815,6.08835],[-69.27378,6.08139],[-69.26013,6.08335],[-69.24874,6.07937],[-69.23904,6.08045],[-69.22063,6.10085],[-69.21389,6.11935],[-69.19065,6.13612],[-69.17898,6.15195],[-69.1637,6.1538],[-69.14939,6.15961],[-69.13419,6.18416],[-69.12817,6.18806],[-69.11381,6.1909],[-69.10868,6.20293],[-69.1042,6.20746],[-69.09158,6.2108],[-69.0807,6.21944],[-69.04691,6.22535],[-69.0306,6.21996],[-69.01929,6.20121],[-69.0115,6.19801],[-68.97084,6.19602],[-68.95344,6.18713],[-68.94144,6.18346],[-68.92451,6.18326],[-68.91007,6.17591],[-68.88522,6.17622],[-68.85316,6.18329],[-68.83151,6.18081],[-68.79572,6.16906],[-68.78658,6.15624],[-68.77536,6.14984],[-68.76759,6.15086],[-68.74742,6.15997],[-68.73143,6.16146],[-68.71457,6.15841],[-68.69635,6.15269],[-68.69453,6.14169],[-68.68895,6.13631],[-68.67163,6.13211],[-68.6559,6.13593],[-68.64627,6.13548],[-68.62533,6.14896],[-68.61256,6.16101],[-68.60024,6.16217],[-68.58046,6.17042],[-68.5711,6.16936],[-68.54834,6.15233],[-68.53488,6.1531],[-68.52297,6.1611],[-68.51832,6.18329],[-68.51164,6.1851],[-68.49113,6.18429],[-68.47113,6.18937],[-68.44493,6.18998],[-68.42843,6.18512],[-68.40873,6.19001],[-68.36685,6.19105],[-68.36135,6.18898],[-68.35618,6.18222],[-68.32809,6.18092],[-68.29265,6.16752],[-68.28385,6.16163],[-68.2784,6.16176],[-68.26668,6.16918],[-68.24967,6.1954],[-68.24239,6.20157],[-68.21639,6.21036],[-68.1863,6.21219],[-68.17819,6.21656],[-68.16126,6.23167],[-68.15403,6.23444],[-68.13624,6.23143],[-68.10968,6.23354],[-68.09526,6.22732],[-68.08022,6.23549],[-68.07019,6.23453],[-68.06322,6.23079],[-68.05817,6.21628],[-68.04811,6.20323],[-68.03957,6.19734],[-68.02541,6.19455],[-68.00166,6.20797],[-67.97943,6.21102],[-67.96233,6.22439],[-67.93203,6.23814],[-67.9131,6.2556],[-67.90298,6.27373],[-67.89265,6.28254],[-67.87388,6.28926],[-67.86452,6.2989],[-67.85249,6.30527],[-67.83809,6.31752],[-67.83254,6.32533],[-67.81127,6.32878],[-67.77243,6.31455],[-67.75704,6.30094],[-67.75105,6.29849],[-67.69786,6.29347],[-67.64414,6.29446],[-67.62059,6.29009],[-67.59945,6.26366],[-67.58719,6.25915],[-67.55679,6.26608],[-67.53846,6.25981],[-67.48604,6.22087],[-67.45261,6.1901],[-67.4373,6.19815],[-67.43151,6.20434],[-67.42224,6.23485],[-67.41616,6.24436],[-67.39142,6.25549],[-67.33237,6.26914],[-67.31435,6.28006],[-67.30808,6.30591],[-67.2856,6.33492],[-67.28053,6.35059],[-67.26594,6.35556],[-67.25028,6.36601],[-67.24041,6.38026],[-67.22148,6.396],[-67.19813,6.42491],[-67.17977,6.43438],[-67.17058,6.44291],[-67.14784,6.47549],[-67.1438,6.48504],[-67.12561,6.58233],[-67.11694,6.60416],[-67.10973,6.63937],[-67.10432,6.64875],[-67.08733,6.66222],[-67.06458,6.69257],[-67.0396,6.75011],[-67.03591,6.76528],[-67.03205,6.83627],[-67.0166,6.9041],[-67.01626,6.91978],[-67.0233,6.93989],[-67.03772,6.96136],[-67.05746,6.98147],[-67.07694,7.01495],[-67.06407,7.04876],[-67.06879,7.08156],[-67.06767,7.0951],[-67.06192,7.10464],[-67.02518,7.13956],[-67.00287,7.15472],[-66.9821,7.15983],[-66.92493,7.15761],[-66.91137,7.16119],[-66.89131,7.17428],[-66.91215,7.17916],[-66.95171,7.19466],[-66.97214,7.19338],[-66.98405,7.18373],[-66.99732,7.19023],[-67.00268,7.19736],[-67.00671,7.19592],[-67.01377,7.1986],[-67.02014,7.19576],[-67.02334,7.20591],[-67.02242,7.21273],[-67.03549,7.20936],[-67.03405,7.21831],[-67.04194,7.22221],[-67.03462,7.22532],[-67.02912,7.22147],[-67.03236,7.22832],[-67.02919,7.23154],[-67.02495,7.23013],[-67.0228,7.22642],[-67.01677,7.22653],[-67.01429,7.2332],[-67.01833,7.23519],[-67.01626,7.2416],[-67.02642,7.23903],[-67.02768,7.24309],[-67.03121,7.24122],[-67.0348,7.24579],[-67.03773,7.24315],[-67.04384,7.24723],[-67.04324,7.24303],[-67.04752,7.24155],[-67.04578,7.24659],[-67.04871,7.25129],[-67.05081,7.25054],[-67.05005,7.24501],[-67.05237,7.24481],[-67.05489,7.2474],[-67.05343,7.25338],[-67.05872,7.25475],[-67.06193,7.25155],[-67.07714,7.24759],[-67.07781,7.25026],[-67.08109,7.25099],[-67.08141,7.25787],[-67.08678,7.25736],[-67.08812,7.25375],[-67.09451,7.25179],[-67.09637,7.25474],[-67.09308,7.25574],[-67.09751,7.26006],[-67.10343,7.25881],[-67.10836,7.25345],[-67.11195,7.25984],[-67.11768,7.26187],[-67.11902,7.25748],[-67.12252,7.25542],[-67.13336,7.25995],[-67.13072,7.26775],[-67.1322,7.27096],[-67.12751,7.27794],[-67.132,7.27776],[-67.13002,7.28014],[-67.13391,7.28347],[-67.12917,7.28342],[-67.13144,7.28964],[-67.12728,7.29078],[-67.12711,7.29559],[-67.13013,7.29532],[-67.13031,7.29914],[-67.13791,7.30258],[-67.13832,7.30515],[-67.13016,7.30675],[-67.1236,7.31161],[-67.11957,7.31004],[-67.11741,7.31268],[-67.12101,7.32707],[-67.13129,7.33699],[-67.12838,7.33786],[-67.1243,7.34443],[-67.12493,7.34812],[-67.13471,7.34935],[-67.1389,7.35356],[-67.13944,7.34745],[-67.14214,7.34789],[-67.14543,7.35083],[-67.14702,7.36308],[-67.15489,7.36461],[-67.16123,7.37471],[-67.16925,7.36977],[-67.17008,7.37385],[-67.17564,7.376],[-67.18435,7.37],[-67.18537,7.36463],[-67.19167,7.37113],[-67.19857,7.37047],[-67.19795,7.37562],[-67.20316,7.37874],[-67.21321,7.37857],[-67.2172,7.37323],[-67.22104,7.38142],[-67.22541,7.38067],[-67.22603,7.37772],[-67.2323,7.37701],[-67.23667,7.38863],[-67.23293,7.39394],[-67.2359,7.39925],[-67.23243,7.40427],[-67.23403,7.41239],[-67.24208,7.41449],[-67.24623,7.41176],[-67.24985,7.41798],[-67.25267,7.41472],[-67.26038,7.41678],[-67.261,7.42173],[-67.26411,7.42059],[-67.26481,7.42411],[-67.27757,7.42902],[-67.28606,7.42475],[-67.29476,7.42466],[-67.29842,7.4301],[-67.30986,7.42619],[-67.32125,7.43719],[-67.31853,7.43873],[-67.31926,7.44108],[-67.33788,7.44762],[-67.34137,7.455],[-67.34445,7.45378],[-67.34894,7.45585],[-67.35354,7.46166],[-67.35769,7.45633],[-67.36274,7.45874],[-67.37669,7.45886],[-67.37819,7.46461],[-67.38278,7.46967],[-67.39003,7.46978],[-67.39253,7.47569],[-67.40473,7.47618],[-67.40617,7.48681],[-67.41801,7.49115],[-67.42378,7.49073],[-67.42739,7.49557],[-67.43281,7.49676],[-67.43388,7.50506],[-67.44764,7.51292],[-67.45022,7.52304],[-67.46177,7.53777],[-67.47167,7.54558],[-67.46987,7.55065],[-67.47237,7.55314],[-67.471,7.5568],[-67.46258,7.55726],[-67.46047,7.56019],[-67.44725,7.55665],[-67.44614,7.55443],[-67.4428,7.5573],[-67.44288,7.56559],[-67.43865,7.56834],[-67.43409,7.56722],[-67.43178,7.56994],[-67.42431,7.56938],[-67.4222,7.57698],[-67.42449,7.57857],[-67.42213,7.58198],[-67.42295,7.59329],[-67.4192,7.59365],[-67.4208,7.59604],[-67.41935,7.59817],[-67.41259,7.59626],[-67.41301,7.60542],[-67.4044,7.60263],[-67.40069,7.61647],[-67.39024,7.61117],[-67.38622,7.61979],[-67.39115,7.62029],[-67.3955,7.63373],[-67.39119,7.63716],[-67.39476,7.64365],[-67.40173,7.64445],[-67.40325,7.65111],[-67.40923,7.65636],[-67.41583,7.65754],[-67.41702,7.65497],[-67.41984,7.65508],[-67.41738,7.66424],[-67.41903,7.66827],[-67.42341,7.66681],[-67.42027,7.66305],[-67.43112,7.65646],[-67.44177,7.66778],[-67.44341,7.67821],[-67.44823,7.67844],[-67.45036,7.68123],[-67.44947,7.68452],[-67.45447,7.68358],[-67.45491,7.68645],[-67.46363,7.69185],[-67.48017,7.6828],[-67.48611,7.68548],[-67.48892,7.68278],[-67.49378,7.6868],[-67.49874,7.68628],[-67.50387,7.68968],[-67.51395,7.68198],[-67.51669,7.68448],[-67.52328,7.68119],[-67.53274,7.68366],[-67.54337,7.6736],[-67.55514,7.67152],[-67.56172,7.67787],[-67.5782,7.68034],[-67.58294,7.68447],[-67.59367,7.68326],[-67.60255,7.6852],[-67.6051,7.6882],[-67.61049,7.68246],[-67.61515,7.68546],[-67.61762,7.68397],[-67.62645,7.70036],[-67.63361,7.70044],[-67.63335,7.6975],[-67.63974,7.69754],[-67.65143,7.68945],[-67.65692,7.69027],[-67.66412,7.68525],[-67.66749,7.68668],[-67.67026,7.69205],[-67.67762,7.68852],[-67.68128,7.68991],[-67.68096,7.68819],[-67.69312,7.68754],[-67.69464,7.68438],[-67.70252,7.68629],[-67.70212,7.69617],[-67.71556,7.69647],[-67.71781,7.70104],[-67.72143,7.70257],[-67.73168,7.70075],[-67.73472,7.6972],[-67.73941,7.69917],[-67.74528,7.69808],[-67.75517,7.69239],[-67.75788,7.69952],[-67.76101,7.70086],[-67.76001,7.70421],[-67.76922,7.70359],[-67.77175,7.7111],[-67.77826,7.70827],[-67.78283,7.71136],[-67.78908,7.70997],[-67.79144,7.71368],[-67.7964,7.71181],[-67.80235,7.71557],[-67.80389,7.71281],[-67.81326,7.71353],[-67.81311,7.71055],[-67.81851,7.70952],[-67.82206,7.71328],[-67.8292,7.71146],[-67.83254,7.71539],[-67.83676,7.71394],[-67.83474,7.72467],[-67.84414,7.72196],[-67.84821,7.72362],[-67.84905,7.72856],[-67.85164,7.72937],[-67.8533,7.72787],[-67.85178,7.72619],[-67.85569,7.72265],[-67.8495,7.71002],[-67.85508,7.70395],[-67.86274,7.70173],[-67.86284,7.69049],[-67.85773,7.68651],[-67.86965,7.66597],[-67.86545,7.66323],[-67.86955,7.6543],[-67.86565,7.65053],[-67.86422,7.62263],[-67.85344,7.62334],[-67.85147,7.61075],[-67.8612,7.58331],[-67.87265,7.58426],[-67.87652,7.57901],[-67.88175,7.58304],[-67.88946,7.58272],[-67.89119,7.58533],[-67.89843,7.58731],[-67.89925,7.58417],[-67.90316,7.58482],[-67.90531,7.58889],[-67.91174,7.59034],[-67.91879,7.58171],[-67.92555,7.57913],[-67.93198,7.57988],[-67.93793,7.57516],[-67.94391,7.576],[-67.95051,7.5693],[-67.95223,7.56382],[-67.9573,7.56599],[-67.96035,7.55821],[-67.95664,7.55727],[-67.95658,7.55491],[-67.96217,7.55373],[-67.9614,7.54854],[-67.96452,7.54374],[-67.96726,7.5434],[-67.96818,7.55369],[-67.97564,7.54787],[-67.98102,7.5546],[-67.98381,7.55503],[-67.9875,7.54701],[-68.00096,7.54669],[-68.00769,7.54371],[-68.01156,7.53888],[-68.01701,7.53871],[-68.01805,7.53368],[-68.03348,7.53543],[-68.03848,7.5315],[-68.04187,7.5349],[-68.05109,7.5233],[-68.04556,7.51313],[-68.06445,7.5073],[-68.07556,7.50909],[-68.08294,7.50277],[-68.09892,7.50683],[-68.11072,7.50113],[-68.05318,7.38852],[-68.0806,7.37811],[-68.08913,7.36333],[-68.08251,7.3477],[-68.08426,7.34185],[-68.07647,7.31934],[-68.09278,6.9885],[-68.09135,6.93463],[-68.06919,6.89803],[-68.02359,6.69769],[-68.02726,6.67677],[-68.03509,6.66229],[-68.02874,6.65661],[-68.02141,6.65463],[-68.01883,6.64855],[-68.01697,6.64936],[-68.01316,6.64581],[-68.02048,6.64336],[-68.02275,6.63344],[-68.02949,6.62862],[-68.04338,6.63283],[-68.04504,6.63883],[-68.0495,6.63764],[-68.05006,6.62904],[-68.05468,6.62405],[-68.0552,6.61964],[-68.05427,6.61728],[-68.04414,6.613],[-68.04141,6.59525],[-68.04274,6.58921],[-68.05378,6.59086],[-68.05804,6.58742],[-68.05176,6.57073],[-68.07275,6.56494],[-68.075,6.57187],[-68.07915,6.57368],[-68.08018,6.58059],[-68.09693,6.58053],[-68.10608,6.56434],[-68.10985,6.54904],[-68.11796,6.55208],[-68.11946,6.55759],[-68.12895,6.56092],[-68.13209,6.56497],[-68.14582,6.55931],[-68.14548,6.55194],[-68.15023,6.54512],[-68.15746,6.54614],[-68.16138,6.55287],[-68.17058,6.55194],[-68.17617,6.55688],[-68.1935,6.55624],[-68.19741,6.55202],[-68.19422,6.54801],[-68.19419,6.54305],[-68.19818,6.54689],[-68.19905,6.53978],[-68.2092,6.543],[-68.21149,6.53927],[-68.21933,6.53498],[-68.22269,6.52442],[-68.2247,6.52373],[-68.25015,6.5391],[-68.25482,6.55635],[-68.26641,6.56417],[-68.26873,6.55882],[-68.26829,6.54863],[-68.27713,6.5533],[-68.28223,6.56389],[-68.2862,6.56512],[-68.2831,6.54736],[-68.29848,6.54621],[-68.30399,6.54241],[-68.31129,6.54254],[-68.31649,6.53984],[-68.32446,6.55419],[-68.334,6.55977],[-68.33859,6.55974],[-68.3442,6.55155],[-68.35086,6.55059],[-68.36543,6.55897],[-68.37937,6.55874],[-68.39135,6.5631],[-68.39916,6.56269],[-68.40292,6.56583],[-68.40286,6.57511],[-68.40604,6.58081],[-68.42472,6.5994],[-68.43292,6.60133],[-68.4382,6.59972],[-68.44368,6.59388],[-68.44309,6.58831],[-68.4388,6.58198],[-68.44054,6.57652],[-68.46303,6.58852],[-68.46352,6.57841],[-68.47188,6.56931],[-68.47084,6.55944],[-68.48434,6.55659],[-68.48551,6.54864],[-68.50374,6.54591],[-68.5115,6.54882],[-68.51348,6.56096],[-68.52205,6.56312],[-68.52141,6.56973],[-68.52658,6.57075],[-68.52619,6.57679],[-68.53358,6.57775],[-68.53894,6.58123],[-68.53849,6.59254],[-68.5239,6.603],[-68.52167,6.60943],[-68.52393,6.61812],[-68.53,6.6234],[-68.54257,6.62563],[-68.55202,6.63664],[-68.55926,6.63423],[-68.5601,6.62925],[-68.57139,6.61755],[-68.58646,6.61617],[-68.59415,6.61034],[-68.62091,6.6194],[-68.62975,6.61484],[-68.63065,6.60235],[-68.64094,6.59915],[-68.63588,6.58862],[-68.63713,6.5863],[-68.6519,6.59052],[-68.65778,6.60407],[-68.6606,6.60596],[-68.6647,6.60241],[-68.6657,6.5883],[-68.67489,6.58609],[-68.68142,6.5782],[-68.69476,6.57956],[-68.69294,6.57265],[-68.70144,6.57025],[-68.70586,6.56007],[-68.70496,6.55127],[-68.71061,6.54097],[-68.71431,6.54242],[-68.7137,6.54756],[-68.72406,6.54201],[-68.73317,6.54098],[-68.73811,6.52188],[-68.74947,6.52809],[-68.7563,6.52046],[-68.76393,6.52256],[-68.77751,6.5318],[-68.78094,6.52906],[-68.78823,6.50988],[-68.79172,6.51376],[-68.8041,6.51243],[-68.81103,6.51761],[-68.81702,6.5084],[-68.82446,6.50211],[-68.83769,6.50164],[-68.84762,6.49609],[-68.85282,6.50169],[-68.8676,6.5041],[-68.87714,6.51197],[-68.88384,6.50654],[-68.88729,6.49279],[-68.89218,6.48633],[-68.89925,6.48601],[-68.90436,6.4898],[-68.91092,6.48618],[-68.9202,6.48915],[-68.92814,6.48445],[-68.9337,6.47418],[-68.94378,6.47286],[-68.94903,6.46354],[-68.9498,6.45617],[-68.95972,6.44615],[-68.96397,6.44627],[-68.9722,6.45461],[-68.98059,6.45673],[-68.98458,6.46414],[-68.99116,6.46661],[-68.99929,6.463],[-68.99816,6.4538],[-69.0101,6.43921],[-69.01247,6.44481],[-69.01741,6.44492],[-69.02131,6.44197],[-69.0278,6.44549],[-69.03705,6.43839],[-69.04175,6.44095],[-69.04487,6.43125],[-69.04887,6.42919],[-69.06813,6.42794],[-69.06938,6.43026],[-69.07806,6.42759],[-69.08598,6.43402],[-69.09739,6.42596],[-69.1061,6.42806],[-69.10824,6.43462],[-69.11573,6.43446],[-69.11561,6.42782],[-69.12261,6.42242],[-69.12754,6.42331],[-69.12872,6.42102],[-69.13401,6.42418],[-69.14084,6.41781],[-69.14563,6.42286],[-69.14859,6.41716],[-69.15276,6.41764],[-69.15941,6.41366],[-69.16453,6.41528],[-69.1672,6.41093],[-69.16096,6.41054],[-69.15894,6.40782],[-69.16718,6.40295],[-69.16991,6.40435],[-69.17152,6.40183],[-69.17512,6.40249],[-69.17955,6.3866],[-69.18405,6.39368],[-69.18836,6.38956],[-69.18565,6.37526],[-69.18929,6.37482],[-69.19361,6.38028],[-69.20215,6.37319],[-69.21398,6.37347],[-69.21865,6.36638],[-69.2167,6.36406],[-69.21996,6.36147],[-69.21658,6.35489],[-69.22288,6.35324],[-69.22581,6.34094],[-69.22983,6.33954],[-69.23506,6.34172],[-69.24046,6.33467],[-69.25706,6.3352],[-69.27214,6.34346],[-69.27588,6.34267],[-69.2777,6.34878],[-69.2893,6.34914],[-69.2937,6.35213],[-69.30426,6.34743],[-69.3116,6.35419],[-69.31238,6.35125],[-69.31539,6.35227],[-69.32234,6.34801],[-69.33415,6.35597],[-69.33343,6.35146],[-69.33765,6.35047],[-69.33983,6.34552],[-69.34683,6.34671],[-69.3517,6.34458],[-69.35103,6.33982],[-69.34626,6.33911],[-69.34622,6.33288],[-69.3508,6.33023],[-69.35305,6.33236],[-69.35439,6.329],[-69.35268,6.32562],[-69.36372,6.32757],[-69.36318,6.32501],[-69.36726,6.32394],[-69.37885,6.3256],[-69.38123,6.31869],[-69.38996,6.3119],[-69.39701,6.31224],[-69.40129,6.31809],[-69.40677,6.3208],[-69.40881,6.31429],[-69.41425,6.3118],[-69.41531,6.31689],[-69.41946,6.31595],[-69.42196,6.318],[-69.42937,6.3147],[-69.43066,6.31818],[-69.43741,6.32044],[-69.44317,6.31896],[-69.44382,6.31656],[-69.45235,6.31582],[-69.45376,6.31349],[-69.45112,6.31206],[-69.45172,6.30981],[-69.45844,6.30561],[-69.46083,6.30991],[-69.46293,6.30628],[-69.46612,6.30865],[-69.47176,6.30546],[-69.47657,6.31179],[-69.48022,6.30643],[-69.48849,6.3056],[-69.4877,6.29926],[-69.49221,6.29186],[-69.48849,6.28398],[-69.49415,6.28153],[-69.49565,6.2748],[-69.49308,6.27334],[-69.49492,6.26908],[-69.49901,6.2696],[-69.49445,6.26545],[-69.50017,6.26289],[-69.50089,6.2586],[-69.50584,6.25832],[-69.50871,6.25476],[-69.5087,6.24872],[-69.51347,6.24503],[-69.51664,6.24474],[-69.51663,6.24922],[-69.52179,6.2469],[-69.52428,6.24891],[-69.52953,6.24445],[-69.53641,6.24795],[-69.53663,6.25021],[-69.53795,6.24658],[-69.43668,6.10566]]]}},{"type":"Feature","id":"relation/3419324","properties":{"name":"Municipio R\u00f3mulo Gallegos","level":6,"population":"24418"},"geometry":{"type":"Polygon","coordinates":[[[-69.96181,6.78305],[-69.53795,6.24658],[-69.53624,6.2502],[-69.53641,6.24795],[-69.52953,6.24445],[-69.52428,6.24891],[-69.52179,6.2469],[-69.51663,6.24922],[-69.51664,6.24474],[-69.51347,6.24503],[-69.5087,6.24872],[-69.50871,6.25476],[-69.50584,6.25832],[-69.50089,6.2586],[-69.50017,6.26289],[-69.49445,6.26545],[-69.49901,6.2696],[-69.49492,6.26908],[-69.49308,6.27334],[-69.49565,6.2748],[-69.49415,6.28153],[-69.48849,6.28398],[-69.4922,6.29155],[-69.4877,6.29926],[-69.48935,6.3047],[-69.48011,6.30649],[-69.47681,6.31175],[-69.47176,6.30546],[-69.46612,6.30865],[-69.46293,6.30628],[-69.46083,6.30991],[-69.45844,6.30561],[-69.45172,6.30981],[-69.45112,6.31206],[-69.45376,6.31349],[-69.45235,6.31582],[-69.44382,6.31656],[-69.4396,6.32003],[-69.43066,6.31818],[-69.42937,6.3147],[-69.42196,6.318],[-69.41946,6.31595],[-69.41531,6.31689],[-69.41425,6.3118],[-69.40881,6.31429],[-69.40698,6.32082],[-69.40129,6.31809],[-69.39701,6.31224],[-69.38996,6.3119],[-69.38123,6.31869],[-69.37885,6.3256],[-69.36726,6.32394],[-69.36318,6.32501],[-69.36372,6.32757],[-69.35268,6.32562],[-69.35439,6.329],[-69.35305,6.33236],[-69.3508,6.33023],[-69.34622,6.33288],[-69.34626,6.33911],[-69.35103,6.33982],[-69.3517,6.34458],[-69.34683,6.34671],[-69.33983,6.34552],[-69.33765,6.35047],[-69.33343,6.35146],[-69.33415,6.35597],[-69.32234,6.34801],[-69.31539,6.35227],[-69.31238,6.35125],[-69.3116,6.35419],[-69.30426,6.34743],[-69.2937,6.35213],[-69.2893,6.34914],[-69.2777,6.34878],[-69.27588,6.34267],[-69.27214,6.34346],[-69.25732,6.3353],[-69.24078,6.33456],[-69.2369,6.33687],[-69.23506,6.34172],[-69.22983,6.33954],[-69.22581,6.34094],[-69.22288,6.35324],[-69.21658,6.35489],[-69.21996,6.36147],[-69.2167,6.36406],[-69.21865,6.36638],[-69.21398,6.37347],[-69.20215,6.37319],[-69.19361,6.38028],[-69.18929,6.37482],[-69.18565,6.37526],[-69.18836,6.38956],[-69.18405,6.39368],[-69.17955,6.3866],[-69.17512,6.40249],[-69.17152,6.40183],[-69.16991,6.40435],[-69.16718,6.40295],[-69.15894,6.40782],[-69.16096,6.41054],[-69.1672,6.41093],[-69.16453,6.41528],[-69.15941,6.41366],[-69.15276,6.41764],[-69.14859,6.41716],[-69.14563,6.42286],[-69.14084,6.41781],[-69.13401,6.42418],[-69.12872,6.42102],[-69.12754,6.42331],[-69.12261,6.42242],[-69.11561,6.42782],[-69.11573,6.43446],[-69.10824,6.43462],[-69.1061,6.42806],[-69.09739,6.42596],[-69.08598,6.43402],[-69.07806,6.42759],[-69.06938,6.43026],[-69.06813,6.42794],[-69.04887,6.42919],[-69.04487,6.43125],[-69.04175,6.44095],[-69.03705,6.43839],[-69.0278,6.44549],[-69.02131,6.44197],[-69.01741,6.44492],[-69.01247,6.44481],[-69.0101,6.43921],[-68.99816,6.4538],[-68.99929,6.463],[-68.99116,6.46661],[-68.98458,6.46414],[-68.98059,6.45673],[-68.9722,6.45461],[-68.96397,6.44627],[-68.95972,6.44615],[-68.9498,6.45617],[-68.94903,6.46354],[-68.94378,6.47286],[-68.9337,6.47418],[-68.92814,6.48445],[-68.9202,6.48915],[-68.91092,6.48618],[-68.90436,6.4898],[-68.89925,6.48601],[-68.89218,6.48633],[-68.88729,6.49279],[-68.88384,6.50654],[-68.87714,6.51197],[-68.8676,6.5041],[-68.85282,6.50169],[-68.84762,6.49609],[-68.83769,6.50164],[-68.82446,6.50211],[-68.81702,6.5084],[-68.81103,6.51761],[-68.8041,6.51243],[-68.79172,6.51376],[-68.78823,6.50988],[-68.78094,6.52906],[-68.77751,6.5318],[-68.76393,6.52256],[-68.7563,6.52046],[-68.74947,6.52809],[-68.73811,6.52188],[-68.73363,6.54058],[-68.72406,6.54201],[-68.71402,6.54756],[-68.71431,6.54242],[-68.7109,6.54068],[-68.70496,6.55127],[-68.70586,6.56007],[-68.70144,6.57025],[-68.69294,6.57265],[-68.69476,6.57956],[-68.68142,6.5782],[-68.67489,6.58609],[-68.6657,6.5883],[-68.66479,6.60203],[-68.66164,6.60557],[-68.65796,6.60435],[-68.6519,6.59052],[-68.63839,6.58596],[-68.63579,6.58829],[-68.64107,6.59885],[-68.62944,6.60371],[-68.63011,6.61358],[-68.62751,6.61648],[-68.61973,6.6195],[-68.59516,6.61019],[-68.58569,6.61637],[-68.59097,6.6198],[-68.59768,6.633],[-68.60189,6.6338],[-68.60154,6.63808],[-68.60583,6.64275],[-68.61038,6.64208],[-68.61735,6.64586],[-68.62506,6.63918],[-68.6328,6.63878],[-68.64816,6.6468],[-68.6614,6.64589],[-68.66879,6.64987],[-68.67707,6.64515],[-68.68584,6.65555],[-68.69013,6.6561],[-68.68902,6.663],[-68.6912,6.66815],[-68.69769,6.67342],[-68.70466,6.67485],[-68.7443,6.71495],[-68.75835,6.73845],[-68.7635,6.73664],[-68.86228,6.77724],[-68.87171,6.78209],[-68.87047,6.78638],[-68.88453,6.79069],[-68.89279,6.81158],[-68.88873,6.81985],[-68.88919,6.82569],[-68.88685,6.82526],[-68.88553,6.82039],[-68.87809,6.82815],[-68.87212,6.85165],[-68.87843,6.85242],[-68.88062,6.96013],[-68.88877,6.96005],[-68.88663,6.99272],[-68.91096,6.99208],[-68.91284,7.0468],[-68.9191,7.04447],[-68.91904,7.05096],[-68.9209,7.05215],[-68.91901,7.05308],[-68.91824,7.08358],[-68.93158,7.1019],[-68.9403,7.1244],[-68.9527,7.11909],[-68.96001,7.12503],[-68.96386,7.13467],[-68.97322,7.14495],[-68.97685,7.14197],[-69.00488,7.17308],[-69.01952,7.204],[-69.03465,7.19978],[-69.0468,7.20565],[-69.05182,7.20493],[-69.05623,7.20024],[-69.05428,7.19965],[-69.05552,7.19646],[-69.05738,7.197],[-69.06132,7.18547],[-69.08705,7.17716],[-69.09114,7.16472],[-69.09562,7.15888],[-69.10065,7.15708],[-69.10542,7.16116],[-69.11183,7.16175],[-69.12397,7.15386],[-69.12447,7.14813],[-69.13002,7.14375],[-69.13144,7.13846],[-69.14337,7.13465],[-69.17738,7.15047],[-69.19181,7.18559],[-69.26963,7.22029],[-69.28977,7.2213],[-69.31853,7.20442],[-69.32139,7.21102],[-69.33165,7.20642],[-69.33321,7.20983],[-69.34567,7.204],[-69.34555,7.20152],[-69.35381,7.20007],[-69.35834,7.20392],[-69.35851,7.20795],[-69.36573,7.21103],[-69.37828,7.19915],[-69.38678,7.19462],[-69.38889,7.20161],[-69.39391,7.20077],[-69.39128,7.2093],[-69.40314,7.20528],[-69.40492,7.21689],[-69.40607,7.21812],[-69.40968,7.21438],[-69.41495,7.22345],[-69.42682,7.21949],[-69.43658,7.21263],[-69.4379,7.21687],[-69.44329,7.21955],[-69.44629,7.21645],[-69.45012,7.22206],[-69.45423,7.2189],[-69.45231,7.21381],[-69.45432,7.2126],[-69.46005,7.21246],[-69.47286,7.20595],[-69.47905,7.20729],[-69.48533,7.20062],[-69.48828,7.20377],[-69.49547,7.19997],[-69.4984,7.20385],[-69.49717,7.20515],[-69.50897,7.21037],[-69.51373,7.22485],[-69.51111,7.22719],[-69.51297,7.2345],[-69.51084,7.23372],[-69.52315,7.25296],[-69.52571,7.26381],[-69.53001,7.26831],[-69.52753,7.2709],[-69.5296,7.27838],[-69.54465,7.27195],[-69.54836,7.28167],[-69.55573,7.27713],[-69.61942,7.36678],[-69.61516,7.35876],[-69.61696,7.35579],[-69.61248,7.35096],[-69.61432,7.33991],[-69.63641,7.33703],[-69.64463,7.3241],[-69.64494,7.31572],[-69.65106,7.31359],[-69.65062,7.30965],[-69.65271,7.30944],[-69.65075,7.30603],[-69.65325,7.30292],[-69.66045,7.30143],[-69.65939,7.29556],[-69.66613,7.29951],[-69.67294,7.29484],[-69.67586,7.28907],[-69.67931,7.29105],[-69.67892,7.2887],[-69.68496,7.28823],[-69.68381,7.28658],[-69.68731,7.28633],[-69.68749,7.28147],[-69.69013,7.28187],[-69.68888,7.27683],[-69.69157,7.27582],[-69.69413,7.27821],[-69.69604,7.27601],[-69.69467,7.27369],[-69.70214,7.27437],[-69.70262,7.27797],[-69.70665,7.27486],[-69.712,7.27655],[-69.71609,7.27105],[-69.72224,7.27015],[-69.72803,7.27905],[-69.73507,7.27872],[-69.73781,7.28258],[-69.74989,7.28244],[-69.75877,7.27805],[-69.76081,7.2731],[-69.76999,7.27343],[-69.77253,7.26986],[-69.78064,7.27056],[-69.78339,7.25987],[-69.78819,7.2568],[-69.78934,7.26001],[-69.79227,7.25812],[-69.80077,7.2658],[-69.80833,7.26499],[-69.80863,7.26274],[-69.81121,7.26379],[-69.81239,7.25826],[-69.82475,7.25023],[-69.83108,7.2428],[-69.83361,7.24352],[-69.83346,7.24004],[-69.845,7.23308],[-69.85248,7.23776],[-69.85934,7.2363],[-69.86226,7.23322],[-69.8769,7.23316],[-69.87862,7.23022],[-69.87969,7.23219],[-69.89009,7.22859],[-69.90514,7.23421],[-69.90817,7.23235],[-69.91529,7.23427],[-69.92556,7.22692],[-69.92894,7.22807],[-69.93851,7.2226],[-69.94232,7.22544],[-69.94178,7.22757],[-69.94502,7.2264],[-69.9504,7.23397],[-69.95297,7.23165],[-69.95485,7.237],[-69.96269,7.23364],[-69.96522,7.23964],[-69.96781,7.24044],[-69.97075,7.23633],[-69.97904,7.2373],[-69.9847,7.23465],[-69.98186,7.23161],[-69.98481,7.22826],[-69.98389,7.22026],[-69.99027,7.21849],[-69.99129,7.21547],[-69.99504,7.21577],[-69.99518,7.21367],[-70.001,7.21312],[-70.00584,7.22133],[-70.00906,7.22178],[-70.0149,7.21764],[-70.01664,7.21986],[-70.01851,7.21833],[-70.02315,7.2245],[-70.02319,7.22089],[-70.02616,7.22406],[-70.02804,7.21844],[-70.03273,7.22157],[-70.03776,7.21908],[-70.04279,7.22034],[-70.06,7.2123],[-70.07661,7.21623],[-70.08205,7.21468],[-70.08315,7.21731],[-70.08828,7.21665],[-70.09005,7.21357],[-70.1025,7.21379],[-70.1065,7.20951],[-70.11267,7.2152],[-70.11877,7.21588],[-70.12731,7.22382],[-70.1343,7.22408],[-70.14191,7.23386],[-70.1415,7.23788],[-70.14493,7.24381],[-70.1477,7.24482],[-70.1542,7.24071],[-70.15981,7.24385],[-70.16344,7.23706],[-70.17311,7.2391],[-70.18695,7.23066],[-70.19673,7.23235],[-70.20145,7.22726],[-70.20528,7.22813],[-70.21919,7.224],[-70.22193,7.21603],[-70.22478,7.13359],[-70.20639,7.13342],[-70.20282,7.12914],[-70.20055,7.13212],[-70.19615,7.13062],[-70.18993,7.05164],[-70.18681,7.05094],[-70.1861,7.04672],[-70.17934,7.04859],[-70.17139,7.04194],[-70.16355,7.04304],[-70.16124,7.03854],[-70.15033,7.03254],[-70.14122,7.03923],[-70.12609,7.03824],[-70.12366,7.03375],[-70.1153,7.02824],[-70.1083,7.03131],[-70.10312,7.03055],[-70.0997,7.02451],[-70.08976,7.02302],[-70.09347,7.01583],[-70.08955,7.01049],[-70.09501,7.00476],[-70.09722,6.99915],[-70.09576,6.99541],[-70.10065,6.9943],[-70.10178,6.98976],[-70.10762,6.9901],[-70.10908,6.98627],[-70.11736,6.97997],[-69.96181,6.78305]]]}},{"type":"Feature","id":"relation/3419325","properties":{"name":"Municipio San Fernando","level":6,"population":"165135"},"geometry":{"type":"Polygon","coordinates":[[[-67.26166,7.41749],[-67.25267,7.41472],[-67.24985,7.41798],[-67.24623,7.41176],[-67.24208,7.41449],[-67.23388,7.41226],[-67.23243,7.40427],[-67.2359,7.39925],[-67.23293,7.39394],[-67.23667,7.38863],[-67.2323,7.37701],[-67.22603,7.37772],[-67.22541,7.38067],[-67.22104,7.38142],[-67.2172,7.37323],[-67.21321,7.37857],[-67.20316,7.37874],[-67.19795,7.37562],[-67.19857,7.37047],[-67.19167,7.37113],[-67.18537,7.36463],[-67.18435,7.37],[-67.17564,7.376],[-67.17008,7.37385],[-67.16925,7.36977],[-67.16123,7.37471],[-67.15489,7.36461],[-67.14702,7.36308],[-67.14543,7.35083],[-67.14214,7.34789],[-67.13944,7.34745],[-67.1389,7.35356],[-67.13471,7.34935],[-67.12469,7.34785],[-67.12437,7.34431],[-67.12838,7.33786],[-67.13129,7.33699],[-67.12101,7.32707],[-67.11741,7.31268],[-67.11957,7.31004],[-67.1236,7.31161],[-67.13016,7.30675],[-67.13832,7.30515],[-67.13791,7.30258],[-67.13031,7.29914],[-67.13013,7.29532],[-67.12711,7.29559],[-67.12728,7.29078],[-67.13144,7.28964],[-67.12917,7.28342],[-67.13391,7.28347],[-67.13002,7.28014],[-67.132,7.27776],[-67.12751,7.27794],[-67.1322,7.27096],[-67.13072,7.26775],[-67.13336,7.25995],[-67.12252,7.25542],[-67.11902,7.25748],[-67.11768,7.26187],[-67.11195,7.25984],[-67.10836,7.25345],[-67.10343,7.25881],[-67.09751,7.26006],[-67.09308,7.25574],[-67.09637,7.25474],[-67.09451,7.25179],[-67.08812,7.25375],[-67.08678,7.25736],[-67.08141,7.25787],[-67.08109,7.25099],[-67.07781,7.25026],[-67.07714,7.24759],[-67.06193,7.25155],[-67.05872,7.25475],[-67.05343,7.25338],[-67.05489,7.2474],[-67.05237,7.24481],[-67.05005,7.24501],[-67.05081,7.25054],[-67.04871,7.25129],[-67.04578,7.24659],[-67.04752,7.24155],[-67.04324,7.24303],[-67.04384,7.24723],[-67.03773,7.24315],[-67.0348,7.24579],[-67.03121,7.24122],[-67.02768,7.24309],[-67.02642,7.23903],[-67.01626,7.2416],[-67.01833,7.23519],[-67.01429,7.2332],[-67.01677,7.22653],[-67.0228,7.22642],[-67.02495,7.23013],[-67.02919,7.23154],[-67.03236,7.22832],[-67.02912,7.22147],[-67.03462,7.22532],[-67.04194,7.22221],[-67.03405,7.21831],[-67.03549,7.20936],[-67.02242,7.21273],[-67.02334,7.20591],[-67.02014,7.19576],[-67.01377,7.1986],[-67.00671,7.19592],[-67.00268,7.19736],[-66.99732,7.19023],[-66.98405,7.18373],[-66.97214,7.19338],[-66.95171,7.19466],[-66.91215,7.17916],[-66.89131,7.17428],[-66.8458,7.21246],[-66.81404,7.25605],[-66.78692,7.27308],[-66.77078,7.27819],[-66.7337,7.27853],[-66.72392,7.28074],[-66.64032,7.31743],[-66.6138,7.32254],[-66.57389,7.3228],[-66.55088,7.33599],[-66.54076,7.34668],[-66.51818,7.38834],[-66.51578,7.42358],[-66.51089,7.44554],[-66.50393,7.46826],[-66.4963,7.4829],[-66.45767,7.53004],[-66.42291,7.58807],[-66.38678,7.61351],[-66.33029,7.64815],[-66.33821,7.67029],[-66.32848,7.68491],[-66.33061,7.68798],[-66.3371,7.68846],[-66.34146,7.69272],[-66.35417,7.71901],[-66.36049,7.7261],[-66.36607,7.72513],[-66.37305,7.71993],[-66.38128,7.72023],[-66.38873,7.71379],[-66.40474,7.711],[-66.4194,7.7158],[-66.43979,7.71628],[-66.44971,7.72248],[-66.46204,7.72508],[-66.46845,7.72999],[-66.48594,7.73192],[-66.48738,7.73835],[-66.47661,7.75118],[-66.47787,7.76058],[-66.48577,7.76707],[-66.51443,7.7802],[-66.51363,7.79321],[-66.52243,7.79201],[-66.52456,7.80415],[-66.52959,7.81374],[-66.55233,7.80231],[-66.54409,7.78499],[-66.54807,7.777],[-66.55321,7.77325],[-66.55683,7.77488],[-66.54964,7.7802],[-66.54895,7.78404],[-66.55172,7.78568],[-66.56587,7.77643],[-66.58308,7.78044],[-66.58304,7.77552],[-66.58995,7.77707],[-66.59591,7.76793],[-66.60441,7.76422],[-66.61844,7.76514],[-66.629,7.77432],[-66.63546,7.76968],[-66.63721,7.7607],[-66.64611,7.7677],[-66.65588,7.76778],[-66.6564,7.76027],[-66.66572,7.75575],[-66.66275,7.74662],[-66.65994,7.74499],[-66.65663,7.75008],[-66.65141,7.74938],[-66.65025,7.74315],[-66.6565,7.73907],[-66.65041,7.73642],[-66.64793,7.72788],[-66.64378,7.72672],[-66.63556,7.72936],[-66.64926,7.7006],[-66.66545,7.69478],[-66.66586,7.70397],[-66.67119,7.70545],[-66.68355,7.69839],[-66.68537,7.70004],[-66.68012,7.70258],[-66.67877,7.71168],[-66.68116,7.71839],[-66.68644,7.72079],[-66.69005,7.71708],[-66.68929,7.70664],[-66.69219,7.70153],[-66.70053,7.69988],[-66.71364,7.68952],[-66.71771,7.69422],[-66.7292,7.69278],[-66.72512,7.68942],[-66.7251,7.68651],[-66.73109,7.68916],[-66.73281,7.69409],[-66.74431,7.69851],[-66.74671,7.69613],[-66.75701,7.69562],[-66.76182,7.69749],[-66.7613,7.70141],[-66.77383,7.70056],[-66.7771,7.70379],[-66.77675,7.71076],[-66.78224,7.70991],[-66.78276,7.70617],[-66.78825,7.71229],[-66.78997,7.7111],[-66.78808,7.70294],[-66.79357,7.7043],[-66.79546,7.71348],[-66.80817,7.72097],[-66.8128,7.72947],[-66.81692,7.73237],[-66.83134,7.72879],[-66.83632,7.7339],[-66.84576,7.73594],[-66.84782,7.72998],[-66.84679,7.72369],[-66.84885,7.72233],[-66.87305,7.72488],[-66.87838,7.72828],[-66.88353,7.72505],[-66.8825,7.73135],[-66.8911,7.738],[-66.88867,7.74597],[-66.91116,7.75554],[-66.91622,7.75027],[-66.93111,7.74925],[-66.93702,7.74051],[-66.95391,7.74768],[-66.95888,7.74495],[-66.96493,7.75374],[-66.96666,7.74699],[-66.97031,7.74669],[-66.96737,7.75812],[-66.96954,7.76257],[-66.97456,7.76419],[-66.99989,7.76687],[-67.00496,7.76936],[-67.00847,7.76445],[-67.00759,7.75717],[-67.00974,7.75683],[-67.02433,7.76648],[-67.029,7.77478],[-67.0369,7.77732],[-67.05017,7.78961],[-67.05801,7.78262],[-67.06456,7.78308],[-67.09478,7.77593],[-67.09619,7.76448],[-67.12256,7.76506],[-67.13152,7.76116],[-67.13868,7.76457],[-67.14729,7.75935],[-67.1567,7.75812],[-67.15997,7.7618],[-67.15995,7.76949],[-67.15428,7.77476],[-67.15465,7.77949],[-67.1583,7.77986],[-67.16501,7.776],[-67.16935,7.78028],[-67.18183,7.78122],[-67.19169,7.77497],[-67.21886,7.77617],[-67.22518,7.78948],[-67.22368,7.79316],[-67.22538,7.79799],[-67.23491,7.80302],[-67.23754,7.80216],[-67.23804,7.81223],[-67.25073,7.81687],[-67.25186,7.81403],[-67.25413,7.81559],[-67.25826,7.83078],[-67.2653,7.82813],[-67.2756,7.83138],[-67.28832,7.82945],[-67.30213,7.83562],[-67.30432,7.83876],[-67.30284,7.84105],[-67.30759,7.8452],[-67.30952,7.84255],[-67.32282,7.84932],[-67.32098,7.86632],[-67.32435,7.86684],[-67.32673,7.86374],[-67.3309,7.86822],[-67.31912,7.88158],[-67.32695,7.88112],[-67.33194,7.88978],[-67.33731,7.88692],[-67.33598,7.89422],[-67.34278,7.88939],[-67.3491,7.88007],[-67.35317,7.88271],[-67.34763,7.88662],[-67.34701,7.89218],[-67.35523,7.89395],[-67.35527,7.88401],[-67.3601,7.88133],[-67.36634,7.88663],[-67.36742,7.89048],[-67.36457,7.89334],[-67.3681,7.89445],[-67.36977,7.90113],[-67.37564,7.90229],[-67.38008,7.89751],[-67.38342,7.90677],[-67.39057,7.90768],[-67.39634,7.91539],[-67.39766,7.91448],[-67.39447,7.90909],[-67.39588,7.90731],[-67.40177,7.9128],[-67.41693,7.9075],[-67.42234,7.89259],[-67.43274,7.88934],[-67.42986,7.88693],[-67.43055,7.88314],[-67.46706,7.9],[-67.50787,7.90205],[-67.50827,7.89853],[-67.5027,7.89037],[-67.49962,7.88],[-67.50193,7.87508],[-67.49717,7.87057],[-67.49807,7.86554],[-67.50269,7.86336],[-67.49176,7.85391],[-67.49484,7.84867],[-67.48961,7.84438],[-67.4904,7.83922],[-67.48697,7.828],[-67.47144,7.81345],[-67.46621,7.8123],[-67.4673,7.78871],[-67.46382,7.78712],[-67.46456,7.78362],[-67.45204,7.78108],[-67.44805,7.77808],[-67.44039,7.76987],[-67.44013,7.7649],[-67.42726,7.76039],[-67.42704,7.75091],[-67.43182,7.73454],[-67.45636,7.725],[-67.47304,7.71039],[-67.49537,7.70879],[-67.503,7.68944],[-67.49874,7.68628],[-67.49361,7.68672],[-67.48892,7.68278],[-67.48611,7.68548],[-67.48017,7.6828],[-67.46457,7.69168],[-67.46045,7.69123],[-67.45447,7.68358],[-67.44947,7.68452],[-67.45036,7.68123],[-67.44823,7.67844],[-67.44299,7.67773],[-67.44177,7.66778],[-67.43105,7.65643],[-67.42027,7.66305],[-67.42341,7.66681],[-67.41903,7.66827],[-67.41738,7.66424],[-67.41984,7.65508],[-67.41702,7.65497],[-67.41583,7.65754],[-67.40923,7.65636],[-67.40325,7.65111],[-67.40173,7.64445],[-67.39476,7.64365],[-67.39119,7.63716],[-67.3955,7.63373],[-67.39115,7.62029],[-67.38623,7.62016],[-67.39024,7.61117],[-67.40069,7.61647],[-67.4044,7.60263],[-67.41301,7.60542],[-67.41259,7.59626],[-67.41935,7.59817],[-67.4208,7.59604],[-67.4192,7.59365],[-67.42295,7.59329],[-67.42213,7.58198],[-67.42449,7.57857],[-67.4222,7.57698],[-67.42431,7.56938],[-67.43178,7.56994],[-67.43409,7.56722],[-67.43865,7.56834],[-67.44288,7.56559],[-67.4428,7.5573],[-67.44614,7.55443],[-67.45457,7.55926],[-67.46837,7.55831],[-67.47237,7.55314],[-67.46987,7.55065],[-67.47167,7.54558],[-67.46177,7.53777],[-67.45022,7.52304],[-67.44739,7.51261],[-67.43388,7.50506],[-67.43281,7.49676],[-67.42739,7.49557],[-67.42378,7.49073],[-67.41801,7.49115],[-67.40617,7.48681],[-67.40473,7.47618],[-67.39253,7.47569],[-67.39003,7.46978],[-67.38278,7.46967],[-67.37819,7.46461],[-67.37669,7.45886],[-67.36274,7.45874],[-67.35769,7.45633],[-67.35354,7.46166],[-67.34894,7.45585],[-67.34077,7.45449],[-67.33788,7.44762],[-67.31926,7.44108],[-67.31853,7.43873],[-67.32125,7.43719],[-67.30986,7.42619],[-67.29842,7.4301],[-67.29476,7.42466],[-67.28606,7.42475],[-67.27757,7.42902],[-67.26481,7.42411],[-67.26411,7.42059],[-67.261,7.42173],[-67.26166,7.41749]]]}},{"type":"Feature","id":"relation/11027148","properties":{"name":"Municipio Arismendi","level":6,"population":"23727"},"geometry":{"type":"Polygon","coordinates":[[[-67.87261,8.34298],[-67.88614,8.34519],[-67.90265,8.36545],[-67.90591,8.37185],[-67.89849,8.37676],[-67.90092,8.37968],[-67.90815,8.38001],[-67.9308,8.37246],[-67.93893,8.37456],[-67.93573,8.3796],[-67.94012,8.39041],[-67.94463,8.39363],[-67.951,8.39298],[-67.95965,8.40571],[-67.96435,8.40888],[-67.95792,8.42054],[-67.96646,8.42266],[-67.97829,8.43423],[-67.99194,8.43822],[-67.98957,8.44634],[-67.97308,8.45306],[-67.97362,8.46917],[-67.99705,8.46611],[-68.00215,8.46783],[-68.00887,8.47551],[-67.99948,8.4876],[-68.01898,8.49228],[-68.01561,8.4969],[-68.01497,8.5031],[-68.02107,8.51334],[-68.0212,8.52989],[-68.02686,8.5326],[-68.04636,8.53446],[-68.05091,8.53879],[-68.05274,8.55286],[-68.04858,8.56068],[-68.05657,8.56333],[-68.05256,8.57818],[-68.06715,8.57229],[-68.07973,8.58372],[-68.08287,8.5797],[-68.0887,8.5777],[-68.09031,8.58276],[-68.08579,8.58773],[-68.088,8.58992],[-68.09316,8.58505],[-68.09779,8.588],[-68.10105,8.58594],[-68.10251,8.58915],[-68.09867,8.59097],[-68.09858,8.59366],[-68.10136,8.59488],[-68.10338,8.59292],[-68.10507,8.59534],[-68.1057,8.59222],[-68.10897,8.59301],[-68.10499,8.60267],[-68.10974,8.60185],[-68.11144,8.6048],[-68.11611,8.60435],[-68.1179,8.59509],[-68.1252,8.59885],[-68.12669,8.60319],[-68.13106,8.59789],[-68.13709,8.59523],[-68.13764,8.59938],[-68.13987,8.59839],[-68.14476,8.60136],[-68.14599,8.60849],[-68.14802,8.60243],[-68.14632,8.59736],[-68.15207,8.59963],[-68.15656,8.5971],[-68.16077,8.60491],[-68.16929,8.60522],[-68.17062,8.6022],[-68.17767,8.60342],[-68.17915,8.60072],[-68.18132,8.60507],[-68.18581,8.60532],[-68.1879,8.60256],[-68.19212,8.6051],[-68.20027,8.59573],[-68.20465,8.60225],[-68.20857,8.60327],[-68.22207,8.59149],[-68.22762,8.5921],[-68.23366,8.58925],[-68.24508,8.59998],[-68.25917,8.60121],[-68.26196,8.60421],[-68.2649,8.60024],[-68.26325,8.59433],[-68.27138,8.59375],[-68.28213,8.58655],[-68.29456,8.59462],[-68.29838,8.59325],[-68.29847,8.59913],[-68.31017,8.6111],[-68.32349,8.60721],[-68.32746,8.59675],[-68.3242,8.59522],[-68.32482,8.59354],[-68.33244,8.59431],[-68.33759,8.60251],[-68.34144,8.60232],[-68.34796,8.60689],[-68.35599,8.60834],[-68.35713,8.60569],[-68.36172,8.60452],[-68.36799,8.61197],[-68.37963,8.61389],[-68.38306,8.61218],[-68.38584,8.60533],[-68.41558,8.60076],[-68.42073,8.59436],[-68.42482,8.5947],[-68.43013,8.60088],[-68.4375,8.60322],[-68.44209,8.60755],[-68.45181,8.60286],[-68.45945,8.60697],[-68.46254,8.60487],[-68.46721,8.60932],[-68.47055,8.59982],[-68.4736,8.59762],[-68.48828,8.59678],[-68.49115,8.60097],[-68.49966,8.6012],[-68.50745,8.59744],[-68.50388,8.5869],[-68.50719,8.56868],[-68.51077,8.56609],[-68.51292,8.57104],[-68.52374,8.5709],[-68.52873,8.5481],[-68.5272,8.54634],[-68.54622,8.51758],[-68.55852,8.51325],[-68.60004,8.47019],[-68.60227,8.46696],[-68.60318,8.44876],[-68.634,8.42516],[-68.672,8.4025],[-68.69191,8.38334],[-68.69004,8.38181],[-68.69721,8.37637],[-68.69933,8.37797],[-68.70087,8.37612],[-68.69899,8.37466],[-68.71778,8.355],[-68.71885,8.35722],[-68.73403,8.34294],[-68.74149,8.34276],[-68.74856,8.33571],[-68.74871,8.33942],[-68.75448,8.34205],[-68.75895,8.33341],[-68.78257,8.32719],[-68.78217,8.32195],[-68.779,8.32197],[-68.78173,8.31478],[-68.78695,8.31703],[-68.78822,8.31435],[-68.78711,8.31217],[-68.78198,8.31162],[-68.77757,8.30412],[-68.78297,8.28966],[-68.78732,8.28776],[-68.79046,8.27891],[-68.78752,8.27838],[-68.7834,8.24142],[-68.7967,8.23454],[-68.79554,8.23224],[-68.8086,8.23003],[-68.8092,8.22078],[-68.81321,8.21956],[-68.81413,8.2149],[-68.82573,8.20889],[-68.84338,8.20697],[-68.83984,8.18604],[-68.82994,8.19011],[-68.82421,8.17519],[-68.82863,8.17087],[-68.82549,8.16246],[-68.82199,8.16572],[-68.81989,8.16503],[-68.82428,8.15129],[-68.81941,8.14972],[-68.83336,8.10628],[-68.83957,8.09445],[-68.83671,8.09081],[-68.81978,8.0965],[-68.81708,8.09991],[-68.82206,8.10561],[-68.81567,8.10723],[-68.81197,8.11425],[-68.80467,8.11532],[-68.79744,8.11315],[-68.7892,8.12021],[-68.77994,8.1223],[-68.77644,8.1205],[-68.77273,8.12615],[-68.77471,8.1301],[-68.77198,8.13227],[-68.7728,8.13433],[-68.76477,8.13659],[-68.76739,8.13959],[-68.7663,8.14251],[-68.76068,8.14402],[-68.75395,8.14116],[-68.74839,8.14467],[-68.74582,8.1438],[-68.74776,8.1495],[-68.73359,8.1522],[-68.73202,8.15401],[-68.73364,8.15778],[-68.7264,8.16077],[-68.72013,8.15417],[-68.72042,8.15003],[-68.71766,8.15005],[-68.71425,8.13258],[-68.69889,8.13418],[-68.69261,8.13231],[-68.6831,8.13849],[-68.68089,8.13045],[-68.67325,8.12954],[-68.67541,8.12485],[-68.68259,8.12452],[-68.68381,8.1153],[-68.68621,8.11509],[-68.68086,8.08491],[-68.67638,8.08425],[-68.67271,8.08705],[-68.65796,8.07703],[-68.64866,8.07623],[-68.64457,8.07117],[-68.64159,8.07109],[-68.64152,8.06696],[-68.64811,8.05611],[-68.65301,8.05718],[-68.66038,8.05399],[-68.65525,8.04699],[-68.65725,8.04081],[-68.65186,8.03808],[-68.64612,8.03081],[-68.63461,8.02507],[-68.63104,8.01573],[-68.63513,8.01381],[-68.63671,8.0074],[-68.64729,8.00788],[-68.64708,8.00571],[-68.65257,8.00522],[-68.64714,7.99395],[-68.64912,7.99257],[-68.6483,7.98978],[-68.65441,7.98822],[-68.63997,7.95758],[-68.61428,7.96251],[-68.58971,7.95877],[-68.57108,7.95192],[-68.5546,7.9535],[-68.54136,7.94727],[-68.52205,7.93288],[-68.5039,7.92708],[-68.47688,7.93233],[-68.46047,7.93284],[-68.43991,7.93947],[-68.42579,7.92693],[-68.414,7.93064],[-68.39949,7.92132],[-68.40125,7.91915],[-68.39951,7.91728],[-68.38445,7.91737],[-68.38661,7.91162],[-68.38539,7.90801],[-68.36526,7.89456],[-68.35787,7.89242],[-68.34781,7.88029],[-68.33573,7.8875],[-68.33677,7.89091],[-68.33251,7.89284],[-68.33236,7.90013],[-68.32776,7.89664],[-68.32212,7.89944],[-68.32029,7.89758],[-68.31496,7.89878],[-68.30517,7.90495],[-68.30257,7.91],[-68.29588,7.91111],[-68.29407,7.91468],[-68.29195,7.90716],[-68.27791,7.90712],[-68.25819,7.89963],[-68.25032,7.90138],[-68.25059,7.90524],[-68.24419,7.91033],[-68.2365,7.90284],[-68.22906,7.90622],[-68.22434,7.91232],[-68.22019,7.91179],[-68.21594,7.90564],[-68.21976,7.89917],[-68.21463,7.89828],[-68.2149,7.89522],[-68.20097,7.90189],[-68.19264,7.89969],[-68.18702,7.90318],[-68.184,7.90126],[-68.18256,7.90363],[-68.17352,7.90148],[-68.16492,7.9055],[-68.15445,7.90425],[-68.15316,7.90228],[-68.15184,7.904],[-68.14935,7.89984],[-68.14,7.89721],[-68.12393,7.90347],[-68.11787,7.90252],[-68.11578,7.89938],[-68.11326,7.90076],[-68.10592,7.89779],[-68.09192,7.88235],[-68.07721,7.87868],[-68.07383,7.87419],[-68.06332,7.87207],[-68.06215,7.8673],[-68.0548,7.87054],[-68.05134,7.86875],[-68.04476,7.87784],[-68.04035,7.87428],[-68.03792,7.88029],[-68.0248,7.88084],[-68.02158,7.88644],[-68.01142,7.89149],[-68.01025,7.89528],[-68.00838,7.89143],[-67.99912,7.89134],[-67.98757,7.89604],[-67.98652,7.89405],[-67.97028,7.89371],[-67.96427,7.90085],[-67.94419,7.90947],[-67.9362,7.90631],[-67.93523,7.90228],[-67.93231,7.90338],[-67.92157,7.89654],[-67.91782,7.89845],[-67.91188,7.89177],[-67.90689,7.89353],[-67.90401,7.8895],[-67.89848,7.8911],[-67.8955,7.89649],[-67.88602,7.89664],[-67.87939,7.89048],[-67.87587,7.88174],[-67.87161,7.88222],[-67.86669,7.87878],[-67.86094,7.88928],[-67.85616,7.88187],[-67.85259,7.88459],[-67.85148,7.88196],[-67.84967,7.88529],[-67.84687,7.88531],[-67.85012,7.88739],[-67.85,7.89343],[-67.84922,7.89838],[-67.84657,7.89892],[-67.8447,7.90395],[-67.84565,7.9064],[-67.83594,7.90414],[-67.83644,7.90837],[-67.83303,7.90961],[-67.83177,7.91382],[-67.83259,7.91904],[-67.82622,7.9237],[-67.81576,7.91894],[-67.81336,7.91562],[-67.80792,7.91743],[-67.80395,7.91254],[-67.80095,7.91444],[-67.79943,7.92103],[-67.7945,7.92397],[-67.79347,7.91973],[-67.78608,7.91859],[-67.78268,7.91326],[-67.78003,7.91374],[-67.77884,7.909],[-67.76999,7.91046],[-67.76056,7.90368],[-67.75649,7.9098],[-67.75094,7.90935],[-67.73471,7.91819],[-67.72763,7.91669],[-67.72143,7.90846],[-67.71388,7.91178],[-67.71016,7.91079],[-67.7034,7.91719],[-67.69693,7.91449],[-67.69359,7.92112],[-67.68944,7.92184],[-67.68443,7.93157],[-67.68378,7.93473],[-67.68674,7.93927],[-67.6828,7.94345],[-67.66267,7.94321],[-67.66167,7.93958],[-67.66578,7.93437],[-67.6661,7.92943],[-67.64418,7.93668],[-67.64309,7.94072],[-67.64731,7.94639],[-67.64566,7.95154],[-67.6497,7.95307],[-67.65394,7.94859],[-67.658,7.95787],[-67.65517,7.95858],[-67.65829,7.96324],[-67.65065,7.97057],[-67.64863,7.97144],[-67.63851,7.96374],[-67.63177,7.9638],[-67.62293,7.96803],[-67.60851,7.98068],[-67.59843,7.98518],[-67.59515,7.9842],[-67.59304,7.97857],[-67.58248,7.96999],[-67.57549,7.96047],[-67.55238,7.94198],[-67.53802,7.93493],[-67.54026,7.93975],[-67.53823,7.94343],[-67.51846,7.94959],[-67.50312,7.95138],[-67.50385,7.95858],[-67.51289,7.97151],[-67.52301,7.97375],[-67.5303,7.9788],[-67.53448,7.97667],[-67.53502,7.96935],[-67.54085,7.97498],[-67.54839,7.97597],[-67.55391,7.96607],[-67.55791,7.96427],[-67.55819,7.96929],[-67.55276,7.97521],[-67.55365,7.97951],[-67.57334,7.98989],[-67.5608,7.9994],[-67.55707,8.01176],[-67.56158,8.01255],[-67.56744,8.00547],[-67.57056,8.00567],[-67.57701,8.02315],[-67.5806,8.02228],[-67.5944,8.02707],[-67.59183,8.02973],[-67.58548,8.02971],[-67.58551,8.03415],[-67.59003,8.03625],[-67.60021,8.03598],[-67.60611,8.04145],[-67.60246,8.04856],[-67.59745,8.05033],[-67.59107,8.04865],[-67.57773,8.06384],[-67.5749,8.07447],[-67.58294,8.08781],[-67.58658,8.09025],[-67.60183,8.09083],[-67.60779,8.10042],[-67.61212,8.09675],[-67.62198,8.10346],[-67.62579,8.11642],[-67.63148,8.12431],[-67.66365,8.13727],[-67.66381,8.14951],[-67.66822,8.15204],[-67.67535,8.15118],[-67.67073,8.15967],[-67.66703,8.18151],[-67.67854,8.18817],[-67.67827,8.19661],[-67.68059,8.20192],[-67.68725,8.19958],[-67.69695,8.20358],[-67.69935,8.21427],[-67.70792,8.22793],[-67.74968,8.2317],[-67.75872,8.2199],[-67.7683,8.21742],[-67.77359,8.22069],[-67.77585,8.24157],[-67.7853,8.25453],[-67.7857,8.26558],[-67.78947,8.27093],[-67.79391,8.2697],[-67.79148,8.25805],[-67.7953,8.25356],[-67.81182,8.26182],[-67.82023,8.25534],[-67.82555,8.25842],[-67.83308,8.25825],[-67.8333,8.26118],[-67.82812,8.26559],[-67.82899,8.28342],[-67.83453,8.28964],[-67.84279,8.2873],[-67.842,8.30577],[-67.84381,8.3088],[-67.8598,8.31772],[-67.86033,8.30965],[-67.87589,8.30295],[-67.87611,8.30021],[-67.87889,8.2993],[-67.88172,8.30252],[-67.88131,8.30538],[-67.85776,8.32911],[-67.85248,8.33809],[-67.85649,8.35197],[-67.86325,8.35014],[-67.87016,8.33783],[-67.87261,8.34298]]]}}]}