{"type":"FeatureCollection","features":[{"type":"Feature","id":"node/586981219","properties":{"name":"Guasdualito","place":"town","population":"71000"},"geometry":{"type":"Point","coordinates":[-70.72797,7.23798]}},{"type":"Feature","id":"node/827854421","properties":{"name":"Arichuna","place":"village"},"geometry":{"type":"Point","coordinates":[-67.12213,7.71439]}},{"type":"Feature","id":"node/828126621","properties":{"name":"El Sam\u00e1n de Apure","place":"town"},"geometry":{"type":"Point","coordinates":[-68.69702,7.91395]}},{"type":"Feature","id":"node/828438308","properties":{"name":"San Rafael de Atamaica","place":"town"},"geometry":{"type":"Point","coordinates":[-67.40361,7.51695]}},{"type":"Feature","id":"node/828449115","properties":{"name":"Elorza","place":"city"},"geometry":{"type":"Point","coordinates":[-69.49907,7.05965]}},{"type":"Feature","id":"node/828737024","properties":{"name":"Palmarito","place":"town"},"geometry":{"type":"Point","coordinates":[-70.16133,7.61944]}},{"type":"Feature","id":"node/828743772","properties":{"name":"Bruzual","place":"town"},"geometry":{"type":"Point","coordinates":[-69.33262,8.04839]}},{"type":"Feature","id":"node/1022911564","properties":{"name":"Mantecal","place":"town"},"geometry":{"type":"Point","coordinates":[-69.14681,7.5668]}},{"type":"Feature","id":"node/1022962493","properties":{"name":"Apurito","place":"town"},"geometry":{"type":"Point","coordinates":[-68.47746,7.91865]}},{"type":"Feature","id":"node/1166883382","properties":{"name":"Puerto P\u00e1ez","place":"town"},"geometry":{"type":"Point","coordinates":[-67.44992,6.21606]}},{"type":"Feature","id":"node/2615120913","properties":{"name":"El Nula","place":"town"},"geometry":{"type":"Point","coordinates":[-71.91895,7.27767]}},{"type":"Feature","id":"node/3247358026","properties":{"name":"San Juan de Payara","place":"town","population":"13700"},"geometry":{"type":"Point","coordinates":[-67.60638,7.64605]}},{"type":"Feature","id":"node/3247363050","properties":{"name":"Cunaviche","place":"town"},"geometry":{"type":"Point","coordinates":[-67.41351,7.36544]}},{"type":"Feature","id":"node/5258085065","properties":{"name":"Achaguas","place":"city","population":"65097"},"geometry":{"type":"Point","coordinates":[-68.22275,7.78627]}},{"type":"Feature","id":"node/5758746889","properties":{"name":"Biruaca","place":"town","population":"72000"},"geometry":{"type":"Point","coordinates":[-67.51792,7.84075]}},{"type":"Feature","id":"node/4415299666","properties":{"name":"San Fernando de Apure","place":"city","population":"165135"},"geometry":{"type":"Point","coordinates":[-67.47086,7.88377]}},{"type":"Feature","id":"node/4489200493","properties":{"name":"La Macanilla","place":"village"},"geometry":{"type":"Point","coordinates":[-67.56402,7.02035]}},{"type":"Feature","id":"node/5068270152","properties":{"name":"La Victoria","place":"town"},"geometry":{"type":"Point","coordinates":[-71.4369,7.0336]}},{"type":"Feature","id":"node/5258085109","properties":{"name":"El Yagual","place":"town"},"geometry":{"type":"Point","coordinates":[-68.41948,7.47915]}},{"type":"Feature","id":"node/5258085424","properties":{"name":"Guachara","place":"town"},"geometry":{"type":"Point","coordinates":[-68.36382,7.29274]}},{"type":"Feature","id":"node/5258092211","properties":{"name":"La Estacada","place":"town"},"geometry":{"type":"Point","coordinates":[-69.08295,7.40678]}},{"type":"Feature","id":"node/5258116086","properties":{"name":"La Trinidad de Orichuna","place":"town"},"geometry":{"type":"Point","coordinates":[-69.78686,7.11422]}},{"type":"Feature","id":"node/5258116087","properties":{"name":"Pueblo Nuevo","place":"village"},"geometry":{"type":"Point","coordinates":[-70.77163,7.20324]}},{"type":"Feature","id":"node/5258117370","properties":{"name":"Guacas de Rivera","place":"village"},"geometry":{"type":"Point","coordinates":[-71.30713,7.44348]}},{"type":"Feature","id":"node/5266902644","properties":{"name":"El Milagro Sureste","place":"village"},"geometry":{"type":"Point","coordinates":[-67.27921,7.28971]}},{"type":"Feature","id":"node/5267048815","properties":{"name":"Guasimal","place":"town"},"geometry":{"type":"Point","coordinates":[-67.99522,7.70124]}},{"type":"Feature","id":"node/5658400584","properties":{"name":"Mar\u00eda Luisa","place":"village"},"geometry":{"type":"Point","coordinates":[-66.48928,7.65398]}},{"type":"Feature","id":"node/5678662084","properties":{"name":"El Santero","place":"village"},"geometry":{"type":"Point","coordinates":[-67.02831,7.67131]}},{"type":"Feature","id":"node/5678662087","properties":{"name":"Santa Elena","place":"village"},"geometry":{"type":"Point","coordinates":[-66.93586,7.37981]}},{"type":"Feature","id":"node/5678662091","properties":{"name":"El Faro","place":"village"},"geometry":{"type":"Point","coordinates":[-66.86504,7.34171]}},{"type":"Feature","id":"node/5678662092","properties":{"name":"Guirimita","place":"village"},"geometry":{"type":"Point","coordinates":[-66.80344,7.3679]}},{"type":"Feature","id":"node/5678662097","properties":{"name":"La Arenosa","place":"village"},"geometry":{"type":"Point","coordinates":[-66.79912,7.48604]}},{"type":"Feature","id":"node/5678662100","properties":{"name":"El Terr\u00f3n","place":"village"},"geometry":{"type":"Point","coordinates":[-66.84105,7.46053]}},{"type":"Feature","id":"node/5678662101","properties":{"name":"La Esperanza","place":"village"},"geometry":{"type":"Point","coordinates":[-66.89662,7.45493]}},{"type":"Feature","id":"node/5678662125","properties":{"name":"La Ildefonsera","place":"village"},"geometry":{"type":"Point","coordinates":[-66.85331,7.62425]}},{"type":"Feature","id":"node/5678662126","properties":{"name":"Los Indios","place":"village"},"geometry":{"type":"Point","coordinates":[-66.80603,7.63404]}},{"type":"Feature","id":"node/5678662128","properties":{"name":"Manat\u00ed","place":"village"},"geometry":{"type":"Point","coordinates":[-66.74053,7.66349]}},{"type":"Feature","id":"node/5678662129","properties":{"name":"La Busca","place":"village"},"geometry":{"type":"Point","coordinates":[-66.68163,7.66175]}},{"type":"Feature","id":"node/5678662132","properties":{"name":"El Mam\u00f3n","place":"village"},"geometry":{"type":"Point","coordinates":[-66.64877,7.66449]}},{"type":"Feature","id":"node/5678662158","properties":{"name":"Arauquita","place":"village"},"geometry":{"type":"Point","coordinates":[-67.0016,7.19731]}},{"type":"Feature","id":"node/5754186293","properties":{"name":"Carutico","place":"village"},"geometry":{"type":"Point","coordinates":[-67.38016,7.54938]}},{"type":"Feature","id":"node/5754186298","properties":{"name":"El Picacho","place":"village"},"geometry":{"type":"Point","coordinates":[-67.33857,7.54766]}},{"type":"Feature","id":"node/5754186627","properties":{"name":"El Caral","place":"village"},"geometry":{"type":"Point","coordinates":[-67.12187,7.61549]}},{"type":"Feature","id":"node/5754186993","properties":{"name":"El Dragal Norte","place":"village"},"geometry":{"type":"Point","coordinates":[-67.15419,7.6707]}},{"type":"Feature","id":"node/5754186994","properties":{"name":"El Dragal Sur","place":"village"},"geometry":{"type":"Point","coordinates":[-67.14659,7.63522]}},{"type":"Feature","id":"node/5754187006","properties":{"name":"Paso Potrero Viejo","place":"village"},"geometry":{"type":"Point","coordinates":[-67.44056,7.50949]}},{"type":"Feature","id":"node/5754187008","properties":{"name":"Paso Real de G\u00fcire","place":"village"},"geometry":{"type":"Point","coordinates":[-67.40861,7.5504]}},{"type":"Feature","id":"node/5754187010","properties":{"name":"San Nicol\u00e1s","place":"village"},"geometry":{"type":"Point","coordinates":[-67.46871,7.57003]}},{"type":"Feature","id":"node/5754188159","properties":{"name":"Santa Ana","place":"village"},"geometry":{"type":"Point","coordinates":[-67.35501,6.97669]}},{"type":"Feature","id":"node/5754188171","properties":{"name":"La Villeguera","place":"village"},"geometry":{"type":"Point","coordinates":[-67.26599,6.95381]}},{"type":"Feature","id":"node/5754188172","properties":{"name":"Las Mercedes","place":"village"},"geometry":{"type":"Point","coordinates":[-67.24665,6.95526]}},{"type":"Feature","id":"node/5754188184","properties":{"name":"Boca del Cinaruco","place":"village"},"geometry":{"type":"Point","coordinates":[-67.11709,6.69529]}},{"type":"Feature","id":"node/5758746239","properties":{"name":"Costa de Apurito","place":"village"},"geometry":{"type":"Point","coordinates":[-67.30789,7.8369]}},{"type":"Feature","id":"node/5758746859","properties":{"name":"Los Perros de Agua","place":"village"},"geometry":{"type":"Point","coordinates":[-67.40014,7.86903]}},{"type":"Feature","id":"node/5758746860","properties":{"name":"Isla Apurito","place":"village"},"geometry":{"type":"Point","coordinates":[-67.36533,7.82355]}},{"type":"Feature","id":"node/5758746880","properties":{"name":"La Yagua","place":"village"},"geometry":{"type":"Point","coordinates":[-67.39925,7.90836]}},{"type":"Feature","id":"node/5758746883","properties":{"name":"La Manga de Apurito","place":"village"},"geometry":{"type":"Point","coordinates":[-67.41024,7.90857]}},{"type":"Feature","id":"node/5758746921","properties":{"name":"Boca de Apurito","place":"village"},"geometry":{"type":"Point","coordinates":[-67.41872,7.8918]}},{"type":"Feature","id":"node/5758746975","properties":{"name":"Los Tembladores","place":"village"},"geometry":{"type":"Point","coordinates":[-67.45432,7.82212]}},{"type":"Feature","id":"node/5758747017","properties":{"name":"La Tableta","place":"village"},"geometry":{"type":"Point","coordinates":[-67.52051,7.80454]}},{"type":"Feature","id":"node/5758747044","properties":{"name":"La Cruz de Agua","place":"village"},"geometry":{"type":"Point","coordinates":[-67.53247,7.79631]}},{"type":"Feature","id":"node/5758747096","properties":{"name":"El Algodonal","place":"village"},"geometry":{"type":"Point","coordinates":[-67.47721,7.77414]}},{"type":"Feature","id":"node/5758747097","properties":{"name":"Dividive","place":"village"},"geometry":{"type":"Point","coordinates":[-67.51195,7.78807]}},{"type":"Feature","id":"node/5758747099","properties":{"name":"Negro Abajo","place":"village"},"geometry":{"type":"Point","coordinates":[-67.51326,7.79897]}},{"type":"Feature","id":"node/5758747100","properties":{"name":"El Negro","place":"town"},"geometry":{"type":"Point","coordinates":[-67.52983,7.81912]}},{"type":"Feature","id":"node/5758747202","properties":{"name":"Los P\u00e1jaros","place":"village"},"geometry":{"type":"Point","coordinates":[-67.49637,7.816]}},{"type":"Feature","id":"node/5758747203","properties":{"name":"El Coco","place":"village"},"geometry":{"type":"Point","coordinates":[-67.45558,7.79776]}},{"type":"Feature","id":"node/5758747205","properties":{"name":"La Yuquita","place":"village"},"geometry":{"type":"Point","coordinates":[-67.45822,7.76668]}},{"type":"Feature","id":"node/5758747209","properties":{"name":"La Ca\u00f1a","place":"village"},"geometry":{"type":"Point","coordinates":[-67.40992,7.78539]}},{"type":"Feature","id":"node/5758747210","properties":{"name":"El Negro","place":"village"},"geometry":{"type":"Point","coordinates":[-67.41975,7.7914]}},{"type":"Feature","id":"node/5758747211","properties":{"name":"Los Arrieros","place":"village"},"geometry":{"type":"Point","coordinates":[-67.43702,7.79595]}},{"type":"Feature","id":"node/5758747213","properties":{"name":"El Recreo","place":"village","population":"20000"},"geometry":{"type":"Point","coordinates":[-67.43782,7.86324]}},{"type":"Feature","id":"node/5758747215","properties":{"name":"El Negro","place":"village"},"geometry":{"type":"Point","coordinates":[-67.38454,7.84119]}},{"type":"Feature","id":"node/5758747216","properties":{"name":"Las Maporas","place":"village"},"geometry":{"type":"Point","coordinates":[-67.40677,7.83515]}},{"type":"Feature","id":"node/5758747217","properties":{"name":"La Manga","place":"village"},"geometry":{"type":"Point","coordinates":[-67.37541,7.82236]}},{"type":"Feature","id":"node/5758747218","properties":{"name":"La Yeg\u00fcera","place":"village"},"geometry":{"type":"Point","coordinates":[-67.36439,7.80229]}},{"type":"Feature","id":"node/5758747221","properties":{"name":"Manglarote","place":"village"},"geometry":{"type":"Point","coordinates":[-67.33017,7.76513]}},{"type":"Feature","id":"node/5758747223","properties":{"name":"El Jobal","place":"village"},"geometry":{"type":"Point","coordinates":[-67.29734,7.75321]}},{"type":"Feature","id":"node/5758747224","properties":{"name":"Boquerones","place":"village"},"geometry":{"type":"Point","coordinates":[-67.2889,7.73073]}},{"type":"Feature","id":"node/5758747239","properties":{"name":"Perro Flaco","place":"village"},"geometry":{"type":"Point","coordinates":[-67.24446,7.74575]}},{"type":"Feature","id":"node/5758747257","properties":{"name":"Palmarito","place":"village"},"geometry":{"type":"Point","coordinates":[-67.24873,7.73715]}},{"type":"Feature","id":"node/5758747294","properties":{"name":"La Matanza","place":"village"},"geometry":{"type":"Point","coordinates":[-67.19481,7.74406]}},{"type":"Feature","id":"node/5758747376","properties":{"name":"El Encantico","place":"village"},"geometry":{"type":"Point","coordinates":[-67.06596,7.72016]}},{"type":"Feature","id":"node/5760314522","properties":{"name":"La Candelaria","place":"village"},"geometry":{"type":"Point","coordinates":[-67.53636,7.48178]}},{"type":"Feature","id":"node/5760314553","properties":{"name":"Costa Apure Sequito","place":"village"},"geometry":{"type":"Point","coordinates":[-67.61619,7.58843]}},{"type":"Feature","id":"node/5760314555","properties":{"name":"Costa de Atamaica","place":"village"},"geometry":{"type":"Point","coordinates":[-67.57072,7.60253]}},{"type":"Feature","id":"node/5760314557","properties":{"name":"Las Mangas Castilleras","place":"village"},"geometry":{"type":"Point","coordinates":[-67.53907,7.62204]}},{"type":"Feature","id":"node/5760314645","properties":{"name":"Paso Bucaral","place":"village"},"geometry":{"type":"Point","coordinates":[-67.61471,7.6196]}},{"type":"Feature","id":"node/5760314661","properties":{"name":"Costa de Atamaiquita","place":"village"},"geometry":{"type":"Point","coordinates":[-67.64192,7.6215]}},{"type":"Feature","id":"node/5760314662","properties":{"name":"Costa de Apure Seco","place":"village"},"geometry":{"type":"Point","coordinates":[-67.66677,7.61578]}},{"type":"Feature","id":"node/5760314663","properties":{"name":"Costa de Arauca del Centro","place":"village"},"geometry":{"type":"Point","coordinates":[-67.704,7.57331]}},{"type":"Feature","id":"node/5760314664","properties":{"name":"Paso Arauca","place":"village"},"geometry":{"type":"Point","coordinates":[-67.63505,7.57433]}},{"type":"Feature","id":"node/5760314705","properties":{"name":"Caim\u00e1n Bravo","place":"village"},"geometry":{"type":"Point","coordinates":[-67.93093,7.35406]}},{"type":"Feature","id":"node/5760314848","properties":{"name":"Las Pi\u00f1as","place":"village"},"geometry":{"type":"Point","coordinates":[-67.6497,7.45453]}},{"type":"Feature","id":"node/5760314849","properties":{"name":"El Perro","place":"village"},"geometry":{"type":"Point","coordinates":[-67.56949,7.36567]}},{"type":"Feature","id":"node/5760314899","properties":{"name":"La Soledad","place":"village"},"geometry":{"type":"Point","coordinates":[-67.73616,7.32861]}},{"type":"Feature","id":"node/5760314900","properties":{"name":"La Yeg\u00fcera","place":"village"},"geometry":{"type":"Point","coordinates":[-67.74785,7.34871]}},{"type":"Feature","id":"node/5760316125","properties":{"name":"El Bet\u00fan","place":"village"},"geometry":{"type":"Point","coordinates":[-67.8571,6.93446]}},{"type":"Feature","id":"node/5760316126","properties":{"name":"Playa Grande","place":"village"},"geometry":{"type":"Point","coordinates":[-67.89331,6.92901]}},{"type":"Feature","id":"node/5760316296","properties":{"name":"Piedra Azul","place":"village"},"geometry":{"type":"Point","coordinates":[-67.7028,7.02316]}},{"type":"Feature","id":"node/5760444761","properties":{"name":"La Guarite\u00f1a","place":"village"},"geometry":{"type":"Point","coordinates":[-67.93134,7.70121]}},{"type":"Feature","id":"node/5760444766","properties":{"name":"El Jobal","place":"village"},"geometry":{"type":"Point","coordinates":[-67.95533,7.70217]}},{"type":"Feature","id":"node/5760444802","properties":{"name":"Las Mercedes","place":"village"},"geometry":{"type":"Point","coordinates":[-67.83566,7.84157]}},{"type":"Feature","id":"node/5760444803","properties":{"name":"El Manglar","place":"village"},"geometry":{"type":"Point","coordinates":[-67.8181,7.8483]}},{"type":"Feature","id":"node/5760444861","properties":{"name":"Los Algarrobos","place":"town"},"geometry":{"type":"Point","coordinates":[-67.84289,7.786]}},{"type":"Feature","id":"node/5760444863","properties":{"name":"Caujaral","place":"village"},"geometry":{"type":"Point","coordinates":[-67.82263,7.81429]}},{"type":"Feature","id":"node/5760444865","properties":{"name":"Biruaquita","place":"village"},"geometry":{"type":"Point","coordinates":[-67.87251,7.78211]}},{"type":"Feature","id":"node/5760444867","properties":{"name":"Las Flores","place":"village"},"geometry":{"type":"Point","coordinates":[-67.93063,7.77637]}},{"type":"Feature","id":"node/5760444874","properties":{"name":"Vuelta Mala Sur","place":"village"},"geometry":{"type":"Point","coordinates":[-67.90706,7.84121]}},{"type":"Feature","id":"node/5760444875","properties":{"name":"El Remolino","place":"village"},"geometry":{"type":"Point","coordinates":[-67.88527,7.83196]}},{"type":"Feature","id":"node/5760444876","properties":{"name":"La Florida","place":"village"},"geometry":{"type":"Point","coordinates":[-67.92802,7.84568]}},{"type":"Feature","id":"node/5760444877","properties":{"name":"Costa de Potrerito","place":"village"},"geometry":{"type":"Point","coordinates":[-67.94259,7.82544]}},{"type":"Feature","id":"node/5760444878","properties":{"name":"Los Albores","place":"village"},"geometry":{"type":"Point","coordinates":[-67.96066,7.83651]}},{"type":"Feature","id":"node/5760444879","properties":{"name":"La Ramera","place":"village"},"geometry":{"type":"Point","coordinates":[-67.97537,7.85118]}},{"type":"Feature","id":"node/5760445501","properties":{"name":"Santa Eduvigis","place":"village"},"geometry":{"type":"Point","coordinates":[-67.63068,7.95915]}},{"type":"Feature","id":"node/5760445504","properties":{"name":"Guanaparo","place":"village"},"geometry":{"type":"Point","coordinates":[-67.60012,7.97624]}},{"type":"Feature","id":"node/5760445505","properties":{"name":"Las Culatas Sur","place":"village"},"geometry":{"type":"Point","coordinates":[-67.56298,7.94527]}},{"type":"Feature","id":"node/5760445515","properties":{"name":"Las Mangas","place":"village"},"geometry":{"type":"Point","coordinates":[-67.72651,7.88408]}},{"type":"Feature","id":"node/5760445516","properties":{"name":"Los Medanitos","place":"village"},"geometry":{"type":"Point","coordinates":[-67.70449,7.84455]}},{"type":"Feature","id":"node/5760445872","properties":{"name":"El Chinal","place":"village"},"geometry":{"type":"Point","coordinates":[-67.65898,7.8888]}},{"type":"Feature","id":"node/5760445873","properties":{"name":"Asentamiento Santa Elisa","place":"village"},"geometry":{"type":"Point","coordinates":[-67.63186,7.89025]}},{"type":"Feature","id":"node/5760445887","properties":{"name":"Parcelamiento El Deleite","place":"village"},"geometry":{"type":"Point","coordinates":[-67.64042,7.86816]}},{"type":"Feature","id":"node/5760445891","properties":{"name":"Potrerito","place":"village"},"geometry":{"type":"Point","coordinates":[-67.56729,7.84183]}},{"type":"Feature","id":"node/5760445892","properties":{"name":"El Brazo","place":"village"},"geometry":{"type":"Point","coordinates":[-67.5451,7.86042]}},{"type":"Feature","id":"node/5760445893","properties":{"name":"La Enea","place":"town"},"geometry":{"type":"Point","coordinates":[-67.58299,7.83984]}},{"type":"Feature","id":"node/5760445894","properties":{"name":"Mamonal","place":"town"},"geometry":{"type":"Point","coordinates":[-67.60403,7.83826]}},{"type":"Feature","id":"node/5760445895","properties":{"name":"Rabanal","place":"town"},"geometry":{"type":"Point","coordinates":[-67.54249,7.84455]}},{"type":"Feature","id":"node/5760446035","properties":{"name":"Santa Mar\u00eda","place":"village"},"geometry":{"type":"Point","coordinates":[-67.60237,7.82248]}},{"type":"Feature","id":"node/5760446047","properties":{"name":"La Cot\u00faa","place":"village"},"geometry":{"type":"Point","coordinates":[-67.71003,7.81301]}},{"type":"Feature","id":"node/5760446048","properties":{"name":"El Viento","place":"town"},"geometry":{"type":"Point","coordinates":[-67.72745,7.80922]}},{"type":"Feature","id":"node/5760446049","properties":{"name":"La Colonia","place":"town"},"geometry":{"type":"Point","coordinates":[-67.76111,7.79984]}},{"type":"Feature","id":"node/5760446050","properties":{"name":"Turumba","place":"village"},"geometry":{"type":"Point","coordinates":[-67.80108,7.7831]}},{"type":"Feature","id":"node/5760446077","properties":{"name":"Bethel","place":"village"},"geometry":{"type":"Point","coordinates":[-67.79739,7.76358]}},{"type":"Feature","id":"node/5760446099","properties":{"name":"Fundo Hediondo","place":"village"},"geometry":{"type":"Point","coordinates":[-67.67364,7.79935]}},{"type":"Feature","id":"node/5760446101","properties":{"name":"Las Cot\u00faas","place":"village"},"geometry":{"type":"Point","coordinates":[-67.71569,7.77864]}},{"type":"Feature","id":"node/5760446567","properties":{"name":"La Morita","place":"town"},"geometry":{"type":"Point","coordinates":[-67.66201,7.81668]}},{"type":"Feature","id":"node/5760446568","properties":{"name":"Guarataro","place":"village"},"geometry":{"type":"Point","coordinates":[-67.6487,7.79442]}},{"type":"Feature","id":"node/5760446571","properties":{"name":"El Pozote","place":"village"},"geometry":{"type":"Point","coordinates":[-67.67964,7.75518]}},{"type":"Feature","id":"node/5760446572","properties":{"name":"Guasimote","place":"town"},"geometry":{"type":"Point","coordinates":[-67.69389,7.74298]}},{"type":"Feature","id":"node/5760446585","properties":{"name":"Parcelamiento La Yuca","place":"village"},"geometry":{"type":"Point","coordinates":[-67.56399,7.70527]}},{"type":"Feature","id":"node/5760446621","properties":{"name":"La Yuca","place":"village"},"geometry":{"type":"Point","coordinates":[-67.54158,7.71852]}},{"type":"Feature","id":"node/5825466746","properties":{"name":"El Torre\u00f1o","place":"village"},"geometry":{"type":"Point","coordinates":[-68.03193,7.71998]}},{"type":"Feature","id":"node/5825466747","properties":{"name":"Corinero","place":"village"},"geometry":{"type":"Point","coordinates":[-68.0485,7.72688]}},{"type":"Feature","id":"node/5825466751","properties":{"name":"Santa Marta","place":"village"},"geometry":{"type":"Point","coordinates":[-68.18123,7.76557]}},{"type":"Feature","id":"node/5825466882","properties":{"name":"Cogollal","place":"village"},"geometry":{"type":"Point","coordinates":[-68.20061,7.75928]}},{"type":"Feature","id":"node/5825466891","properties":{"name":"Merecure","place":"village"},"geometry":{"type":"Point","coordinates":[-68.00795,7.85524]}},{"type":"Feature","id":"node/5825466898","properties":{"name":"La Mata","place":"village"},"geometry":{"type":"Point","coordinates":[-68.0767,7.87441]}},{"type":"Feature","id":"node/5825466900","properties":{"name":"Morrocoy","place":"town"},"geometry":{"type":"Point","coordinates":[-68.04743,7.79521]}},{"type":"Feature","id":"node/5825466907","properties":{"name":"Costa de Payara","place":"village"},"geometry":{"type":"Point","coordinates":[-68.19152,7.84008]}},{"type":"Feature","id":"node/5825466908","properties":{"name":"Santa Luc\u00eda","place":"village"},"geometry":{"type":"Point","coordinates":[-68.16854,7.90075]}},{"type":"Feature","id":"node/5825466909","properties":{"name":"La Casualidad","place":"village"},"geometry":{"type":"Point","coordinates":[-68.19038,7.89781]}},{"type":"Feature","id":"node/5825466928","properties":{"name":"El General","place":"village"},"geometry":{"type":"Point","coordinates":[-68.27177,7.82314]}},{"type":"Feature","id":"node/5825467347","properties":{"name":"Las Playitas","place":"village"},"geometry":{"type":"Point","coordinates":[-68.26389,7.73083]}},{"type":"Feature","id":"node/5825467348","properties":{"name":"Los Viejitos","place":"village"},"geometry":{"type":"Point","coordinates":[-68.27574,7.72103]}},{"type":"Feature","id":"node/5825467466","properties":{"name":"Costa de La Zancuda","place":"village"},"geometry":{"type":"Point","coordinates":[-68.51963,7.83877]}},{"type":"Feature","id":"node/5825467468","properties":{"name":"Los Palmares","place":"village"},"geometry":{"type":"Point","coordinates":[-68.49862,7.86159]}},{"type":"Feature","id":"node/5825468033","properties":{"name":"Tallarines","place":"village"},"geometry":{"type":"Point","coordinates":[-68.44985,7.91643]}},{"type":"Feature","id":"node/5825468138","properties":{"name":"Madre Vieja","place":"village"},"geometry":{"type":"Point","coordinates":[-68.42998,7.91363]}},{"type":"Feature","id":"node/5828247211","properties":{"name":"M\u00e9dano Alto","place":"village"},"geometry":{"type":"Point","coordinates":[-68.04902,6.95485]}},{"type":"Feature","id":"node/5828247260","properties":{"name":"San Jos\u00e9","place":"village"},"geometry":{"type":"Point","coordinates":[-68.45937,7.01857]}},{"type":"Feature","id":"node/5828247574","properties":{"name":"Mata de Los Gritos","place":"village"},"geometry":{"type":"Point","coordinates":[-68.33749,7.32914]}},{"type":"Feature","id":"node/5828247653","properties":{"name":"Palmarito","place":"village"},"geometry":{"type":"Point","coordinates":[-68.4059,7.32663]}},{"type":"Feature","id":"node/5828247654","properties":{"name":"Fruta de Burro","place":"village"},"geometry":{"type":"Point","coordinates":[-68.4008,7.25344]}},{"type":"Feature","id":"node/5828248086","properties":{"name":"Parcelamiento Hato Viejo Este","place":"village"},"geometry":{"type":"Point","coordinates":[-68.36455,7.33174]}},{"type":"Feature","id":"node/5828248207","properties":{"name":"Herrerito","place":"village"},"geometry":{"type":"Point","coordinates":[-68.47407,7.56822]}},{"type":"Feature","id":"node/5828248209","properties":{"name":"Costa de Rosario","place":"village"},"geometry":{"type":"Point","coordinates":[-68.45313,7.56352]}},{"type":"Feature","id":"node/5829877885","properties":{"name":"Africa","place":"village"},"geometry":{"type":"Point","coordinates":[-68.91394,7.91413]}},{"type":"Feature","id":"node/5829878073","properties":{"name":"Las Ventanas","place":"village"},"geometry":{"type":"Point","coordinates":[-68.53121,7.92929]}},{"type":"Feature","id":"node/5829878074","properties":{"name":"Las Brisas","place":"village"},"geometry":{"type":"Point","coordinates":[-68.55615,7.94096]}},{"type":"Feature","id":"node/5829878076","properties":{"name":"Santa Anita","place":"village"},"geometry":{"type":"Point","coordinates":[-68.62286,7.94145]}},{"type":"Feature","id":"node/5829878078","properties":{"name":"La Reforma","place":"village"},"geometry":{"type":"Point","coordinates":[-68.59026,7.885]}},{"type":"Feature","id":"node/5829878193","properties":{"name":"Estero Largo","place":"village"},"geometry":{"type":"Point","coordinates":[-68.62131,7.90236]}},{"type":"Feature","id":"node/5829878206","properties":{"name":"Banco Largo","place":"village"},"geometry":{"type":"Point","coordinates":[-68.65034,7.9187]}},{"type":"Feature","id":"node/5829879964","properties":{"name":"Las Matas","place":"village"},"geometry":{"type":"Point","coordinates":[-68.56743,7.32422]}},{"type":"Feature","id":"node/5829879990","properties":{"name":"Samancito","place":"village"},"geometry":{"type":"Point","coordinates":[-68.90495,7.34347]}},{"type":"Feature","id":"node/5829879991","properties":{"name":"Morichito","place":"village"},"geometry":{"type":"Point","coordinates":[-68.86576,7.40696]}},{"type":"Feature","id":"node/5829879997","properties":{"name":"San Luis","place":"village"},"geometry":{"type":"Point","coordinates":[-68.93602,7.33673]}},{"type":"Feature","id":"node/5829880307","properties":{"name":"Paso Bonito","place":"village"},"geometry":{"type":"Point","coordinates":[-68.91975,6.8384]}},{"type":"Feature","id":"node/5829880308","properties":{"name":"Riecito","place":"village"},"geometry":{"type":"Point","coordinates":[-68.94245,6.758]}},{"type":"Feature","id":"node/5829880312","properties":{"name":"San Jos\u00e9 de Los Llanos","place":"village"},"geometry":{"type":"Point","coordinates":[-68.87402,6.83054]}},{"type":"Feature","id":"node/5829880326","properties":{"name":"Cuartel Yaruro","place":"village"},"geometry":{"type":"Point","coordinates":[-68.68342,6.91654]}},{"type":"Feature","id":"node/5829880328","properties":{"name":"Las Campanas","place":"village"},"geometry":{"type":"Point","coordinates":[-68.65302,6.92507]}},{"type":"Feature","id":"node/5829880501","properties":{"name":"Buena Vista del Meta","place":"village"},"geometry":{"type":"Point","coordinates":[-68.59288,6.17007]}},{"type":"Feature","id":"node/5829880502","properties":{"name":"Los Malabares","place":"village"},"geometry":{"type":"Point","coordinates":[-68.5655,6.18275]}},{"type":"Feature","id":"node/5852114224","properties":{"name":"San Vicente","place":"town"},"geometry":{"type":"Point","coordinates":[-69.49706,8.00099]}},{"type":"Feature","id":"node/5902817113","properties":{"name":"Totumito","place":"village"},"geometry":{"type":"Point","coordinates":[-70.50638,7.38088]}},{"type":"Feature","id":"node/5942635566","properties":{"name":"La Guarandinga","place":"village"},"geometry":{"type":"Point","coordinates":[-69.33144,7.7057]}},{"type":"Feature","id":"node/5942636113","properties":{"name":"Las Tiamitas","place":"village"},"geometry":{"type":"Point","coordinates":[-69.33459,8.00785]}},{"type":"Feature","id":"node/5942769685","properties":{"name":"Costa de Mucuritas","place":"village"},"geometry":{"type":"Point","coordinates":[-69.09025,7.57922]}},{"type":"Feature","id":"node/5942769686","properties":{"name":"Los Paujicitos","place":"village"},"geometry":{"type":"Point","coordinates":[-69.10074,7.58409]}},{"type":"Feature","id":"node/5942769722","properties":{"name":"Los Samanes Negros","place":"village"},"geometry":{"type":"Point","coordinates":[-69.10773,7.37932]}},{"type":"Feature","id":"node/5942769744","properties":{"name":"La Orteguera","place":"village"},"geometry":{"type":"Point","coordinates":[-69.32693,7.31445]}},{"type":"Feature","id":"node/5942769758","properties":{"name":"Mata de Ca\u00f1a","place":"village"},"geometry":{"type":"Point","coordinates":[-69.28923,7.33993]}},{"type":"Feature","id":"node/5942911394","properties":{"name":"El Martinero","place":"village"},"geometry":{"type":"Point","coordinates":[-69.39879,7.2254]}},{"type":"Feature","id":"node/5942911406","properties":{"name":"El Caujaro","place":"village"},"geometry":{"type":"Point","coordinates":[-69.32588,7.29553]}},{"type":"Feature","id":"node/5942911464","properties":{"name":"El Yopito","place":"village"},"geometry":{"type":"Point","coordinates":[-69.47393,7.02219]}},{"type":"Feature","id":"node/5943797017","properties":{"name":"Riecito del Oeste","place":"village"},"geometry":{"type":"Point","coordinates":[-69.00991,6.71959]}},{"type":"Feature","id":"node/5943797018","properties":{"name":"San Rafael","place":"village"},"geometry":{"type":"Point","coordinates":[-69.10338,6.85841]}},{"type":"Feature","id":"node/5943797034","properties":{"name":"La Providencia","place":"village"},"geometry":{"type":"Point","coordinates":[-69.49272,6.95474]}},{"type":"Feature","id":"node/5944924205","properties":{"name":"Santa Felicitas","place":"village"},"geometry":{"type":"Point","coordinates":[-69.97035,7.24045]}},{"type":"Feature","id":"node/5944924258","properties":{"name":"Santa Amelia","place":"village"},"geometry":{"type":"Point","coordinates":[-69.56273,7.17558]}},{"type":"Feature","id":"node/5944927505","properties":{"name":"Botal\u00f3n","place":"village"},"geometry":{"type":"Point","coordinates":[-69.61107,7.09091]}},{"type":"Feature","id":"node/5944927931","properties":{"name":"El Encanto","place":"village"},"geometry":{"type":"Point","coordinates":[-69.89993,7.14652]}},{"type":"Feature","id":"node/5944927935","properties":{"name":"El Bram\u00f3n","place":"village"},"geometry":{"type":"Point","coordinates":[-69.96269,7.16633]}},{"type":"Feature","id":"node/5944927946","properties":{"name":"Santa Clara","place":"village"},"geometry":{"type":"Point","coordinates":[-69.87848,7.01044]}},{"type":"Feature","id":"node/5944927953","properties":{"name":"Leche de Miel","place":"village"},"geometry":{"type":"Point","coordinates":[-69.98926,7.00298]}},{"type":"Feature","id":"node/5944927963","properties":{"name":"Alcornocal","place":"village"},"geometry":{"type":"Point","coordinates":[-69.57048,6.96999]}},{"type":"Feature","id":"node/5945098954","properties":{"name":"Los Bellacos","place":"village"},"geometry":{"type":"Point","coordinates":[-69.79631,7.47569]}},{"type":"Feature","id":"node/5945798047","properties":{"name":"Parag\u00fcito","place":"village"},"geometry":{"type":"Point","coordinates":[-69.76155,7.72809]}},{"type":"Feature","id":"node/5945798060","properties":{"name":"Quintero","place":"village"},"geometry":{"type":"Point","coordinates":[-69.8127,7.79032]}},{"type":"Feature","id":"node/7309415200","properties":{"name":"Ciudad Sucre","place":"village"},"geometry":{"type":"Point","coordinates":[-71.89133,7.10079]}},{"type":"Feature","id":"node/8081933320","properties":{"name":"Horichuna","place":"town"},"geometry":{"type":"Point","coordinates":[-70.78222,7.15601]}},{"type":"Feature","id":"node/9014702076","properties":{"name":"El Amparo","place":"town"},"geometry":{"type":"Point","coordinates":[-70.7566,7.10143]}},{"type":"Feature","id":"node/11371174479","properties":{"name":"El Play\u00f3n","place":"village"},"geometry":{"type":"Point","coordinates":[-72.03278,7.04429]}},{"type":"Feature","id":"node/11371174480","properties":{"name":"La Argentina","place":"village"},"geometry":{"type":"Point","coordinates":[-72.01899,7.07212]}},{"type":"Feature","id":"node/11412277361","properties":{"name":"La Llave","place":"village"},"geometry":{"type":"Point","coordinates":[-66.90101,7.44209]}}]}