{"type":"FeatureCollection","features":[{"type":"Feature","id":"way/32563131","properties":{"name":"Carretera Nacional Guasdualito - La Pedrera","highway":"trunk","ref":"T-19"},"geometry":{"type":"LineString","coordinates":[[-70.8189,7.23746],[-70.81979,7.24108],[-70.82112,7.24249],[-70.83906,7.25221],[-70.84894,7.25512],[-70.86885,7.25463],[-70.88969,7.23898],[-70.90205,7.23654],[-70.91387,7.23877],[-70.93225,7.23848],[-70.94131,7.24132],[-70.95155,7.23734],[-70.96292,7.23965],[-70.97533,7.24705],[-70.98815,7.24663],[-71.0047,7.25302],[-71.02984,7.25337],[-71.04838,7.25],[-71.0575,7.2531],[-71.07004,7.26417],[-71.07799,7.26623],[-71.0866,7.27158],[-71.08969,7.27486],[-71.0926,7.28205],[-71.09534,7.28413],[-71.13362,7.29211],[-71.14396,7.29932],[-71.15295,7.31099],[-71.15758,7.31474],[-71.18772,7.32044],[-71.19962,7.31593],[-71.20386,7.31075],[-71.21316,7.30837],[-71.23243,7.31218],[-71.23435,7.31397],[-71.30544,7.43729],[-71.30583,7.44017],[-71.30429,7.44355]]}},{"type":"Feature","id":"way/69068157","properties":{"name":"Carretera Nacional Guasdualito - La Pedrera","highway":"trunk","ref":"T-19"},"geometry":{"type":"LineString","coordinates":[[-70.81848,7.23557],[-70.8189,7.23746]]}},{"type":"Feature","id":"way/77487242","properties":{"name":"Carretera Nacional Guasdualito - El Amparo","highway":"primary","ref":"L-2"},"geometry":{"type":"LineString","coordinates":[[-70.74021,7.08961],[-70.74105,7.09435],[-70.74861,7.09961],[-70.75391,7.10493],[-70.7601,7.10522],[-70.76287,7.10715]]}},{"type":"Feature","id":"way/77487244","properties":{"name":"Puente Internacional Jos\u00e9 Antonio P\u00e1ez","highway":"primary","ref":"L-2;66"},"geometry":{"type":"LineString","coordinates":[[-70.74021,7.08961],[-70.74018,7.08801]]}},{"type":"Feature","id":"way/77549855","properties":{"name":"Carretera Nacional Guasdualito - El Amparo","highway":"primary","ref":"L-2"},"geometry":{"type":"LineString","coordinates":[[-70.76671,7.1141],[-70.76677,7.12571],[-70.7777,7.13746],[-70.78259,7.14697],[-70.77898,7.15576],[-70.77842,7.16251],[-70.77448,7.16922],[-70.77619,7.18546],[-70.77403,7.19519]]}},{"type":"Feature","id":"way/90075425","properties":{"name":"Carretera Nacional Guasdualito - Elorza","highway":"trunk","ref":"L-3"},"geometry":{"type":"LineString","coordinates":[[-69.50563,7.0658],[-69.50752,7.06572],[-69.51552,7.05864],[-69.51834,7.05753],[-69.52188,7.0576],[-69.53017,7.0616],[-69.53313,7.06413],[-69.5441,7.07927],[-69.55368,7.08213],[-69.57748,7.07863],[-69.58408,7.07972],[-69.59413,7.08337],[-69.60457,7.08479],[-69.62773,7.09151],[-69.64058,7.09236],[-69.65184,7.09565],[-69.68006,7.099],[-69.683,7.09766],[-69.69085,7.08957],[-69.69682,7.08805],[-69.70904,7.09008],[-69.72145,7.09871],[-69.78299,7.11172]]}},{"type":"Feature","id":"way/90658509","properties":{"name":"Carretera Nacional Guasdualito - Elorza","highway":"trunk","ref":"L-3"},"geometry":{"type":"LineString","coordinates":[[-69.50563,7.0658],[-69.50394,7.06548],[-69.50126,7.06807]]}},{"type":"Feature","id":"way/96666828","properties":{"name":"Carretera Regional El Nula - La Victoria","highway":"secondary","ref":"L-1"},"geometry":{"type":"LineString","coordinates":[[-71.73815,7.08259],[-71.72658,7.07662],[-71.71153,7.07539],[-71.69639,7.07277],[-71.68436,7.07229],[-71.67078,7.06951],[-71.65484,7.06887],[-71.64063,7.06613],[-71.63682,7.06449],[-71.63156,7.06017]]}},{"type":"Feature","id":"way/102671766","properties":{"name":"Carretera Nacional Guasdualito - El Amparo","highway":"primary","ref":"L-2"},"geometry":{"type":"LineString","coordinates":[[-70.77403,7.19519],[-70.77336,7.19798]]}},{"type":"Feature","id":"way/102671790","properties":{"name":"Avenida Neptal\u00ed Quintero","highway":"tertiary"},"geometry":{"type":"LineString","coordinates":[[-70.70412,7.23656],[-70.70697,7.23702],[-70.71351,7.24058]]}},{"type":"Feature","id":"way/102671835","properties":{"highway":"tertiary"},"geometry":{"type":"LineString","coordinates":[[-70.72676,7.24376],[-70.72186,7.24411],[-70.71869,7.24232]]}},{"type":"Feature","id":"way/102759516","properties":{"name":"Calle Cede\u00f1o","highway":"tertiary"},"geometry":{"type":"LineString","coordinates":[[-70.73643,7.23713],[-70.73603,7.23864]]}},{"type":"Feature","id":"way/102759590","properties":{"name":"Avenida Bicentenaria","highway":"tertiary"},"geometry":{"type":"LineString","coordinates":[[-70.74573,7.22289],[-70.74058,7.22549],[-70.73651,7.23426]]}},{"type":"Feature","id":"way/108009526","properties":{"name":"Avenida Principal de Achaguas","highway":"secondary","ref":"T-8;L-6"},"geometry":{"type":"LineString","coordinates":[[-68.21936,7.80065],[-68.21903,7.80353],[-68.21695,7.8052]]}},{"type":"Feature","id":"way/133488716","properties":{"name":"Carretera Regional El Pi\u00f1al - El Nula","highway":"primary","ref":"L-1"},"geometry":{"type":"LineString","coordinates":[[-71.9201,7.30861],[-71.91638,7.31579],[-71.91637,7.32392],[-71.91075,7.33308],[-71.91048,7.33778],[-71.89375,7.34907],[-71.89264,7.3516],[-71.89201,7.3592],[-71.88845,7.36293],[-71.89007,7.36761],[-71.88928,7.37534],[-71.8836,7.38515],[-71.88352,7.39187],[-71.89635,7.40753]]}},{"type":"Feature","id":"way/150257636","properties":{"name":"Carretera Nacional San Fernando - Achaguas","highway":"trunk","ref":"T-19"},"geometry":{"type":"LineString","coordinates":[[-68.22402,7.80419],[-68.21333,7.80561],[-68.19308,7.80497],[-68.17621,7.80886],[-68.11477,7.81044],[-68.08934,7.79681],[-68.05696,7.79778],[-68.03018,7.78979],[-68.0152,7.77624],[-67.99805,7.77263],[-67.98801,7.77704],[-67.97295,7.77427],[-67.94536,7.77709],[-67.92591,7.77644],[-67.91248,7.77867],[-67.90135,7.7771],[-67.88821,7.7774],[-67.87331,7.78213],[-67.85872,7.77888],[-67.8417,7.78477],[-67.83937,7.78442],[-67.82865,7.77895],[-67.80603,7.77929],[-67.80327,7.78049],[-67.79983,7.78505],[-67.79744,7.7866],[-67.78702,7.78618],[-67.77578,7.79326],[-67.76584,7.79753],[-67.75544,7.80411],[-67.73526,7.80433],[-67.72338,7.8072],[-67.70767,7.80786],[-67.67053,7.81233],[-67.65987,7.81656],[-67.64379,7.82471],[-67.61846,7.83124],[-67.60049,7.83797],[-67.56426,7.84282],[-67.55001,7.84591],[-67.53372,7.84603],[-67.52242,7.84424]]}},{"type":"Feature","id":"way/150257640","properties":{"name":"Puente Mar\u00eda Nieves","highway":"trunk","ref":"T-2"},"geometry":{"type":"LineString","coordinates":[[-67.47301,7.89832],[-67.4731,7.89866]]}},{"type":"Feature","id":"way/150257644","properties":{"name":"Carretera Nacional San Fernando - Puerto P\u00e1ez","highway":"trunk","ref":"T-2"},"geometry":{"type":"LineString","coordinates":[[-67.52174,7.84371],[-67.52976,7.8305],[-67.53036,7.81933],[-67.52832,7.81407],[-67.52371,7.8119],[-67.52084,7.80836],[-67.5206,7.80289],[-67.52362,7.78323],[-67.51914,7.77834],[-67.50884,7.76012],[-67.50749,7.75422],[-67.50948,7.745],[-67.50669,7.74201],[-67.50678,7.73864],[-67.51448,7.733],[-67.52238,7.73139],[-67.52699,7.72487],[-67.5286,7.72086],[-67.5353,7.71337],[-67.54028,7.70547],[-67.55375,7.69895],[-67.56978,7.68382],[-67.57536,7.68131],[-67.57615,7.68015]]}},{"type":"Feature","id":"way/150257650","properties":{"name":"Paseo Libertador","highway":"primary"},"geometry":{"type":"LineString","coordinates":[[-67.47072,7.88374],[-67.47135,7.88966]]}},{"type":"Feature","id":"way/150257651","properties":{"name":"Paseo Libertador","highway":"trunk","ref":"T-2"},"geometry":{"type":"LineString","coordinates":[[-67.47301,7.89832],[-67.47176,7.8897]]}},{"type":"Feature","id":"way/150257652","properties":{"name":"Avenida Caracas","highway":"secondary"},"geometry":{"type":"LineString","coordinates":[[-67.45666,7.88921],[-67.45909,7.88602],[-67.47628,7.88274],[-67.48256,7.88066]]}},{"type":"Feature","id":"way/150258593","properties":{"name":"Avenida Principal de Achaguas","highway":"secondary","ref":"T-8;L-6"},"geometry":{"type":"LineString","coordinates":[[-68.21936,7.80065],[-68.22081,7.80302],[-68.22402,7.80419]]}},{"type":"Feature","id":"way/150258600","properties":{"name":"Avenida Principal de Achaguas","highway":"secondary","ref":"T-8;L-6"},"geometry":{"type":"LineString","coordinates":[[-68.21861,7.78616],[-68.21936,7.80065]]}},{"type":"Feature","id":"way/180070051","properties":{"name":"Avenida Miranda","highway":"secondary","ref":"Alcald\u00eda, Cementerio viejo, Lazo Mart\u00ed"},"geometry":{"type":"LineString","coordinates":[[-67.47242,7.895],[-67.48212,7.89348],[-67.47972,7.88627]]}},{"type":"Feature","id":"way/180138473","properties":{"name":"Avenida Mar\u00eda Nieves","highway":"tertiary"},"geometry":{"type":"LineString","coordinates":[[-67.48351,7.87306],[-67.48116,7.87733],[-67.48119,7.88182],[-67.48216,7.88385]]}},{"type":"Feature","id":"way/180138493","properties":{"name":"Eje Rural Caramacate","highway":"tertiary","ref":"R-15"},"geometry":{"type":"LineString","coordinates":[[-67.47962,7.84937],[-67.48081,7.84626],[-67.48047,7.8437],[-67.4742,7.84103],[-67.47386,7.83779],[-67.47263,7.83589],[-67.46634,7.83831],[-67.46314,7.83838],[-67.46172,7.83587],[-67.46202,7.83165],[-67.46063,7.82939],[-67.45609,7.82609],[-67.45364,7.82035],[-67.45301,7.81627],[-67.44644,7.81048],[-67.4452,7.80752],[-67.44039,7.80636],[-67.43784,7.79867]]}},{"type":"Feature","id":"way/180239061","properties":{"name":"Puente Mar\u00eda Nieves","highway":"trunk","ref":"T-2"},"geometry":{"type":"LineString","coordinates":[[-67.4731,7.89866],[-67.47403,7.90271]]}},{"type":"Feature","id":"way/180239069","properties":{"name":"Avenida Fuerzas Armadas","highway":"tertiary"},"geometry":{"type":"LineString","coordinates":[[-67.46027,7.88571],[-67.46404,7.88779],[-67.46603,7.88763],[-67.47087,7.88499]]}},{"type":"Feature","id":"way/199518621","properties":{"highway":"tertiary","ref":"R-4"},"geometry":{"type":"LineString","coordinates":[[-70.16243,7.62405],[-70.15735,7.63074],[-70.15167,7.6305]]}},{"type":"Feature","id":"way/210443640","properties":{"name":"V\u00eda a Ciudad Sucre","highway":"tertiary"},"geometry":{"type":"LineString","coordinates":[[-71.81086,7.07226],[-71.80765,7.07559],[-71.8053,7.0842]]}},{"type":"Feature","id":"way/210443641","properties":{"name":"V\u00eda a Ciudad Sucre","highway":"tertiary"},"geometry":{"type":"LineString","coordinates":[[-71.84004,7.0877],[-71.84329,7.08884],[-71.85659,7.08571],[-71.8874,7.08535]]}},{"type":"Feature","id":"way/210443642","properties":{"name":"Carretera Regional El Nula - La Victoria","highway":"secondary","ref":"L-1"},"geometry":{"type":"LineString","coordinates":[[-71.94863,7.22547],[-71.94645,7.22015],[-71.93884,7.21753],[-71.93777,7.21436],[-71.93624,7.21293],[-71.92994,7.21032],[-71.91904,7.21123],[-71.90811,7.20851],[-71.88447,7.19355],[-71.86753,7.19037],[-71.85566,7.17959],[-71.8529,7.17559],[-71.84868,7.1633],[-71.8488,7.15964],[-71.85104,7.15299],[-71.85085,7.14907],[-71.83775,7.12171],[-71.83386,7.11918],[-71.82066,7.11941],[-71.8168,7.11706],[-71.81322,7.10374],[-71.80687,7.09055],[-71.8044,7.08781]]}},{"type":"Feature","id":"way/231505265","properties":{"name":"Carretera Regional San Fernando - Arichuna","highway":"primary","ref":"R-16"},"geometry":{"type":"LineString","coordinates":[[-67.12616,7.71162],[-67.13252,7.71067],[-67.1356,7.70737],[-67.13715,7.70802],[-67.14047,7.71368],[-67.14207,7.71472],[-67.14456,7.71536],[-67.14863,7.71473],[-67.15404,7.71247]]}},{"type":"Feature","id":"way/231743878","properties":{"highway":"tertiary","ref":"R-4"},"geometry":{"type":"LineString","coordinates":[[-70.16432,7.62196],[-70.16367,7.62136]]}},{"type":"Feature","id":"way/231747230","properties":{"highway":"secondary"},"geometry":{"type":"LineString","coordinates":[[-70.16525,7.60062],[-70.16451,7.60582],[-70.15984,7.61137],[-70.15927,7.61479]]}},{"type":"Feature","id":"way/250545097","properties":{"name":"Eje Rural La Estacada","highway":"secondary","ref":"R-2"},"geometry":{"type":"LineString","coordinates":[[-69.16226,7.54179],[-69.16652,7.5612]]}},{"type":"Feature","id":"way/254400306","properties":{"name":"Carretera Regional El Pi\u00f1al - El Nula","highway":"primary","ref":"L-1"},"geometry":{"type":"LineString","coordinates":[[-71.89635,7.40753],[-71.89663,7.40941]]}},{"type":"Feature","id":"way/255243598","properties":{"name":"Carretera Nacional Guasdualito - La Pedrera","highway":"trunk","ref":"T-19"},"geometry":{"type":"LineString","coordinates":[[-70.81848,7.23557],[-70.81734,7.23193],[-70.79483,7.21243],[-70.79205,7.20584],[-70.77693,7.19805]]}},{"type":"Feature","id":"way/255815589","properties":{"name":"Carretera Regional El Nula - La Victoria","highway":"secondary","ref":"L-1"},"geometry":{"type":"LineString","coordinates":[[-71.92166,7.26802],[-71.92135,7.27222],[-71.9192,7.27741]]}},{"type":"Feature","id":"way/314819650","properties":{"name":"Carretera Nacional San Fernando - Puerto P\u00e1ez","highway":"trunk","ref":"T-2"},"geometry":{"type":"LineString","coordinates":[[-67.53143,6.41229],[-67.53699,6.3893],[-67.53735,6.38453],[-67.53525,6.36799],[-67.52331,6.3301],[-67.50885,6.31154],[-67.48204,6.29684],[-67.47921,6.29425],[-67.45205,6.23688],[-67.45125,6.23308],[-67.45186,6.22712]]}},{"type":"Feature","id":"way/314819653","properties":{"name":"Carretera Nacional San Fernando - Puerto P\u00e1ez","highway":"trunk","ref":"T-2"},"geometry":{"type":"LineString","coordinates":[[-67.65454,7.50951],[-67.65958,7.47656],[-67.65913,7.47326],[-67.65666,7.46997],[-67.64992,7.45407],[-67.66737,7.4206],[-67.68119,7.40045],[-67.69069,7.39121]]}},{"type":"Feature","id":"way/314819654","properties":{"name":"Carretera Nacional San Fernando - Puerto P\u00e1ez","highway":"trunk","ref":"T-2"},"geometry":{"type":"LineString","coordinates":[[-67.73632,7.32782],[-67.73707,7.32666]]}},{"type":"Feature","id":"way/314819655","properties":{"name":"Carretera Nacional San Fernando - Puerto P\u00e1ez","highway":"trunk","ref":"T-2"},"geometry":{"type":"LineString","coordinates":[[-67.53125,6.41307],[-67.53143,6.41229]]}},{"type":"Feature","id":"way/314819656","properties":{"name":"Carretera Nacional San Fernando - Puerto P\u00e1ez","highway":"trunk","ref":"T-2"},"geometry":{"type":"LineString","coordinates":[[-67.56542,7.0255],[-67.56544,7.02307]]}},{"type":"Feature","id":"way/314819657","properties":{"name":"Carretera Nacional San Fernando - Puerto P\u00e1ez","highway":"trunk","ref":"T-2"},"geometry":{"type":"LineString","coordinates":[[-67.50572,6.55318],[-67.50811,6.55259]]}},{"type":"Feature","id":"way/314819658","properties":{"name":"Carretera Nacional San Fernando - Puerto P\u00e1ez","highway":"trunk","ref":"T-2"},"geometry":{"type":"LineString","coordinates":[[-67.74691,7.25075],[-67.74522,7.25091]]}},{"type":"Feature","id":"way/314819659","properties":{"name":"Carretera Nacional San Fernando - Puerto P\u00e1ez","highway":"trunk","ref":"T-2"},"geometry":{"type":"LineString","coordinates":[[-67.63529,7.15264],[-67.63536,7.15148]]}},{"type":"Feature","id":"way/314819660","properties":{"name":"Carretera Nacional San Fernando - Puerto P\u00e1ez","highway":"trunk","ref":"T-2"},"geometry":{"type":"LineString","coordinates":[[-67.51303,6.89362],[-67.51246,6.89203]]}},{"type":"Feature","id":"way/314819661","properties":{"name":"Carretera Nacional San Fernando - Puerto P\u00e1ez","highway":"trunk","ref":"T-2"},"geometry":{"type":"LineString","coordinates":[[-67.69069,7.39121],[-67.69115,7.39078]]}},{"type":"Feature","id":"way/314819662","properties":{"name":"Carretera Nacional San Fernando - Puerto P\u00e1ez","highway":"trunk","ref":"T-2"},"geometry":{"type":"LineString","coordinates":[[-67.50683,6.71485],[-67.50645,6.71401]]}},{"type":"Feature","id":"way/314819663","properties":{"name":"Carretera Nacional San Fernando - Puerto P\u00e1ez","highway":"trunk","ref":"T-2"},"geometry":{"type":"LineString","coordinates":[[-67.69115,7.39078],[-67.69928,7.38286],[-67.71374,7.35697],[-67.73234,7.334],[-67.73632,7.32782]]}},{"type":"Feature","id":"way/314819664","properties":{"name":"Carretera Nacional San Fernando - Puerto P\u00e1ez","highway":"trunk","ref":"T-2"},"geometry":{"type":"LineString","coordinates":[[-67.63536,7.15148],[-67.63453,7.14792],[-67.62211,7.12725],[-67.60544,7.10359],[-67.59499,7.09204],[-67.58173,7.08115],[-67.57997,7.07879],[-67.57526,7.06328],[-67.56574,7.03912],[-67.56542,7.0255]]}},{"type":"Feature","id":"way/314819665","properties":{"name":"Carretera Nacional San Fernando - Puerto P\u00e1ez","highway":"trunk","ref":"T-2"},"geometry":{"type":"LineString","coordinates":[[-67.74522,7.25091],[-67.73969,7.25019],[-67.72184,7.24007],[-67.70365,7.2284],[-67.69173,7.21731],[-67.68158,7.21293],[-67.67664,7.20784],[-67.67227,7.19829],[-67.64818,7.17464],[-67.6361,7.15631],[-67.63529,7.15264]]}},{"type":"Feature","id":"way/314819666","properties":{"name":"Carretera Nacional San Fernando - Puerto P\u00e1ez","highway":"trunk","ref":"T-2"},"geometry":{"type":"LineString","coordinates":[[-67.56544,7.02307],[-67.5652,7.00654],[-67.55592,6.95979],[-67.55106,6.94371],[-67.51505,6.89829],[-67.51303,6.89362]]}},{"type":"Feature","id":"way/314819667","properties":{"name":"Carretera Nacional San Fernando - Puerto P\u00e1ez","highway":"trunk","ref":"T-2"},"geometry":{"type":"LineString","coordinates":[[-67.73707,7.32666],[-67.74027,7.32031],[-67.74849,7.27772],[-67.75553,7.25535],[-67.75507,7.25283],[-67.75312,7.25084],[-67.74691,7.25075]]}},{"type":"Feature","id":"way/314819668","properties":{"name":"Carretera Nacional San Fernando - Puerto P\u00e1ez","highway":"trunk","ref":"T-2"},"geometry":{"type":"LineString","coordinates":[[-67.50811,6.55259],[-67.51514,6.55022],[-67.52611,6.54181],[-67.54251,6.51695],[-67.54416,6.51001],[-67.5444,6.50084],[-67.54099,6.47652],[-67.53001,6.42114],[-67.53125,6.41307]]}},{"type":"Feature","id":"way/314819669","properties":{"name":"Carretera Nacional San Fernando - Puerto P\u00e1ez","highway":"trunk","ref":"T-2"},"geometry":{"type":"LineString","coordinates":[[-67.51246,6.89203],[-67.51148,6.88707],[-67.51429,6.88287],[-67.5148,6.88031],[-67.50624,6.82828],[-67.51236,6.79175],[-67.50966,6.74564],[-67.51179,6.7266],[-67.50683,6.71485]]}},{"type":"Feature","id":"way/314819670","properties":{"name":"Carretera Nacional San Fernando - Puerto P\u00e1ez","highway":"trunk","ref":"T-2"},"geometry":{"type":"LineString","coordinates":[[-67.50645,6.71401],[-67.50068,6.70135],[-67.49873,6.69346],[-67.50368,6.67037],[-67.49923,6.61925],[-67.495,6.58993],[-67.49587,6.57466],[-67.50149,6.55618],[-67.50356,6.55395],[-67.50572,6.55318]]}},{"type":"Feature","id":"way/314820166","properties":{"name":"Carretera Nacional San Fernando - Puerto P\u00e1ez","highway":"trunk","ref":"T-2"},"geometry":{"type":"LineString","coordinates":[[-67.60497,7.64961],[-67.60894,7.64601],[-67.60894,7.64267],[-67.60797,7.641],[-67.60937,7.63367],[-67.61512,7.6187]]}},{"type":"Feature","id":"way/314820168","properties":{"name":"Carretera Nacional San Fernando - Puerto P\u00e1ez","highway":"trunk","ref":"T-2"},"geometry":{"type":"LineString","coordinates":[[-67.63436,7.57352],[-67.63654,7.573]]}},{"type":"Feature","id":"way/314820169","properties":{"name":"Carretera Nacional San Fernando - Puerto P\u00e1ez","highway":"trunk","ref":"T-2"},"geometry":{"type":"LineString","coordinates":[[-67.61512,7.6187],[-67.61539,7.61777]]}},{"type":"Feature","id":"way/314820170","properties":{"name":"Carretera Nacional San Fernando - Puerto P\u00e1ez","highway":"trunk","ref":"T-2"},"geometry":{"type":"LineString","coordinates":[[-67.60472,7.64991],[-67.60497,7.64961]]}},{"type":"Feature","id":"way/314820171","properties":{"name":"Carretera Nacional San Fernando - Puerto P\u00e1ez","highway":"trunk","ref":"T-2"},"geometry":{"type":"LineString","coordinates":[[-67.64559,7.55475],[-67.64591,7.55409]]}},{"type":"Feature","id":"way/314820172","properties":{"name":"Carretera Nacional San Fernando - Puerto P\u00e1ez","highway":"trunk","ref":"T-2"},"geometry":{"type":"LineString","coordinates":[[-67.65443,7.51016],[-67.65454,7.50951]]}},{"type":"Feature","id":"way/314820173","properties":{"name":"Carretera Nacional San Fernando - Puerto P\u00e1ez","highway":"trunk","ref":"T-2"},"geometry":{"type":"LineString","coordinates":[[-67.57615,7.68015],[-67.57639,7.67945]]}},{"type":"Feature","id":"way/314820174","properties":{"name":"Carretera Nacional San Fernando - Puerto P\u00e1ez","highway":"trunk","ref":"T-2"},"geometry":{"type":"LineString","coordinates":[[-67.57639,7.67945],[-67.57868,7.67354],[-67.59141,7.66116],[-67.59592,7.65554],[-67.6033,7.65134]]}},{"type":"Feature","id":"way/314820176","properties":{"name":"Carretera Nacional San Fernando - Puerto P\u00e1ez","highway":"trunk","ref":"T-2"},"geometry":{"type":"LineString","coordinates":[[-67.61539,7.61777],[-67.61821,7.60947],[-67.61858,7.60383],[-67.62018,7.59896],[-67.62512,7.59035],[-67.63233,7.58275],[-67.63272,7.57497],[-67.63436,7.57352]]}},{"type":"Feature","id":"way/314820177","properties":{"name":"Carretera Nacional San Fernando - Puerto P\u00e1ez","highway":"trunk","ref":"T-2"},"geometry":{"type":"LineString","coordinates":[[-67.63654,7.573],[-67.63761,7.57236],[-67.64559,7.55475]]}},{"type":"Feature","id":"way/314820180","properties":{"name":"Carretera Nacional San Fernando - Puerto P\u00e1ez","highway":"trunk","ref":"T-2"},"geometry":{"type":"LineString","coordinates":[[-67.64591,7.55409],[-67.64847,7.54812],[-67.65443,7.51016]]}},{"type":"Feature","id":"way/320227878","properties":{"name":"Avenida Carabobo","highway":"trunk","ref":"T-2;T-19"},"geometry":{"type":"LineString","coordinates":[[-67.47176,7.8897],[-67.47794,7.88815],[-67.47971,7.88642]]}},{"type":"Feature","id":"way/320227881","properties":{"name":"Avenida Carabobo","highway":"trunk","ref":"T-2;T-19"},"geometry":{"type":"LineString","coordinates":[[-67.47962,7.88634],[-67.47787,7.88807],[-67.47172,7.88958]]}},{"type":"Feature","id":"way/320227885","properties":{"name":"Avenida Casa de Zinc","highway":"trunk","ref":"T-2;T-19"},"geometry":{"type":"LineString","coordinates":[[-67.47971,7.88642],[-67.48216,7.88385],[-67.48264,7.88064]]}},{"type":"Feature","id":"way/320229150","properties":{"name":"Avenida Primero de Mayo","highway":"primary","ref":"R-16"},"geometry":{"type":"LineString","coordinates":[[-67.46359,7.89093],[-67.4423,7.88549]]}},{"type":"Feature","id":"way/320230928","properties":{"name":"Avenida Perimetral Norte","highway":"secondary","ref":"R-10"},"geometry":{"type":"LineString","coordinates":[[-67.47301,7.89832],[-67.47799,7.89659],[-67.48302,7.89344],[-67.4888,7.88798],[-67.49105,7.88114],[-67.4947,7.87912],[-67.50232,7.87905],[-67.51125,7.88445],[-67.51347,7.88383],[-67.51551,7.87986],[-67.51584,7.87575],[-67.51801,7.87326],[-67.51614,7.86913],[-67.51613,7.86697],[-67.51988,7.85944],[-67.51712,7.85296],[-67.5173,7.84756],[-67.52094,7.8451]]}},{"type":"Feature","id":"way/320301570","properties":{"name":"Avenida Revoluci\u00f3n","highway":"secondary","ref":"Clinica del sur"},"geometry":{"type":"LineString","coordinates":[[-67.47798,7.8822],[-67.47962,7.88634]]}},{"type":"Feature","id":"way/320988847","properties":{"name":"Avenida 5 de Julio","highway":"primary","ref":"R-16"},"geometry":{"type":"LineString","coordinates":[[-67.4423,7.88549],[-67.43437,7.88125],[-67.4332,7.87814]]}},{"type":"Feature","id":"way/321738437","properties":{"name":"Avenida 5 de Julio","highway":"primary","ref":"R-16"},"geometry":{"type":"LineString","coordinates":[[-67.43294,7.87773],[-67.42926,7.86777],[-67.42561,7.86322],[-67.42272,7.85463],[-67.42288,7.85027]]}},{"type":"Feature","id":"way/321738438","properties":{"name":"Perimetral Sur","highway":"secondary","ref":"R-14"},"geometry":{"type":"LineString","coordinates":[[-67.43294,7.87773],[-67.43846,7.87328],[-67.44393,7.87185],[-67.45313,7.86453],[-67.46934,7.86468],[-67.47647,7.86688],[-67.47788,7.86849]]}},{"type":"Feature","id":"way/362826644","properties":{"name":"Carretera Nacional Bruzual - Elorza","highway":"primary","ref":"T-4"},"geometry":{"type":"LineString","coordinates":[[-69.32141,7.78241],[-69.32156,7.78292]]}},{"type":"Feature","id":"way/363022316","properties":{"name":"Eje Rural La Estacada","highway":"secondary","ref":"R-2"},"geometry":{"type":"LineString","coordinates":[[-69.3006,7.33743],[-69.29742,7.33546],[-69.28228,7.3424],[-69.27229,7.33424],[-69.26377,7.33304],[-69.25961,7.33602],[-69.25699,7.33657],[-69.24183,7.33358],[-69.2339,7.33696],[-69.21578,7.33971],[-69.20735,7.34633],[-69.19944,7.34978],[-69.19079,7.35077],[-69.17238,7.34577],[-69.171,7.34647],[-69.1659,7.35361],[-69.1628,7.35586],[-69.15106,7.3548],[-69.13911,7.3556],[-69.13391,7.35426],[-69.13026,7.35462],[-69.12206,7.35739],[-69.1172,7.36215],[-69.11257,7.37581],[-69.10355,7.38197],[-69.09994,7.39276],[-69.09851,7.39457],[-69.09635,7.39626],[-69.09181,7.39736],[-69.08849,7.40042],[-69.08246,7.40321]]}},{"type":"Feature","id":"way/370382593","properties":{"name":"Carretera Regional El Nula - La Victoria","highway":"secondary","ref":"L-1"},"geometry":{"type":"LineString","coordinates":[[-71.56573,7.03498],[-71.56066,7.03807],[-71.54356,7.04256],[-71.52708,7.03821],[-71.52311,7.03803],[-71.50555,7.0465],[-71.50113,7.04768],[-71.47617,7.04587],[-71.46887,7.04422],[-71.46142,7.04506],[-71.45855,7.04181],[-71.44585,7.04238],[-71.4423,7.03986]]}},{"type":"Feature","id":"way/370382594","properties":{"name":"Carretera Regional Guasdualito - La Victoria","highway":"secondary","ref":"L-1"},"geometry":{"type":"LineString","coordinates":[[-71.41378,7.09365],[-71.42345,7.0899],[-71.42689,7.08759],[-71.44049,7.0691],[-71.44157,7.06581],[-71.44342,7.04602],[-71.4423,7.03986]]}},{"type":"Feature","id":"way/370428255","properties":{"name":"Carretera Regional El Nula - La Victoria","highway":"secondary","ref":"L-1"},"geometry":{"type":"LineString","coordinates":[[-71.8044,7.08781],[-71.80028,7.08611],[-71.79343,7.0861],[-71.76994,7.09108]]}},{"type":"Feature","id":"way/370428267","properties":{"name":"V\u00eda a Ciudad Sucre","highway":"tertiary"},"geometry":{"type":"LineString","coordinates":[[-71.80539,7.0845],[-71.8044,7.08781]]}},{"type":"Feature","id":"way/370428269","properties":{"name":"V\u00eda a Ciudad Sucre","highway":"tertiary"},"geometry":{"type":"LineString","coordinates":[[-71.8053,7.0842],[-71.80539,7.0845]]}},{"type":"Feature","id":"way/370434913","properties":{"name":"Carretera Regional El Nula - La Victoria","highway":"secondary","ref":"L-1"},"geometry":{"type":"LineString","coordinates":[[-71.76994,7.09108],[-71.76969,7.0911]]}},{"type":"Feature","id":"way/370434914","properties":{"name":"Carretera Regional El Nula - La Victoria","highway":"secondary","ref":"L-1"},"geometry":{"type":"LineString","coordinates":[[-71.76969,7.0911],[-71.75364,7.09137],[-71.73815,7.08259]]}},{"type":"Feature","id":"way/370981659","properties":{"name":"V\u00eda a Ciudad Sucre","highway":"tertiary"},"geometry":{"type":"LineString","coordinates":[[-71.81086,7.07226],[-71.81364,7.07537],[-71.82784,7.08045],[-71.83421,7.08513],[-71.84004,7.0877]]}},{"type":"Feature","id":"way/380557876","properties":{"name":"Avenida Principal de Achaguas","highway":"secondary","ref":"T-8;L-6"},"geometry":{"type":"LineString","coordinates":[[-68.21861,7.78616],[-68.21879,7.78545]]}},{"type":"Feature","id":"way/380698671","properties":{"name":"Carretera Nacional Achaguas - Mantecal","highway":"primary","ref":"T-19"},"geometry":{"type":"LineString","coordinates":[[-69.25218,7.5451],[-69.25478,7.547]]}},{"type":"Feature","id":"way/380698672","properties":{"name":"Carretera Nacional Achaguas - Mantecal","highway":"trunk","ref":"T-19"},"geometry":{"type":"LineString","coordinates":[[-69.13622,7.56952],[-69.14941,7.56125],[-69.20047,7.56113],[-69.20687,7.55925],[-69.23469,7.54566],[-69.25218,7.5451]]}},{"type":"Feature","id":"way/380698673","properties":{"name":"Carretera Nacional Bruzual - Elorza","highway":"trunk","ref":"T-4"},"geometry":{"type":"LineString","coordinates":[[-69.50112,7.06883],[-69.5017,7.0738],[-69.49653,7.08619],[-69.48769,7.10177],[-69.47913,7.11453],[-69.46098,7.12706],[-69.44259,7.13511],[-69.4319,7.14422],[-69.42863,7.15214],[-69.42672,7.16031],[-69.42404,7.18493],[-69.42187,7.19849],[-69.42019,7.20295],[-69.38464,7.23996],[-69.37049,7.25002],[-69.36127,7.26058],[-69.31905,7.30235],[-69.30961,7.32234],[-69.29333,7.34965],[-69.28585,7.36776],[-69.26816,7.39513],[-69.26598,7.40174],[-69.26699,7.42291],[-69.26456,7.44652],[-69.26409,7.47651],[-69.25863,7.49831],[-69.25911,7.51297],[-69.25499,7.53242],[-69.25477,7.54238]]}},{"type":"Feature","id":"way/380698674","properties":{"name":"Carretera Nacional Achaguas - Mantecal","highway":"trunk","ref":"T-19"},"geometry":{"type":"LineString","coordinates":[[-68.48048,7.91686],[-68.50006,7.92061],[-68.53913,7.93664],[-68.57075,7.9432],[-68.60006,7.95077],[-68.60415,7.95042],[-68.63711,7.93809],[-68.6621,7.91706],[-68.6839,7.90231],[-68.69727,7.89066],[-68.72845,7.86772],[-68.83643,7.82098],[-68.88299,7.8064],[-68.92638,7.77988],[-68.96088,7.76904],[-69.0004,7.74893],[-69.00712,7.74372],[-69.01562,7.72731],[-69.01967,7.70766],[-69.02736,7.68814],[-69.02897,7.68159],[-69.02946,7.65333],[-69.031,7.64912],[-69.03957,7.64248],[-69.05047,7.63863],[-69.05403,7.63636],[-69.07708,7.60777],[-69.08318,7.59841],[-69.09266,7.589],[-69.10757,7.58037],[-69.12577,7.57606],[-69.13622,7.56952]]}},{"type":"Feature","id":"way/380698675","properties":{"name":"Carretera Nacional Bruzual - Elorza","highway":"primary","ref":"T-4"},"geometry":{"type":"LineString","coordinates":[[-69.33061,7.71392],[-69.31764,7.75712],[-69.31771,7.76405],[-69.32141,7.78241]]}},{"type":"Feature","id":"way/380699334","properties":{"name":"Avenida Intercomunal","highway":"trunk","ref":"T-2;T-19"},"geometry":{"type":"LineString","coordinates":[[-67.48264,7.88064],[-67.4837,7.8742],[-67.48553,7.86986],[-67.48736,7.86805]]}},{"type":"Feature","id":"way/380699335","properties":{"name":"Avenida Primero de Mayo","highway":"primary","ref":"R-16"},"geometry":{"type":"LineString","coordinates":[[-67.4423,7.88549],[-67.46361,7.89102]]}},{"type":"Feature","id":"way/381296877","properties":{"name":"Carretera Nacional Bruzual - Elorza","highway":"primary","ref":"T-4"},"geometry":{"type":"LineString","coordinates":[[-69.32348,7.87825],[-69.32404,7.88792],[-69.33346,7.90785],[-69.34543,7.94029],[-69.3496,7.95487],[-69.34845,8.01102],[-69.34052,8.03882],[-69.33263,8.04945],[-69.33273,8.05239]]}},{"type":"Feature","id":"way/381543747","properties":{"name":"Paseo Libertador","highway":"primary"},"geometry":{"type":"LineString","coordinates":[[-67.47172,7.88958],[-67.47099,7.8837]]}},{"type":"Feature","id":"way/390448877","properties":{"name":"Avenida M\u00e1rquez del Pumar","highway":"tertiary"},"geometry":{"type":"LineString","coordinates":[[-70.72663,7.24358],[-70.73167,7.24027]]}},{"type":"Feature","id":"way/390452220","properties":{"name":"Calle Cede\u00f1o","highway":"tertiary"},"geometry":{"type":"LineString","coordinates":[[-70.73603,7.23864],[-70.72777,7.2452]]}},{"type":"Feature","id":"way/390452228","properties":{"highway":"tertiary"},"geometry":{"type":"LineString","coordinates":[[-70.72676,7.24376],[-70.72777,7.2452]]}},{"type":"Feature","id":"way/390452234","properties":{"name":"Avenida M\u00e1rquez del Pumar","highway":"tertiary"},"geometry":{"type":"LineString","coordinates":[[-70.73167,7.24027],[-70.73548,7.23775]]}},{"type":"Feature","id":"way/390463196","properties":{"name":"Avenida Bicentenaria","highway":"tertiary"},"geometry":{"type":"LineString","coordinates":[[-70.73644,7.2344],[-70.73643,7.23713]]}},{"type":"Feature","id":"way/390463197","properties":{"name":"Avenida Bicentenaria","highway":"tertiary"},"geometry":{"type":"LineString","coordinates":[[-70.73644,7.2344],[-70.73651,7.23426]]}},{"type":"Feature","id":"way/390478038","properties":{"name":"Avenida M\u00e1rquez del Pumar","highway":"tertiary"},"geometry":{"type":"LineString","coordinates":[[-70.73548,7.23775],[-70.73643,7.23713]]}},{"type":"Feature","id":"way/390478048","properties":{"name":"Carretera Nacional Guasdualito - La Pedrera","highway":"trunk","ref":"T-19"},"geometry":{"type":"LineString","coordinates":[[-70.77693,7.19805],[-70.77525,7.19721]]}},{"type":"Feature","id":"way/390480027","properties":{"name":"Carretera Nacional Guasdualito - El Amparo","highway":"primary","ref":"L-2"},"geometry":{"type":"LineString","coordinates":[[-70.76311,7.10742],[-70.765,7.10959],[-70.76671,7.1141]]}},{"type":"Feature","id":"way/390480028","properties":{"name":"Carretera Nacional Guasdualito - El Amparo","highway":"primary","ref":"L-2"},"geometry":{"type":"LineString","coordinates":[[-70.76311,7.10742],[-70.76287,7.10715]]}},{"type":"Feature","id":"way/391385971","properties":{"name":"Carretera Nacional Guasdualito - Elorza","highway":"trunk","ref":"L-3"},"geometry":{"type":"LineString","coordinates":[[-69.78437,7.11199],[-69.79657,7.11616],[-69.847,7.1269],[-69.87575,7.1344],[-69.89428,7.14487],[-69.91791,7.15161],[-69.93603,7.16348],[-69.96162,7.16565],[-69.967,7.16197],[-69.96963,7.15414],[-69.97951,7.14863],[-70.0012,7.15622],[-70.00689,7.15452],[-70.01909,7.1476],[-70.03208,7.14717],[-70.04275,7.14338],[-70.04897,7.14472],[-70.06417,7.15807],[-70.07461,7.1696]]}},{"type":"Feature","id":"way/391385973","properties":{"name":"Carretera Nacional Guasdualito - Elorza","highway":"trunk","ref":"L-3"},"geometry":{"type":"LineString","coordinates":[[-69.78299,7.11172],[-69.78419,7.11194]]}},{"type":"Feature","id":"way/391385974","properties":{"name":"Carretera Nacional Guasdualito - Elorza","highway":"trunk","ref":"L-3"},"geometry":{"type":"LineString","coordinates":[[-69.78419,7.11194],[-69.78437,7.11199]]}},{"type":"Feature","id":"way/391391204","properties":{"highway":"tertiary"},"geometry":{"type":"LineString","coordinates":[[-70.71351,7.24058],[-70.71351,7.24058]]}},{"type":"Feature","id":"way/398631405","properties":{"name":"Carretera Nacional Guasdualito - La Pedrera","highway":"trunk","ref":"T-19"},"geometry":{"type":"LineString","coordinates":[[-71.30393,7.44432],[-71.30429,7.44355]]}},{"type":"Feature","id":"way/400321754","properties":{"name":"Avenida Fuerzas Armadas","highway":"tertiary"},"geometry":{"type":"LineString","coordinates":[[-67.4782,7.88311],[-67.4711,7.88456]]}},{"type":"Feature","id":"way/405749329","properties":{"name":"Avenida Intercomunal","highway":"trunk","ref":"T-2;T-19"},"geometry":{"type":"LineString","coordinates":[[-67.52157,7.84407],[-67.51709,7.84343],[-67.51545,7.84413]]}},{"type":"Feature","id":"way/405749334","properties":{"name":"Avenida Intercomunal","highway":"trunk","ref":"T-2;T-19"},"geometry":{"type":"LineString","coordinates":[[-67.51299,7.85298],[-67.51165,7.85535]]}},{"type":"Feature","id":"way/405749336","properties":{"highway":"trunk_link"},"geometry":{"type":"LineString","coordinates":[[-67.51237,7.85476],[-67.51243,7.85504]]}},{"type":"Feature","id":"way/405749337","properties":{"highway":"trunk_link","ref":"T-2;T-19"},"geometry":{"type":"LineString","coordinates":[[-67.51266,7.85464],[-67.51237,7.85476]]}},{"type":"Feature","id":"way/405749339","properties":{"highway":"trunk","ref":"T-2;T-19"},"geometry":{"type":"LineString","coordinates":[[-67.51168,7.85543],[-67.51243,7.85504]]}},{"type":"Feature","id":"way/405749340","properties":{"highway":"trunk_link","ref":"T-2;T-19"},"geometry":{"type":"LineString","coordinates":[[-67.51298,7.85461],[-67.51273,7.85435]]}},{"type":"Feature","id":"way/405749342","properties":{"highway":"trunk","ref":"T-2;T-19"},"geometry":{"type":"LineString","coordinates":[[-67.51243,7.85504],[-67.51306,7.85301]]}},{"type":"Feature","id":"way/406271075","properties":{"name":"Avenida M\u00e1rquez del Pumar","highway":"tertiary"},"geometry":{"type":"LineString","coordinates":[[-70.72649,7.24367],[-70.72663,7.24358]]}},{"type":"Feature","id":"way/406512760","properties":{"name":"Paseo Libertador","highway":"secondary"},"geometry":{"type":"LineString","coordinates":[[-67.47099,7.8837],[-67.4707,7.88119]]}},{"type":"Feature","id":"way/406512761","properties":{"highway":"tertiary"},"geometry":{"type":"LineString","coordinates":[[-67.50306,7.87344],[-67.50807,7.87289],[-67.51368,7.86853],[-67.51597,7.86783]]}},{"type":"Feature","id":"way/406513695","properties":{"name":"Carretera Regional Achaguas - El Yagual","highway":"secondary","ref":"T-8;L-6"},"geometry":{"type":"LineString","coordinates":[[-68.2292,7.77747],[-68.23208,7.77726],[-68.23418,7.77598],[-68.23841,7.76676],[-68.2388,7.75997],[-68.23793,7.75475],[-68.25276,7.73839],[-68.27246,7.72464],[-68.27834,7.71902],[-68.3071,7.69707],[-68.31364,7.69356],[-68.32525,7.68461],[-68.32761,7.6814],[-68.33051,7.67419],[-68.33619,7.66853],[-68.35212,7.6435],[-68.36445,7.63415],[-68.38158,7.62564],[-68.38432,7.6223],[-68.38786,7.61058],[-68.39366,7.60241],[-68.39486,7.5988],[-68.39531,7.59206],[-68.39997,7.58372],[-68.4025,7.5743],[-68.40507,7.57027],[-68.40552,7.55889],[-68.40293,7.55192],[-68.40439,7.54445],[-68.40767,7.53926],[-68.40958,7.52603],[-68.40962,7.51514],[-68.40834,7.50942],[-68.41312,7.49727]]}},{"type":"Feature","id":"way/406513696","properties":{"name":"Carretera Regional Achaguas - El Yagual","highway":"secondary","ref":"T-8;L-6"},"geometry":{"type":"LineString","coordinates":[[-68.22866,7.77744],[-68.2292,7.77747]]}},{"type":"Feature","id":"way/406513697","properties":{"name":"Carretera Regional El Yagual - Guachara","highway":"secondary","ref":"T-8;L-6"},"geometry":{"type":"LineString","coordinates":[[-68.41506,7.47354],[-68.41668,7.47278]]}},{"type":"Feature","id":"way/406513698","properties":{"name":"Carretera Regional El Yagual - Guachara","highway":"secondary","ref":"T-8;L-6"},"geometry":{"type":"LineString","coordinates":[[-68.41493,7.44452],[-68.41469,7.43912],[-68.40457,7.40349],[-68.40255,7.36757],[-68.36689,7.31277],[-68.36592,7.30304],[-68.36655,7.29638],[-68.36504,7.29188]]}},{"type":"Feature","id":"way/407054842","properties":{"name":"Carretera Nacional Bruzual - Elorza","highway":"primary","ref":"T-4"},"geometry":{"type":"LineString","coordinates":[[-69.32156,7.78292],[-69.32614,7.79888],[-69.3268,7.80414]]}},{"type":"Feature","id":"way/407054845","properties":{"name":"Carretera Nacional Bruzual - Elorza","highway":"primary","ref":"T-4"},"geometry":{"type":"LineString","coordinates":[[-69.3268,7.80414],[-69.3268,7.8044]]}},{"type":"Feature","id":"way/407167515","properties":{"highway":"primary","ref":"T-4;L-2"},"geometry":{"type":"LineString","coordinates":[[-69.33273,8.05239],[-69.33351,8.0557]]}},{"type":"Feature","id":"way/407777931","properties":{"name":"Avenida Carabobo","highway":"primary","ref":"R-16"},"geometry":{"type":"LineString","coordinates":[[-67.47135,7.88966],[-67.46359,7.89093]]}},{"type":"Feature","id":"way/407777932","properties":{"name":"Avenida Carabobo","highway":"primary","ref":"R-16"},"geometry":{"type":"LineString","coordinates":[[-67.46361,7.89102],[-67.47137,7.88982]]}},{"type":"Feature","id":"way/407777933","properties":{"name":"Avenida Fuerzas Armadas","highway":"tertiary"},"geometry":{"type":"LineString","coordinates":[[-67.47082,7.88466],[-67.46565,7.88754],[-67.46334,7.8877],[-67.4604,7.88569]]}},{"type":"Feature","id":"way/407777934","properties":{"highway":"trunk","ref":"T-2;T-19;R-16"},"geometry":{"type":"LineString","coordinates":[[-67.47176,7.8897],[-67.47176,7.8897]]}},{"type":"Feature","id":"way/407780062","properties":{"name":"Avenida Neptal\u00ed Quintero","highway":"tertiary"},"geometry":{"type":"LineString","coordinates":[[-70.71358,7.24044],[-70.707,7.23694],[-70.70412,7.23656]]}},{"type":"Feature","id":"way/407780063","properties":{"name":"Avenida Neptal\u00ed Quintero","highway":"tertiary"},"geometry":{"type":"LineString","coordinates":[[-70.70412,7.23656],[-70.70316,7.23641]]}},{"type":"Feature","id":"way/407780114","properties":{"name":"Carretera Nacional Guasdualito - La Pedrera","highway":"primary","ref":"L-2"},"geometry":{"type":"LineString","coordinates":[[-70.77403,7.19519],[-70.77525,7.19721]]}},{"type":"Feature","id":"way/407994651","properties":{"name":"Carretera Nacional Achaguas - Mantecal","highway":"trunk","ref":"T-19"},"geometry":{"type":"LineString","coordinates":[[-69.25218,7.5451],[-69.25385,7.54432],[-69.25477,7.54238]]}},{"type":"Feature","id":"way/407994652","properties":{"name":"Carretera Nacional Bruzual - Elorza","highway":"primary","ref":"T-4;T-19"},"geometry":{"type":"LineString","coordinates":[[-69.25477,7.54238],[-69.25478,7.547]]}},{"type":"Feature","id":"way/408631317","properties":{"name":"Carretera Nacional Guasdualito - Elorza","highway":"trunk","ref":"T-19"},"geometry":{"type":"LineString","coordinates":[[-70.11729,7.21596],[-70.11824,7.22198],[-70.12558,7.23344],[-70.1437,7.24486],[-70.18195,7.24565],[-70.22933,7.25649],[-70.23564,7.26028],[-70.25031,7.26437],[-70.25612,7.27157],[-70.26035,7.27443],[-70.28693,7.28033],[-70.30328,7.28837],[-70.32777,7.2837],[-70.34308,7.28997],[-70.35802,7.29121],[-70.38339,7.29018],[-70.41021,7.28298],[-70.41578,7.27996],[-70.42175,7.27382],[-70.42587,7.27263],[-70.45566,7.2747],[-70.49274,7.27182],[-70.50228,7.2685],[-70.51988,7.26599],[-70.53708,7.26568],[-70.54972,7.258],[-70.55428,7.25656],[-70.56161,7.25748],[-70.57011,7.25605],[-70.58029,7.259],[-70.58569,7.25788]]}},{"type":"Feature","id":"way/408631318","properties":{"name":"Carretera Nacional Guasdualito - Elorza","highway":"trunk","ref":"T-19"},"geometry":{"type":"LineString","coordinates":[[-70.11725,7.21531],[-70.11729,7.21596]]}},{"type":"Feature","id":"way/408640141","properties":{"name":"Carretera Nacional San Fernando - Achaguas","highway":"trunk","ref":"T-19"},"geometry":{"type":"LineString","coordinates":[[-67.52242,7.84424],[-67.52157,7.84407]]}},{"type":"Feature","id":"way/408640144","properties":{"name":"Carretera Nacional San Fernando - Achaguas","highway":"trunk","ref":"T-19"},"geometry":{"type":"LineString","coordinates":[[-67.52154,7.84413],[-67.52242,7.84424]]}},{"type":"Feature","id":"way/408640147","properties":{"highway":"trunk_link"},"geometry":{"type":"LineString","coordinates":[[-67.52162,7.84387],[-67.52113,7.844]]}},{"type":"Feature","id":"way/408640997","properties":{"name":"Avenida Intercomunal","highway":"trunk","ref":"T-2;T-19"},"geometry":{"type":"LineString","coordinates":[[-67.51549,7.84417],[-67.51709,7.84349],[-67.52145,7.84412]]}},{"type":"Feature","id":"way/408641964","properties":{"name":"Avenida Intercomunal","highway":"trunk","ref":"T-2;T-19"},"geometry":{"type":"LineString","coordinates":[[-67.48748,7.86795],[-67.50058,7.86108]]}},{"type":"Feature","id":"way/408641972","properties":{"name":"Avenida Intercomunal","highway":"trunk","ref":"T-2;T-19"},"geometry":{"type":"LineString","coordinates":[[-67.50054,7.861],[-67.48732,7.86778]]}},{"type":"Feature","id":"way/408641980","properties":{"name":"Avenida Intercomunal","highway":"trunk","ref":"T-2;T-19"},"geometry":{"type":"LineString","coordinates":[[-67.50058,7.86108],[-67.5007,7.86102]]}},{"type":"Feature","id":"way/408641981","properties":{"name":"Avenida Intercomunal","highway":"trunk","ref":"T-2;T-19"},"geometry":{"type":"LineString","coordinates":[[-67.50066,7.86094],[-67.50054,7.861]]}},{"type":"Feature","id":"way/408641982","properties":{"name":"Avenida Intercomunal","highway":"trunk","ref":"T-2;T-19"},"geometry":{"type":"LineString","coordinates":[[-67.5007,7.86102],[-67.51168,7.85543]]}},{"type":"Feature","id":"way/408641983","properties":{"name":"Avenida Intercomunal","highway":"trunk","ref":"T-2;T-19"},"geometry":{"type":"LineString","coordinates":[[-67.51165,7.85535],[-67.50066,7.86094]]}},{"type":"Feature","id":"way/408641984","properties":{"highway":"trunk","ref":"T-2;T-19"},"geometry":{"type":"LineString","coordinates":[[-67.48744,7.86782],[-67.48744,7.86782]]}},{"type":"Feature","id":"way/408641985","properties":{"name":"Retorno","highway":"trunk_link","ref":"T-2;T-19"},"geometry":{"type":"LineString","coordinates":[[-67.4983,7.86235],[-67.49816,7.86204]]}},{"type":"Feature","id":"way/408642643","properties":{"name":"Avenida Casa de Zinc","highway":"trunk","ref":"T-2;T-19"},"geometry":{"type":"LineString","coordinates":[[-67.48256,7.88066],[-67.48208,7.88376],[-67.47972,7.88627]]}},{"type":"Feature","id":"way/408642644","properties":{"name":"Avenida Intercomunal","highway":"trunk","ref":"T-2;T-19"},"geometry":{"type":"LineString","coordinates":[[-67.48722,7.86786],[-67.48322,7.87523],[-67.48256,7.88066]]}},{"type":"Feature","id":"way/408877043","properties":{"name":"Carretera Nacional Bruzual - Elorza","highway":"primary","ref":"T-4"},"geometry":{"type":"LineString","coordinates":[[-69.3268,7.8044],[-69.32265,7.83507]]}},{"type":"Feature","id":"way/408877044","properties":{"name":"Carretera Nacional Bruzual - Elorza","highway":"primary","ref":"T-4"},"geometry":{"type":"LineString","coordinates":[[-69.32265,7.83507],[-69.32266,7.83542]]}},{"type":"Feature","id":"way/413727358","properties":{"name":"Avenida Principal de Achaguas","highway":"secondary","ref":"T-8;L-6;R-9"},"geometry":{"type":"LineString","coordinates":[[-68.21879,7.78545],[-68.21856,7.78529]]}},{"type":"Feature","id":"way/413727362","properties":{"name":"Avenida Principal de Achaguas","highway":"secondary","ref":"T-8;L-6"},"geometry":{"type":"LineString","coordinates":[[-68.21854,7.78542],[-68.21861,7.78616]]}},{"type":"Feature","id":"way/413727365","properties":{"name":"Avenida Principal de Achaguas","highway":"secondary","ref":"T-8;L-6"},"geometry":{"type":"LineString","coordinates":[[-68.22866,7.77744],[-68.22055,7.77969],[-68.21876,7.78228],[-68.2185,7.78494]]}},{"type":"Feature","id":"way/413727567","properties":{"name":"Eje Rural La Estacada","highway":"secondary","ref":"R-2"},"geometry":{"type":"LineString","coordinates":[[-69.16226,7.54179],[-69.16007,7.5387],[-69.1545,7.5383],[-69.14327,7.5327],[-69.13232,7.52546],[-69.12423,7.52362],[-69.12426,7.46013]]}},{"type":"Feature","id":"way/413727648","properties":{"name":"Eje Rural La Estacada","highway":"secondary","ref":"R-2"},"geometry":{"type":"LineString","coordinates":[[-69.08246,7.40321],[-69.08179,7.40536],[-69.08506,7.41127],[-69.09174,7.41393],[-69.09531,7.41706],[-69.09702,7.42884],[-69.10736,7.43976],[-69.10881,7.44807],[-69.12269,7.45523],[-69.12402,7.45695],[-69.12426,7.46013]]}},{"type":"Feature","id":"way/421326183","properties":{"name":"Carretera Marginal del Apure","highway":"secondary","ref":"R-4"},"geometry":{"type":"LineString","coordinates":[[-70.1695,7.57712],[-70.16296,7.5858]]}},{"type":"Feature","id":"way/421343294","properties":{"highway":"primary_link"},"geometry":{"type":"LineString","coordinates":[[-67.47127,7.88928],[-67.47172,7.88918]]}},{"type":"Feature","id":"way/421343295","properties":{"highway":"primary_link"},"geometry":{"type":"LineString","coordinates":[[-67.4713,7.88652],[-67.47106,7.88658]]}},{"type":"Feature","id":"way/421343296","properties":{"highway":"primary_link"},"geometry":{"type":"LineString","coordinates":[[-67.47103,7.88636],[-67.47129,7.88633]]}},{"type":"Feature","id":"way/421343297","properties":{"name":"Avenida Fuerzas Armadas","highway":"tertiary"},"geometry":{"type":"LineString","coordinates":[[-67.47112,7.88488],[-67.47822,7.88321]]}},{"type":"Feature","id":"way/421396690","properties":{"highway":"tertiary"},"geometry":{"type":"LineString","coordinates":[[-67.4924,7.86513],[-67.49682,7.87033]]}},{"type":"Feature","id":"way/421414432","properties":{"name":"Carretera Regional San Fernando - Arichuna","highway":"primary","ref":"R-16"},"geometry":{"type":"LineString","coordinates":[[-67.42288,7.85027],[-67.42266,7.84388],[-67.42616,7.83727],[-67.42563,7.83464],[-67.42024,7.83386],[-67.4138,7.83549],[-67.40777,7.83464],[-67.40352,7.83779],[-67.3966,7.8403],[-67.39283,7.83863],[-67.38048,7.82616]]}},{"type":"Feature","id":"way/428706233","properties":{"name":"Paseo Libertador","highway":"trunk","ref":"T-2"},"geometry":{"type":"LineString","coordinates":[[-67.47137,7.88982],[-67.47301,7.89832]]}},{"type":"Feature","id":"way/428711322","properties":{"name":"Avenida Miranda","highway":"secondary","ref":"Alcald\u00eda, Cementerio viejo, Lazo Mart\u00ed"},"geometry":{"type":"LineString","coordinates":[[-67.47971,7.88642],[-67.48204,7.89349],[-67.47237,7.89488]]}},{"type":"Feature","id":"way/440878698","properties":{"name":"V\u00eda a San Rafael de Atamaica","highway":"secondary","ref":"R-17"},"geometry":{"type":"LineString","coordinates":[[-67.49905,7.59033],[-67.48603,7.58578],[-67.46742,7.564],[-67.4644,7.55471],[-67.45998,7.54971],[-67.44454,7.54332],[-67.43756,7.53672],[-67.43309,7.53418],[-67.42673,7.52875],[-67.41597,7.52383],[-67.40824,7.51799]]}},{"type":"Feature","id":"way/446613353","properties":{"name":"V\u00eda a Cunaviche","highway":"secondary","ref":"R-18"},"geometry":{"type":"LineString","coordinates":[[-67.64996,7.4556],[-67.63612,7.43264],[-67.61354,7.40564],[-67.60423,7.38572],[-67.58398,7.37282],[-67.58071,7.36872],[-67.57067,7.36525],[-67.56531,7.36808],[-67.56359,7.36806],[-67.55934,7.3625],[-67.55248,7.36035],[-67.55122,7.35722]]}},{"type":"Feature","id":"way/446613354","properties":{"name":"V\u00eda a Cunaviche","highway":"secondary","ref":"R-18"},"geometry":{"type":"LineString","coordinates":[[-67.55122,7.35722],[-67.55105,7.35638]]}},{"type":"Feature","id":"way/446613356","properties":{"name":"V\u00eda a Cunaviche","highway":"secondary","ref":"R-18"},"geometry":{"type":"LineString","coordinates":[[-67.55105,7.35638],[-67.54995,7.35453],[-67.545,7.35176],[-67.53534,7.35085],[-67.5241,7.35104],[-67.50736,7.35387],[-67.4973,7.35253],[-67.47243,7.35994],[-67.46481,7.36651],[-67.44646,7.36413],[-67.42677,7.37294],[-67.41932,7.372],[-67.41389,7.36904],[-67.41298,7.36727]]}},{"type":"Feature","id":"way/543936636","properties":{"name":"Avenida Principal de Achaguas","highway":"secondary","ref":"T-8;L-6;R-9"},"geometry":{"type":"LineString","coordinates":[[-68.21856,7.78529],[-68.21879,7.78545]]}},{"type":"Feature","id":"way/543940038","properties":{"name":"Carretera Nacional Guasdualito - Elorza","highway":"trunk","ref":"T-19"},"geometry":{"type":"LineString","coordinates":[[-70.74573,7.22289],[-70.73395,7.22382],[-70.7272,7.2282],[-70.7115,7.23487],[-70.70186,7.23647],[-70.69264,7.23456],[-70.68413,7.2389],[-70.68049,7.23948],[-70.67277,7.24278],[-70.66101,7.24228],[-70.64358,7.244],[-70.62758,7.24276],[-70.60299,7.25115],[-70.59434,7.2558],[-70.58569,7.25788]]}},{"type":"Feature","id":"way/543940041","properties":{"name":"Carretera Nacional Guasdualito - El Amparo","highway":"trunk","ref":"T-19"},"geometry":{"type":"LineString","coordinates":[[-70.77336,7.19798],[-70.77177,7.20419],[-70.76859,7.20861],[-70.76691,7.21562],[-70.76492,7.21818],[-70.75953,7.22016],[-70.74573,7.22289]]}},{"type":"Feature","id":"way/543940042","properties":{"name":"Carretera Nacional Guasdualito - La Pedrera","highway":"trunk","ref":"T-19"},"geometry":{"type":"LineString","coordinates":[[-70.77525,7.19721],[-70.77336,7.19798]]}},{"type":"Feature","id":"way/545279530","properties":{"name":"Carretera Regional San Fernando - Arichuna","highway":"primary","ref":"R-16"},"geometry":{"type":"LineString","coordinates":[[-67.28796,7.73085],[-67.29913,7.73782],[-67.30121,7.74014],[-67.30617,7.76185],[-67.30958,7.7664],[-67.32084,7.76906],[-67.32415,7.76853],[-67.32964,7.7653],[-67.34559,7.76566],[-67.34906,7.76651],[-67.35541,7.76999],[-67.36035,7.77618],[-67.36198,7.78388],[-67.3597,7.78896],[-67.3596,7.79568],[-67.36125,7.79971],[-67.3655,7.80539],[-67.36629,7.80854],[-67.3649,7.81177],[-67.36597,7.81468],[-67.36932,7.81853],[-67.38048,7.82616]]}},{"type":"Feature","id":"way/556112558","properties":{"highway":"tertiary"},"geometry":{"type":"LineString","coordinates":[[-67.49689,7.87028],[-67.49298,7.86485]]}},{"type":"Feature","id":"way/556135645","properties":{"highway":"trunk_link","ref":"T-2;T-19"},"geometry":{"type":"LineString","coordinates":[[-67.49731,7.86249],[-67.49755,7.86271]]}},{"type":"Feature","id":"way/556139471","properties":{"highway":"trunk_link"},"geometry":{"type":"LineString","coordinates":[[-67.47234,7.89564],[-67.47245,7.89573]]}},{"type":"Feature","id":"way/556808730","properties":{"name":"Eje Rural Caramacate","highway":"tertiary","ref":"R-15"},"geometry":{"type":"LineString","coordinates":[[-67.47824,7.8685],[-67.48007,7.86501],[-67.47797,7.85986],[-67.47934,7.8565],[-67.47809,7.85281],[-67.47959,7.84945]]}},{"type":"Feature","id":"way/557095251","properties":{"name":"Eje Rural Caramacate","highway":"tertiary","ref":"R-15"},"geometry":{"type":"LineString","coordinates":[[-67.47959,7.84945],[-67.47962,7.84937]]}},{"type":"Feature","id":"way/557157251","properties":{"name":"Avenida Intercomunal","highway":"trunk","ref":"T-2;T-19"},"geometry":{"type":"LineString","coordinates":[[-67.51486,7.84564],[-67.51549,7.84417]]}},{"type":"Feature","id":"way/557157252","properties":{"name":"Avenida Intercomunal","highway":"trunk","ref":"T-2;T-19"},"geometry":{"type":"LineString","coordinates":[[-67.51306,7.85301],[-67.51486,7.84564]]}},{"type":"Feature","id":"way/557157254","properties":{"name":"Avenida Intercomunal","highway":"trunk","ref":"T-2;T-19"},"geometry":{"type":"LineString","coordinates":[[-67.5148,7.84564],[-67.51299,7.85298]]}},{"type":"Feature","id":"way/557157255","properties":{"name":"Avenida Intercomunal","highway":"trunk","ref":"T-2;T-19"},"geometry":{"type":"LineString","coordinates":[[-67.51545,7.84413],[-67.5148,7.84564]]}},{"type":"Feature","id":"way/557412297","properties":{"name":"Carretera Nacional San Fernando - Puerto P\u00e1ez","highway":"trunk","ref":"T-2"},"geometry":{"type":"LineString","coordinates":[[-67.52154,7.84413],[-67.52174,7.84371]]}},{"type":"Feature","id":"way/557412298","properties":{"name":"Carretera Nacional San Fernando - Puerto P\u00e1ez","highway":"trunk","ref":"T-2"},"geometry":{"type":"LineString","coordinates":[[-67.52174,7.84371],[-67.52145,7.84412]]}},{"type":"Feature","id":"way/575715417","properties":{"name":"V\u00eda a San Rafael de Atamaica","highway":"secondary","ref":"R-17"},"geometry":{"type":"LineString","coordinates":[[-67.61777,7.61103],[-67.60897,7.61345],[-67.60458,7.61225],[-67.5969,7.61363],[-67.59322,7.61306],[-67.58371,7.60981],[-67.57791,7.60501],[-67.55794,7.59921],[-67.55333,7.59252],[-67.54698,7.59088],[-67.53416,7.59108],[-67.52948,7.59316],[-67.52335,7.59251],[-67.51269,7.59577],[-67.50825,7.59507],[-67.49905,7.59033]]}},{"type":"Feature","id":"way/577206146","properties":{"name":"Avenida 5 de Julio","highway":"primary","ref":"R-16"},"geometry":{"type":"LineString","coordinates":[[-67.4332,7.87814],[-67.43294,7.87773]]}},{"type":"Feature","id":"way/577208912","properties":{"highway":"tertiary"},"geometry":{"type":"LineString","coordinates":[[-70.71869,7.24232],[-70.71746,7.24114],[-70.71366,7.24064]]}},{"type":"Feature","id":"way/607085596","properties":{"name":"Eje Rural de El Dragal","highway":"tertiary"},"geometry":{"type":"LineString","coordinates":[[-67.1353,7.7074],[-67.13546,7.70587],[-67.14155,7.7027],[-67.14142,7.69648],[-67.14442,7.69549],[-67.14809,7.69078],[-67.15447,7.68811],[-67.1522,7.68367],[-67.15482,7.67012],[-67.15372,7.66255],[-67.1549,7.66045],[-67.16221,7.65677],[-67.16307,7.65528],[-67.1617,7.65351],[-67.15977,7.65307],[-67.15035,7.65458],[-67.14767,7.65449],[-67.14365,7.65258],[-67.14513,7.64658],[-67.14885,7.63818],[-67.14724,7.63361],[-67.14513,7.63127],[-67.14037,7.63148],[-67.1347,7.63488],[-67.13052,7.63622],[-67.12717,7.63488],[-67.1255,7.63197],[-67.1284,7.62442],[-67.13239,7.6197]]}},{"type":"Feature","id":"way/607916422","properties":{"name":"V\u00eda a Cunaviche","highway":"secondary","ref":"R-18"},"geometry":{"type":"LineString","coordinates":[[-67.65045,7.45293],[-67.64834,7.453]]}},{"type":"Feature","id":"way/607936987","properties":{"name":"V\u00eda a Guasimal","highway":"tertiary","ref":"R-13"},"geometry":{"type":"LineString","coordinates":[[-67.99602,7.69945],[-67.98995,7.70298],[-67.98421,7.70387],[-67.9817,7.70742],[-67.9928,7.74355],[-67.98763,7.75911],[-67.99247,7.77507]]}},{"type":"Feature","id":"way/623417039","properties":{"name":"Carretera Marginal del Apure","highway":"secondary","ref":"R-4"},"geometry":{"type":"LineString","coordinates":[[-70.50491,7.26907],[-70.50344,7.27847],[-70.48903,7.30014],[-70.48882,7.31463],[-70.48541,7.3202],[-70.47763,7.32702],[-70.47562,7.33064],[-70.47547,7.34214],[-70.47696,7.34444],[-70.48216,7.34836]]}},{"type":"Feature","id":"way/623417042","properties":{"highway":"secondary","ref":"R-4"},"geometry":{"type":"LineString","coordinates":[[-70.50491,7.26907],[-70.5057,7.26811]]}},{"type":"Feature","id":"way/623417043","properties":{"highway":"secondary","ref":"R-4"},"geometry":{"type":"LineString","coordinates":[[-70.50491,7.26907],[-70.50421,7.26823]]}},{"type":"Feature","id":"way/623417045","properties":{"name":"Carretera Marginal del Apure","highway":"secondary","ref":"R-4"},"geometry":{"type":"LineString","coordinates":[[-70.48216,7.34836],[-70.48247,7.34871]]}},{"type":"Feature","id":"way/629656070","properties":{"name":"Carretera Marginal del Apure","highway":"tertiary","ref":"R-4"},"geometry":{"type":"LineString","coordinates":[[-69.49974,7.99593],[-69.49629,7.99575]]}},{"type":"Feature","id":"way/629965447","properties":{"highway":"tertiary"},"geometry":{"type":"LineString","coordinates":[[-70.03635,7.74353],[-70.02874,7.74351],[-70.02808,7.7371],[-70.02409,7.72875],[-70.02477,7.72453]]}},{"type":"Feature","id":"way/658862356","properties":{"name":"Carretera Regional Guasdualito - La Victoria","highway":"secondary","ref":"L-1"},"geometry":{"type":"LineString","coordinates":[[-71.06817,7.12435],[-71.07059,7.12397],[-71.08514,7.11406],[-71.08868,7.11298],[-71.17518,7.11305],[-71.19737,7.12404],[-71.20956,7.12521],[-71.22457,7.11975],[-71.23623,7.11042],[-71.24075,7.10304],[-71.25331,7.09736],[-71.25725,7.0982],[-71.26209,7.09771],[-71.26722,7.10031],[-71.29628,7.09921],[-71.30573,7.10197],[-71.31713,7.10006],[-71.32329,7.10486],[-71.32865,7.11275],[-71.33768,7.11865],[-71.34463,7.11996],[-71.3507,7.11909],[-71.37096,7.11145],[-71.38496,7.10184],[-71.4039,7.09403],[-71.41378,7.09365]]}},{"type":"Feature","id":"way/674355686","properties":{"name":"Avenida Revoluci\u00f3n","highway":"secondary","ref":"Cl\u00ednica Des Sur"},"geometry":{"type":"LineString","coordinates":[[-67.47972,7.88627],[-67.47814,7.88215]]}},{"type":"Feature","id":"way/674355687","properties":{"name":"Avenida Casa de Zinz","highway":"trunk","ref":"T-2;T-19"},"geometry":{"type":"LineString","coordinates":[[-67.47972,7.88627],[-67.47962,7.88634]]}},{"type":"Feature","id":"way/681233681","properties":{"name":"Avenida Principal de Achaguas","highway":"secondary","ref":"T-8;L-6"},"geometry":{"type":"LineString","coordinates":[[-68.2185,7.78494],[-68.21853,7.78536]]}},{"type":"Feature","id":"way/681233682","properties":{"name":"Avenida Principal de Achaguas","highway":"secondary","ref":"T-8;L-6"},"geometry":{"type":"LineString","coordinates":[[-68.21869,7.78524],[-68.2185,7.78494]]}},{"type":"Feature","id":"way/705494819","properties":{"name":"Carretera Marginal del Apure","highway":"tertiary","ref":"R-4"},"geometry":{"type":"LineString","coordinates":[[-70.15167,7.6305],[-70.1445,7.64071],[-70.13872,7.64579],[-70.139,7.64777],[-70.14574,7.66001],[-70.14555,7.66611],[-70.14444,7.66819],[-70.12559,7.67814],[-70.11654,7.68185],[-70.10041,7.70214],[-70.0904,7.7054],[-70.08575,7.70911],[-70.05931,7.71793],[-70.04861,7.72572],[-70.03608,7.73108],[-70.03243,7.73039],[-70.02908,7.72698],[-70.01595,7.719],[-70.0061,7.71565],[-69.97726,7.72102],[-69.97119,7.72566],[-69.94155,7.72546],[-69.89721,7.75377],[-69.89108,7.76729],[-69.8851,7.76878],[-69.8739,7.77556],[-69.85394,7.7729],[-69.8442,7.77468],[-69.83145,7.77355],[-69.82073,7.77625],[-69.81257,7.7753],[-69.80736,7.77793],[-69.80304,7.78671],[-69.79964,7.78882],[-69.79744,7.7888],[-69.79138,7.78594],[-69.78223,7.78792],[-69.76938,7.78828],[-69.76685,7.7894],[-69.76148,7.79417],[-69.75876,7.79987],[-69.75,7.80518],[-69.7467,7.81134],[-69.74402,7.8127],[-69.73754,7.81068],[-69.73105,7.80298],[-69.72097,7.79924],[-69.7175,7.79927],[-69.71272,7.80167],[-69.71125,7.80296],[-69.70148,7.82242],[-69.69738,7.82778],[-69.66125,7.85055],[-69.63876,7.8605],[-69.63652,7.86273],[-69.63503,7.87056],[-69.63212,7.87434],[-69.60939,7.88243],[-69.59086,7.90814],[-69.57263,7.91602],[-69.55182,7.91923],[-69.55029,7.92061],[-69.54831,7.92516],[-69.54824,7.93545],[-69.54605,7.93906],[-69.52889,7.94309],[-69.50419,7.95731],[-69.50266,7.95973],[-69.50287,7.97032],[-69.50131,7.97757],[-69.49974,7.99593]]}},{"type":"Feature","id":"way/705494820","properties":{"highway":"tertiary","ref":"R-4"},"geometry":{"type":"LineString","coordinates":[[-70.16243,7.62405],[-70.16432,7.62196]]}},{"type":"Feature","id":"way/706126563","properties":{"name":"Carretera Marginal del Apure","highway":"secondary","ref":"R-4"},"geometry":{"type":"LineString","coordinates":[[-70.1695,7.57712],[-70.17659,7.57092],[-70.18442,7.57105],[-70.19371,7.56971],[-70.20678,7.56493],[-70.21948,7.56399],[-70.22446,7.56227],[-70.22751,7.55899],[-70.2459,7.52755],[-70.24793,7.52323],[-70.24873,7.516],[-70.25027,7.51332],[-70.25909,7.50621],[-70.27349,7.5026],[-70.27888,7.49998],[-70.29259,7.47666],[-70.29686,7.47247],[-70.30864,7.46383],[-70.34462,7.4426],[-70.36863,7.4332],[-70.37125,7.43079],[-70.37917,7.41873],[-70.38492,7.41375],[-70.38683,7.41366],[-70.39022,7.41551],[-70.39243,7.41505],[-70.40376,7.40802],[-70.41367,7.40594],[-70.43161,7.39875],[-70.4426,7.39345],[-70.4467,7.39026]]}},{"type":"Feature","id":"way/706233366","properties":{"highway":"tertiary"},"geometry":{"type":"LineString","coordinates":[[-70.16367,7.62136],[-70.15912,7.61745]]}},{"type":"Feature","id":"way/706233367","properties":{"name":"Carretera Marginal del Apure","highway":"secondary","ref":"R-4"},"geometry":{"type":"LineString","coordinates":[[-70.4467,7.39026],[-70.4519,7.38513],[-70.46164,7.37246],[-70.47177,7.36887],[-70.47402,7.36712],[-70.48001,7.35793],[-70.48549,7.3525]]}},{"type":"Feature","id":"way/856634377","properties":{"highway":"trunk_link","ref":"T-2"},"geometry":{"type":"LineString","coordinates":[[-67.60424,7.6507],[-67.60405,7.65053]]}},{"type":"Feature","id":"way/856634378","properties":{"highway":"trunk_link","ref":"T-2"},"geometry":{"type":"LineString","coordinates":[[-67.60381,7.65077],[-67.60403,7.65095]]}},{"type":"Feature","id":"way/856634379","properties":{"name":"Carretera Nacional San Fernando - Puerto P\u00e1ez","highway":"trunk","ref":"T-2"},"geometry":{"type":"LineString","coordinates":[[-67.6033,7.65134],[-67.6044,7.65024]]}},{"type":"Feature","id":"way/856634380","properties":{"name":"Carretera Nacional San Fernando - Puerto P\u00e1ez","highway":"trunk","ref":"T-2"},"geometry":{"type":"LineString","coordinates":[[-67.6044,7.65024],[-67.6033,7.65134]]}},{"type":"Feature","id":"way/856634381","properties":{"name":"Carretera Nacional San Fernando - Puerto P\u00e1ez","highway":"trunk","ref":"T-2"},"geometry":{"type":"LineString","coordinates":[[-67.6044,7.65024],[-67.60472,7.64991]]}},{"type":"Feature","id":"way/859285875","properties":{"name":"Carretera Regional El Nula - La Victoria","highway":"secondary","ref":"L-1"},"geometry":{"type":"LineString","coordinates":[[-71.92187,7.26722],[-71.92211,7.26648]]}},{"type":"Feature","id":"way/859285876","properties":{"name":"Carretera Regional El Nula - La Victoria","highway":"secondary","ref":"L-1"},"geometry":{"type":"LineString","coordinates":[[-71.92166,7.26802],[-71.92187,7.26722]]}},{"type":"Feature","id":"way/863800961","properties":{"name":"Carretera Nacional Bruzual - Elorza","highway":"primary","ref":"T-4"},"geometry":{"type":"LineString","coordinates":[[-69.29134,7.62848],[-69.29141,7.62861]]}},{"type":"Feature","id":"way/863800962","properties":{"name":"Carretera Nacional Bruzual - Elorza","highway":"primary","ref":"T-4;T-19"},"geometry":{"type":"LineString","coordinates":[[-69.25478,7.547],[-69.25579,7.55553],[-69.26564,7.57403]]}},{"type":"Feature","id":"way/876360828","properties":{"name":"Carretera Nacional Bruzual - Elorza","highway":"primary","ref":"T-4"},"geometry":{"type":"LineString","coordinates":[[-69.33077,7.713],[-69.33061,7.71392]]}},{"type":"Feature","id":"way/876360829","properties":{"name":"Carretera Nacional Bruzual - Elorza","highway":"primary","ref":"T-4"},"geometry":{"type":"LineString","coordinates":[[-69.29141,7.62861],[-69.30404,7.65207],[-69.32511,7.68736],[-69.33134,7.70006],[-69.33201,7.70609],[-69.33077,7.713]]}},{"type":"Feature","id":"way/974075387","properties":{"highway":"tertiary"},"geometry":{"type":"LineString","coordinates":[[-67.50306,7.87344],[-67.49657,7.87876]]}},{"type":"Feature","id":"way/974078976","properties":{"name":"Carretera Regional El Yagual - Guachara","highway":"secondary","ref":"T-8;L-6"},"geometry":{"type":"LineString","coordinates":[[-68.41312,7.49727],[-68.40932,7.47938],[-68.4104,7.4764],[-68.41506,7.47354]]}},{"type":"Feature","id":"way/974084273","properties":{"name":"Carretera Marginal del Apure","highway":"secondary","ref":"R-4"},"geometry":{"type":"LineString","coordinates":[[-70.48247,7.34871],[-70.48549,7.3525]]}},{"type":"Feature","id":"way/974126564","properties":{"name":"Carretera Regional El Pi\u00f1al - El Nula","highway":"secondary","ref":"L-1"},"geometry":{"type":"LineString","coordinates":[[-71.9192,7.27741],[-71.91643,7.2841]]}},{"type":"Feature","id":"way/974132783","properties":{"name":"Eje Rural El Negro","highway":"tertiary","ref":"R-15"},"geometry":{"type":"LineString","coordinates":[[-67.43784,7.79867],[-67.4355,7.79241],[-67.43081,7.79572],[-67.42877,7.79609],[-67.40906,7.78531],[-67.40716,7.78296],[-67.40416,7.78176],[-67.40033,7.78162],[-67.39776,7.78346],[-67.39401,7.7887],[-67.39237,7.78944],[-67.37934,7.78392],[-67.36198,7.78317]]}},{"type":"Feature","id":"way/974132784","properties":{"name":"Avenida Principal","highway":"trunk","ref":"T-2"},"geometry":{"type":"LineString","coordinates":[[-67.45186,6.22712],[-67.45263,6.21614],[-67.45144,6.21412],[-67.44418,6.21225],[-67.43568,6.21647],[-67.43142,6.21646]]}},{"type":"Feature","id":"way/974132785","properties":{"name":"Carretera Nacional Achaguas - Mantecal","highway":"trunk","ref":"T-19"},"geometry":{"type":"LineString","coordinates":[[-68.48048,7.91686],[-68.47364,7.91612],[-68.44545,7.91738],[-68.42939,7.91343],[-68.41403,7.89933],[-68.38314,7.88796],[-68.35466,7.85497],[-68.34173,7.84527],[-68.31909,7.83753],[-68.30146,7.82826],[-68.26885,7.82236],[-68.25355,7.81154],[-68.23686,7.80532],[-68.23188,7.80369],[-68.22402,7.80419]]}},{"type":"Feature","id":"way/974139891","properties":{"name":"Carretera Nacional Bruzual - Elorza","highway":"primary","ref":"T-4"},"geometry":{"type":"LineString","coordinates":[[-69.32351,7.87787],[-69.32348,7.87825]]}},{"type":"Feature","id":"way/974139892","properties":{"name":"Carretera Nacional Bruzual - Elorza","highway":"primary","ref":"T-4"},"geometry":{"type":"LineString","coordinates":[[-69.32266,7.83542],[-69.32351,7.87787]]}},{"type":"Feature","id":"way/974146984","properties":{"name":"Carretera Nacional Guasdualito - Elorza","highway":"trunk","ref":"T-19"},"geometry":{"type":"LineString","coordinates":[[-70.07461,7.1696],[-70.07844,7.17424],[-70.0918,7.18384],[-70.10148,7.1971],[-70.11611,7.21137],[-70.11725,7.21531]]}},{"type":"Feature","id":"way/974146985","properties":{"name":"Carretera Nacional Bruzual - Elorza","highway":"primary","ref":"T-4"},"geometry":{"type":"LineString","coordinates":[[-69.26564,7.57403],[-69.27834,7.60554],[-69.29134,7.62848]]}},{"type":"Feature","id":"way/974150998","properties":{"name":"Eje Rural El Burro","highway":"tertiary","ref":"R-11"},"geometry":{"type":"LineString","coordinates":[[-68.36674,7.29125],[-68.36504,7.29188]]}},{"type":"Feature","id":"way/1001785628","properties":{"name":"Carretera Regional El Nula - La Victoria","highway":"secondary","ref":"L-1"},"geometry":{"type":"LineString","coordinates":[[-71.94778,7.22662],[-71.94863,7.22547]]}},{"type":"Feature","id":"way/1001785629","properties":{"name":"Carretera Regional El Nula - La Victoria","highway":"secondary","ref":"L-1"},"geometry":{"type":"LineString","coordinates":[[-71.92211,7.26648],[-71.92125,7.25136],[-71.92214,7.24796],[-71.93753,7.2349],[-71.93895,7.22971],[-71.94472,7.2308],[-71.94778,7.22662]]}},{"type":"Feature","id":"way/1004057078","properties":{"name":"Carretera Regional San Fernando - Arichuna","highway":"primary","ref":"R-16"},"geometry":{"type":"LineString","coordinates":[[-67.15404,7.71247],[-67.15673,7.7117],[-67.1833,7.71771],[-67.1921,7.71658],[-67.20081,7.72562],[-67.20911,7.72685],[-67.2265,7.72601],[-67.22685,7.72989],[-67.23089,7.73574],[-67.23323,7.7374],[-67.23804,7.73748],[-67.25542,7.72889],[-67.26278,7.72923],[-67.27527,7.73185],[-67.28035,7.72779],[-67.28224,7.72753],[-67.28467,7.72807],[-67.28703,7.7303]]}},{"type":"Feature","id":"way/1004057079","properties":{"name":"Carretera Regional San Fernando - Arichuna","highway":"primary","ref":"R-16"},"geometry":{"type":"LineString","coordinates":[[-67.28703,7.7303],[-67.28796,7.73085]]}},{"type":"Feature","id":"way/1050280016","properties":{"name":"V\u00eda a Guasimote","highway":"tertiary"},"geometry":{"type":"LineString","coordinates":[[-67.69687,7.74328],[-67.70016,7.74327],[-67.70241,7.74503],[-67.7046,7.7469],[-67.70674,7.75228],[-67.71797,7.7607],[-67.71511,7.76666],[-67.71563,7.7736],[-67.71499,7.77622],[-67.7159,7.7818],[-67.7123,7.78585],[-67.70819,7.78841],[-67.70665,7.79099],[-67.70794,7.8038],[-67.70953,7.8077]]}},{"type":"Feature","id":"way/1050284555","properties":{"name":"Eje Rural El Burro","highway":"tertiary","ref":"R-11"},"geometry":{"type":"LineString","coordinates":[[-68.39791,7.25694],[-68.39635,7.26209],[-68.38262,7.28421],[-68.3747,7.28643],[-68.36674,7.29125]]}},{"type":"Feature","id":"way/1050287217","properties":{"highway":"tertiary"},"geometry":{"type":"LineString","coordinates":[[-70.15927,7.61479],[-70.15912,7.61745]]}},{"type":"Feature","id":"way/1050287218","properties":{"name":"Carretera Marginal del Apure","highway":"secondary","ref":"R-4"},"geometry":{"type":"LineString","coordinates":[[-70.16525,7.60062],[-70.16113,7.59082],[-70.16296,7.5858]]}},{"type":"Feature","id":"way/1050288861","properties":{"name":"Carretera Marginal del Apure","highway":"secondary","ref":"R-4"},"geometry":{"type":"LineString","coordinates":[[-69.49629,7.99575],[-69.46233,7.99638],[-69.43878,8.00867],[-69.42689,8.00941],[-69.3985,8.01448],[-69.37658,8.01434],[-69.35322,8.01826],[-69.3484,8.01736],[-69.34719,8.01584]]}},{"type":"Feature","id":"way/1050291556","properties":{"name":"V\u00eda a Ciudad Sucre","highway":"tertiary"},"geometry":{"type":"LineString","coordinates":[[-71.88902,7.09819],[-71.88566,7.09532],[-71.88822,7.09159],[-71.8874,7.08535]]}},{"type":"Feature","id":"way/1050291878","properties":{"name":"Carretera Regional El Pi\u00f1al - El Nula","highway":"primary","ref":"L-1"},"geometry":{"type":"LineString","coordinates":[[-71.91643,7.2841],[-71.91608,7.28501]]}},{"type":"Feature","id":"way/1158382718","properties":{"name":"Carretera Regional Guasdualito - La Victoria","highway":"secondary","ref":"L-1"},"geometry":{"type":"LineString","coordinates":[[-70.77811,7.16329],[-70.79469,7.15001],[-70.81791,7.11628]]}},{"type":"Feature","id":"way/1158382719","properties":{"name":"Carretera Regional Guasdualito - La Victoria","highway":"secondary","ref":"L-1"},"geometry":{"type":"LineString","coordinates":[[-70.81791,7.11628],[-70.82712,7.10785],[-70.82921,7.10703],[-70.84166,7.10741],[-70.85948,7.11264],[-70.87299,7.10838],[-70.89758,7.11081],[-70.90019,7.10979],[-70.90975,7.10227],[-70.94104,7.09348]]}},{"type":"Feature","id":"way/1158382720","properties":{"name":"Carretera Regional Guasdualito - La Victoria","highway":"secondary","ref":"L-1"},"geometry":{"type":"LineString","coordinates":[[-70.94104,7.09348],[-70.96033,7.08808],[-70.9709,7.08987]]}},{"type":"Feature","id":"way/1158382721","properties":{"name":"Carretera Regional Guasdualito - La Victoria","highway":"secondary","ref":"L-1"},"geometry":{"type":"LineString","coordinates":[[-70.9709,7.08987],[-70.97998,7.09168],[-70.99644,7.09917],[-71.02007,7.12483],[-71.04305,7.12397],[-71.06817,7.12435]]}},{"type":"Feature","id":"way/1158382723","properties":{"name":"Carretera Regional El Nula - La Victoria","highway":"secondary","ref":"L-1"},"geometry":{"type":"LineString","coordinates":[[-71.58417,7.05602],[-71.58208,7.05611],[-71.57933,7.05179],[-71.57945,7.03861],[-71.58086,7.03572],[-71.57216,7.03179],[-71.56898,7.03249],[-71.56573,7.03498]]}},{"type":"Feature","id":"way/1158383332","properties":{"name":"Carretera Regional El Nula - La Victoria","highway":"secondary","ref":"L-1"},"geometry":{"type":"LineString","coordinates":[[-71.60989,7.05716],[-71.61273,7.05939],[-71.61727,7.06074],[-71.62263,7.0598],[-71.63156,7.06017]]}},{"type":"Feature","id":"way/1229804419","properties":{"name":"Carretera Nacional Bruzual - Elorza","highway":"trunk","ref":"T-4"},"geometry":{"type":"LineString","coordinates":[[-69.50097,7.06855],[-69.50112,7.06883]]}},{"type":"Feature","id":"way/1229804420","properties":{"name":"Carretera Nacional Bruzual - Elorza","highway":"trunk","ref":"T-4"},"geometry":{"type":"LineString","coordinates":[[-69.50112,7.06883],[-69.5011,7.06846]]}},{"type":"Feature","id":"way/1229804421","properties":{"name":"Carretera Nacional Guasdualito - Elorza","highway":"trunk","ref":"L-3"},"geometry":{"type":"LineString","coordinates":[[-69.50109,7.06839],[-69.50126,7.06807]]}},{"type":"Feature","id":"way/1229804422","properties":{"name":"Carretera Nacional Bruzual - Elorza","highway":"trunk","ref":"T-4"},"geometry":{"type":"LineString","coordinates":[[-69.50097,7.06855],[-69.50096,7.06832]]}},{"type":"Feature","id":"way/1229804423","properties":{"name":"Carretera Nacional Bruzual - Elorza","highway":"trunk","ref":"T-4"},"geometry":{"type":"LineString","coordinates":[[-69.50096,7.06832],[-69.50097,7.06855]]}},{"type":"Feature","id":"way/1229804424","properties":{"name":"Carretera Nacional Guasdualito - Elorza","highway":"trunk","ref":"L-3"},"geometry":{"type":"LineString","coordinates":[[-69.50126,7.06807],[-69.50096,7.06832]]}},{"type":"Feature","id":"way/1236979901","properties":{"name":"Carretera Regional El Nula - La Victoria","highway":"secondary","ref":"L-1"},"geometry":{"type":"LineString","coordinates":[[-71.60989,7.05716],[-71.6055,7.0616],[-71.60058,7.06286],[-71.5883,7.05921],[-71.58417,7.05602]]}},{"type":"Feature","id":"way/1266861767","properties":{"name":"Carretera Regional El Yagual - Guachara","highway":"secondary","ref":"T-8;L-6"},"geometry":{"type":"LineString","coordinates":[[-68.41668,7.47278],[-68.41971,7.47111],[-68.42044,7.46917],[-68.41529,7.45171],[-68.41494,7.44516]]}},{"type":"Feature","id":"way/1266861768","properties":{"name":"Carretera Regional El Yagual - Guachara","highway":"secondary","ref":"T-8;L-6"},"geometry":{"type":"LineString","coordinates":[[-68.41494,7.44516],[-68.41493,7.44452]]}},{"type":"Feature","id":"way/1328644411","properties":{"name":"Carretera Regional El Pi\u00f1al - El Nula","highway":"primary","ref":"L-1"},"geometry":{"type":"LineString","coordinates":[[-71.91608,7.28501],[-71.91579,7.28777],[-71.91861,7.30038],[-71.92088,7.30538],[-71.92032,7.30821]]}},{"type":"Feature","id":"way/1328644412","properties":{"name":"Carretera Regional El Pi\u00f1al - El Nula","highway":"primary","ref":"L-1"},"geometry":{"type":"LineString","coordinates":[[-71.92032,7.30821],[-71.9201,7.30861]]}},{"type":"Feature","id":"way/1455849051","properties":{"highway":"secondary"},"geometry":{"type":"LineString","coordinates":[[-67.47962,7.88634],[-67.47971,7.88642]]}},{"type":"Feature","id":"way/1455919605","properties":{"name":"Avenida Caracas","highway":"secondary"},"geometry":{"type":"LineString","coordinates":[[-67.48252,7.88054],[-67.47627,7.88268],[-67.45893,7.886],[-67.45653,7.88918]]}},{"type":"Feature","id":"way/1456189241","properties":{"highway":"trunk_link"},"geometry":{"type":"LineString","coordinates":[[-67.48382,7.87316],[-67.48392,7.87343]]}},{"type":"Feature","id":"way/1456189242","properties":{"name":"Perimetral Sur","highway":"secondary"},"geometry":{"type":"LineString","coordinates":[[-67.48403,7.87316],[-67.47937,7.87151],[-67.47824,7.8685]]}},{"type":"Feature","id":"way/1456189243","properties":{"highway":"tertiary"},"geometry":{"type":"LineString","coordinates":[[-67.47788,7.86849],[-67.47824,7.8685]]}},{"type":"Feature","id":"way/1456332976","properties":{"name":"Paseo Libertador","highway":"trunk_link"},"geometry":{"type":"LineString","coordinates":[[-67.47202,7.89486],[-67.47234,7.89479]]}},{"type":"Feature","id":"way/1456332977","properties":{"name":"Paseo Libertador","highway":"trunk_link"},"geometry":{"type":"LineString","coordinates":[[-67.47245,7.89507],[-67.47207,7.89516]]}},{"type":"Feature","id":"way/1456332978","properties":{"name":"Paseo Libertador","highway":"trunk_link"},"geometry":{"type":"LineString","coordinates":[[-67.47197,7.89206],[-67.47163,7.89208]]}},{"type":"Feature","id":"way/1456332979","properties":{"name":"Paseo Libertador","highway":"trunk_link"},"geometry":{"type":"LineString","coordinates":[[-67.47158,7.89173],[-67.47194,7.8917]]}},{"type":"Feature","id":"way/1456332980","properties":{"name":"Paseo Libertador","highway":"trunk_link"},"geometry":{"type":"LineString","coordinates":[[-67.47138,7.8902],[-67.47182,7.89016]]}},{"type":"Feature","id":"way/1456414367","properties":{"name":"Avenida Perimetral Norte","highway":"secondary","ref":"R-10"},"geometry":{"type":"LineString","coordinates":[[-67.52145,7.84412],[-67.52094,7.8451]]}},{"type":"Feature","id":"way/1456414368","properties":{"name":"Avenida Perimetral Norte","highway":"secondary","ref":"R-10"},"geometry":{"type":"LineString","coordinates":[[-67.52094,7.8451],[-67.52154,7.84413]]}},{"type":"Feature","id":"way/1456414369","properties":{"highway":"trunk_link"},"geometry":{"type":"LineString","coordinates":[[-67.52133,7.84411],[-67.52136,7.84428]]}},{"type":"Feature","id":"way/1456414370","properties":{"highway":"trunk_link"},"geometry":{"type":"LineString","coordinates":[[-67.52148,7.84425],[-67.52161,7.84414]]}},{"type":"Feature","id":"way/1456815837","properties":{"name":"Paseo Libertador","highway":"secondary"},"geometry":{"type":"LineString","coordinates":[[-67.47041,7.88123],[-67.46978,7.8769],[-67.46616,7.87061],[-67.46555,7.86476]]}},{"type":"Feature","id":"way/1456815838","properties":{"name":"Avenida Miranda","highway":"secondary"},"geometry":{"type":"LineString","coordinates":[[-67.48008,7.88672],[-67.47991,7.88622]]}},{"type":"Feature","id":"way/1457694818","properties":{"name":"Perimetral Sur","highway":"secondary","ref":"R-14"},"geometry":{"type":"LineString","coordinates":[[-67.47788,7.86849],[-67.47938,7.87159],[-67.484,7.87322]]}},{"type":"Feature","id":"way/1457694819","properties":{"name":"Paseo Libertador","highway":"secondary"},"geometry":{"type":"LineString","coordinates":[[-67.47072,7.88374],[-67.47041,7.88123]]}},{"type":"Feature","id":"way/1457733375","properties":{"name":"Carretera Nacional San Fernando - Achaguas","highway":"trunk","ref":"T-19"},"geometry":{"type":"LineString","coordinates":[[-67.52145,7.84412],[-67.52154,7.84413]]}}]}